     3.05           N: NAVIGATION       M: MIXED            RINEX VERSION / TYPE
PYRINEXCONV 0.1.2 ALDELTUNES            20260722 155228 UTC PGM / RUN BY / DATE
GAL    1.1250e+02  3.1250e-02  2.0935e-02             P 16  IONOSPHERIC CORR
GPSA   1.3039e-08  2.2352e-08  1.5199e-05  1.5140e-05 P 23  IONOSPHERIC CORR
GPSB   1.1059e+05  1.4746e+05  1.6712e+07  1.6384e+07 P 23  IONOSPHERIC CORR
GAUT  3.7252902985e-09-1.776356839e-15 313800 1404   E16  0 TIME SYSTEM CORR
GPUT -3.9872247726e-09-3.108624469e-15  15600 2428   G23  0 TIME SYSTEM CORR
                                                            END OF HEADER
E26 2026 07 22 15 48 24 3.688643919304e-04 1.081446043827e-11 0.000000000000e+00
     1.700000000000e+01-4.256250000000e+01 2.812259999060e-09-1.172354074487e+00
    -1.868233084679e-06 9.584997314960e-05 2.199783921242e-06 5.440601804733e+03
     3.150000000000e+05 1.117587089539e-08 7.658952476170e-01 5.587935447693e-08
     9.909109593503e-01 3.093125000000e+02-2.563095201877e+00-5.643449358032e-09
    -3.142988060926e-11 5.160000000000e+02 1.404000000000e+03                   
     1.070000000000e+02 0.000000000000e+00-4.656612873077e-09-5.355104804039e-09
     3.161040000000e+05                                                         
E07 2026 07 22 15 49 05-7.883028592914e-05-2.572164703452e-12 0.000000000000e+00
     1.700000000000e+01-4.109375000000e+01 3.207990768549e-09 1.083083596333e+00
    -1.801177859306e-06 4.113683244213e-04 7.461756467819e-06 5.440618780136e+03
     3.150000000000e+05 4.656612873077e-08 2.851680226671e+00 7.450580596924e-08
     9.693848922346e-01 1.838750000000e+02 1.846800013262e-01-5.491300163265e-09
     2.857261873569e-10 1.000000000000e+00 1.404000000000e+03                   
     1.070000000000e+02 0.000000000000e+00 4.656612873077e-09 5.122274160385e-09
     3.161450000000e+05                                                         
G15 2026 07 22 15 49 36 4.304232134018e-04 3.094413614235e-12 0.000000000000e+00
    -3.765583038330e-03-3.194921875000e+01 4.968599819269e-09-1.294728773713e+00
    -1.561827957630e-06 1.702870515874e-02 7.498078048229e-06 5.153465975302e+03
     3.132000000000e+05-1.648440957069e-07 2.476481112316e+00 3.026798367500e-07
     9.447576750522e-01 2.257539062500e+02 1.538247396510e+00-8.019920439642e-09
     1.662569252683e-10 4.968599819269e-09-2.000000000000e+00 2.000000000000e+00
     2.700000000000e+01 4.000000000000e+00-1.071020960808e-08 7.000000000000e+00
    -2.037268131971e-10 6.199115887284e-09 0.000000000000e+00 0.000000000000e+00
     3.161760000000e+05 2.428000000000e+03 0.000000000000e+00                   
G29 2026 07 22 15 49 36-2.770338614937e-04 7.350564601438e-12 0.000000000000e+00
    -4.967689514160e-03 6.650000000000e+01 4.448399579412e-09-3.806061239442e-01
     3.395602107048e-06 3.656744374894e-03 6.138347089291e-06 5.153533391754e+03
     2.619000000000e+05 2.980232238770e-08-4.188037971335e-01-1.769512891769e-08
     9.601414121666e-01 2.597929687500e+02 2.869991604453e+00-8.194749150531e-09
     1.001827444420e-10 4.448399579412e-09-2.000000000000e+00 3.000000000000e+00
     3.000000000000e+01 4.000000000000e+00-9.778887033463e-09 7.000000000000e+00
    -9.604264050722e-10 5.355104804039e-09 0.000000000000e+00 0.000000000000e+00
     3.161760000000e+05 2.428000000000e+03 0.000000000000e+00                   
G05 2026 07 22 15 49 36-2.353200106882e-04-3.446132268436e-13 0.000000000000e+00
    -1.029491424561e-03-6.177734375000e+01 4.169102231271e-09 5.251867785374e-02
    -3.159046173096e-06 5.605588841718e-03 6.617046892643e-06 5.153449928166e+03
     2.556000000000e+05-2.887099981308e-08 1.559129231076e+00-1.862645149231e-09
     9.811698596515e-01 2.638125000000e+02 1.482908841654e+00-8.372970859895e-09
     1.750072897561e-11 4.169102231271e-09-2.000000000000e+00 3.000000000000e+00
     3.000000000000e+01 4.000000000000e+00-1.071020960808e-08 7.000000000000e+00
    -3.783497959375e-10 5.733454599977e-09 0.000000000000e+00 0.000000000000e+00
     3.161760000000e+05 2.428000000000e+03 0.000000000000e+00                   
E19 2026 07 22 15 50 54 3.111506928690e-03 2.431477241771e-11 0.000000000000e+00
     1.700000000000e+01-4.134375000000e+01 3.052269996440e-09-2.140066577792e-02
    -2.013519406319e-06 2.392386086285e-04 7.286667823792e-06 5.440619474411e+03
     3.150000000000e+05 1.490116119385e-08 2.859836318267e+00 5.587935447693e-09
     9.747530789040e-01 1.872812500000e+02-2.500136330885e-01-5.368795060436e-09
     1.903650723265e-10 5.160000000000e+02 1.404000000000e+03                   
     1.070000000000e+02 0.000000000000e+00-4.656612873077e-09-4.889443516731e-09
     3.162540000000e+05                                                         
E12 2026 07 22 15 50 54-5.928915925324e-05-2.671640686458e-12 0.000000000000e+00
     1.700000000000e+01-3.171875000000e+01 2.706898467472e-09 9.722250438184e-02
    -1.728534698486e-06 3.120349720120e-04 2.874061465263e-06 5.440603946686e+03
     3.150000000000e+05 3.911554813385e-08 7.688771413334e-01-1.303851604462e-08
     9.945424662286e-01 2.943125000000e+02 8.669363529332e-01-5.562731710104e-09
     1.142904749427e-11 5.160000000000e+02 1.404000000000e+03                   
     1.070000000000e+02 0.000000000000e+00-1.187436282635e-08-1.187436282635e-08
     3.162540000000e+05                                                         
G15 2026 07 22 15 51 24 4.304298199713e-04 3.069544618484e-12 0.000000000000e+00
     3.000000000000e+00-2.940625000000e+01 5.034138263494e-09-9.908178621696e-01
    -1.339241862297e-06 1.702984899748e-02 7.897615432739e-06 5.153755905151e+03
     3.167840000000e+05-2.719461917877e-07 2.476463377360e+00 1.881271600723e-07
     9.447575938602e-01 2.203437500000e+02 1.538294386170e+00-8.430351157964e-09
     1.939366496685e-10 1.000000000000e+00 3.800000000000e+02 0.000000000000e+00
     2.000000000000e+00 0.000000000000e+00-1.071020960808e-08 3.000000000000e+00
     1.265136000000e+06 4.000000000000e+00                                      
G29 2026 07 22 15 51 24-2.770200371742e-04 7.389644451905e-12 0.000000000000e+00
     6.700000000000e+01 7.243750000000e+01 4.451613999020e-09-1.185631100580e-01
     3.799796104431e-06 3.656877204776e-03 5.764886736870e-06 5.153688289642e+03
     3.168000000000e+05 3.166496753693e-08-4.188184526468e-01-1.676380634308e-08
     9.601415921055e-01 2.647812500000e+02 2.870494491320e+00-8.142839181937e-09
     9.928985010651e-11 1.000000000000e+00 3.800000000000e+02 0.000000000000e+00
     2.000000000000e+00 0.000000000000e+00-9.778887033463e-09 6.700000000000e+01
     1.265136000000e+06 4.000000000000e+00                                      
G20 2026 07 22 15 51 24 2.383058890700e-04 1.170974428533e-11 0.000000000000e+00
     8.400000000000e+01-3.559375000000e+01 4.600905931914e-09 2.655036371573e+00
    -1.765787601471e-06 1.910347025841e-03 7.467344403267e-06 5.153614461899e+03
     3.168000000000e+05 2.607703208923e-08 2.628767548914e+00-9.872019290924e-08
     9.621114317801e-01 2.310937500000e+02-1.761101963503e+00-7.957474317889e-09
     1.500062483624e-10 1.000000000000e+00 3.800000000000e+02 0.000000000000e+00
     2.000000000000e+00 0.000000000000e+00-6.984919309616e-09 8.400000000000e+01
     1.265136000000e+06 4.000000000000e+00                                      
G05 2026 07 22 15 51 24-2.353205345571e-04-3.410605131648e-13 0.000000000000e+00
     7.300000000000e+01-6.321875000000e+01 4.169102231271e-09 3.149757553416e-01
    -3.129243850708e-06 5.605997517705e-03 6.848946213722e-06 5.153773567200e+03
     3.168000000000e+05-2.980232238770e-08 1.559114861564e+00 1.117587089539e-08
     9.811699013447e-01 2.603125000000e+02 1.482981893931e+00-7.962831683902e-09
     2.535819912792e-11 1.000000000000e+00 3.800000000000e+02 0.000000000000e+00
     2.000000000000e+00 0.000000000000e+00-1.071020960808e-08 7.300000000000e+01
     1.265136000000e+06 4.000000000000e+00                                      
G18 2026 07 22 15 51 24-2.981671132147e-04 8.981260180008e-12 0.000000000000e+00
     5.300000000000e+01-7.281250000000e+00 4.349466887040e-09-1.923633412904e+00
    -6.519258022308e-07 6.300113513134e-03 4.133209586143e-06 5.153621372223e+03
     3.168000000000e+05 7.264316082001e-08 5.757606699201e-01-1.043081283569e-07
     9.708337092465e-01 3.060000000000e+02-2.858937597952e+00-8.097837307428e-09
     9.964700784071e-11 1.000000000000e+00 3.800000000000e+02 0.000000000000e+00
     2.000000000000e+00 0.000000000000e+00-8.381903171539e-09 3.090000000000e+02
     1.265136000000e+06 4.000000000000e+00                                      
G23 2026 07 22 15 51 24 6.716479547322e-04 3.865352482535e-12 0.000000000000e+00
     6.000000000000e+00-5.446875000000e+01 3.795158083568e-09 3.139943244177e+00
    -2.823770046234e-06 6.451997905970e-03 7.070600986481e-06 5.153733219147e+03
     3.168000000000e+05-8.009374141693e-08 1.585454005232e+00-7.264316082001e-08
     9.892074219683e-01 2.598125000000e+02-2.742668688691e+00-7.608888369313e-09
     5.714523747137e-11 1.000000000000e+00 3.800000000000e+02 0.000000000000e+00
     2.000000000000e+00 0.000000000000e+00-8.381903171539e-09 5.180000000000e+02
     1.265136000000e+06 4.000000000000e+00                                      
G20 2026 07 22 15 52 00 2.382847596891e-04 1.176303499051e-11 0.000000000000e+00
    -2.622127532959e-03-3.616015625000e+01 4.566083052830e-09 2.392094755137e+00
    -1.820735633373e-06 1.910939696245e-03 7.497146725655e-06 5.153608122820e+03
     2.601000000000e+05 5.587935447693e-09 2.628781976212e+00-6.053596735001e-08
     9.621112481839e-01 2.346523437500e+02-1.760716728165e+00-8.402972109567e-09
     1.335769925893e-10 4.566083052830e-09-3.000000000000e+00 2.000000000000e+00
     3.000000000000e+01 4.000000000000e+00-6.984919309616e-09 7.000000000000e+00
    -1.455191522837e-10 4.220055416226e-09 2.095475792885e-09 2.066371962428e-09
     3.163200000000e+05 2.428000000000e+03 0.000000000000e+00                   
G18 2026 07 22 15 52 00-2.981834404636e-04 9.023892744153e-12 0.000000000000e+00
    -2.479553222656e-03-2.621093750000e+00 4.358931566996e-09-2.186209584359e+00
    -1.527369022369e-07 6.299139757175e-03 4.140660166740e-06 5.153600524224e+03
     2.556000000000e+05 3.352761268616e-08 5.757753876074e-01-1.341104507446e-07
     9.708335600289e-01 3.050898437500e+02-2.858915797547e+00-8.249572862730e-09
     7.036007363663e-11 4.358931566996e-09-2.000000000000e+00 3.000000000000e+00
     3.000000000000e+01 4.000000000000e+00-8.381903171539e-09 7.000000000000e+00
    -8.731149137020e-11 5.209585651755e-09-8.440110832453e-10-9.313225746155e-10
     3.163200000000e+05 2.428000000000e+03 0.000000000000e+00                   
G23 2026 07 22 15 52 00 6.716411444359e-04 3.865352482535e-12 0.000000000000e+00
     2.528667449951e-03-5.074609375000e+01 3.789086402086e-09 2.877543172218e+00
    -2.612359821796e-06 6.451642897446e-03 7.075257599354e-06 5.153489277414e+03
     3.069000000000e+05-7.357448339462e-08 1.585467706191e+00-6.519258022308e-08
     9.892073451651e-01 2.597890625000e+02-2.742801801070e+00-8.733343013699e-09
     5.571660653459e-11 3.789086402086e-09-2.000000000000e+00 3.000000000000e+00
     2.800000000000e+01 4.000000000000e+00-8.381903171539e-09 7.000000000000e+00
    -2.037268131971e-10 5.617039278150e-09-5.238689482212e-10-4.947651177645e-10
     3.163200000000e+05 2.428000000000e+03 0.000000000000e+00                   
E31 2026 07 22 15 52 24-1.584434648976e-04-2.955857780762e-12 0.000000000000e+00
     1.400000000000e+01 6.596875000000e+01 2.961551931954e-09-1.998331170126e+00
     3.157183527946e-06 3.463263856247e-04 9.285286068916e-06 5.440612354279e+03
     3.132000000000e+05 6.332993507385e-08-1.329808147779e+00 3.539025783539e-08
     9.605887344794e-01 1.410312500000e+02-1.404526052308e+00-5.440226607275e-09
    -1.346484657919e-10 5.160000000000e+02 1.404000000000e+03                   
     1.070000000000e+02 0.000000000000e+00 3.492459654808e-09 3.958120942116e-09
     3.163440000000e+05                                                         
E10 2026 07 22 15 52 24-8.077201782726e-04-2.685851541173e-12 0.000000000000e+00
     1.700000000000e+01-2.803125000000e+01 2.642610075317e-09-1.757147646195e+00
    -1.562759280205e-06 2.886077854782e-04 3.460794687271e-06 5.440602785110e+03
     3.150000000000e+05 2.048909664154e-08 7.674109843535e-01-5.029141902924e-08
     9.974473519373e-01 2.865312500000e+02 2.353299533309e+00-5.534159091368e-09
     5.357366012941e-12 5.160000000000e+02 1.404000000000e+03                   
     1.070000000000e+02 0.000000000000e+00-1.164153218269e-09-4.656612873077e-10
     3.163440000000e+05                                                         
E33 2026 07 22 15 52 35-2.541241701692e-05-2.017941369559e-12 0.000000000000e+00
     1.600000000000e+01-2.971875000000e+01 2.711184360282e-09-1.587873191898e+00
    -1.400709152222e-06 1.695037353784e-04 2.557411789894e-06 5.440601152420e+03
     3.144000000000e+05 3.539025783539e-08 7.693440769889e-01 3.725290298462e-09
     9.976480628349e-01 3.006562500000e+02-2.992371176659e+00-5.545945296597e-09
     2.500104139373e-12 1.000000000000e+00 1.404000000000e+03                   
     1.070000000000e+02 0.000000000000e+00-4.423782229424e-09-5.122274160385e-09
     3.163550000000e+05                                                         
E29 2026 07 22 15 52 35-2.276540617459e-04-3.709033080668e-12 0.000000000000e+00
     1.600000000000e+01-4.253125000000e+01 3.332995975518e-09-1.055376580374e+00
    -1.855194568634e-06 1.981329405680e-04 7.102265954018e-06 5.440613302231e+03
     3.144000000000e+05 7.078051567078e-08 2.851409913057e+00-6.332993507385e-08
     9.627707265338e-01 1.839687500000e+02 1.457703637973e+00-5.568803391585e-09
     2.310810540249e-10 1.000000000000e+00 1.404000000000e+03                   
     1.070000000000e+02 0.000000000000e+00-3.492459654808e-09-3.492459654808e-09
     3.163550000000e+05                                                         
E16 2026 07 22 15 52 35-4.674942465499e-05-2.515321284591e-12 0.000000000000e+00
     1.500000000000e+01 6.871875000000e+01 2.936193732826e-09-1.690346628602e+00
     3.213062882423e-06 4.944599932060e-04 8.542090654373e-06 5.440620546341e+03
     3.138000000000e+05 6.146728992462e-08-1.333046341817e+00 5.587935447693e-09
     9.625630141103e-01 1.578750000000e+02-2.466115974921e+00-5.452727127972e-09
    -1.950081228711e-10 1.000000000000e+00 1.404000000000e+03                   
     1.070000000000e+02 0.000000000000e+00-3.958120942116e-09-2.793967723846e-09
     3.163550000000e+05                                                         
E19 2026 07 22 15 52 35 3.111521247774e-03 2.431477241771e-11 0.000000000000e+00
     1.800000000000e+01-4.203125000000e+01 3.069056409947e-09 5.326662324867e-02
    -2.024695277214e-06 2.391574671492e-04 7.294118404388e-06 5.440619268417e+03
     3.156000000000e+05 3.725290298462e-09 2.859833121791e+00-1.676380634308e-08
     9.747530949961e-01 1.867187500000e+02-2.502959806665e-01-5.384152843006e-09
     1.953652806053e-10 1.000000000000e+00 1.404000000000e+03                   
     1.070000000000e+02 0.000000000000e+00-4.656612873077e-09-4.889443516731e-09
     3.163550000000e+05                                                         
E12 2026 07 22 15 52 35-5.929078906775e-05-2.671640686458e-12 0.000000000000e+00
     1.800000000000e+01-3.125000000000e+01 2.707969940675e-09 1.722737977009e-01
    -1.700595021248e-06 3.118366003036e-04 2.741813659668e-06 5.440603376389e+03
     3.156000000000e+05 3.539025783539e-08 7.688737678443e-01-3.725290298462e-09
     9.945424457477e-01 2.965625000000e+02 8.662703741068e-01-5.562017394636e-09
     1.714357124141e-11 1.000000000000e+00 1.404000000000e+03                   
     1.070000000000e+02 0.000000000000e+00-1.187436282635e-08-1.187436282635e-08
     3.163550000000e+05                                                         
END OF FILE                                                 COMMENT
