     3.05           N: NAVIGATION       M: MIXED            RINEX VERSION / TYPE
PYRINEXCONV 0.1.2 ALDELTUNES            20260722 200615 UTC PGM / RUN BY / DATE
GAL    1.1250e+02  3.1250e-02  2.0935e-02             U 36  IONOSPHERIC CORR
GPSA   1.3039e-08  2.2352e-08  1.5199e-05  1.5140e-05 U 32  IONOSPHERIC CORR
GPSB   1.1059e+05  1.4746e+05  1.6712e+07  1.6384e+07 U 32  IONOSPHERIC CORR
GAUT  3.7252902985e-09-1.776356839e-15 330600 1404   E36  0 TIME SYSTEM CORR
GPUT -4.3946783990e-09-2.304822999e-13  58800 2428   G32  0 TIME SYSTEM CORR
                                                            END OF HEADER
E19 2026 07 22 20 00 54 3.111870784778e-03 2.424371814413e-11 0.000000000000e+00
     4.200000000000e+01-4.440625000000e+01 3.175489414737e-09 1.836553588743e+00
    -1.940876245499e-06 2.388060092926e-04 7.726252079010e-06 5.440620229721e+03
     3.300000000000e+05 7.450580596924e-09 2.859753604879e+00 7.636845111847e-08
     9.747559125763e-01 1.813125000000e+02-2.483391185382e-01-5.429154717515e-09
     4.043025551100e-10 5.160000000000e+02 1.404000000000e+03                   
     1.070000000000e+02 0.000000000000e+00-4.656612873077e-09-4.889443516731e-09
     3.312540000000e+05                                                         
E28 2026 07 22 20 00 54-6.071903044358e-05-2.927436071332e-12 0.000000000000e+00
     4.200000000000e+01-4.040625000000e+01 3.577649023442e-09-8.466670231485e-01
    -1.735985279083e-06 2.858747029677e-04 7.508322596550e-06 5.440611860275e+03
     3.300000000000e+05 9.126961231232e-08 2.869318612397e+00 4.097819328308e-08
     9.490855580002e-01 1.729687500000e+02 1.977486929628e+00-5.674522080907e-09
     3.760870941085e-10 5.160000000000e+02 1.404000000000e+03                   
     1.070000000000e+02 0.000000000000e+00 6.984919309616e-10 1.629814505577e-09
     3.312540000000e+05                                                         
E06 2026 07 22 20 00 54-3.013436798938e-04-5.144329406903e-12 0.000000000000e+00
     4.200000000000e+01-4.421875000000e+01 3.306566303187e-09-1.025035179572e+00
    -2.022832632065e-06 5.017041694373e-04 7.586553692818e-06 5.440612606049e+03
     3.300000000000e+05 3.725290298462e-08 2.851291222124e+00-6.891787052155e-08
     9.626933206124e-01 1.780312500000e+02 1.396918464290e+00-5.514158258253e-09
     3.385855320179e-10 5.160000000000e+02 1.404000000000e+03                   
     1.070000000000e+02 0.000000000000e+00 2.095475792885e-09 3.492459654808e-09
     3.312540000000e+05                                                         
E09 2026 07 22 20 00 54-2.986760810018e-04 1.571720531501e-11-5.204170427930e-18
     4.200000000000e+01-4.284375000000e+01 3.074770933694e-09-4.036352516112e-01
    -1.953914761543e-06 4.924562526867e-04 7.797032594681e-06 5.440617074966e+03
     3.300000000000e+05-3.539025783539e-08 2.854810752864e+00-1.862645149231e-08
     9.751244655280e-01 1.809687500000e+02 3.888953732704e-01-5.349865700523e-09
     3.217991185107e-10 5.160000000000e+02 1.404000000000e+03                   
     1.070000000000e+02 0.000000000000e+00 4.656612873077e-10 6.984919309616e-10
     3.312540000000e+05                                                         
E36 2026 07 22 20 00 54-5.975429085083e-04-5.400124791777e-12 0.000000000000e+00
     4.200000000000e+01-2.350000000000e+01 2.575821579022e-09 7.188074856284e-01
    -1.337379217148e-06 8.313264697790e-05 2.108514308929e-06 5.440600330353e+03
     3.300000000000e+05 2.793967723846e-08 7.692831786351e-01-5.587935447693e-08
     9.976348892575e-01 3.099687500000e+02 5.527150961280e-01-5.529873198558e-09
    -2.142946405177e-12 5.160000000000e+02 1.404000000000e+03                   
     1.070000000000e+02 0.000000000000e+00 4.423782229424e-09 5.122274160385e-09
     3.312540000000e+05                                                         
G23 2026 07 22 20 01 24 6.717317737639e-04 3.865352482535e-12 0.000000000000e+00
     9.000000000000e+00-7.793750000000e+01 3.820159124961e-09 7.231152863685e-03
    -3.946945071220e-06 6.453752168454e-03 7.148832082748e-06 5.153731756210e+03
     3.384000000000e+05 5.774199962616e-08 1.585287193072e+00 7.636845111847e-08
     9.892093617977e-01 2.576250000000e+02-2.742719511928e+00-7.828897533578e-09
     1.100045821324e-10 1.000000000000e+00 3.800000000000e+02 0.000000000000e+00
     2.000000000000e+00 0.000000000000e+00-8.381903171539e-09 5.210000000000e+02
     1.325136000000e+06 4.000000000000e+00                                      
G10 2026 07 22 20 01 24-5.626459605992e-04 5.229594535194e-12 0.000000000000e+00
     2.900000000000e+01-7.640625000000e+01 3.674438769409e-09-1.004520519889e+00
    -3.734603524208e-06 1.113957702182e-02 7.055699825287e-06 5.153652685165e+03
     3.384000000000e+05 1.713633537292e-07 1.618075672535e+00 2.197921276093e-07
     9.942826666069e-01 2.583750000000e+02-2.265455989838e+00-7.720321582383e-09
     1.182192100189e-10 1.000000000000e+00 3.800000000000e+02 0.000000000000e+00
     2.000000000000e+00 0.000000000000e+00 2.328306436539e-09 2.900000000000e+01
     1.325136000000e+06 4.000000000000e+00                                      
G32 2026 07 22 20 01 24 1.779082231224e-04 2.012257027673e-11 0.000000000000e+00
     1.100000000000e+02-3.853125000000e+01 4.369110562421e-09-2.443335338518e+00
    -1.946464180946e-06 9.466142626479e-03 8.076429367065e-06 5.153575023651e+03
     3.384000000000e+05 1.974403858185e-07 2.641186199047e+00 3.352761268616e-08
     9.697173871815e-01 2.255625000000e+02-1.973207240322e+00-7.713535585433e-09
     4.457328522767e-10 1.000000000000e+00 3.800000000000e+02 0.000000000000e+00
     2.000000000000e+00 0.000000000000e+00 9.313225746155e-10 1.100000000000e+02
     1.325136000000e+06 4.000000000000e+00                                      
G28 2026 07 22 20 01 24-4.641707055271e-04 1.091393642128e-11 0.000000000000e+00
     1.190000000000e+02-1.318750000000e+01 4.792699635177e-09 1.100907006087e+00
    -6.183981895447e-07 5.117908585817e-04 6.811693310738e-06 5.153616888046e+03
     3.384000000000e+05-3.725290298462e-09-2.611377633972e+00-4.842877388000e-08
     9.622251575687e-01 2.453750000000e+02-2.970815008541e-01-8.011047978018e-09
    -9.107522222000e-11 1.000000000000e+00 3.800000000000e+02 0.000000000000e+00
     2.000000000000e+00 0.000000000000e+00-9.313225746155e-09 3.750000000000e+02
     1.325136000000e+06 4.000000000000e+00                                      
G24 2026 07 22 20 01 24 1.247739419341e-04 1.853095454862e-11 0.000000000000e+00
     4.000000000000e+01-1.846875000000e+01 5.474156592023e-09 1.417465183823e+00
    -1.136213541031e-06 1.844457443804e-02 7.428228855133e-06 5.153626443863e+03
     3.384000000000e+05-4.675239324570e-07-2.698275317518e+00-1.527369022369e-07
     9.354919666754e-01 2.281875000000e+02 1.162900566196e+00-8.503568493475e-09
     2.500104139373e-12 1.000000000000e+00 3.800000000000e+02 0.000000000000e+00
     2.000000000000e+00 0.000000000000e+00 2.328306436539e-09 4.000000000000e+01
     1.325136000000e+06 4.000000000000e+00                                      
G02 2026 07 22 20 01 24 1.429729163647e-04 7.275957614183e-12 0.000000000000e+00
     1.700000000000e+01 2.396875000000e+01 4.322680056975e-09-2.839723551439e+00
     1.423060894012e-06 1.690468285233e-02 3.004446625710e-06 5.153729953766e+03
     3.383840000000e+05 1.862645149231e-09 4.662473949269e-01 2.402812242508e-07
     9.620805949299e-01 3.187500000000e+02-7.353171847065e-01-7.941045062116e-09
     2.714398779890e-11 1.000000000000e+00 3.800000000000e+02 0.000000000000e+00
     2.000000000000e+00 0.000000000000e+00-1.722946763039e-08 1.700000000000e+01
     1.325136000000e+06 4.000000000000e+00                                      
G24 2026 07 22 20 04 48 1.247404725291e-04 1.856648168541e-11 0.000000000000e+00
     4.816055297852e-03-1.589843750000e+01 5.532909039299e-09 1.154897301263e+00
    -8.605420589447e-07 1.844285486732e-02 6.841495633125e-06 5.153597068280e+03
     2.844000000000e+05-3.352761268616e-07-2.698259281741e+00 4.749745130539e-08
     9.354915790021e-01 2.344453125000e+02 1.162916664878e+00-7.697049847929e-09
    -9.643258823294e-11 5.532909039299e-09-2.000000000000e+00 3.000000000000e+00
     3.000000000000e+01 4.000000000000e+00 2.328306436539e-09 7.000000000000e+00
     2.910383045673e-11-1.426087692380e-09 1.484295353293e-09 2.764863893390e-09
     3.314880000000e+05 2.428000000000e+03 0.000000000000e+00                   
E11 2026 07 22 20 06 24 5.526062741410e-03 6.670575203316e-11-3.469446951954e-18
     4.200000000000e+01-2.734375000000e+01 2.615823245252e-09 6.670936314245e-01
    -1.272186636925e-06 4.102120874450e-04 2.020969986916e-06 5.440605230331e+03
     3.300000000000e+05 9.313225746155e-08 7.687852788556e-01 1.862645149231e-09
     9.945301850313e-01 3.096875000000e+02 1.359874193750e+00-5.592018644308e-09
    -1.642925577302e-11 5.160000000000e+02 1.404000000000e+03                   
     1.070000000000e+02 0.000000000000e+00-1.466833055019e-08-1.606531441212e-08
     3.315840000000e+05                                                         
E04 2026 07 22 20 06 24-1.175816287287e-04 3.360867140145e-11 0.000000000000e+00
     4.100000000000e+01-4.403125000000e+01 3.224777182056e-09 7.666759206837e-01
    -1.948326826096e-06 2.885161666200e-04 7.567927241325e-06 5.440611070633e+03
     3.294000000000e+05 8.940696716309e-08 2.851652276158e+00-6.519258022308e-08
     9.693869154503e-01 1.805937500000e+02-7.612940542674e-02-5.477728169365e-09
     3.260850113210e-10 5.160000000000e+02 1.404000000000e+03                   
     1.070000000000e+02 0.000000000000e+00-4.423782229424e-09-5.122274160385e-09
     3.315840000000e+05                                                         
E12 2026 07 22 20 06 24-5.932553904131e-05-2.657429831743e-12 0.000000000000e+00
     4.000000000000e+01-3.609375000000e+01 2.615466087518e-09 1.805167668822e+00
    -1.598149538040e-06 3.104190109298e-04 1.857057213783e-06 5.440605669022e+03
     3.288000000000e+05 2.048909664154e-08 7.688006234033e-01 5.587935447693e-08
     9.945422760492e-01 3.170937500000e+02 8.698592559410e-01-5.633448941475e-09
    -1.357199389945e-11 5.160000000000e+02 1.404000000000e+03                   
     1.070000000000e+02 0.000000000000e+00-1.187436282635e-08-1.187436282635e-08
     3.315840000000e+05                                                         
E10 2026 07 22 20 06 24-8.077536476776e-04-2.700062395888e-12 0.000000000000e+00
     3.800000000000e+01-3.165625000000e+01 2.589036415187e-09-2.020491062591e-01
    -1.432374119759e-06 2.875222126022e-04 2.076849341393e-06 5.440599302292e+03
     3.276000000000e+05 6.705522537231e-08 7.673416142411e-01 5.587935447693e-08
     9.974473343823e-01 3.106250000000e+02 2.360298728807e+00-5.594875906182e-09
    -1.678641350722e-11 5.160000000000e+02 1.404000000000e+03                   
     1.070000000000e+02 0.000000000000e+00-1.164153218269e-09-4.656612873077e-10
     3.315840000000e+05                                                         
G32 2026 07 22 20 06 24 1.778717560228e-04 2.013678113144e-11 0.000000000000e+00
     2.840042114258e-03-4.237890625000e+01 4.378753821244e-09-2.705799276361e+00
    -2.118758857250e-06 9.466660907492e-03 8.047558367252e-06 5.153647851545e+03
     2.673000000000e+05 2.123415470123e-07 2.641200308892e+00-4.470348358154e-08
     9.697165898912e-01 2.265742187500e+02-1.973301575131e+00-8.619052538756e-09
     3.976951370273e-10 4.378753821244e-09-2.000000000000e+00 3.000000000000e+00
     3.100000000000e+01 4.000000000000e+00 9.313225746155e-10 7.000000000000e+00
    -2.910383045673e-10-1.891748979688e-09 8.614733815193e-09 9.051291272044e-09
     3.315840000000e+05 2.428000000000e+03 0.000000000000e+00                   
G10 2026 07 22 20 06 24-5.626553611364e-04 5.254463530946e-12 0.000000000000e+00
    -2.123355865479e-03-7.987890625000e+01 3.646937623876e-09-1.267026303040e+00
    -4.110857844353e-06 1.113893336151e-02 7.128342986107e-06 5.153569558977e+03
     2.988000000000e+05 2.188608050346e-07 1.618089339847e+00 1.098960638046e-07
     9.942827807145e-01 2.578359375000e+02-2.265498197951e+00-8.697627240279e-09
     1.453631978178e-10 3.646937623876e-09-2.000000000000e+00 3.000000000000e+00
     2.900000000000e+01 4.000000000000e+00 2.328306436539e-09 7.000000000000e+00
    -8.149072527885e-10-4.656612873077e-10 1.059379428625e-08 1.103035174310e-08
     3.315840000000e+05 2.428000000000e+03 0.000000000000e+00                   
G23 2026 07 22 20 06 24 6.717246142216e-04 3.865352482535e-12 0.000000000000e+00
    -2.709865570068e-03-8.172656250000e+01 3.836588380734e-09-2.551626943790e-01
    -4.227273166180e-06 6.453427195083e-03 7.046386599541e-06 5.153491102254e+03
     3.069000000000e+05 5.122274160385e-08 1.585301279510e+00 6.984919309616e-08
     9.892091416285e-01 2.580585937500e+02-2.742862408303e+00-8.502083380807e-09
     1.112546342021e-10 3.836588380734e-09-2.000000000000e+00 3.000000000000e+00
     2.900000000000e+01 4.000000000000e+00-8.381903171539e-09 7.000000000000e+00
    -2.037268131971e-10 5.617039278150e-09-5.238689482212e-10-4.947651177645e-10
     3.315840000000e+05 2.428000000000e+03 0.000000000000e+00                   
E09 2026 07 22 20 06 24-2.986666513607e-04 1.570299446030e-11-5.204170427930e-18
     4.300000000000e+01-4.375000000000e+01 3.076556722365e-09-3.291771701104e-01
    -2.002343535423e-06 4.923454253003e-04 7.804483175278e-06 5.440616846085e+03
     3.306000000000e+05-3.911554813385e-08 2.854807543222e+00-1.862645149231e-08
     9.751246659478e-01 1.808125000000e+02 3.888223809729e-01-5.349508542789e-09
     3.210848030423e-10 5.160000000000e+02 1.404000000000e+03                   
     1.070000000000e+02 0.000000000000e+00 4.656612873077e-10 6.984919309616e-10
     3.315840000000e+05                                                         
E19 2026 07 22 20 06 24 3.111885394901e-03 2.425792899885e-11 0.000000000000e+00
     4.300000000000e+01-4.443750000000e+01 3.173346468332e-09 1.910932562949e+00
    -1.950189471245e-06 2.388033317402e-04 7.726252079010e-06 5.440620237350e+03
     3.306000000000e+05-3.725290298462e-09 2.859750275278e+00 6.891787052155e-08
     9.747561495691e-01 1.813125000000e+02-2.483329420981e-01-5.423083036033e-09
     4.096599211229e-10 5.160000000000e+02 1.404000000000e+03                   
     1.070000000000e+02 0.000000000000e+00-4.656612873077e-09-4.889443516731e-09
     3.315840000000e+05                                                         
E28 2026 07 22 20 06 24-6.072060205042e-05-2.913225216616e-12 0.000000000000e+00
     4.300000000000e+01-4.062500000000e+01 3.576220392505e-09-7.722591914208e-01
    -1.752749085426e-06 2.859283704311e-04 7.534399628639e-06 5.440611968994e+03
     3.306000000000e+05 7.823109626770e-08 2.869315129189e+00 5.401670932770e-08
     9.490857408649e-01 1.725937500000e+02 1.977464873212e+00-5.671307661300e-09
     3.860875106660e-10 5.160000000000e+02 1.404000000000e+03                   
     1.070000000000e+02 0.000000000000e+00 6.984919309616e-10 1.629814505577e-09
     3.315840000000e+05                                                         
E36 2026 07 22 20 06 24-5.975461099297e-04-5.385913937062e-12 0.000000000000e+00
     4.300000000000e+01-2.215625000000e+01 2.577250209959e-09 7.958523456904e-01
    -1.259148120880e-06 8.310226257890e-05 2.037733793259e-06 5.440599887848e+03
     3.306000000000e+05 3.166496753693e-08 7.692798768290e-01-5.587935447693e-08
     9.976348936463e-01 3.111875000000e+02 5.500556412596e-01-5.530587514026e-09
    -3.571577341961e-12 5.160000000000e+02 1.404000000000e+03                   
     1.070000000000e+02 0.000000000000e+00 4.423782229424e-09 5.122274160385e-09
     3.315840000000e+05                                                         
E06 2026 07 22 20 06 24-3.013467648998e-04-5.144329406903e-12 0.000000000000e+00
     4.300000000000e+01-4.415625000000e+01 3.309780722795e-09-9.506432365980e-01
    -2.022832632065e-06 5.017118528485e-04 7.586553692818e-06 5.440612621307e+03
     3.306000000000e+05 5.960464477539e-08 2.851287876431e+00-6.332993507385e-08
     9.626934391088e-01 1.780000000000e+02 1.396912055246e+00-5.520944255203e-09
     3.500145795122e-10 5.160000000000e+02 1.404000000000e+03                   
     1.070000000000e+02 0.000000000000e+00 2.095475792885e-09 3.492459654808e-09
     3.315840000000e+05                                                         
G28 2026 07 22 20 06 24-4.641904961318e-04 1.086419842977e-11 0.000000000000e+00
     6.465911865234e-04-1.369921875000e+01 4.770734434524e-09 8.382446855815e-01
    -6.435438990593e-07 5.115366657265e-04 7.040798664093e-06 5.153606059073e+03
     2.826000000000e+05-9.313225746155e-09-2.611363154009e+00-2.235174179077e-08
     9.622253828580e-01 2.442148437500e+02-2.969733502463e-01-8.341540979286e-09
    -1.000041655749e-10 4.770734434524e-09-2.000000000000e+00 3.000000000000e+00
     3.000000000000e+01 4.000000000000e+00-9.313225746155e-09 7.000000000000e+00
    -3.492459654808e-10 5.966285243630e-09-7.566995918751e-10-6.693881005049e-10
     3.315840000000e+05 2.428000000000e+03 0.000000000000e+00                   
END OF FILE                                                 COMMENT
