     3.05           N: NAVIGATION       M: MIXED            RINEX VERSION / TYPE
PYRINEXCONV 0.1.2 ALDELTUNES            20260722 195609 UTC PGM / RUN BY / DATE
GAL    1.1250e+02  3.1250e-02  2.0935e-02             T 06  IONOSPHERIC CORR
GPSA   1.3039e-08  2.2352e-08  1.5199e-05  1.5140e-05 T 32  IONOSPHERIC CORR
GPSB   1.1059e+05  1.4746e+05  1.6712e+07  1.6384e+07 T 32  IONOSPHERIC CORR
GAUT  3.7252902985e-09-1.776356839e-15 330000 1404   E06  0 TIME SYSTEM CORR
GPUT -4.3946783990e-09-2.304822999e-13  44400 2428   G32  0 TIME SYSTEM CORR
                                                            END OF HEADER
G23 2026 07 22 19 48 54 6.717038340867e-04 3.865352482535e-12 0.000000000000e+00
     8.000000000000e+00-7.718750000000e+01 3.804444184657e-09-1.042908095937e+00
    -3.946945071220e-06 6.453909911215e-03 6.910413503647e-06 5.153732009888e+03
     3.312000000000e+05 1.341104507446e-07 1.585343107264e+00-2.421438694000e-08
     9.892089492548e-01 2.590000000000e+02-2.742720372124e+00-7.727107579332e-09
     1.357199389945e-10 1.000000000000e+00 3.800000000000e+02 0.000000000000e+00
     2.000000000000e+00 0.000000000000e+00-8.381903171539e-09 5.200000000000e+02
     1.322136000000e+06 4.000000000000e+00                                      
G10 2026 07 22 19 48 54-5.626836791635e-04 5.229594535194e-12 0.000000000000e+00
     2.800000000000e+01-7.209375000000e+01 3.659438144573e-09-2.054753266710e+00
    -3.846362233162e-06 1.113982324023e-02 6.832182407379e-06 5.153651752472e+03
     3.312000000000e+05 1.452863216400e-07 1.618129534253e+00-5.401670932770e-08
     9.942821765293e-01 2.613437500000e+02-2.265410275111e+00-7.510669992409e-09
     2.278666344171e-10 1.000000000000e+00 3.800000000000e+02 0.000000000000e+00
     2.000000000000e+00 0.000000000000e+00 2.328306436539e-09 2.800000000000e+01
     1.322136000000e+06 4.000000000000e+00                                      
G32 2026 07 22 19 48 54 1.777629368007e-04 2.012257027673e-11 0.000000000000e+00
     1.090000000000e+02-3.903125000000e+01 4.353038464382e-09 2.789593668859e+00
    -1.985579729080e-06 9.466584655456e-03 7.921829819679e-06 5.153574169159e+03
     3.312000000000e+05 2.607703208923e-08 2.641242617945e+00-1.639127731323e-07
     9.697150348093e-01 2.290937500000e+02-1.973192018659e+00-7.655676032493e-09
     2.489389407347e-10 1.000000000000e+00 3.800000000000e+02 0.000000000000e+00
     2.000000000000e+00 0.000000000000e+00 9.313225746155e-10 1.090000000000e+02
     1.322136000000e+06 4.000000000000e+00                                      
G24 2026 07 22 19 48 54 1.246402971447e-04 1.853095454862e-11 0.000000000000e+00
     3.900000000000e+01-8.687500000000e+00 5.534516249103e-09 3.673181654645e-01
    -2.440065145493e-07 1.844356034417e-02 6.923452019691e-06 5.153623254776e+03
     3.312000000000e+05-2.197921276093e-07-2.698211924888e+00 1.247972249985e-07
     9.354922241490e-01 2.342187500000e+02 1.162828890525e+00-8.706434086498e-09
    -1.550064566411e-10 1.000000000000e+00 3.800000000000e+02 0.000000000000e+00
     2.000000000000e+00 0.000000000000e+00 2.328306436539e-09 3.900000000000e+01
     1.322136000000e+06 4.000000000000e+00                                      
G02 2026 07 22 19 48 54 1.429207623005e-04 7.275957614183e-12 0.000000000000e+00
     1.000000000000e+00 1.493750000000e+01 4.411255175056e-09 2.393286830757e+00
     6.314367055893e-07 1.690328109544e-02 3.362074494362e-06 5.153732696533e+03
     3.311840000000e+05 2.309679985046e-07 4.663056234552e-01 1.955777406693e-07
     9.620805144694e-01 3.125000000000e+02-7.352875664671e-01-8.027834391525e-09
    -1.160762636137e-10 1.000000000000e+00 3.800000000000e+02 0.000000000000e+00
     2.000000000000e+00 0.000000000000e+00-1.722946763039e-08 1.000000000000e+00
     1.322136000000e+06 4.000000000000e+00                                      
G27 2026 07 22 19 48 54 5.443580448627e-07 0.000000000000e+00 0.000000000000e+00
     8.000000000000e+00 7.875000000000e+01 4.526974280935e-09 2.282824695394e+00
     3.904104232788e-06 1.433082099538e-02 6.832182407379e-06 5.153676126480e+03
     3.312000000000e+05-7.450580596924e-08-5.096237527663e-01-2.924352884293e-07
     9.508980067074e-01 2.408125000000e+02 9.005135632159e-01-7.985689778890e-09
     1.928651764659e-11 1.000000000000e+00 3.800000000000e+02 0.000000000000e+00
     2.000000000000e+00 0.000000000000e+00 2.328306436539e-09 8.000000000000e+00
     1.322136000000e+06 4.000000000000e+00                                      
G08 2026 07 22 19 48 54 3.927182406187e-04-9.322320693173e-12 0.000000000000e+00
     2.000000000000e+00 7.759375000000e+01 4.781984903151e-09 2.131546162539e+00
     3.941357135773e-06 1.168756536208e-02 6.649643182755e-06 5.153753910065e+03
     3.311840000000e+05-2.607703208923e-07-5.428504654323e-01-3.911554813385e-08
     9.417726953101e-01 2.424062500000e+02 5.448382682779e-01-8.209984835965e-09
    -5.964534161075e-11 1.000000000000e+00 3.800000000000e+02 0.000000000000e+00
     2.000000000000e+00 0.000000000000e+00 4.656612873077e-09 2.000000000000e+00
     1.322136000000e+06 4.000000000000e+00                                      
E11 2026 07 22 19 49 24 5.525783170015e-03 6.680522801616e-11-3.469446951954e-18
     3.500000000000e+01-2.265625000000e+01 2.659039331090e-09 1.477799657316e-01
    -1.238659024239e-06 4.099921789020e-04 2.078711986542e-06 5.440604045868e+03
     3.258000000000e+05 7.078051567078e-08 7.688085099947e-01-2.607703208923e-08
     9.945302318447e-01 3.076875000000e+02 1.358489143874e+00-5.572732126661e-09
    -1.785788670980e-12 5.160000000000e+02 1.404000000000e+03                   
     1.070000000000e+02 0.000000000000e+00-1.466833055019e-08-1.606531441212e-08
     3.305640000000e+05                                                         
E06 2026 07 22 19 50 24-3.013248206116e-04-5.101696842758e-12 0.000000000000e+00
     3.600000000000e+01-4.096875000000e+01 3.271564845236e-09-1.470876229270e+00
    -1.873821020126e-06 5.020375829190e-04 7.586553692818e-06 5.440613422394e+03
     3.264000000000e+05-4.470348358154e-08 2.851311068071e+00-3.166496753693e-08
     9.626926140230e-01 1.780937500000e+02 1.396446952626e+00-5.470942172416e-09
     2.935836575092e-10 5.160000000000e+02 1.404000000000e+03                   
     1.070000000000e+02 0.000000000000e+00 2.095475792885e-09 3.492459654808e-09
     3.306240000000e+05                                                         
E19 2026 07 22 19 50 54 3.111856407486e-03 2.422950728942e-11 0.000000000000e+00
     4.100000000000e+01-4.434375000000e+01 3.177632361143e-09 1.762189945919e+00
    -1.929700374603e-06 2.388128777966e-04 7.724389433861e-06 5.440620210648e+03
     3.294000000000e+05 2.048909664154e-08 2.859756943258e+00 8.195638656616e-08
     9.747556858240e-01 1.813125000000e+02-2.483606366003e-01-5.435226398996e-09
     3.975165581602e-10 5.160000000000e+02 1.404000000000e+03                   
     1.070000000000e+02 0.000000000000e+00-4.656612873077e-09-4.889443516731e-09
     3.306540000000e+05                                                         
E28 2026 07 22 19 50 54-6.071740062907e-05-2.941646926047e-12 0.000000000000e+00
     4.100000000000e+01-4.025000000000e+01 3.578720496645e-09-9.210946320658e-01
    -1.724809408188e-06 2.858163788915e-04 7.478520274162e-06 5.440611740112e+03
     3.294000000000e+05 1.024454832077e-07 2.869322095605e+00 2.607703208923e-08
     9.490853868388e-01 1.734062500000e+02 1.977528755919e+00-5.677022185047e-09
     3.653723620826e-10 5.160000000000e+02 1.404000000000e+03                   
     1.070000000000e+02 0.000000000000e+00 6.984919309616e-10 1.629814505577e-09
     3.306540000000e+05                                                         
E11 2026 07 22 19 50 54 5.526022694539e-03 6.670575203316e-11-3.469446951954e-18
     4.100000000000e+01-2.590625000000e+01 2.623680715404e-09 5.931977098428e-01
    -1.227483153343e-06 4.101558588445e-04 2.050772309303e-06 5.440604820251e+03
     3.294000000000e+05 9.313225746155e-08 7.687885894392e-01-5.587935447693e-09
     9.945302040492e-01 3.087187500000e+02 1.359384530199e+00-5.587375593764e-09
    -1.428630936784e-11 5.160000000000e+02 1.404000000000e+03                   
     1.070000000000e+02 0.000000000000e+00-1.466833055019e-08-1.606531441212e-08
     3.306540000000e+05                                                         
E06 2026 07 22 19 50 54-3.013404784724e-04-5.144329406903e-12 0.000000000000e+00
     4.100000000000e+01-4.412500000000e+01 3.300137463972e-09-1.099411995974e+00
    -2.017244696617e-06 5.017175571993e-04 7.590278983116e-06 5.440612636566e+03
     3.294000000000e+05 7.450580596924e-09 2.851294570744e+00-6.891787052155e-08
     9.626932445407e-01 1.779687500000e+02 1.396909768705e+00-5.503086368493e-09
     3.228705917133e-10 5.160000000000e+02 1.404000000000e+03                   
     1.070000000000e+02 0.000000000000e+00 2.095475792885e-09 3.492459654808e-09
     3.306540000000e+05                                                         
G28 2026 07 22 19 51 48-4.642489366233e-04 1.091393642128e-11 0.000000000000e+00
     1.180000000000e+02-1.406250000000e+01 4.710553356312e-09 5.077915195550e-02
    -8.139759302139e-07 5.118767730892e-04 6.992369890213e-06 5.153616975784e+03
     3.312000000000e+05-1.117587089539e-08-2.611319993536e+00-9.313225746155e-09
     9.622259636365e-01 2.463437500000e+02-2.971710592360e-01-7.988547040764e-09
    -1.039329006511e-10 1.000000000000e+00 3.800000000000e+02 0.000000000000e+00
     2.000000000000e+00 0.000000000000e+00-9.313225746155e-09 3.740000000000e+02
     1.322832000000e+06 4.000000000000e+00                                      
E09 2026 07 22 19 54 24-2.986855106428e-04 1.573141616973e-11-5.204170427930e-18
     4.100000000000e+01-4.184375000000e+01 3.075842406897e-09-4.780813796084e-01
    -1.905485987663e-06 4.925807006657e-04 7.780268788338e-06 5.440617328644e+03
     3.294000000000e+05-2.980232238770e-08 2.854813966895e+00-2.793967723846e-08
     9.751242241466e-01 1.813125000000e+02 3.889564296194e-01-5.355223066536e-09
     3.257278535868e-10 5.160000000000e+02 1.404000000000e+03                   
     1.070000000000e+02 0.000000000000e+00 4.656612873077e-10 6.984919309616e-10
     3.308640000000e+05                                                         
G24 2026 07 22 19 54 24 1.246067695320e-04 1.857003439909e-11 0.000000000000e+00
     1.955509185791e-03-1.205078125000e+01 5.535230564571e-09 1.047298759283e-01
    -5.401670932770e-07 1.844316843199e-02 6.870366632938e-06 5.153600061486e+03
     2.844000000000e+05-1.695007085800e-07-2.698196457456e+00 1.760199666023e-07
     9.354924684563e-01 2.349101562500e+02 1.162863662625e+00-7.615082147931e-09
    -1.116117919363e-10 5.535230564571e-09-2.000000000000e+00 3.000000000000e+00
     2.900000000000e+01 4.000000000000e+00 2.328306436539e-09 7.000000000000e+00
     2.910383045673e-11-1.426087692380e-09 1.484295353293e-09 2.764863893390e-09
     3.308640000000e+05 2.428000000000e+03 0.000000000000e+00                   
G08 2026 07 22 19 54 24 3.927373909391e-04-9.276135415348e-12 0.000000000000e+00
    -4.906177520752e-03 7.155078125000e+01 4.782877797487e-09 1.827488257718e+00
     3.713183104992e-06 1.168901857454e-02 6.807968020439e-06 5.153467397092e+03
     3.195000000000e+05-2.142041921616e-07-5.428330303746e-01 5.774199962616e-08
     9.417726287473e-01 2.369531250000e+02 5.449373465992e-01-8.062957946613e-09
    -1.007184810433e-10 4.782877797487e-09-2.000000000000e+00 2.000000000000e+00
     2.700000000000e+01 4.000000000000e+00 4.656612873077e-09 7.000000000000e+00
    -1.047737896442e-09-4.685716703534e-09 6.257323548198e-09 6.839400157332e-09
     3.308640000000e+05 2.428000000000e+03 0.000000000000e+00                   
G28 2026 07 22 19 54 24-4.642686981242e-04 1.086419842977e-11 0.000000000000e+00
    -1.818656921387e-03-1.628125000000e+01 4.695731310343e-09-2.104815650249e-01
    -8.298084139824e-07 5.118811386637e-04 7.029622793198e-06 5.153605472787e+03
     2.826000000000e+05-1.303851604462e-08-2.611305596960e+00-1.862645149231e-09
     9.622261340665e-01 2.449140625000e+02-2.984658448719e-01-8.342969610222e-09
    -1.058972681891e-10 4.695731310343e-09-2.000000000000e+00 3.000000000000e+00
     2.900000000000e+01 4.000000000000e+00-9.313225746155e-09 7.000000000000e+00
    -3.492459654808e-10 5.966285243630e-09-7.566995918751e-10-6.693881005049e-10
     3.308640000000e+05 2.428000000000e+03 0.000000000000e+00                   
G23 2026 07 22 19 56 00 6.716967909597e-04 3.865352482535e-12 0.000000000000e+00
     7.329463958740e-03-7.666796875000e+01 3.808908656334e-09-1.305600771261e+00
    -3.942288458347e-06 6.456336879637e-03 6.474554538727e-06 5.153491371906e+03
     3.069000000000e+05 8.102506399155e-08 1.585356821389e+00-5.867332220078e-08
     9.892087810192e-01 2.691914062500e+02-2.742557813398e+00-8.640124845074e-09
     1.653640309328e-10 3.808908656334e-09-2.000000000000e+00 3.000000000000e+00
     2.900000000000e+01 4.000000000000e+00-8.381903171539e-09 7.000000000000e+00
    -2.037268131971e-10 5.617039278150e-09-5.238689482212e-10-4.947651177645e-10
     3.309600000000e+05 2.428000000000e+03 0.000000000000e+00                   
G32 2026 07 22 19 56 00 1.777267607395e-04 2.013678113144e-11 0.000000000000e+00
    -4.674434661865e-03-4.019531250000e+01 4.354288516452e-09 2.526870164731e+00
    -2.005137503147e-06 9.467360679992e-03 7.748603820801e-06 5.153648096366e+03
     2.673000000000e+05 2.048909664154e-08 2.641256296229e+00-2.020969986916e-07
     9.697144891408e-01 2.356484375000e+02-1.973031821815e+00-8.654411154441e-09
     2.600108304947e-10 4.354288516452e-09-2.000000000000e+00 3.000000000000e+00
     3.000000000000e+01 4.000000000000e+00 9.313225746155e-10 7.000000000000e+00
    -2.910383045673e-10-1.891748979688e-09 8.614733815193e-09 9.051291272044e-09
     3.309600000000e+05 2.428000000000e+03 0.000000000000e+00                   
G10 2026 07 22 19 56 00-5.626931670122e-04 5.250910817267e-12 0.000000000000e+00
     3.091812133789e-03-7.529687500000e+01 3.695332496860e-09-2.317258995733e+00
    -3.830529749393e-06 1.114093395881e-02 6.755813956261e-06 5.153571733403e+03
     2.988000000000e+05 1.452863216400e-07 1.618143075754e+00-6.146728992462e-08
     9.942817625235e-01 2.657421875000e+02-2.265449371597e+00-8.825311130254e-09
     2.232235838726e-10 3.695332496860e-09-2.000000000000e+00 3.000000000000e+00
     2.900000000000e+01 4.000000000000e+00 2.328306436539e-09 7.000000000000e+00
    -8.149072527885e-10-4.656612873077e-10 1.059379428625e-08 1.103035174310e-08
     3.309600000000e+05 2.428000000000e+03 0.000000000000e+00                   
E04 2026 07 22 19 56 05-1.175816287287e-04 3.360867140145e-11 0.000000000000e+00
     4.100000000000e+01-4.403125000000e+01 3.224777182056e-09 7.666759206837e-01
    -1.948326826096e-06 2.885161666200e-04 7.567927241325e-06 5.440611070633e+03
     3.294000000000e+05 8.940696716309e-08 2.851652276158e+00-6.519258022308e-08
     9.693869154503e-01 1.805937500000e+02-7.612940542674e-02-5.477728169365e-09
     3.260850113210e-10 1.000000000000e+00 1.404000000000e+03                   
     1.070000000000e+02 0.000000000000e+00-4.423782229424e-09-5.122274160385e-09
     3.309650000000e+05                                                         
E12 2026 07 22 19 56 05-5.932553904131e-05-2.657429831743e-12 0.000000000000e+00
     4.000000000000e+01-3.609375000000e+01 2.615466087518e-09 1.805167668822e+00
    -1.598149538040e-06 3.104190109298e-04 1.857057213783e-06 5.440605669022e+03
     3.288000000000e+05 2.048909664154e-08 7.688006234033e-01 5.587935447693e-08
     9.945422760492e-01 3.170937500000e+02 8.698592559410e-01-5.633448941475e-09
    -1.357199389945e-11 1.000000000000e+00 1.404000000000e+03                   
     1.070000000000e+02 0.000000000000e+00-1.187436282635e-08-1.187436282635e-08
     3.309650000000e+05                                                         
E10 2026 07 22 19 56 05-8.077536476776e-04-2.700062395888e-12 0.000000000000e+00
     3.800000000000e+01-3.165625000000e+01 2.589036415187e-09-2.020491062591e-01
    -1.432374119759e-06 2.875222126022e-04 2.076849341393e-06 5.440599302292e+03
     3.276000000000e+05 6.705522537231e-08 7.673416142411e-01 5.587935447693e-08
     9.974473343823e-01 3.106250000000e+02 2.360298728807e+00-5.594875906182e-09
    -1.678641350722e-11 1.000000000000e+00 1.404000000000e+03                   
     1.070000000000e+02 0.000000000000e+00-1.164153218269e-09-4.656612873077e-10
     3.309650000000e+05                                                         
E11 2026 07 22 19 56 05 5.526062741410e-03 6.670575203316e-11-3.469446951954e-18
     4.200000000000e+01-2.734375000000e+01 2.615823245252e-09 6.670936314245e-01
    -1.272186636925e-06 4.102120874450e-04 2.020969986916e-06 5.440605230331e+03
     3.300000000000e+05 9.313225746155e-08 7.687852788556e-01 1.862645149231e-09
     9.945301850313e-01 3.096875000000e+02 1.359874193750e+00-5.592018644308e-09
    -1.642925577302e-11 1.000000000000e+00 1.404000000000e+03                   
     1.070000000000e+02 0.000000000000e+00-1.466833055019e-08-1.606531441212e-08
     3.309650000000e+05                                                         
E19 2026 07 22 19 56 05 3.111870784778e-03 2.424371814413e-11 0.000000000000e+00
     4.200000000000e+01-4.440625000000e+01 3.175489414737e-09 1.836553588743e+00
    -1.940876245499e-06 2.388060092926e-04 7.726252079010e-06 5.440620229721e+03
     3.300000000000e+05 7.450580596924e-09 2.859753604879e+00 7.636845111847e-08
     9.747559125763e-01 1.813125000000e+02-2.483391185382e-01-5.429154717515e-09
     4.043025551100e-10 1.000000000000e+00 1.404000000000e+03                   
     1.070000000000e+02 0.000000000000e+00-4.656612873077e-09-4.889443516731e-09
     3.309650000000e+05                                                         
E28 2026 07 22 19 56 05-6.071903044358e-05-2.927436071332e-12 0.000000000000e+00
     4.200000000000e+01-4.040625000000e+01 3.577649023442e-09-8.466670231485e-01
    -1.735985279083e-06 2.858747029677e-04 7.508322596550e-06 5.440611860275e+03
     3.300000000000e+05 9.126961231232e-08 2.869318612397e+00 4.097819328308e-08
     9.490855580002e-01 1.729687500000e+02 1.977486929628e+00-5.674522080907e-09
     3.760870941085e-10 1.000000000000e+00 1.404000000000e+03                   
     1.070000000000e+02 0.000000000000e+00 6.984919309616e-10 1.629814505577e-09
     3.309650000000e+05                                                         
E06 2026 07 22 19 56 05-3.013436798938e-04-5.144329406903e-12 0.000000000000e+00
     4.200000000000e+01-4.421875000000e+01 3.306566303187e-09-1.025035179572e+00
    -2.022832632065e-06 5.017041694373e-04 7.586553692818e-06 5.440612606049e+03
     3.300000000000e+05 3.725290298462e-08 2.851291222124e+00-6.891787052155e-08
     9.626933206124e-01 1.780312500000e+02 1.396918464290e+00-5.514158258253e-09
     3.385855320179e-10 1.000000000000e+00 1.404000000000e+03                   
     1.070000000000e+02 0.000000000000e+00 2.095475792885e-09 3.492459654808e-09
     3.309650000000e+05                                                         
E09 2026 07 22 19 56 05-2.986760810018e-04 1.571720531501e-11-5.204170427930e-18
     4.200000000000e+01-4.284375000000e+01 3.074770933694e-09-4.036352516112e-01
    -1.953914761543e-06 4.924562526867e-04 7.797032594681e-06 5.440617074966e+03
     3.300000000000e+05-3.539025783539e-08 2.854810752864e+00-1.862645149231e-08
     9.751244655280e-01 1.809687500000e+02 3.888953732704e-01-5.349865700523e-09
     3.217991185107e-10 1.000000000000e+00 1.404000000000e+03                   
     1.070000000000e+02 0.000000000000e+00 4.656612873077e-10 6.984919309616e-10
     3.309650000000e+05                                                         
END OF FILE                                                 COMMENT
