     3.05           N: NAVIGATION       M: MIXED            RINEX VERSION / TYPE
PYRINEXCONV 0.1.2 ALDELTUNES            20260722 180340 UTC PGM / RUN BY / DATE
GAL    1.1250e+02  3.1250e-02  2.0935e-02             S 10  IONOSPHERIC CORR
GPSA   1.3039e-08  2.2352e-08  1.5199e-05  1.5140e-05 S 15  IONOSPHERIC CORR
GPSB   1.1059e+05  1.4746e+05  1.6712e+07  1.6384e+07 S 15  IONOSPHERIC CORR
GAUT  3.7252902985e-09-1.776356839e-15 322200 1404   E10  0 TIME SYSTEM CORR
GPUT -1.3969838619e-09 1.190603172e-12  44400 2428   G15  0 TIME SYSTEM CORR
                                                            END OF HEADER
G18 2026 07 22 17 56 24-2.981023862958e-04 8.981260180008e-12 0.000000000000e+00
     5.400000000000e+01 2.187500000000e-01 4.343038047824e-09-8.736840508705e-01
    -1.862645149231e-09 6.300016655587e-03 3.406777977943e-06 5.153618246078e+03
     3.240000000000e+05 1.769512891769e-07 5.757025525736e-01-1.490116119385e-08
     9.708342461375e-01 3.154375000000e+02-2.858674369251e+00-8.158554122241e-09
     5.643092200298e-11 1.000000000000e+00 3.800000000000e+02 0.000000000000e+00
     2.000000000000e+00 0.000000000000e+00-8.381903171539e-09 3.100000000000e+02
     1.295136000000e+06 4.000000000000e+00                                      
G23 2026 07 22 17 56 24 6.716758944094e-04 3.865352482535e-12 0.000000000000e+00
     7.000000000000e+00-6.834375000000e+01 3.870518365483e-09-2.093257737227e+00
    -3.626570105553e-06 6.453724228777e-03 6.806105375290e-06 5.153729478836e+03
     3.240000000000e+05 6.519258022308e-08 1.585398370457e+00-1.043081283569e-07
     9.892078827875e-01 2.638437500000e+02-2.742511975055e+00-7.687463070837e-09
     1.528635102359e-10 1.000000000000e+00 3.800000000000e+02 0.000000000000e+00
     2.000000000000e+00 0.000000000000e+00-8.381903171539e-09 5.190000000000e+02
     1.295136000000e+06 4.000000000000e+00                                      
G24 2026 07 22 17 56 24 1.245066523552e-04 1.853095454862e-11 0.000000000000e+00
     3.600000000000e+01-1.037500000000e+01 5.517729835595e-09-6.828979201823e-01
    -3.874301910400e-07 1.844315172639e-02 6.685033440590e-06 5.153622488022e+03
     3.240000000000e+05-1.378357410431e-07-2.698149326624e+00 2.682209014893e-07
     9.354930316798e-01 2.370312500000e+02 1.162825661865e+00-8.695005039004e-09
    -1.017899542459e-10 1.000000000000e+00 3.800000000000e+02 0.000000000000e+00
     2.000000000000e+00 0.000000000000e+00 2.328306436539e-09 3.600000000000e+01
     1.295136000000e+06 4.000000000000e+00                                      
G15 2026 07 22 17 56 24 4.304521717131e-04 3.069544618484e-12 0.000000000000e+00
     4.000000000000e+00-3.612500000000e+01 5.133785271335e-09 5.928322494999e-02
    -1.665204763412e-06 1.702920836397e-02 7.985159754753e-06 5.153754280090e+03
     3.239840000000e+05-1.732259988785e-07 2.476401627588e+00 7.450580596924e-09
     9.447590992029e-01 2.204062500000e+02 1.538329150955e+00-8.533569743147e-09
     2.546534644818e-10 1.000000000000e+00 3.800000000000e+02 0.000000000000e+00
     2.000000000000e+00 0.000000000000e+00-1.071020960808e-08 4.000000000000e+00
     1.295136000000e+06 4.000000000000e+00                                      
G10 2026 07 22 17 56 24-5.627213977277e-04 5.229594535194e-12 0.000000000000e+00
     2.700000000000e+01-6.540625000000e+01 3.700511284006e-09-3.104945060602e+00
    -3.455206751823e-06 1.113914442249e-02 7.256865501404e-06 5.153652793884e+03
     3.240000000000e+05 2.048909664154e-08 1.618184183021e+00-1.825392246246e-07
     9.942809988803e-01 2.592187500000e+02-2.265407363904e+00-7.472811272585e-09
     1.007184810433e-10 1.000000000000e+00 3.800000000000e+02 0.000000000000e+00
     2.000000000000e+00 0.000000000000e+00 2.328306436539e-09 2.700000000000e+01
     1.295136000000e+06 4.000000000000e+00                                      
G27 2026 07 22 17 56 24 5.443580448627e-07 0.000000000000e+00 0.000000000000e+00
     7.000000000000e+00 6.968750000000e+01 4.634121601194e-09 1.232529694095e+00
     3.613531589508e-06 1.433036976960e-02 6.539747118950e-06 5.153679357529e+03
     3.240000000000e+05-2.123415470123e-07-5.095637804397e-01 9.313225746155e-08
     9.508968202808e-01 2.494062500000e+02 9.006291732430e-01-8.351776456441e-09
    -1.164334213479e-10 1.000000000000e+00 3.800000000000e+02 0.000000000000e+00
     2.000000000000e+00 0.000000000000e+00 2.328306436539e-09 7.000000000000e+00
     1.295136000000e+06 4.000000000000e+00                                      
E06 2026 07 22 17 57 35-3.013064269908e-04-5.115907697473e-12 0.000000000000e+00
     3.000000000000e+01-3.681250000000e+01 3.250849696653e-09-1.915882183886e+00
    -1.706182956696e-06 5.024326965213e-04 7.404014468193e-06 5.440614944458e+03
     3.228000000000e+05-4.097819328308e-08 2.851330802836e+00-5.029141902924e-08
     9.626914656323e-01 1.826250000000e+02 1.395141118302e+00-5.480942588973e-09
     2.992981812563e-10 1.000000000000e+00 1.404000000000e+03                   
     1.070000000000e+02 0.000000000000e+00 2.095475792885e-09 3.492459654808e-09
     3.238550000000e+05                                                         
E29 2026 07 22 18 00 25-2.276829909533e-04-3.623767952377e-12 0.000000000000e+00
     3.000000000000e+01-4.171875000000e+01 3.369068906672e-09-1.400460108499e-02
    -1.814216375351e-06 1.986527349800e-04 7.500872015953e-06 5.440614395142e+03
     3.228000000000e+05 2.980232238770e-08 2.851362267278e+00 8.754432201385e-08
     9.627725010534e-01 1.804062500000e+02 1.457728985955e+00-5.556660028623e-09
     3.568005764619e-10 1.000000000000e+00 1.404000000000e+03                   
     1.070000000000e+02 0.000000000000e+00-3.492459654808e-09-3.492459654808e-09
     3.240250000000e+05                                                         
E12 2026 07 22 18 00 54-5.930976476520e-05-2.700062395888e-12 0.000000000000e+00
     3.000000000000e+01-2.975000000000e+01 2.669396905382e-09 1.066490159825e+00
    -1.378357410431e-06 3.112377598882e-04 2.268701791763e-06 5.440602048874e+03
     3.228000000000e+05 7.636845111847e-08 7.688338726054e-01 3.725290298462e-09
     9.945425613183e-01 3.045000000000e+02 8.646806868614e-01-5.577018019472e-09
    -1.071473202588e-12 5.160000000000e+02 1.404000000000e+03                   
     1.070000000000e+02 0.000000000000e+00-1.187436282635e-08-1.187436282635e-08
     3.240540000000e+05                                                         
E28 2026 07 22 18 00 54-6.069795927033e-05-2.899014361901e-12 0.000000000000e+00
     3.000000000000e+01-4.137500000000e+01 3.536933041744e-09-1.740296493260e+00
    -1.847743988037e-06 2.853975165635e-04 7.197260856628e-06 5.440610712051e+03
     3.228000000000e+05-1.303851604462e-08 2.869360029071e+00-8.009374141693e-08
     9.490841023967e-01 1.769062500000e+02 1.978487103312e+00-5.637377676551e-09
     2.496532562031e-10 5.160000000000e+02 1.404000000000e+03                   
     1.070000000000e+02 0.000000000000e+00 6.984919309616e-10 1.629814505577e-09
     3.240540000000e+05                                                         
E04 2026 07 22 18 00 54-1.178048551083e-04 3.356603883731e-11 0.000000000000e+00
     3.000000000000e+01-4.159375000000e+01 3.167631944585e-09-5.204520661176e-02
    -1.927837729454e-06 2.887547016144e-04 7.485970854759e-06 5.440611555099e+03
     3.228000000000e+05-3.725290298462e-08 2.851688420475e+00-4.656612873077e-08
     9.693855637140e-01 1.818437500000e+02-7.564862617750e-02-5.424154509236e-09
     2.582250418238e-10 5.160000000000e+02 1.404000000000e+03                   
     1.070000000000e+02 0.000000000000e+00-4.423782229424e-09-5.122274160385e-09
     3.240540000000e+05                                                         
G18 2026 07 22 18 03 12-2.980535209645e-04 9.023892744153e-12 0.000000000000e+00
     3.526687622070e-03 3.058593750000e+00 4.342680890090e-09-8.616132153631e-02
     1.341104507446e-07 6.301042332780e-03 3.274530172348e-06 5.153602586268e+03
     2.556000000000e+05 6.612390279770e-08 5.756583270971e-01 7.916241884232e-08
     9.708339235640e-01 3.206093750000e+02-2.858535000702e+00-8.049921689315e-09
     3.303709041314e-11 4.342680890090e-09-2.000000000000e+00 3.000000000000e+00
     3.100000000000e+01 4.000000000000e+00-8.381903171539e-09 7.000000000000e+00
    -8.731149137020e-11 5.209585651755e-09-8.440110832453e-10-9.313225746155e-10
     3.241920000000e+05 2.428000000000e+03 0.000000000000e+00                   
G23 2026 07 22 18 03 12 6.716967909597e-04 3.865352482535e-12 0.000000000000e+00
     7.329463958740e-03-7.666796875000e+01 3.808908656334e-09-1.305600771261e+00
    -3.942288458347e-06 6.456336879637e-03 6.474554538727e-06 5.153491371906e+03
     3.069000000000e+05 8.102506399155e-08 1.585356821389e+00-5.867332220078e-08
     9.892087810192e-01 2.691914062500e+02-2.742557813398e+00-8.640124845074e-09
     1.653640309328e-10 3.808908656334e-09-2.000000000000e+00 3.000000000000e+00
     2.900000000000e+01 4.000000000000e+00-8.381903171539e-09 7.000000000000e+00
    -2.037268131971e-10 5.617039278150e-09-5.238689482212e-10-4.947651177645e-10
     3.241920000000e+05 2.428000000000e+03 0.000000000000e+00                   
G24 2026 07 22 18 03 12 1.246067695320e-04 1.857003439909e-11 0.000000000000e+00
     1.955509185791e-03-1.205078125000e+01 5.535230564571e-09 1.047298759283e-01
    -5.401670932770e-07 1.844316843199e-02 6.870366632938e-06 5.153600061486e+03
     2.844000000000e+05-1.695007085800e-07-2.698196457456e+00 1.760199666023e-07
     9.354924684563e-01 2.349101562500e+02 1.162863662625e+00-7.615082147931e-09
    -1.116117919363e-10 5.535230564571e-09-2.000000000000e+00 3.000000000000e+00
     2.900000000000e+01 4.000000000000e+00 2.328306436539e-09 7.000000000000e+00
     2.910383045673e-11-1.426087692380e-09 1.484295353293e-09 2.764863893390e-09
     3.241920000000e+05 2.428000000000e+03 0.000000000000e+00                   
G10 2026 07 22 18 03 12-5.626931670122e-04 5.250910817267e-12 0.000000000000e+00
     3.091812133789e-03-7.529687500000e+01 3.695332496860e-09-2.317258995733e+00
    -3.830529749393e-06 1.114093395881e-02 6.755813956261e-06 5.153571733403e+03
     2.988000000000e+05 1.452863216400e-07 1.618143075754e+00-6.146728992462e-08
     9.942817625235e-01 2.657421875000e+02-2.265449371597e+00-8.825311130254e-09
     2.232235838726e-10 3.695332496860e-09-2.000000000000e+00 3.000000000000e+00
     2.900000000000e+01 4.000000000000e+00 2.328306436539e-09 7.000000000000e+00
    -8.149072527885e-10-4.656612873077e-10 1.059379428625e-08 1.103035174310e-08
     3.241920000000e+05 2.428000000000e+03 0.000000000000e+00                   
G27 2026 07 22 18 03 12 5.444162525237e-07 3.552713678801e-15 0.000000000000e+00
    -7.489681243896e-03 6.823046875000e+01 4.568404578102e-09 2.020167554350e+00
     3.491528332233e-06 1.433306600666e-02 6.917864084244e-06 5.153545802823e+03
     3.069000000000e+05-2.048909664154e-07-5.096092325729e-01-2.244487404823e-07
     9.508975005377e-01 2.393789062500e+02 9.006207585382e-01-8.242251129179e-09
     4.285892810353e-12 4.568404578102e-09-2.000000000000e+00 1.000000000000e+00
     2.800000000000e+01 4.000000000000e+00 2.328306436539e-09 7.000000000000e+00
    -9.022187441587e-10-1.688022166491e-09 6.664777174592e-09 5.326000973582e-09
     3.241920000000e+05 2.428000000000e+03 0.000000000000e+00                   
G15 2026 07 22 18 03 12 4.304687317926e-04 3.094413614235e-12 0.000000000000e+00
     4.458427429199e-03-4.336328125000e+01 5.136285375474e-09 8.491222663564e-01
    -2.241693437099e-06 1.702912530163e-02 7.881782948971e-06 5.153465996146e+03
     3.132000000000e+05-2.300366759300e-07 2.476355217975e+00-5.215406417847e-08
     9.447605986940e-01 2.212695312500e+02 1.538428149548e+00-7.845270307620e-09
     2.860833450911e-10 5.136285375474e-09-2.000000000000e+00 2.000000000000e+00
     2.800000000000e+01 4.000000000000e+00-1.071020960808e-08 7.000000000000e+00
    -2.037268131971e-10 6.199115887284e-09 0.000000000000e+00 0.000000000000e+00
     3.241920000000e+05 2.428000000000e+03 0.000000000000e+00                   
E29 2026 07 22 18 03 35-2.276849700138e-04-3.609557097661e-12 0.000000000000e+00
     3.100000000000e+01-4.162500000000e+01 3.368711748937e-09 6.042013612405e-02
    -1.823529601097e-06 1.986430725083e-04 7.502734661102e-06 5.440614374161e+03
     3.234000000000e+05 1.490116119385e-08 2.851358848438e+00 8.568167686462e-08
     9.627726970845e-01 1.804687500000e+02 1.457689741714e+00-5.550588347141e-09
     3.643008888800e-10 1.000000000000e+00 1.404000000000e+03                   
     1.070000000000e+02 0.000000000000e+00-3.492459654808e-09-3.492459654808e-09
     3.242150000000e+05                                                         
E19 2026 07 22 18 03 54 3.111651050858e-03 2.418687472527e-11 0.000000000000e+00
     2.700000000000e+01-4.409375000000e+01 3.154417108420e-09 7.234793042741e-01
    -1.896172761917e-06 2.390004228801e-04 7.331371307373e-06 5.440618814468e+03
     3.210000000000e+05 2.235174179077e-08 2.859803845875e+00-1.154839992523e-07
     9.747538966752e-01 1.860312500000e+02-2.510429203053e-01-5.439155134072e-09
     2.232235838726e-10 5.160000000000e+02 1.404000000000e+03                   
     1.070000000000e+02 0.000000000000e+00-4.656612873077e-09-4.889443516731e-09
     3.242340000000e+05                                                         
E33 2026 07 22 18 03 54-2.542720176280e-05-2.046363078989e-12 0.000000000000e+00
     2.800000000000e+01-4.025000000000e+01 2.640467128912e-09-6.891867270507e-01
    -1.769512891769e-06 1.714656827971e-04 2.108514308929e-06 5.440605640411e+03
     3.216000000000e+05 1.676380634308e-08 7.693043807068e-01 6.332993507385e-08
     9.976478170646e-01 3.137187500000e+02-2.998429680723e+00-5.599518956726e-09
    -1.678641350722e-11 5.160000000000e+02 1.404000000000e+03                   
     1.070000000000e+02 0.000000000000e+00-4.423782229424e-09-5.122274160385e-09
     3.242340000000e+05                                                         
E10 2026 07 22 18 03 54-8.077395032160e-04-2.742694960034e-12 0.000000000000e+00
     2.900000000000e+01-2.409375000000e+01 2.632609658759e-09-8.705371092734e-01
    -1.300126314163e-06 2.864892594516e-04 2.214685082436e-06 5.440597185135e+03
     3.222000000000e+05 3.352761268616e-08 7.673710525416e-01-2.793967723846e-08
     9.974473914361e-01 3.061875000000e+02 2.359314607723e+00-5.537016353242e-09
     2.000083311498e-11 5.160000000000e+02 1.404000000000e+03                   
     1.070000000000e+02 0.000000000000e+00-1.164153218269e-09-4.656612873077e-10
     3.242340000000e+05                                                         
E11 2026 07 22 18 03 54 5.525462271180e-03 6.686207143503e-11-3.469446951954e-18
     2.700000000000e+01-2.953125000000e+01 2.658682173356e-09-4.492873862573e-01
    -1.700595021248e-06 4.115656483918e-04 2.823770046234e-06 5.440607622147e+03
     3.210000000000e+05 2.048909664154e-08 7.688349478502e-01-2.235174179077e-08
     9.945300533687e-01 2.959687500000e+02 1.360474670419e+00-5.556302870888e-09
     2.285809498855e-11 5.160000000000e+02 1.404000000000e+03                   
     1.070000000000e+02 0.000000000000e+00-1.466833055019e-08-1.606531441212e-08
     3.242340000000e+05                                                         
E28 2026 07 22 18 03 54-6.069970550016e-05-2.899014361901e-12 0.000000000000e+00
     3.100000000000e+01-4.143750000000e+01 3.548004931504e-09-1.665926461873e+00
    -1.836568117142e-06 2.853928599507e-04 7.199123501778e-06 5.440610702515e+03
     3.234000000000e+05 2.048909664154e-08 2.869356601454e+00-8.940696716309e-08
     9.490841141000e-01 1.769687500000e+02 1.978502797497e+00-5.651663985919e-09
     2.667968274445e-10 5.160000000000e+02 1.404000000000e+03                   
     1.070000000000e+02 0.000000000000e+00 6.984919309616e-10 1.629814505577e-09
     3.242340000000e+05                                                         
E12 2026 07 22 18 03 54-5.931133637205e-05-2.700062395888e-12 0.000000000000e+00
     3.100000000000e+01-3.131250000000e+01 2.660467962027e-09 1.140164629256e+00
    -1.432374119759e-06 3.111941041425e-04 2.237036824226e-06 5.440602493286e+03
     3.234000000000e+05 7.636845111847e-08 7.688305473926e-01 7.450580596924e-09
     9.945425554666e-01 3.054687500000e+02 8.653919678719e-01-5.579518123611e-09
    -2.500104139373e-12 5.160000000000e+02 1.404000000000e+03                   
     1.070000000000e+02 0.000000000000e+00-1.187436282635e-08-1.187436282635e-08
     3.242340000000e+05                                                         
E04 2026 07 22 18 03 54-1.177845406346e-04 3.356603883731e-11 0.000000000000e+00
     3.100000000000e+01-4.240625000000e+01 3.169417733256e-09 2.256466434313e-02
    -1.952052116394e-06 2.886706497520e-04 7.497146725655e-06 5.440611347198e+03
     3.234000000000e+05-4.097819328308e-08 2.851685164019e+00-3.539025783539e-08
     9.693857641338e-01 1.815000000000e+02-7.587313143761e-02-5.418082827755e-09
     2.546534644818e-10 5.160000000000e+02 1.404000000000e+03                   
     1.070000000000e+02 0.000000000000e+00-4.423782229424e-09-5.122274160385e-09
     3.242340000000e+05                                                         
END OF FILE                                                 COMMENT
