     3.05           N: NAVIGATION       M: MIXED            RINEX VERSION / TYPE
PYRINEXCONV 0.1.2 ALDELTUNES            20260722 202558 UTC PGM / RUN BY / DATE
GAL    1.1250e+02  3.1250e-02  2.0935e-02             U 09  IONOSPHERIC CORR
GPSA   1.3039e-08  2.2352e-08  1.5199e-05  1.5140e-05 U 23  IONOSPHERIC CORR
GPSB   1.1059e+05  1.4746e+05  1.6712e+07  1.6384e+07 U 23  IONOSPHERIC CORR
GAUT  3.7252902985e-09-1.776356839e-15 331800 1404   E09  0 TIME SYSTEM CORR
GPUT -3.9872247726e-09-3.108624469e-15  58800 2428   G23  0 TIME SYSTEM CORR
                                                            END OF HEADER
E19 2026 07 22 20 20 54 3.111899946816e-03 2.427213985357e-11 0.000000000000e+00
     4.400000000000e+01-4.440625000000e+01 3.171203521927e-09 1.985320604321e+00
    -1.953914761543e-06 2.388047287241e-04 7.726252079010e-06 5.440620237350e+03
     3.312000000000e+05-1.117587089539e-08 2.859746955917e+00 6.146728992462e-08
     9.747563968022e-01 1.813125000000e+02-2.483358416017e-01-5.417368512286e-09
     4.143029716675e-10 5.160000000000e+02 1.404000000000e+03                   
     1.070000000000e+02 0.000000000000e+00-4.656612873077e-09-4.889443516731e-09
     3.324540000000e+05                                                         
E06 2026 07 22 20 20 54-3.013499081135e-04-5.158540261618e-12 0.000000000000e+00
     4.400000000000e+01-4.400000000000e+01 3.309780722795e-09-8.762442862460e-01
    -2.015382051468e-06 5.017372313887e-04 7.590278983116e-06 5.440612672806e+03
     3.312000000000e+05 6.519258022308e-08 2.851284551218e+00-6.146728992462e-08
     9.626936234364e-01 1.778750000000e+02 1.396898640287e+00-5.522730043874e-09
     3.539433145883e-10 5.160000000000e+02 1.404000000000e+03                   
     1.070000000000e+02 0.000000000000e+00 2.095475792885e-09 3.492459654808e-09
     3.324540000000e+05                                                         
E09 2026 07 22 20 20 54-2.986572217196e-04 1.570299446030e-11-5.204170427930e-18
     4.400000000000e+01-4.456250000000e+01 3.080842615175e-09-2.547142024632e-01
    -2.047047019005e-06 4.922528751194e-04 7.804483175278e-06 5.440616647720e+03
     3.312000000000e+05-3.539025783539e-08 2.854804327728e+00-2.793967723846e-08
     9.751248195542e-01 1.808125000000e+02 3.887445303244e-01-5.355223066536e-09
     3.246563803842e-10 5.160000000000e+02 1.404000000000e+03                   
     1.070000000000e+02 0.000000000000e+00 4.656612873077e-10 6.984919309616e-10
     3.324540000000e+05                                                         
E10 2026 07 22 20 22 24-8.077536476776e-04-2.700062395888e-12 0.000000000000e+00
     3.800000000000e+01-3.165625000000e+01 2.589036415187e-09-2.020491062591e-01
    -1.432374119759e-06 2.875222126022e-04 2.076849341393e-06 5.440599302292e+03
     3.276000000000e+05 6.705522537231e-08 7.673416142411e-01 5.587935447693e-08
     9.974473343823e-01 3.106250000000e+02 2.360298728807e+00-5.594875906182e-09
    -1.678641350722e-11 5.160000000000e+02 1.404000000000e+03                   
     1.070000000000e+02 0.000000000000e+00-1.164153218269e-09-4.656612873077e-10
     3.325440000000e+05                                                         
E04 2026 07 22 20 22 24-1.175816287287e-04 3.360867140145e-11 0.000000000000e+00
     4.100000000000e+01-4.403125000000e+01 3.224777182056e-09 7.666759206837e-01
    -1.948326826096e-06 2.885161666200e-04 7.567927241325e-06 5.440611070633e+03
     3.294000000000e+05 8.940696716309e-08 2.851652276158e+00-6.519258022308e-08
     9.693869154503e-01 1.805937500000e+02-7.612940542674e-02-5.477728169365e-09
     3.260850113210e-10 5.160000000000e+02 1.404000000000e+03                   
     1.070000000000e+02 0.000000000000e+00-4.423782229424e-09-5.122274160385e-09
     3.325440000000e+05                                                         
G32 2026 07 22 20 23 12 1.778717560228e-04 2.013678113144e-11 0.000000000000e+00
     2.840042114258e-03-4.237890625000e+01 4.378753821244e-09-2.705799276361e+00
    -2.118758857250e-06 9.466660907492e-03 8.047558367252e-06 5.153647851545e+03
     2.673000000000e+05 2.123415470123e-07 2.641200308892e+00-4.470348358154e-08
     9.697165898912e-01 2.265742187500e+02-1.973301575131e+00-8.619052538756e-09
     3.976951370273e-10 4.378753821244e-09-2.000000000000e+00 3.000000000000e+00
     3.100000000000e+01 4.000000000000e+00 9.313225746155e-10 7.000000000000e+00
    -2.910383045673e-10-1.891748979688e-09 8.614733815193e-09 9.051291272044e-09
     3.325920000000e+05 2.428000000000e+03 0.000000000000e+00                   
G10 2026 07 22 20 23 12-5.626553611364e-04 5.254463530946e-12 0.000000000000e+00
    -2.123355865479e-03-7.987890625000e+01 3.646937623876e-09-1.267026303040e+00
    -4.110857844353e-06 1.113893336151e-02 7.128342986107e-06 5.153569558977e+03
     2.988000000000e+05 2.188608050346e-07 1.618089339847e+00 1.098960638046e-07
     9.942827807145e-01 2.578359375000e+02-2.265498197951e+00-8.697627240279e-09
     1.453631978178e-10 3.646937623876e-09-2.000000000000e+00 3.000000000000e+00
     2.900000000000e+01 4.000000000000e+00 2.328306436539e-09 7.000000000000e+00
    -8.149072527885e-10-4.656612873077e-10 1.059379428625e-08 1.103035174310e-08
     3.325920000000e+05 2.428000000000e+03 0.000000000000e+00                   
E12 2026 07 22 20 23 24-5.932553904131e-05-2.657429831743e-12 0.000000000000e+00
     4.000000000000e+01-3.609375000000e+01 2.615466087518e-09 1.805167668822e+00
    -1.598149538040e-06 3.104190109298e-04 1.857057213783e-06 5.440605669022e+03
     3.288000000000e+05 2.048909664154e-08 7.688006234033e-01 5.587935447693e-08
     9.945422760492e-01 3.170937500000e+02 8.698592559410e-01-5.633448941475e-09
    -1.357199389945e-11 5.160000000000e+02 1.404000000000e+03                   
     1.070000000000e+02 0.000000000000e+00-1.187436282635e-08-1.187436282635e-08
     3.326040000000e+05                                                         
G28 2026 07 22 20 23 48-4.641904961318e-04 1.086419842977e-11 0.000000000000e+00
     6.465911865234e-04-1.369921875000e+01 4.770734434524e-09 8.382446855815e-01
    -6.435438990593e-07 5.115366657265e-04 7.040798664093e-06 5.153606059073e+03
     2.826000000000e+05-9.313225746155e-09-2.611363154009e+00-2.235174179077e-08
     9.622253828580e-01 2.442148437500e+02-2.969733502463e-01-8.341540979286e-09
    -1.000041655749e-10 4.770734434524e-09-2.000000000000e+00 3.000000000000e+00
     3.000000000000e+01 4.000000000000e+00-9.313225746155e-09 7.000000000000e+00
    -3.492459654808e-10 5.966285243630e-09-7.566995918751e-10-6.693881005049e-10
     3.326280000000e+05 2.428000000000e+03 0.000000000000e+00                   
G23 2026 07 22 20 25 24 6.717246142216e-04 3.865352482535e-12 0.000000000000e+00
    -2.709865570068e-03-8.172656250000e+01 3.836588380734e-09-2.551626943790e-01
    -4.227273166180e-06 6.453427195083e-03 7.046386599541e-06 5.153491102254e+03
     3.069000000000e+05 5.122274160385e-08 1.585301279510e+00 6.984919309616e-08
     9.892091416285e-01 2.580585937500e+02-2.742862408303e+00-8.502083380807e-09
     1.112546342021e-10 3.836588380734e-09-2.000000000000e+00 3.000000000000e+00
     2.900000000000e+01 4.000000000000e+00-8.381903171539e-09 7.000000000000e+00
    -2.037268131971e-10 5.617039278150e-09-5.238689482212e-10-4.947651177645e-10
     3.327240000000e+05 2.428000000000e+03 0.000000000000e+00                   
E11 2026 07 22 20 26 05 5.526062741410e-03 6.670575203316e-11-3.469446951954e-18
     4.200000000000e+01-2.734375000000e+01 2.615823245252e-09 6.670936314245e-01
    -1.272186636925e-06 4.102120874450e-04 2.020969986916e-06 5.440605230331e+03
     3.300000000000e+05 9.313225746155e-08 7.687852788556e-01 1.862645149231e-09
     9.945301850313e-01 3.096875000000e+02 1.359874193750e+00-5.592018644308e-09
    -1.642925577302e-11 1.000000000000e+00 1.404000000000e+03                   
     1.070000000000e+02 0.000000000000e+00-1.466833055019e-08-1.606531441212e-08
     3.327650000000e+05                                                         
E28 2026 07 22 20 26 05-6.072223186493e-05-2.913225216616e-12 0.000000000000e+00
     4.400000000000e+01-4.087500000000e+01 3.574434603834e-09-6.978667890901e-01
    -1.769512891769e-06 2.859766827896e-04 7.554888725281e-06 5.440612066269e+03
     3.312000000000e+05 6.519258022308e-08 2.869311647444e+00 6.146728992462e-08
     9.490859368960e-01 1.723125000000e+02 1.977458238879e+00-5.667021768489e-09
     3.953736117551e-10 1.000000000000e+00 1.404000000000e+03                   
     1.070000000000e+02 0.000000000000e+00 6.984919309616e-10 1.629814505577e-09
     3.327650000000e+05                                                         
E36 2026 07 22 20 26 05-5.975461099297e-04-5.385913937062e-12 0.000000000000e+00
     4.300000000000e+01-2.215625000000e+01 2.577250209959e-09 7.958523456904e-01
    -1.259148120880e-06 8.310226257890e-05 2.037733793259e-06 5.440599887848e+03
     3.306000000000e+05 3.166496753693e-08 7.692798768290e-01-5.587935447693e-08
     9.976348936463e-01 3.111875000000e+02 5.500556412596e-01-5.530587514026e-09
    -3.571577341961e-12 1.000000000000e+00 1.404000000000e+03                   
     1.070000000000e+02 0.000000000000e+00 4.423782229424e-09 5.122274160385e-09
     3.327650000000e+05                                                         
E19 2026 07 22 20 26 05 3.111914556939e-03 2.428635070828e-11 0.000000000000e+00
     4.500000000000e+01-4.437500000000e+01 3.169060575522e-09 2.059712428799e+00
    -1.955777406693e-06 2.388083375990e-04 7.726252079010e-06 5.440620229721e+03
     3.318000000000e+05-1.490116119385e-08 2.859743649722e+00 5.215406417847e-08
     9.747566498870e-01 1.813125000000e+02-2.483425300632e-01-5.412011146273e-09
     4.178745490094e-10 1.000000000000e+00 1.404000000000e+03                   
     1.070000000000e+02 0.000000000000e+00-4.656612873077e-09-4.889443516731e-09
     3.327650000000e+05                                                         
E06 2026 07 22 20 26 05-3.013530513272e-04-5.158540261618e-12 0.000000000000e+00
     4.500000000000e+01-4.381250000000e+01 3.309066407327e-09-8.018455348508e-01
    -2.006068825722e-06 5.017723888159e-04 7.601454854012e-06 5.440612741470e+03
     3.318000000000e+05 6.332993507385e-08 2.851281246486e+00-6.519258022308e-08
     9.626938501887e-01 1.776562500000e+02 1.396885414044e+00-5.522372886140e-09
     3.518003681831e-10 1.000000000000e+00 1.404000000000e+03                   
     1.070000000000e+02 0.000000000000e+00 2.095475792885e-09 3.492459654808e-09
     3.327650000000e+05                                                         
E09 2026 07 22 20 26 05-2.986477920786e-04 1.567457275087e-11-5.204170427930e-18
     4.500000000000e+01-4.518750000000e+01 3.086557138923e-09-1.802554172988e-01
    -2.084299921989e-06 4.921824438497e-04 7.798895239830e-06 5.440616489410e+03
     3.318000000000e+05-1.862645149231e-08 2.854801096142e+00-4.284083843231e-08
     9.751249321989e-01 1.809375000000e+02 3.886708987316e-01-5.365580640828e-09
     3.335853237391e-10 1.000000000000e+00 1.404000000000e+03                   
     1.070000000000e+02 0.000000000000e+00 4.656612873077e-10 6.984919309616e-10
     3.327650000000e+05                                                         
E10 2026 07 22 20 26 05-8.077655220404e-04-2.742694960034e-12 0.000000000000e+00
     4.500000000000e+01-3.337500000000e+01 2.550106222160e-09 3.163445916963e-01
    -1.488253474236e-06 2.883417764679e-04 1.821666955948e-06 5.440601387024e+03
     3.318000000000e+05 3.539025783539e-08 7.673182104777e-01 5.774199962616e-08
     9.974471295737e-01 3.189062500000e+02 2.362604888960e+00-5.620234105310e-09
    -1.750072897561e-11 1.000000000000e+00 1.404000000000e+03                   
     1.070000000000e+02 0.000000000000e+00-1.164153218269e-09-4.656612873077e-10
     3.327650000000e+05                                                         
E04 2026 07 22 20 26 05-1.175008364953e-04 3.363709311088e-11 0.000000000000e+00
     4.500000000000e+01-4.375000000000e+01 3.224420024322e-09 1.063208051912e+00
    -1.933425664902e-06 2.885122084990e-04 7.698312401772e-06 5.440611652374e+03
     3.318000000000e+05 1.043081283569e-07 2.851638871439e+00 1.303851604462e-08
     9.693874933030e-01 1.782812500000e+02-7.511914199664e-02-5.481299746707e-09
     3.735869899691e-10 1.000000000000e+00 1.404000000000e+03                   
     1.070000000000e+02 0.000000000000e+00-4.423782229424e-09-5.122274160385e-09
     3.327650000000e+05                                                         
E12 2026 07 22 20 26 05-5.933333886787e-05-2.643218977028e-12 0.000000000000e+00
     4.500000000000e+01-3.793750000000e+01 2.614037456581e-09 2.177530152837e+00
    -1.702457666397e-06 3.107010852545e-04 1.953914761543e-06 5.440605045319e+03
     3.318000000000e+05 2.421438694000e-08 7.687837164590e-01 6.519258022308e-08
     9.945422731234e-01 3.154375000000e+02 8.694234628856e-01-5.627377259993e-09
    -1.607209803882e-11 1.000000000000e+00 1.404000000000e+03                   
     1.070000000000e+02 0.000000000000e+00-1.187436282635e-08-1.187436282635e-08
     3.327650000000e+05                                                         
END OF FILE                                                 COMMENT
