     3.05           N: NAVIGATION       M: MIXED            RINEX VERSION / TYPE
PYRINEXCONV 0.1.2 ALDELTUNES            20260722 165258 UTC PGM / RUN BY / DATE
GAL    1.1250e+02  3.1250e-02  2.0935e-02             Q 12  IONOSPHERIC CORR
GPSA   1.3039e-08  2.2352e-08  1.5199e-05  1.5140e-05 Q 10  IONOSPHERIC CORR
GPSB   1.1059e+05  1.4746e+05  1.6712e+07  1.6384e+07 Q 10  IONOSPHERIC CORR
GAUT  3.7252902985e-09-1.776356839e-15 316200 1404   E12  0 TIME SYSTEM CORR
GPUT -4.0454324335e-09-1.537880934e-12  30300 2428   G10  0 TIME SYSTEM CORR
                                                            END OF HEADER
E31 2026 07 22 16 45 05-1.584594137967e-04-2.970068635477e-12 0.000000000000e+00
     2.300000000000e+01 6.131250000000e+01 2.939050994700e-09-1.330756393722e+00
     3.002583980560e-06 3.461659653112e-04 9.456649422646e-06 5.440611083984e+03
     3.186000000000e+05-4.284083843231e-08-1.329837205720e+00 1.452863216400e-07
     9.605886028167e-01 1.371562500000e+02-1.402633282083e+00-5.350937173726e-09
    -2.071514858337e-10 1.000000000000e+00 1.404000000000e+03                   
     1.070000000000e+02 0.000000000000e+00 3.492459654808e-09 3.958120942116e-09
     3.195050000000e+05                                                         
E10 2026 07 22 16 47 24-8.077201782726e-04-2.685851541173e-12 0.000000000000e+00
     1.700000000000e+01-2.803125000000e+01 2.642610075317e-09-1.757147646195e+00
    -1.562759280205e-06 2.886077854782e-04 3.460794687271e-06 5.440602785110e+03
     3.150000000000e+05 2.048909664154e-08 7.674109843535e-01-5.029141902924e-08
     9.974473519373e-01 2.865312500000e+02 2.353299533309e+00-5.534159091368e-09
     5.357366012941e-12 5.160000000000e+02 1.404000000000e+03                   
     1.070000000000e+02 0.000000000000e+00-1.164153218269e-09-4.656612873077e-10
     3.196440000000e+05                                                         
E29 2026 07 22 16 50 54-2.276689046994e-04-3.694822225953e-12 0.000000000000e+00
     2.300000000000e+01-4.131250000000e+01 3.361925751988e-09-5.344509281750e-01
    -1.730397343636e-06 1.984949922189e-04 7.344409823418e-06 5.440614048004e+03
     3.186000000000e+05 1.154839992523e-07 2.851386241579e+00 9.313225746155e-09
     9.627714667704e-01 1.815625000000e+02 1.457476683788e+00-5.581303912282e-09
     2.850118718885e-10 5.160000000000e+02 1.404000000000e+03                   
     1.070000000000e+02 0.000000000000e+00-3.492459654808e-09-3.492459654808e-09
     3.198540000000e+05                                                         
E33 2026 07 22 16 50 54-2.542114816606e-05-2.046363078989e-12 0.000000000000e+00
     2.300000000000e+01-3.918750000000e+01 2.669039747647e-09-1.062179607336e+00
    -1.734122633934e-06 1.706553157419e-04 2.330169081688e-06 5.440603998184e+03
     3.186000000000e+05 4.284083843231e-08 7.693210448066e-01 5.960464477539e-08
     9.976479604306e-01 3.070625000000e+02-2.997364701231e+00-5.581303912282e-09
    -1.642925577302e-11 5.160000000000e+02 1.404000000000e+03                   
     1.070000000000e+02 0.000000000000e+00-4.423782229424e-09-5.122274160385e-09
     3.198540000000e+05                                                         
E16 2026 07 22 16 50 55-4.676135722548e-05-2.515321284591e-12 0.000000000000e+00
     2.300000000000e+01 6.809375000000e+01 2.965123509296e-09-1.096986722106e+00
     3.200024366379e-06 4.933434538543e-04 9.078532457352e-06 5.440617738724e+03
     3.186000000000e+05 5.960464477539e-08-1.333072503181e+00 2.048909664154e-08
     9.625620793057e-01 1.468750000000e+02-2.464397049103e+00-5.454512916643e-09
    -1.982225424788e-10 1.000000000000e+00 1.404000000000e+03                   
     1.070000000000e+02 0.000000000000e+00-3.958120942116e-09-2.793967723846e-09
     3.198550000000e+05                                                         
E28 2026 07 22 16 51 05-6.068381480873e-05-2.856381797756e-12 0.000000000000e+00
     2.200000000000e+01-3.700000000000e+01 3.484788012551e-09-2.333319371226e+00
    -1.780688762665e-06 2.854934427887e-04 7.160007953644e-06 5.440611890793e+03
     3.180000000000e+05-5.587935447693e-08 2.869387053557e+00-6.332993507385e-08
     9.490830959090e-01 1.789375000000e+02 1.976425194888e+00-5.625948629057e-09
     2.335811581642e-10 1.000000000000e+00 1.404000000000e+03                   
     1.070000000000e+02 0.000000000000e+00 6.984919309616e-10 1.629814505577e-09
     3.198650000000e+05                                                         
E10 2026 07 22 16 51 24-8.077294914983e-04-2.700062395888e-12 0.000000000000e+00
     2.300000000000e+01-2.990625000000e+01 2.639038497975e-09-1.315026109602e+00
    -1.685693860054e-06 2.875666832551e-04 2.684071660042e-06 5.440599592209e+03
     3.186000000000e+05 3.166496753693e-08 7.673909818746e-01-2.793967723846e-08
     9.974473168273e-01 2.988125000000e+02 2.357490309380e+00-5.537016353242e-09
     2.071514858337e-11 5.160000000000e+02 1.404000000000e+03                   
     1.070000000000e+02 0.000000000000e+00-1.164153218269e-09-4.656612873077e-10
     3.198840000000e+05                                                         
E04 2026 07 22 16 52 05-1.179252285510e-04 3.360867140145e-11 0.000000000000e+00
     2.400000000000e+01-3.818750000000e+01 3.129058909292e-09-4.992988646361e-01
    -1.827254891396e-06 2.894084900618e-04 7.349997758865e-06 5.440612966537e+03
     3.192000000000e+05-2.607703208923e-08 2.851707940191e+00-5.401670932770e-08
     9.693846186690e-01 1.865000000000e+02-7.470678342597e-02-5.423083036033e-09
     2.610823036973e-10 1.000000000000e+00 1.404000000000e+03                   
     1.070000000000e+02 0.000000000000e+00-4.423782229424e-09-5.122274160385e-09
     3.199250000000e+05                                                         
G15 2026 07 22 16 52 48 4.304455069359e-04 3.094413614235e-12 0.000000000000e+00
    -5.087852478027e-04-3.619140625000e+01 5.123070539309e-09-2.446650246518e-01
    -1.792795956135e-06 1.702896616189e-02 7.861293852329e-06 5.153468801259e+03
     3.132000000000e+05-1.536682248116e-07 2.476419311342e+00 3.818422555923e-08
     9.447585462199e-01 2.222304687500e+02 1.538320984215e+00-7.797232592371e-09
     2.771544017362e-10 5.123070539309e-09-2.000000000000e+00 2.000000000000e+00
     2.800000000000e+01 4.000000000000e+00-1.071020960808e-08 7.000000000000e+00
    -2.037268131971e-10 6.199115887284e-09 0.000000000000e+00 0.000000000000e+00
     3.199680000000e+05 2.428000000000e+03 0.000000000000e+00                   
G18 2026 07 22 16 52 48-2.981184807140e-04 9.023892744153e-12 0.000000000000e+00
    -3.716945648193e-03 9.296875000000e-01 4.340895101419e-09-1.136151294908e+00
    -1.583248376846e-08 6.298804888502e-03 3.834255039692e-06 5.153604479474e+03
     2.556000000000e+05 1.257285475731e-07 5.757170413142e-01-5.494803190231e-08
     9.708342351656e-01 3.104257812500e+02-2.858762650505e+00-8.210999827437e-09
     8.589643507416e-11 4.340895101419e-09-2.000000000000e+00 3.000000000000e+00
     3.100000000000e+01 4.000000000000e+00-8.381903171539e-09 7.000000000000e+00
    -8.731149137020e-11 5.209585651755e-09-8.440110832453e-10-9.313225746155e-10
     3.199680000000e+05 2.428000000000e+03 0.000000000000e+00                   
G29 2026 07 22 16 52 48-2.769816492219e-04 7.361222742475e-12 0.000000000000e+00
     4.135608673096e-03 7.793750000000e+01 4.432148902506e-09 6.250214789505e-01
     4.087574779987e-06 3.655197098851e-03 6.358139216900e-06 5.153535993882e+03
     3.177000000000e+05 6.798654794693e-08-4.188598605430e-01 5.587935447693e-09
     9.601422526130e-01 2.550507812500e+02 2.870784530922e+00-8.231536397153e-09
     9.375390522647e-11 4.432148902506e-09-2.000000000000e+00 2.000000000000e+00
     2.600000000000e+01 4.000000000000e+00-9.778887033463e-09 7.000000000000e+00
    -9.604264050722e-10 5.355104804039e-09 0.000000000000e+00 0.000000000000e+00
     3.199680000000e+05 2.428000000000e+03 0.000000000000e+00                   
G23 2026 07 22 16 52 48 6.716689676978e-04 3.865352482535e-12 0.000000000000e+00
    -7.344245910645e-03-5.956250000000e+01 3.866946788141e-09-2.356054698129e+00
    -3.072433173656e-06 6.451646331698e-03 6.514601409435e-06 5.153492699131e+03
     3.069000000000e+05 1.955777406693e-08 1.585412350834e+00-1.285225152969e-07
     9.892076428689e-01 2.691015625000e+02-2.742255327290e+00-8.661554309125e-09
     1.237551548989e-10 3.866946788141e-09-2.000000000000e+00 3.000000000000e+00
     2.800000000000e+01 4.000000000000e+00-8.381903171539e-09 7.000000000000e+00
    -2.037268131971e-10 5.617039278150e-09-5.238689482212e-10-4.947651177645e-10
     3.199680000000e+05 2.428000000000e+03 0.000000000000e+00                   
G20 2026 07 22 16 52 48 2.383694227319e-04 1.175592956315e-11 0.000000000000e+00
     2.060413360596e-03-3.732031250000e+01 4.648407910562e-09-2.840104991236e+00
    -1.857057213783e-06 1.910104823764e-03 7.723458111286e-06 5.153607380394e+03
     2.601000000000e+05 1.350417733192e-07 2.628723817904e+00 3.073364496231e-08
     9.621124463138e-01 2.285078125000e+02-1.761480996800e+00-8.343683925691e-09
     2.759043496665e-10 4.648407910562e-09-3.000000000000e+00 2.000000000000e+00
     3.000000000000e+01 4.000000000000e+00-6.984919309616e-09 7.000000000000e+00
    -1.455191522837e-10 4.220055416226e-09 2.095475792885e-09 2.066371962428e-09
     3.199680000000e+05 2.428000000000e+03 0.000000000000e+00                   
G10 2026 07 22 16 52 48-5.627309728879e-04 5.247358103588e-12 0.000000000000e+00
    -7.446765899658e-03-6.226562500000e+01 3.673188717340e-09 2.915439619602e+00
    -3.258697688580e-06 1.113900891505e-02 6.675720214844e-06 5.153568552393e+03
     2.988000000000e+05-6.519258022308e-09 1.618197755243e+00-1.406297087669e-07
     9.942809140310e-01 2.703007812500e+02-2.265158622480e+00-8.889599522410e-09
     8.143196339671e-11 3.673188717340e-09-2.000000000000e+00 3.000000000000e+00
     2.800000000000e+01 4.000000000000e+00 2.328306436539e-09 7.000000000000e+00
    -8.149072527885e-10-4.656612873077e-10 1.059379428625e-08 1.103035174310e-08
     3.199680000000e+05 2.428000000000e+03 0.000000000000e+00                   
E18 2026 07 22 16 53 05 3.030107822269e-03 4.202149739285e-11 0.000000000000e+00
     2.100000000000e+01 3.812500000000e+01 7.832111953186e-09-5.671334865176e-01
     2.300366759300e-06 1.681723010261e-01 1.393258571625e-06 5.289311439514e+03
     3.174000000000e+05 2.220273017883e-06-4.317381551471e-01-2.644956111908e-07
     8.525040384894e-01 2.658750000000e+02-3.128188987068e+00-1.167798643501e-08
     1.864363372504e-10 1.000000000000e+00 1.404000000000e+03                   
     1.070000000000e+02 1.440000000000e+02-3.259629011154e-09-3.958120942116e-09
     3.199850000000e+05                                                         
E19 2026 07 22 16 53 05 3.111564787105e-03 2.428635070828e-11 0.000000000000e+00
     2.100000000000e+01-4.365625000000e+01 3.121201439140e-09 2.770585352515e-01
    -2.022832632065e-06 2.390185836703e-04 7.290393114090e-06 5.440618865967e+03
     3.174000000000e+05 2.421438694000e-08 2.859823419719e+00-1.043081283569e-07
     9.747530672007e-01 1.860312500000e+02-2.509328444973e-01-5.438083660870e-09
     2.257236880119e-10 1.000000000000e+00 1.404000000000e+03                   
     1.070000000000e+02 0.000000000000e+00-4.656612873077e-09-4.889443516731e-09
     3.199850000000e+05                                                         
E12 2026 07 22 16 53 05-5.929265171289e-05-2.685851541173e-12 0.000000000000e+00
     1.900000000000e+01-3.046875000000e+01 2.708684256143e-09 2.473326060301e-01
    -1.655891537666e-06 3.116654697806e-04 2.622604370117e-06 5.440602838516e+03
     3.162000000000e+05 3.166496753693e-08 7.688703987440e-01 1.862645149231e-09
     9.945424355073e-01 2.985937500000e+02 8.655969109915e-01-5.560945921433e-09
     2.178662178596e-11 1.000000000000e+00 1.404000000000e+03                   
     1.070000000000e+02 0.000000000000e+00-1.187436282635e-08-1.187436282635e-08
     3.199850000000e+05                                                         
E29 2026 07 22 16 53 05-2.276708837599e-04-3.680611371237e-12 0.000000000000e+00
     2.400000000000e+01-4.134375000000e+01 3.364068698393e-09-4.601146214380e-01
    -1.735985279083e-06 1.985437702388e-04 7.381662726402e-06 5.440614149094e+03
     3.192000000000e+05 1.117587089539e-07 2.851382822740e+00 2.793967723846e-08
     9.627715808780e-01 1.811562500000e+02 1.457525915370e+00-5.580589596814e-09
     2.964409193827e-10 1.000000000000e+00 1.404000000000e+03                   
     1.070000000000e+02 0.000000000000e+00-3.492459654808e-09-3.492459654808e-09
     3.199850000000e+05                                                         
E33 2026 07 22 16 53 05-2.542231231928e-05-2.032152224274e-12 0.000000000000e+00
     2.400000000000e+01-3.993750000000e+01 2.660110804292e-09-9.873386801734e-01
    -1.760199666023e-06 1.708692871034e-04 2.268701791763e-06 5.440604446411e+03
     3.192000000000e+05 4.097819328308e-08 7.693177020388e-01 6.146728992462e-08
     9.976479472643e-01 3.087812500000e+02-2.997819949634e+00-5.582375385485e-09
    -1.678641350722e-11 1.000000000000e+00 1.404000000000e+03                   
     1.070000000000e+02 0.000000000000e+00-4.423782229424e-09-5.122274160385e-09
     3.199850000000e+05                                                         
E10 2026 07 22 16 53 05-8.077311795205e-04-2.700062395888e-12 0.000000000000e+00
     2.400000000000e+01-2.912500000000e+01 2.639395655709e-09-1.241189683435e+00
    -1.637265086174e-06 2.873381599784e-04 2.555549144745e-06 5.440599039078e+03
     3.192000000000e+05 3.352761268616e-08 7.673876669023e-01-2.980232238770e-08
     9.974473343823e-01 3.009062500000e+02 2.358039324980e+00-5.537373510976e-09
     1.964367538078e-11 1.000000000000e+00 1.404000000000e+03                   
     1.070000000000e+02 0.000000000000e+00-1.164153218269e-09-4.656612873077e-10
     3.199850000000e+05                                                         
E16 2026 07 22 16 53 05-4.676275420934e-05-2.501110429876e-12 0.000000000000e+00
     2.400000000000e+01 6.671875000000e+01 2.970838033043e-09-1.022840183639e+00
     3.140419721603e-06 4.930599825457e-04 9.171664714813e-06 5.440617132187e+03
     3.192000000000e+05 6.519258022308e-08-1.333075791820e+00 2.607703208923e-08
     9.625619959193e-01 1.447812500000e+02-2.464158744137e+00-5.448798392895e-09
    -1.996511734156e-10 1.000000000000e+00 1.404000000000e+03                   
     1.070000000000e+02 0.000000000000e+00-3.958120942116e-09-2.793967723846e-09
     3.199850000000e+05                                                         
E28 2026 07 22 16 53 05-6.068736547604e-05-2.856381797756e-12 0.000000000000e+00
     2.400000000000e+01-3.818750000000e+01 3.494788429109e-09-2.185257337334e+00
    -1.804903149605e-06 2.854970516637e-04 7.184222340584e-06 5.440611495972e+03
     3.192000000000e+05-4.842877388000e-08 2.869380291949e+00-5.774199962616e-08
     9.490834148252e-01 1.777187500000e+02 1.977134249338e+00-5.619162632107e-09
     2.325096849617e-10 1.000000000000e+00 1.404000000000e+03                   
     1.070000000000e+02 0.000000000000e+00 6.984919309616e-10 1.629814505577e-09
     3.199850000000e+05                                                         
END OF FILE                                                 COMMENT
