     3.05           N: NAVIGATION       M: MIXED            RINEX VERSION / TYPE
PYRINEXCONV 0.1.2 ALDELTUNES            20260722 185534 UTC PGM / RUN BY / DATE
GAL    1.1250e+02  3.1250e-02  2.0935e-02             S 28  IONOSPHERIC CORR
GPSA   1.3039e-08  2.2352e-08  1.5199e-05  1.5140e-05 S 18  IONOSPHERIC CORR
GPSB   1.1059e+05  1.4746e+05  1.6712e+07  1.6384e+07 S 18  IONOSPHERIC CORR
GAUT  3.7252902985e-09-1.776356839e-15 324600 1404   E28  0 TIME SYSTEM CORR
GPUT -4.5401975513e-09 1.190603172e-12  44700 2428   G18  0 TIME SYSTEM CORR
                                                            END OF HEADER
G23 2026 07 22 18 46 24 6.717038340867e-04 3.865352482535e-12 0.000000000000e+00
     8.000000000000e+00-7.718750000000e+01 3.804444184657e-09-1.042908095937e+00
    -3.946945071220e-06 6.453909911215e-03 6.910413503647e-06 5.153732009888e+03
     3.312000000000e+05 1.341104507446e-07 1.585343107264e+00-2.421438694000e-08
     9.892089492548e-01 2.590000000000e+02-2.742720372124e+00-7.727107579332e-09
     1.357199389945e-10 1.000000000000e+00 3.800000000000e+02 0.000000000000e+00
     2.000000000000e+00 0.000000000000e+00-8.381903171539e-09 5.200000000000e+02
     1.307136000000e+06 4.000000000000e+00                                      
G18 2026 07 22 18 46 24-2.980371937156e-04 8.981260180008e-12 0.000000000000e+00
     5.500000000000e+01-9.375000000000e-01 4.323751530178e-09 1.765889569189e-01
     0.000000000000e+00 6.301032728516e-03 3.201887011528e-06 5.153620307922e+03
     3.312000000000e+05 8.568167686462e-08 5.756434740898e-01 9.872019290924e-08
     9.708340588840e-01 3.230937500000e+02-2.858734604902e+00-8.266772915703e-09
     2.857261873569e-11 1.000000000000e+00 3.800000000000e+02 0.000000000000e+00
     2.000000000000e+00 0.000000000000e+00-8.381903171539e-09 3.110000000000e+02
     1.307136000000e+06 4.000000000000e+00                                      
G24 2026 07 22 18 46 24 1.246402971447e-04 1.853095454862e-11 0.000000000000e+00
     3.900000000000e+01-8.687500000000e+00 5.534516249103e-09 3.673181654645e-01
    -2.440065145493e-07 1.844356034417e-02 6.923452019691e-06 5.153623254776e+03
     3.312000000000e+05-2.197921276093e-07-2.698211924888e+00 1.247972249985e-07
     9.354922241490e-01 2.342187500000e+02 1.162828890525e+00-8.706434086498e-09
    -1.550064566411e-10 1.000000000000e+00 3.800000000000e+02 0.000000000000e+00
     2.000000000000e+00 0.000000000000e+00 2.328306436539e-09 3.900000000000e+01
     1.307136000000e+06 4.000000000000e+00                                      
G10 2026 07 22 18 46 24-5.626836791635e-04 5.229594535194e-12 0.000000000000e+00
     2.800000000000e+01-7.209375000000e+01 3.659438144573e-09-2.054753266710e+00
    -3.846362233162e-06 1.113982324023e-02 6.832182407379e-06 5.153651752472e+03
     3.312000000000e+05 1.452863216400e-07 1.618129534253e+00-5.401670932770e-08
     9.942821765293e-01 2.613437500000e+02-2.265410275111e+00-7.510669992409e-09
     2.278666344171e-10 1.000000000000e+00 3.800000000000e+02 0.000000000000e+00
     2.000000000000e+00 0.000000000000e+00 2.328306436539e-09 2.800000000000e+01
     1.307136000000e+06 4.000000000000e+00                                      
G32 2026 07 22 18 46 24 1.777629368007e-04 2.012257027673e-11 0.000000000000e+00
     1.090000000000e+02-3.903125000000e+01 4.353038464382e-09 2.789593668859e+00
    -1.985579729080e-06 9.466584655456e-03 7.921829819679e-06 5.153574169159e+03
     3.312000000000e+05 2.607703208923e-08 2.641242617945e+00-1.639127731323e-07
     9.697150348093e-01 2.290937500000e+02-1.973192018659e+00-7.655676032493e-09
     2.489389407347e-10 1.000000000000e+00 3.800000000000e+02 0.000000000000e+00
     2.000000000000e+00 0.000000000000e+00 9.313225746155e-10 1.090000000000e+02
     1.307136000000e+06 4.000000000000e+00                                      
G27 2026 07 22 18 46 24 5.443580448627e-07 0.000000000000e+00 0.000000000000e+00
     8.000000000000e+00 7.875000000000e+01 4.526974280935e-09 2.282824695394e+00
     3.904104232788e-06 1.433082099538e-02 6.832182407379e-06 5.153676126480e+03
     3.312000000000e+05-7.450580596924e-08-5.096237527663e-01-2.924352884293e-07
     9.508980067074e-01 2.408125000000e+02 9.005135632159e-01-7.985689778890e-09
     1.928651764659e-11 1.000000000000e+00 3.800000000000e+02 0.000000000000e+00
     2.000000000000e+00 0.000000000000e+00 2.328306436539e-09 8.000000000000e+00
     1.307136000000e+06 4.000000000000e+00                                      
G08 2026 07 22 18 46 24 3.927182406187e-04-9.322320693173e-12 0.000000000000e+00
     2.000000000000e+00 7.759375000000e+01 4.781984903151e-09 2.131546162539e+00
     3.941357135773e-06 1.168756536208e-02 6.649643182755e-06 5.153753910065e+03
     3.311840000000e+05-2.607703208923e-07-5.428504654323e-01-3.911554813385e-08
     9.417726953101e-01 2.424062500000e+02 5.448382682779e-01-8.209984835965e-09
    -5.964534161075e-11 1.000000000000e+00 3.800000000000e+02 0.000000000000e+00
     2.000000000000e+00 0.000000000000e+00 4.656612873077e-09 2.000000000000e+00
     1.307136000000e+06 4.000000000000e+00                                      
E10 2026 07 22 18 50 54-8.077485254034e-04-2.700062395888e-12 0.000000000000e+00
     3.500000000000e+01-2.756250000000e+01 2.612608825644e-09-4.244227469796e-01
    -1.303851604462e-06 2.869014861062e-04 2.186745405197e-06 5.440598001480e+03
     3.258000000000e+05 7.636845111847e-08 7.673515211224e-01 3.166496753693e-08
     9.974474089911e-01 3.070312500000e+02 2.359514831469e+00-5.577732334940e-09
    -1.071473202588e-11 5.160000000000e+02 1.404000000000e+03                   
     1.070000000000e+02 0.000000000000e+00-1.164153218269e-09-4.656612873077e-10
     3.270540000000e+05                                                         
E06 2026 07 22 18 50 54-3.013216191903e-04-5.101696842758e-12 0.000000000000e+00
     3.500000000000e+01-4.006250000000e+01 3.271922002970e-09-1.545085595680e+00
    -1.836568117142e-06 5.021182587370e-04 7.569789886475e-06 5.440613658905e+03
     3.258000000000e+05-4.284083843231e-08 2.851314359637e+00-4.284083843231e-08
     9.626923843448e-01 1.785000000000e+02 1.396270978211e+00-5.477728169365e-09
     2.975123925853e-10 5.160000000000e+02 1.404000000000e+03                   
     1.070000000000e+02 0.000000000000e+00 2.095475792885e-09 3.492459654808e-09
     3.270540000000e+05                                                         
E33 2026 07 22 18 53 05-2.543558366597e-05-2.060573933704e-12 0.000000000000e+00
     3.500000000000e+01-4.231250000000e+01 2.636181236101e-09-1.678327909551e-01
    -1.911073923111e-06 1.711811637506e-04 2.220273017883e-06 5.440605022430e+03
     3.258000000000e+05 7.450580596924e-09 7.692808642987e-01 5.960464477539e-08
     9.976477131974e-01 3.125312500000e+02-2.999086048178e+00-5.605590638208e-09
    -1.642925577302e-11 1.000000000000e+00 1.404000000000e+03                   
     1.070000000000e+02 0.000000000000e+00-4.423782229424e-09-5.122274160385e-09
     3.271850000000e+05                                                         
G24 2026 07 22 18 54 24 1.246067695320e-04 1.857003439909e-11 0.000000000000e+00
     1.955509185791e-03-1.205078125000e+01 5.535230564571e-09 1.047298759283e-01
    -5.401670932770e-07 1.844316843199e-02 6.870366632938e-06 5.153600061486e+03
     2.844000000000e+05-1.695007085800e-07-2.698196457456e+00 1.760199666023e-07
     9.354924684563e-01 2.349101562500e+02 1.162863662625e+00-7.615082147931e-09
    -1.116117919363e-10 5.535230564571e-09-2.000000000000e+00 3.000000000000e+00
     2.900000000000e+01 4.000000000000e+00 2.328306436539e-09 7.000000000000e+00
     2.910383045673e-11-1.426087692380e-09 1.484295353293e-09 2.764863893390e-09
     3.272640000000e+05 2.428000000000e+03 0.000000000000e+00                   
G32 2026 07 22 18 54 24 1.777267607395e-04 2.013678113144e-11 0.000000000000e+00
    -4.674434661865e-03-4.019531250000e+01 4.354288516452e-09 2.526870164731e+00
    -2.005137503147e-06 9.467360679992e-03 7.748603820801e-06 5.153648096366e+03
     2.673000000000e+05 2.048909664154e-08 2.641256296229e+00-2.020969986916e-07
     9.697144891408e-01 2.356484375000e+02-1.973031821815e+00-8.654411154441e-09
     2.600108304947e-10 4.354288516452e-09-2.000000000000e+00 3.000000000000e+00
     3.000000000000e+01 4.000000000000e+00 9.313225746155e-10 7.000000000000e+00
    -2.910383045673e-10-1.891748979688e-09 8.614733815193e-09 9.051291272044e-09
     3.272640000000e+05 2.428000000000e+03 0.000000000000e+00                   
G10 2026 07 22 18 54 24-5.626931670122e-04 5.250910817267e-12 0.000000000000e+00
     3.091812133789e-03-7.529687500000e+01 3.695332496860e-09-2.317258995733e+00
    -3.830529749393e-06 1.114093395881e-02 6.755813956261e-06 5.153571733403e+03
     2.988000000000e+05 1.452863216400e-07 1.618143075754e+00-6.146728992462e-08
     9.942817625235e-01 2.657421875000e+02-2.265449371597e+00-8.825311130254e-09
     2.232235838726e-10 3.695332496860e-09-2.000000000000e+00 3.000000000000e+00
     2.900000000000e+01 4.000000000000e+00 2.328306436539e-09 7.000000000000e+00
    -8.149072527885e-10-4.656612873077e-10 1.059379428625e-08 1.103035174310e-08
     3.272640000000e+05 2.428000000000e+03 0.000000000000e+00                   
G27 2026 07 22 18 54 24 5.444162525237e-07 3.552713678801e-15 0.000000000000e+00
    -7.489681243896e-03 6.823046875000e+01 4.568404578102e-09 2.020167554350e+00
     3.491528332233e-06 1.433306600666e-02 6.917864084244e-06 5.153545802823e+03
     3.069000000000e+05-2.048909664154e-07-5.096092325729e-01-2.244487404823e-07
     9.508975005377e-01 2.393789062500e+02 9.006207585382e-01-8.242251129179e-09
     4.285892810353e-12 4.568404578102e-09-2.000000000000e+00 1.000000000000e+00
     2.800000000000e+01 4.000000000000e+00 2.328306436539e-09 7.000000000000e+00
    -9.022187441587e-10-1.688022166491e-09 6.664777174592e-09 5.326000973582e-09
     3.272640000000e+05 2.428000000000e+03 0.000000000000e+00                   
G08 2026 07 22 18 54 24 3.927373909391e-04-9.276135415348e-12 0.000000000000e+00
    -4.906177520752e-03 7.155078125000e+01 4.782877797487e-09 1.827488257718e+00
     3.713183104992e-06 1.168901857454e-02 6.807968020439e-06 5.153467397092e+03
     3.195000000000e+05-2.142041921616e-07-5.428330303746e-01 5.774199962616e-08
     9.417726287473e-01 2.369531250000e+02 5.449373465992e-01-8.062957946613e-09
    -1.007184810433e-10 4.782877797487e-09-2.000000000000e+00 2.000000000000e+00
     2.700000000000e+01 4.000000000000e+00 4.656612873077e-09 7.000000000000e+00
    -1.047737896442e-09-4.685716703534e-09 6.257323548198e-09 6.839400157332e-09
     3.272640000000e+05 2.428000000000e+03 0.000000000000e+00                   
G23 2026 07 22 18 55 12 6.716967909597e-04 3.865352482535e-12 0.000000000000e+00
     7.329463958740e-03-7.666796875000e+01 3.808908656334e-09-1.305600771261e+00
    -3.942288458347e-06 6.456336879637e-03 6.474554538727e-06 5.153491371906e+03
     3.069000000000e+05 8.102506399155e-08 1.585356821389e+00-5.867332220078e-08
     9.892087810192e-01 2.691914062500e+02-2.742557813398e+00-8.640124845074e-09
     1.653640309328e-10 3.808908656334e-09-2.000000000000e+00 3.000000000000e+00
     2.900000000000e+01 4.000000000000e+00-8.381903171539e-09 7.000000000000e+00
    -2.037268131971e-10 5.617039278150e-09-5.238689482212e-10-4.947651177645e-10
     3.273120000000e+05 2.428000000000e+03 0.000000000000e+00                   
G18 2026 07 22 18 55 12-2.980535209645e-04 9.023892744153e-12 0.000000000000e+00
     3.526687622070e-03 3.058593750000e+00 4.342680890090e-09-8.616132153631e-02
     1.341104507446e-07 6.301042332780e-03 3.274530172348e-06 5.153602586268e+03
     2.556000000000e+05 6.612390279770e-08 5.756583270971e-01 7.916241884232e-08
     9.708339235640e-01 3.206093750000e+02-2.858535000702e+00-8.049921689315e-09
     3.303709041314e-11 4.342680890090e-09-2.000000000000e+00 3.000000000000e+00
     3.100000000000e+01 4.000000000000e+00-8.381903171539e-09 7.000000000000e+00
    -8.731149137020e-11 5.209585651755e-09-8.440110832453e-10-9.313225746155e-10
     3.273120000000e+05 2.428000000000e+03 0.000000000000e+00                   
E12 2026 07 22 18 55 35-5.931471241638e-05-2.700062395888e-12 0.000000000000e+00
     3.300000000000e+01-3.421875000000e+01 2.647967441330e-09 1.287418462352e+00
    -1.532956957817e-06 3.110443940386e-04 2.136453986168e-06 5.440603467941e+03
     3.246000000000e+05 6.891787052155e-08 7.688239759646e-01 3.166496753693e-08
     9.945425028015e-01 3.083750000000e+02 8.669095537369e-01-5.595233063916e-09
    -8.571785620706e-12 1.000000000000e+00 1.404000000000e+03                   
     1.070000000000e+02 0.000000000000e+00-1.187436282635e-08-1.187436282635e-08
     3.273350000000e+05                                                         
E04 2026 07 22 18 55 35-1.177436788566e-04 3.359446054674e-11 0.000000000000e+00
     3.300000000000e+01-4.387500000000e+01 3.180132465282e-09 1.717678050585e-01
    -1.996755599976e-06 2.885408466682e-04 7.504597306252e-06 5.440610994339e+03
     3.246000000000e+05-4.470348358154e-08 2.851678661348e+00-4.284083843231e-08
     9.693860537916e-01 1.812812500000e+02-7.630548370968e-02-5.421297247362e-09
     2.553677799502e-10 1.000000000000e+00 1.404000000000e+03                   
     1.070000000000e+02 0.000000000000e+00-4.423782229424e-09-5.122274160385e-09
     3.273350000000e+05                                                         
E11 2026 07 22 18 55 35 5.525783170015e-03 6.680522801616e-11-3.469446951954e-18
     3.500000000000e+01-2.265625000000e+01 2.659039331090e-09 1.477799657316e-01
    -1.238659024239e-06 4.099921789020e-04 2.078711986542e-06 5.440604045868e+03
     3.258000000000e+05 7.078051567078e-08 7.688085099947e-01-2.607703208923e-08
     9.945302318447e-01 3.076875000000e+02 1.358489143874e+00-5.572732126661e-09
    -1.785788670980e-12 1.000000000000e+00 1.404000000000e+03                   
     1.070000000000e+02 0.000000000000e+00-1.466833055019e-08-1.606531441212e-08
     3.273350000000e+05                                                         
E19 2026 07 22 18 55 35 3.111769154202e-03 2.421529643470e-11 0.000000000000e+00
     3.500000000000e+01-4.328125000000e+01 3.182632569421e-09 1.316617644513e+00
    -1.827254891396e-06 2.389356959611e-04 7.612630724907e-06 5.440619775772e+03
     3.258000000000e+05 1.117587089539e-07 2.859777087640e+00 4.097819328308e-08
     9.747545842467e-01 1.825625000000e+02-2.490994672841e-01-5.463441859997e-09
     3.392998474863e-10 1.000000000000e+00 1.404000000000e+03                   
     1.070000000000e+02 0.000000000000e+00-4.656612873077e-09-4.889443516731e-09
     3.273350000000e+05                                                         
E28 2026 07 22 18 55 35-6.070319795981e-05-2.899014361901e-12 0.000000000000e+00
     3.300000000000e+01-4.109375000000e+01 3.562648398606e-09-1.517010609010e+00
    -1.797452569008e-06 2.854240592569e-04 7.221475243568e-06 5.440610807419e+03
     3.246000000000e+05 7.450580596924e-08 2.869349721350e+00-8.195638656616e-08
     9.490842369851e-01 1.767500000000e+02 1.978358473314e+00-5.669879030363e-09
     2.946551307118e-10 1.000000000000e+00 1.404000000000e+03                   
     1.070000000000e+02 0.000000000000e+00 6.984919309616e-10 1.629814505577e-09
     3.273350000000e+05                                                         
E10 2026 07 22 18 55 35-8.077502716333e-04-2.700062395888e-12 0.000000000000e+00
     3.600000000000e+01-2.900000000000e+01 2.606179986429e-09-3.502248937355e-01
    -1.346692442894e-06 2.870995085686e-04 2.160668373108e-06 5.440598403931e+03
     3.264000000000e+05 7.450580596924e-08 7.673482456488e-01 4.284083843231e-08
     9.974473826586e-01 3.079375000000e+02 2.359702819368e+00-5.585589805093e-09
    -1.392915163365e-11 1.000000000000e+00 1.404000000000e+03                   
     1.070000000000e+02 0.000000000000e+00-1.164153218269e-09-4.656612873077e-10
     3.273350000000e+05                                                         
E06 2026 07 22 18 55 35-3.013248206116e-04-5.101696842758e-12 0.000000000000e+00
     3.600000000000e+01-4.096875000000e+01 3.271564845236e-09-1.470876229270e+00
    -1.873821020126e-06 5.020375829190e-04 7.586553692818e-06 5.440613422394e+03
     3.264000000000e+05-4.470348358154e-08 2.851311068071e+00-3.166496753693e-08
     9.626926140230e-01 1.780937500000e+02 1.396446952626e+00-5.470942172416e-09
     2.935836575092e-10 1.000000000000e+00 1.404000000000e+03                   
     1.070000000000e+02 0.000000000000e+00 2.095475792885e-09 3.492459654808e-09
     3.273350000000e+05                                                         
END OF FILE                                                 COMMENT
