     3.05           N: NAVIGATION       M: MIXED            RINEX VERSION / TYPE
PYRINEXCONV 0.1.2 ALDELTUNES            20260722 152211 UTC PGM / RUN BY / DATE
GAL    1.1250e+02  3.1250e-02  2.0935e-02             P 10  IONOSPHERIC CORR
GPSA   1.3039e-08  2.2352e-08  1.5199e-05  1.5140e-05 P 23  IONOSPHERIC CORR
GPSB   1.1059e+05  1.4746e+05  1.6712e+07  1.6384e+07 P 23  IONOSPHERIC CORR
GAUT  3.7252902985e-09-1.776356839e-15 313800 1404   E10  0 TIME SYSTEM CORR
GPUT -3.9872247726e-09-3.108624469e-15  15600 2428   G23  0 TIME SYSTEM CORR
                                                            END OF HEADER
G29 2026 07 22 15 13 54-2.770200371742e-04 7.389644451905e-12 0.000000000000e+00
     6.700000000000e+01 7.243750000000e+01 4.451613999020e-09-1.185631100580e-01
     3.799796104431e-06 3.656877204776e-03 5.764886736870e-06 5.153688289642e+03
     3.168000000000e+05 3.166496753693e-08-4.188184526468e-01-1.676380634308e-08
     9.601415921055e-01 2.647812500000e+02 2.870494491320e+00-8.142839181937e-09
     9.928985010651e-11 1.000000000000e+00 3.800000000000e+02 0.000000000000e+00
     2.000000000000e+00 0.000000000000e+00-9.778887033463e-09 6.700000000000e+01
     1.256136000000e+06 4.000000000000e+00                                      
G15 2026 07 22 15 13 54 4.304298199713e-04 3.069544618484e-12 0.000000000000e+00
     3.000000000000e+00-2.940625000000e+01 5.034138263494e-09-9.908178621696e-01
    -1.339241862297e-06 1.702984899748e-02 7.897615432739e-06 5.153755905151e+03
     3.167840000000e+05-2.719461917877e-07 2.476463377360e+00 1.881271600723e-07
     9.447575938602e-01 2.203437500000e+02 1.538294386170e+00-8.430351157964e-09
     1.939366496685e-10 1.000000000000e+00 3.800000000000e+02 0.000000000000e+00
     2.000000000000e+00 0.000000000000e+00-1.071020960808e-08 3.000000000000e+00
     1.256136000000e+06 4.000000000000e+00                                      
G20 2026 07 22 15 13 54 2.383058890700e-04 1.170974428533e-11 0.000000000000e+00
     8.400000000000e+01-3.559375000000e+01 4.600905931914e-09 2.655036371573e+00
    -1.765787601471e-06 1.910347025841e-03 7.467344403267e-06 5.153614461899e+03
     3.168000000000e+05 2.607703208923e-08 2.628767548914e+00-9.872019290924e-08
     9.621114317801e-01 2.310937500000e+02-1.761101963503e+00-7.957474317889e-09
     1.500062483624e-10 1.000000000000e+00 3.800000000000e+02 0.000000000000e+00
     2.000000000000e+00 0.000000000000e+00-6.984919309616e-09 8.400000000000e+01
     1.256136000000e+06 4.000000000000e+00                                      
G05 2026 07 22 15 13 54-2.353205345571e-04-3.410605131648e-13 0.000000000000e+00
     7.300000000000e+01-6.321875000000e+01 4.169102231271e-09 3.149757553416e-01
    -3.129243850708e-06 5.605997517705e-03 6.848946213722e-06 5.153773567200e+03
     3.168000000000e+05-2.980232238770e-08 1.559114861564e+00 1.117587089539e-08
     9.811699013447e-01 2.603125000000e+02 1.482981893931e+00-7.962831683902e-09
     2.535819912792e-11 1.000000000000e+00 3.800000000000e+02 0.000000000000e+00
     2.000000000000e+00 0.000000000000e+00-1.071020960808e-08 7.300000000000e+01
     1.256136000000e+06 4.000000000000e+00                                      
G18 2026 07 22 15 13 54-2.981671132147e-04 8.981260180008e-12 0.000000000000e+00
     5.300000000000e+01-7.281250000000e+00 4.349466887040e-09-1.923633412904e+00
    -6.519258022308e-07 6.300113513134e-03 4.133209586143e-06 5.153621372223e+03
     3.168000000000e+05 7.264316082001e-08 5.757606699201e-01-1.043081283569e-07
     9.708337092465e-01 3.060000000000e+02-2.858937597952e+00-8.097837307428e-09
     9.964700784071e-11 1.000000000000e+00 3.800000000000e+02 0.000000000000e+00
     2.000000000000e+00 0.000000000000e+00-8.381903171539e-09 3.090000000000e+02
     1.256136000000e+06 4.000000000000e+00                                      
G23 2026 07 22 15 13 54 6.716479547322e-04 3.865352482535e-12 0.000000000000e+00
     6.000000000000e+00-5.446875000000e+01 3.795158083568e-09 3.139943244177e+00
    -2.823770046234e-06 6.451997905970e-03 7.070600986481e-06 5.153733219147e+03
     3.168000000000e+05-8.009374141693e-08 1.585454005232e+00-7.264316082001e-08
     9.892074219683e-01 2.598125000000e+02-2.742668688691e+00-7.608888369313e-09
     5.714523747137e-11 1.000000000000e+00 3.800000000000e+02 0.000000000000e+00
     2.000000000000e+00 0.000000000000e+00-8.381903171539e-09 5.180000000000e+02
     1.256136000000e+06 4.000000000000e+00                                      
E10 2026 07 22 15 20 24-8.077101665549e-04-2.629008122312e-12 0.000000000000e+00
     1.100000000000e+01-2.512500000000e+01 2.660467962027e-09-2.201847436927e+00
    -1.253560185432e-06 2.887737937272e-04 3.665685653687e-06 5.440603790283e+03
     3.114000000000e+05-3.166496753693e-08 7.674309590370e-01-4.842877388000e-08
     9.974476064850e-01 2.841250000000e+02 2.351686581277e+00-5.514158258253e-09
    -2.357241045694e-11 5.160000000000e+02 1.404000000000e+03                   
     1.070000000000e+02 0.000000000000e+00-1.164153218269e-09-4.656612873077e-10
     3.144240000000e+05                                                         
E33 2026 07 22 15 20 54-2.540985587984e-05-2.017941369559e-12 0.000000000000e+00
     1.400000000000e+01-2.871875000000e+01 2.717256041764e-09-1.737271348371e+00
    -1.383945345879e-06 1.694406382740e-04 2.549961209297e-06 5.440600910187e+03
     3.132000000000e+05 2.421438694000e-08 7.693506659719e-01 0.000000000000e+00
     9.976480438169e-01 3.008750000000e+02-2.991744367464e+00-5.540945088318e-09
     7.857470152314e-12 5.160000000000e+02 1.404000000000e+03                   
     1.070000000000e+02 0.000000000000e+00-4.423782229424e-09-5.122274160385e-09
     3.144540000000e+05                                                         
E29 2026 07 22 15 20 54-2.276494633406e-04-3.694822225953e-12 0.000000000000e+00
     1.400000000000e+01-4.278125000000e+01 3.312637984669e-09-1.204242699874e+00
    -1.907348632812e-06 1.980987144634e-04 7.081776857376e-06 5.440613224030e+03
     3.132000000000e+05 9.313225746155e-09 2.851416662961e+00-5.960464477539e-08
     9.627707148305e-01 1.840625000000e+02 1.457798746666e+00-5.546302454331e-09
     2.007226466182e-10 5.160000000000e+02 1.404000000000e+03                   
     1.070000000000e+02 0.000000000000e+00-3.492459654808e-09-3.492459654808e-09
     3.144540000000e+05                                                         
E07 2026 07 22 15 20 54-7.882592035457e-05-2.586375558167e-12 0.000000000000e+00
     1.400000000000e+01-4.075000000000e+01 3.205133506676e-09 8.601628725277e-01
    -1.760199666023e-06 4.113753093407e-04 7.390975952148e-06 5.440618581772e+03
     3.132000000000e+05 7.450580596924e-08 2.851690300325e+00 4.470348358154e-08
     9.693845104130e-01 1.845000000000e+02 1.844450025547e-01-5.498800475683e-09
     2.617966191657e-10 5.160000000000e+02 1.404000000000e+03                   
     1.070000000000e+02 0.000000000000e+00 4.656612873077e-09 5.122274160385e-09
     3.144540000000e+05                                                         
E10 2026 07 22 15 20 54-8.077151724137e-04-2.657429831743e-12 0.000000000000e+00
     1.400000000000e+01-2.546875000000e+01 2.648681756798e-09-1.978880306434e+00
    -1.363456249237e-06 2.887670416385e-04 3.637745976448e-06 5.440603668213e+03
     3.132000000000e+05-5.587935447693e-09 7.674209921761e-01-5.774199962616e-08
     9.974474601932e-01 2.842187500000e+02 2.351875954559e+00-5.526301621216e-09
    -1.000041655749e-11 5.160000000000e+02 1.404000000000e+03                   
     1.070000000000e+02 0.000000000000e+00-1.164153218269e-09-4.656612873077e-10
     3.144540000000e+05                                                         
G29 2026 07 22 15 21 36-2.770338614937e-04 7.350564601438e-12 0.000000000000e+00
    -4.967689514160e-03 6.650000000000e+01 4.448399579412e-09-3.806061239442e-01
     3.395602107048e-06 3.656744374894e-03 6.138347089291e-06 5.153533391754e+03
     2.619000000000e+05 2.980232238770e-08-4.188037971335e-01-1.769512891769e-08
     9.601414121666e-01 2.597929687500e+02 2.869991604453e+00-8.194749150531e-09
     1.001827444420e-10 4.448399579412e-09-2.000000000000e+00 3.000000000000e+00
     3.000000000000e+01 4.000000000000e+00-9.778887033463e-09 7.000000000000e+00
    -9.604264050722e-10 5.355104804039e-09 0.000000000000e+00 0.000000000000e+00
     3.144960000000e+05 2.428000000000e+03 0.000000000000e+00                   
G05 2026 07 22 15 21 36-2.353200106882e-04-3.446132268436e-13 0.000000000000e+00
    -1.029491424561e-03-6.177734375000e+01 4.169102231271e-09 5.251867785374e-02
    -3.159046173096e-06 5.605588841718e-03 6.617046892643e-06 5.153449928166e+03
     2.556000000000e+05-2.887099981308e-08 1.559129231076e+00-1.862645149231e-09
     9.811698596515e-01 2.638125000000e+02 1.482908841654e+00-8.372970859895e-09
     1.750072897561e-11 4.169102231271e-09-2.000000000000e+00 3.000000000000e+00
     3.000000000000e+01 4.000000000000e+00-1.071020960808e-08 7.000000000000e+00
    -3.783497959375e-10 5.733454599977e-09 0.000000000000e+00 0.000000000000e+00
     3.144960000000e+05 2.428000000000e+03 0.000000000000e+00                   
G15 2026 07 22 15 21 36 4.304244066589e-04 3.101519041593e-12 0.000000000000e+00
    -3.765583038330e-03-3.194531250000e+01 4.967349767199e-09-1.250973268469e+00
    -1.561827957630e-06 1.702870859299e-02 7.498078048229e-06 5.153466078956e+03
     2.286000000000e+05-1.648440957069e-07 2.476478621698e+00 3.026798367500e-07
     9.447577247914e-01 2.257539062500e+02 1.538247463804e+00-8.020099018509e-09
     1.664355041354e-10 4.967349767199e-09-2.000000000000e+00 3.000000000000e+00
     3.100000000000e+01 4.000000000000e+00-1.071020960808e-08 7.000000000000e+00
    -2.037268131971e-10 6.199115887284e-09 0.000000000000e+00 0.000000000000e+00
     3.144960000000e+05 2.428000000000e+03 0.000000000000e+00                   
G21 2026 07 22 15 21 36 3.951719845645e-04-5.375255796025e-12 0.000000000000e+00
     9.581565856934e-03-7.526562500000e+01 4.500901766339e-09 2.110053267091e+00
    -3.783963620663e-06 7.883394719101e-04 6.401911377907e-06 5.153627558688e+03
     3.069000000000e+05 2.328306436539e-08 1.622770538724e+00 7.171183824539e-08
     9.641919404759e-01 2.573750000000e+02-8.572425135344e-02-8.289931686694e-09
     7.125296797212e-11 4.500901766339e-09-3.000000000000e+00 2.000000000000e+00
     2.700000000000e+01 4.000000000000e+00-9.778887033463e-09 7.000000000000e+00
    -8.731149137020e-11 6.199115887284e-09 1.746229827404e-10 1.455191522837e-10
     3.144960000000e+05 2.428000000000e+03 0.000000000000e+00                   
G26 2026 07 22 15 21 36-3.844429156743e-04-2.476241434124e-12 0.000000000000e+00
     5.277633666992e-03 2.747656250000e+01 5.196287874819e-09 1.602810448609e+00
     1.418404281139e-06 1.116770028602e-02 8.261762559414e-06 5.153642163065e+03
     2.889000000000e+05-1.518055796623e-07-1.640890612172e+00 4.563480615616e-08
     9.274715578046e-01 2.032226562500e+02 7.150552923974e-01-7.986526191495e-09
    -3.003696544589e-10 5.196287874819e-09-2.000000000000e+00 3.000000000000e+00
     2.800000000000e+01 4.000000000000e+00 6.519258022308e-09 7.000000000000e+00
    -8.440110832453e-10-4.190951585770e-09 5.820766091347e-09 5.878973752260e-09
     3.144960000000e+05 2.428000000000e+03 0.000000000000e+00                   
E07 2026 07 22 15 21 54-7.882731733844e-05-2.586375558167e-12 0.000000000000e+00
     1.500000000000e+01-4.087500000000e+01 3.206204979878e-09 9.344461045967e-01
    -1.771375536919e-06 4.113753093407e-04 7.420778274536e-06 5.440618667603e+03
     3.138000000000e+05 6.705522537231e-08 2.851686944390e+00 5.774199962616e-08
     9.693846303723e-01 1.841875000000e+02 1.845470176840e-01-5.497014687012e-09
     2.700112470522e-10 5.160000000000e+02 1.404000000000e+03                   
     1.070000000000e+02 0.000000000000e+00 4.656612873077e-09 5.122274160385e-09
     3.145140000000e+05                                                         
E19 2026 07 22 15 22 05 3.111390746199e-03 2.431477241771e-11 0.000000000000e+00
     9.000000000000e+00-3.962500000000e+01 3.019054327159e-09-6.176857793778e-01
    -1.979991793633e-06 2.399517688900e-04 7.210299372673e-06 5.440620994568e+03
     3.102000000000e+05-5.029141902924e-08 2.859862456225e+00-2.607703208923e-08
     9.747518295720e-01 1.933125000000e+02-2.488079501355e-01-5.421297247362e-09
     1.975082270104e-10 1.000000000000e+00 1.404000000000e+03                   
     1.070000000000e+02 0.000000000000e+00-4.656612873077e-09-4.889443516731e-09
     3.145250000000e+05                                                         
E26 2026 07 22 15 22 24 3.688319702633e-04 1.082867129298e-11 0.000000000000e+00
     1.200000000000e+01-4.081250000000e+01 2.840832617796e-09-1.550099260245e+00
    -1.806765794754e-06 9.520235471427e-05 2.436339855194e-06 5.440600118637e+03
     3.120000000000e+05 2.980232238770e-08 7.659120653232e-01 5.215406417847e-08
     9.909111261230e-01 3.026250000000e+02-2.557279239391e+00-5.629520206399e-09
    -3.071556514086e-11 5.160000000000e+02 1.404000000000e+03                   
     1.070000000000e+02 0.000000000000e+00-4.656612873077e-09-5.355104804039e-09
     3.145440000000e+05                                                         
E31 2026 07 22 15 22 24-1.584434648976e-04-2.955857780762e-12 0.000000000000e+00
     1.400000000000e+01 6.596875000000e+01 2.961551931954e-09-1.998331170126e+00
     3.157183527946e-06 3.463263856247e-04 9.285286068916e-06 5.440612354279e+03
     3.132000000000e+05 6.332993507385e-08-1.329808147779e+00 3.539025783539e-08
     9.605887344794e-01 1.410312500000e+02-1.404526052308e+00-5.440226607275e-09
    -1.346484657919e-10 5.160000000000e+02 1.404000000000e+03                   
     1.070000000000e+02 0.000000000000e+00 3.492459654808e-09 3.958120942116e-09
     3.145440000000e+05                                                         
E12 2026 07 22 15 22 24-5.927507299930e-05-2.657429831743e-12 0.000000000000e+00
     8.000000000000e+00-2.587500000000e+01 2.702969732396e-09-5.750633744064e-01
    -1.333653926849e-06 3.136922605336e-04 3.678724169731e-06 5.440607740402e+03
     3.096000000000e+05-1.676380634308e-08 7.689073491288e-01-6.332993507385e-08
     9.945428451244e-01 2.812500000000e+02 8.697548387001e-01-5.545945296597e-09
    -3.678724662220e-11 5.160000000000e+02 1.404000000000e+03                   
     1.070000000000e+02 0.000000000000e+00-1.187436282635e-08-1.187436282635e-08
     3.145440000000e+05                                                         
E16 2026 07 22 15 22 24-4.674028605223e-05-2.515321284591e-12 0.000000000000e+00
     9.000000000000e+00 7.509375000000e+01 2.954765935004e-09-2.138292576034e+00
     3.436580300331e-06 4.942259984091e-04 8.622184395790e-06 5.440618877411e+03
     3.102000000000e+05 5.215406417847e-08-1.333027081037e+00-4.097819328308e-08
     9.625637353289e-01 1.555312500000e+02-2.464480594892e+00-5.421654405097e-09
    -1.782217093638e-10 5.160000000000e+02 1.404000000000e+03                   
     1.070000000000e+02 0.000000000000e+00-3.958120942116e-09-2.793967723846e-09
     3.145440000000e+05                                                         
G20 2026 07 22 15 22 24 2.382847596891e-04 1.176303499051e-11 0.000000000000e+00
    -2.622127532959e-03-3.616015625000e+01 4.566083052830e-09 2.392094755137e+00
    -1.820735633373e-06 1.910939696245e-03 7.497146725655e-06 5.153608122820e+03
     2.601000000000e+05 5.587935447693e-09 2.628781976212e+00-6.053596735001e-08
     9.621112481839e-01 2.346523437500e+02-1.760716728165e+00-8.402972109567e-09
     1.335769925893e-10 4.566083052830e-09-3.000000000000e+00 2.000000000000e+00
     3.000000000000e+01 4.000000000000e+00-6.984919309616e-09 7.000000000000e+00
    -1.455191522837e-10 4.220055416226e-09 2.095475792885e-09 2.066371962428e-09
     3.145440000000e+05 2.428000000000e+03 0.000000000000e+00                   
G18 2026 07 22 15 22 24-2.981834404636e-04 9.023892744153e-12 0.000000000000e+00
    -2.479553222656e-03-2.621093750000e+00 4.358931566996e-09-2.186209584359e+00
    -1.527369022369e-07 6.299139757175e-03 4.140660166740e-06 5.153600524224e+03
     2.556000000000e+05 3.352761268616e-08 5.757753876074e-01-1.341104507446e-07
     9.708335600289e-01 3.050898437500e+02-2.858915797547e+00-8.249572862730e-09
     7.036007363663e-11 4.358931566996e-09-2.000000000000e+00 3.000000000000e+00
     3.000000000000e+01 4.000000000000e+00-8.381903171539e-09 7.000000000000e+00
    -8.731149137020e-11 5.209585651755e-09-8.440110832453e-10-9.313225746155e-10
     3.145440000000e+05 2.428000000000e+03 0.000000000000e+00                   
G23 2026 07 22 15 22 24 6.716411444359e-04 3.865352482535e-12 0.000000000000e+00
     2.528667449951e-03-5.074609375000e+01 3.789086402086e-09 2.877543172218e+00
    -2.612359821796e-06 6.451642897446e-03 7.075257599354e-06 5.153489277414e+03
     3.069000000000e+05-7.357448339462e-08 1.585467706191e+00-6.519258022308e-08
     9.892073451651e-01 2.597890625000e+02-2.742801801070e+00-8.733343013699e-09
     5.571660653459e-11 3.789086402086e-09-2.000000000000e+00 3.000000000000e+00
     2.800000000000e+01 4.000000000000e+00-8.381903171539e-09 7.000000000000e+00
    -2.037268131971e-10 5.617039278150e-09-5.238689482212e-10-4.947651177645e-10
     3.145440000000e+05 2.428000000000e+03 0.000000000000e+00                   
E33 2026 07 22 15 22 24-2.541107824072e-05-2.017941369559e-12 0.000000000000e+00
     1.500000000000e+01-2.900000000000e+01 2.714398779890e-09-1.662686039810e+00
    -1.383945345879e-06 1.694569364190e-04 2.553686499596e-06 5.440600982666e+03
     3.138000000000e+05 2.793967723846e-08 7.693473568512e-01 0.000000000000e+00
     9.976480525944e-01 3.007500000000e+02-2.991944011895e+00-5.542016561521e-09
     6.071681481333e-12 5.160000000000e+02 1.404000000000e+03                   
     1.070000000000e+02 0.000000000000e+00-4.423782229424e-09-5.122274160385e-09
     3.145440000000e+05                                                         
E10 2026 07 22 15 22 24-8.077168604359e-04-2.671640686458e-12 0.000000000000e+00
     1.500000000000e+01-2.618750000000e+01 2.646181652659e-09-1.904849205370e+00
    -1.426786184311e-06 2.887380542234e-04 3.598630428314e-06 5.440603454590e+03
     3.138000000000e+05 3.725290298462e-09 7.674176596487e-01-5.774199962616e-08
     9.974474177686e-01 2.846562500000e+02 2.352230289410e+00-5.529516040824e-09
    -5.000208278745e-12 5.160000000000e+02 1.404000000000e+03                   
     1.070000000000e+02 0.000000000000e+00-1.164153218269e-09-4.656612873077e-10
     3.145440000000e+05                                                         
E29 2026 07 22 15 22 24-2.276517916471e-04-3.709033080668e-12 0.000000000000e+00
     1.500000000000e+01-4.271875000000e+01 3.324067032163e-09-1.129826024806e+00
    -1.883134245872e-06 1.981066307053e-04 7.089227437973e-06 5.440613243103e+03
     3.138000000000e+05 4.284083843231e-08 2.851413292398e+00-6.705522537231e-08
     9.627707060529e-01 1.840625000000e+02 1.457767566030e+00-5.559517290496e-09
     2.164375869228e-10 5.160000000000e+02 1.404000000000e+03                   
     1.070000000000e+02 0.000000000000e+00-3.492459654808e-09-3.492459654808e-09
     3.145440000000e+05                                                         
END OF FILE                                                 COMMENT
