     3.05           N: NAVIGATION       M: MIXED            RINEX VERSION / TYPE
PYRINEXCONV 0.1.2 ALDELTUNES            20260722 160233 UTC PGM / RUN BY / DATE
GAL    1.1250e+02  3.1250e-02  2.0935e-02             Q 10  IONOSPHERIC CORR
GPSA   1.3039e-08  2.2352e-08  1.5199e-05  1.5140e-05 Q 23  IONOSPHERIC CORR
GPSB   1.1059e+05  1.4746e+05  1.6712e+07  1.6384e+07 Q 23  IONOSPHERIC CORR
GAUT  3.7252902985e-09-1.776356839e-15 315000 1404   E10  0 TIME SYSTEM CORR
GPUT -3.9872247726e-09-3.108624469e-15  30000 2428   G23  0 TIME SYSTEM CORR
                                                            END OF HEADER
E26 2026 07 22 15 59 24 3.688709111884e-04 1.081446043827e-11 0.000000000000e+00
     1.800000000000e+01-4.240625000000e+01 2.810831368123e-09-1.097724549228e+00
    -1.862645149231e-06 9.590375702828e-05 2.192333340645e-06 5.440601917267e+03
     3.156000000000e+05 3.725290298462e-09 7.658918829054e-01 5.215406417847e-08
     9.909109096111e-01 3.097812500000e+02-2.563339024971e+00-5.648806724045e-09
    -3.107272287506e-11 5.160000000000e+02 1.404000000000e+03                   
     1.070000000000e+02 0.000000000000e+00-4.656612873077e-09-5.355104804039e-09
     3.167640000000e+05                                                         
E31 2026 07 22 16 00 25-1.584434648976e-04-2.955857780762e-12 0.000000000000e+00
     1.400000000000e+01 6.596875000000e+01 2.961551931954e-09-1.998331170126e+00
     3.157183527946e-06 3.463263856247e-04 9.285286068916e-06 5.440612354279e+03
     3.132000000000e+05 6.332993507385e-08-1.329808147779e+00 3.539025783539e-08
     9.605887344794e-01 1.410312500000e+02-1.404526052308e+00-5.440226607275e-09
    -1.346484657919e-10 1.000000000000e+00 1.404000000000e+03                   
     1.070000000000e+02 0.000000000000e+00 3.492459654808e-09 3.958120942116e-09
     3.168250000000e+05                                                         
E19 2026 07 22 16 00 54 3.111521247774e-03 2.431477241771e-11 0.000000000000e+00
     1.800000000000e+01-4.203125000000e+01 3.069056409947e-09 5.326662324867e-02
    -2.024695277214e-06 2.391574671492e-04 7.294118404388e-06 5.440619268417e+03
     3.156000000000e+05 3.725290298462e-09 2.859833121791e+00-1.676380634308e-08
     9.747530949961e-01 1.867187500000e+02-2.502959806665e-01-5.384152843006e-09
     1.953652806053e-10 5.160000000000e+02 1.404000000000e+03                   
     1.070000000000e+02 0.000000000000e+00-4.656612873077e-09-4.889443516731e-09
     3.168540000000e+05                                                         
E12 2026 07 22 16 00 54-5.929078906775e-05-2.671640686458e-12 0.000000000000e+00
     1.800000000000e+01-3.125000000000e+01 2.707969940675e-09 1.722737977009e-01
    -1.700595021248e-06 3.118366003036e-04 2.741813659668e-06 5.440603376389e+03
     3.156000000000e+05 3.539025783539e-08 7.688737678443e-01-3.725290298462e-09
     9.945424457477e-01 2.965625000000e+02 8.662703741068e-01-5.562017394636e-09
     1.714357124141e-11 5.160000000000e+02 1.404000000000e+03                   
     1.070000000000e+02 0.000000000000e+00-1.187436282635e-08-1.187436282635e-08
     3.168540000000e+05                                                         
G15 2026 07 22 16 01 36 4.304455069359e-04 3.094413614235e-12 0.000000000000e+00
    -5.087852478027e-04-3.619140625000e+01 5.123070539309e-09-2.446650246518e-01
    -1.792795956135e-06 1.702896616189e-02 7.861293852329e-06 5.153468801259e+03
     3.132000000000e+05-1.536682248116e-07 2.476419311342e+00 3.818422555923e-08
     9.447585462199e-01 2.222304687500e+02 1.538320984215e+00-7.797232592371e-09
     2.771544017362e-10 5.123070539309e-09-2.000000000000e+00 2.000000000000e+00
     2.800000000000e+01 4.000000000000e+00-1.071020960808e-08 7.000000000000e+00
    -2.037268131971e-10 6.199115887284e-09 0.000000000000e+00 0.000000000000e+00
     3.168960000000e+05 2.428000000000e+03 0.000000000000e+00                   
G29 2026 07 22 16 01 36-2.769809507299e-04 7.350564601438e-12 0.000000000000e+00
     4.135608673096e-03 7.793750000000e+01 4.430363113835e-09 6.687789298754e-01
     4.087574779987e-06 3.655195469037e-03 6.358139216900e-06 5.153535844750e+03
     2.619000000000e+05 6.798654794693e-08-4.188623153196e-01 5.587935447693e-09
     9.601422826028e-01 2.550507812500e+02 2.870784167386e+00-8.231536397153e-09
     9.375390522647e-11 4.430363113835e-09-1.000000000000e+00 3.000000000000e+00
     3.000000000000e+01 4.000000000000e+00-9.778887033463e-09 7.000000000000e+00
    -9.604264050722e-10 5.355104804039e-09 0.000000000000e+00 0.000000000000e+00
     3.168960000000e+05 2.428000000000e+03 0.000000000000e+00                   
G05 2026 07 22 16 01 36-2.353225136176e-04-3.446132268436e-13 0.000000000000e+00
     5.661010742188e-03-7.648828125000e+01 4.097670684432e-09 1.102112110456e+00
    -3.889203071594e-06 5.605910206214e-03 6.668269634247e-06 5.153444664888e+03
     2.556000000000e+05-9.778887033463e-08 1.559071655741e+00-3.725290298462e-08
     9.811703116932e-01 2.632421875000e+02 1.483436258000e+00-8.425115889088e-09
     7.339591437730e-11 4.097670684432e-09-2.000000000000e+00 3.000000000000e+00
     3.000000000000e+01 4.000000000000e+00-1.071020960808e-08 7.000000000000e+00
    -3.783497959375e-10 5.733454599977e-09 0.000000000000e+00 0.000000000000e+00
     3.168960000000e+05 2.428000000000e+03 0.000000000000e+00                   
G18 2026 07 22 16 02 12-2.981184807140e-04 9.023892744153e-12 0.000000000000e+00
    -3.716945648193e-03 9.296875000000e-01 4.340895101419e-09-1.136151294908e+00
    -1.583248376846e-08 6.298804888502e-03 3.834255039692e-06 5.153604479474e+03
     2.556000000000e+05 1.257285475731e-07 5.757170413142e-01-5.494803190231e-08
     9.708342351656e-01 3.104257812500e+02-2.858762650505e+00-8.210999827437e-09
     8.589643507416e-11 4.340895101419e-09-2.000000000000e+00 3.000000000000e+00
     3.100000000000e+01 4.000000000000e+00-8.381903171539e-09 7.000000000000e+00
    -8.731149137020e-11 5.209585651755e-09-8.440110832453e-10-9.313225746155e-10
     3.169320000000e+05 2.428000000000e+03 0.000000000000e+00                   
G20 2026 07 22 16 02 24 2.383694227319e-04 1.175592956315e-11 0.000000000000e+00
     2.060413360596e-03-3.732031250000e+01 4.648407910562e-09-2.840104991236e+00
    -1.857057213783e-06 1.910104823764e-03 7.723458111286e-06 5.153607380394e+03
     2.601000000000e+05 1.350417733192e-07 2.628723817904e+00 3.073364496231e-08
     9.621124463138e-01 2.285078125000e+02-1.761480996800e+00-8.343683925691e-09
     2.759043496665e-10 4.648407910562e-09-3.000000000000e+00 2.000000000000e+00
     3.000000000000e+01 4.000000000000e+00-6.984919309616e-09 7.000000000000e+00
    -1.455191522837e-10 4.220055416226e-09 2.095475792885e-09 2.066371962428e-09
     3.169440000000e+05 2.428000000000e+03 0.000000000000e+00                   
G23 2026 07 22 16 02 24 6.716689676978e-04 3.865352482535e-12 0.000000000000e+00
    -7.344245910645e-03-5.956250000000e+01 3.866946788141e-09-2.356054698129e+00
    -3.072433173656e-06 6.451646331698e-03 6.514601409435e-06 5.153492699131e+03
     3.069000000000e+05 1.955777406693e-08 1.585412350834e+00-1.285225152969e-07
     9.892076428689e-01 2.691015625000e+02-2.742255327290e+00-8.661554309125e-09
     1.237551548989e-10 3.866946788141e-09-2.000000000000e+00 3.000000000000e+00
     2.800000000000e+01 4.000000000000e+00-8.381903171539e-09 7.000000000000e+00
    -2.037268131971e-10 5.617039278150e-09-5.238689482212e-10-4.947651177645e-10
     3.169440000000e+05 2.428000000000e+03 0.000000000000e+00                   
E33 2026 07 22 16 02 35-2.541241701692e-05-2.017941369559e-12 0.000000000000e+00
     1.600000000000e+01-2.971875000000e+01 2.711184360282e-09-1.587873191898e+00
    -1.400709152222e-06 1.695037353784e-04 2.557411789894e-06 5.440601152420e+03
     3.144000000000e+05 3.539025783539e-08 7.693440769889e-01 3.725290298462e-09
     9.976480628349e-01 3.006562500000e+02-2.992371176659e+00-5.545945296597e-09
     2.500104139373e-12 1.000000000000e+00 1.404000000000e+03                   
     1.070000000000e+02 0.000000000000e+00-4.423782229424e-09-5.122274160385e-09
     3.169550000000e+05                                                         
E10 2026 07 22 16 02 35-8.077201782726e-04-2.685851541173e-12 0.000000000000e+00
     1.700000000000e+01-2.803125000000e+01 2.642610075317e-09-1.757147646195e+00
    -1.562759280205e-06 2.886077854782e-04 3.460794687271e-06 5.440602785110e+03
     3.150000000000e+05 2.048909664154e-08 7.674109843535e-01-5.029141902924e-08
     9.974473519373e-01 2.865312500000e+02 2.353299533309e+00-5.534159091368e-09
     5.357366012941e-12 1.000000000000e+00 1.404000000000e+03                   
     1.070000000000e+02 0.000000000000e+00-1.164153218269e-09-4.656612873077e-10
     3.169550000000e+05                                                         
E29 2026 07 22 16 02 35-2.276540617459e-04-3.709033080668e-12 0.000000000000e+00
     1.600000000000e+01-4.253125000000e+01 3.332995975518e-09-1.055376580374e+00
    -1.855194568634e-06 1.981329405680e-04 7.102265954018e-06 5.440613302231e+03
     3.144000000000e+05 7.078051567078e-08 2.851409913057e+00-6.332993507385e-08
     9.627707265338e-01 1.839687500000e+02 1.457703637973e+00-5.568803391585e-09
     2.310810540249e-10 1.000000000000e+00 1.404000000000e+03                   
     1.070000000000e+02 0.000000000000e+00-3.492459654808e-09-3.492459654808e-09
     3.169550000000e+05                                                         
E16 2026 07 22 16 02 35-4.674942465499e-05-2.515321284591e-12 0.000000000000e+00
     1.500000000000e+01 6.871875000000e+01 2.936193732826e-09-1.690346628602e+00
     3.213062882423e-06 4.944599932060e-04 8.542090654373e-06 5.440620546341e+03
     3.138000000000e+05 6.146728992462e-08-1.333046341817e+00 5.587935447693e-09
     9.625630141103e-01 1.578750000000e+02-2.466115974921e+00-5.452727127972e-09
    -1.950081228711e-10 1.000000000000e+00 1.404000000000e+03                   
     1.070000000000e+02 0.000000000000e+00-3.958120942116e-09-2.793967723846e-09
     3.169550000000e+05                                                         
E19 2026 07 22 16 02 35 3.111535741482e-03 2.431477241771e-11 0.000000000000e+00
     1.900000000000e+01-4.268750000000e+01 3.087985769859e-09 1.279083477818e-01
    -2.030283212662e-06 2.390940207988e-04 7.295981049538e-06 5.440619096756e+03
     3.162000000000e+05 1.862645149231e-09 2.859829910686e+00-4.842877388000e-08
     9.747530759782e-01 1.863437500000e+02-2.505527286411e-01-5.403796518387e-09
     2.042942239602e-10 1.000000000000e+00 1.404000000000e+03                   
     1.070000000000e+02 0.000000000000e+00-4.656612873077e-09-4.889443516731e-09
     3.169550000000e+05                                                         
E12 2026 07 22 16 02 35-5.929265171289e-05-2.685851541173e-12 0.000000000000e+00
     1.900000000000e+01-3.046875000000e+01 2.708684256143e-09 2.473326060301e-01
    -1.655891537666e-06 3.116654697806e-04 2.622604370117e-06 5.440602838516e+03
     3.162000000000e+05 3.166496753693e-08 7.688703987440e-01 1.862645149231e-09
     9.945424355073e-01 2.985937500000e+02 8.655969109915e-01-5.560945921433e-09
     2.178662178596e-11 1.000000000000e+00 1.404000000000e+03                   
     1.070000000000e+02 0.000000000000e+00-1.187436282635e-08-1.187436282635e-08
     3.169550000000e+05                                                         
END OF FILE                                                 COMMENT
