     3.05           N: NAVIGATION       M: MIXED            RINEX VERSION / TYPE
PYRINEXCONV 0.1.2 ALDELTUNES            20260722 150200 UTC PGM / RUN BY / DATE
GAL    1.1250e+02  3.1250e-02  2.0935e-02             P 16  IONOSPHERIC CORR
GPSA   1.3039e-08  2.2352e-08  1.5199e-05  1.5140e-05 P 18  IONOSPHERIC CORR
GPSB   1.1059e+05  1.4746e+05  1.6712e+07  1.6384e+07 P 18  IONOSPHERIC CORR
GAUT  3.7252902985e-09-1.776356839e-15 310200 1404   E16  0 TIME SYSTEM CORR
GPUT -4.5401975513e-09 1.190603172e-12  15900 2428   G18  0 TIME SYSTEM CORR
                                                            END OF HEADER
E23 2026 07 22 14 55 35-4.285940667614e-05-1.307398633799e-12 0.000000000000e+00
     1.200000000000e+01 6.143750000000e+01 2.905835325419e-09-5.049769822040e-02
     2.987682819366e-06 1.772935502231e-04 9.439885616302e-06 5.440615602493e+03
     3.120000000000e+05-2.793967723846e-08-1.332912613549e+00 1.378357410431e-07
     9.625436158166e-01 1.386250000000e+02-2.735062014997e+00-5.336650864358e-09
    -1.535778257043e-10 1.000000000000e+00 1.404000000000e+03                   
     1.070000000000e+02 0.000000000000e+00 9.313225746155e-10 2.095475792885e-09
     3.129350000000e+05                                                         
E33 2026 07 22 15 00 54-2.540746936575e-05-2.003730514843e-12 0.000000000000e+00
     1.200000000000e+01-2.931250000000e+01 2.722970565511e-09-1.885631311381e+00
    -1.437962055206e-06 1.694771926850e-04 2.568587660789e-06 5.440601070404e+03
     3.120000000000e+05 3.166496753693e-08 7.693573675996e-01 1.862645149231e-09
     9.976480467428e-01 3.006875000000e+02-2.992155647864e+00-5.544516665660e-09
     3.571577341961e-12 5.160000000000e+02 1.404000000000e+03                   
     1.070000000000e+02 0.000000000000e+00-4.423782229424e-09-5.122274160385e-09
     3.132540000000e+05                                                         
E31 2026 07 22 15 00 54-1.584399142303e-04-2.955857780762e-12 0.000000000000e+00
     1.200000000000e+01 6.890625000000e+01 2.955123092738e-09-2.145434347529e+00
     3.295019268990e-06 3.464232431725e-04 9.112060070038e-06 5.440613513947e+03
     3.120000000000e+05 5.215406417847e-08-1.329801573425e+00 1.862645149231e-08
     9.605888076253e-01 1.448125000000e+02-1.406192956758e+00-5.453441443440e-09
    -1.310768884500e-10 5.160000000000e+02 1.404000000000e+03                   
     1.070000000000e+02 0.000000000000e+00 3.492459654808e-09 3.958120942116e-09
     3.132540000000e+05                                                         
E07 2026 07 22 15 00 54-7.882300997153e-05-2.600586412882e-12 0.000000000000e+00
     1.200000000000e+01-4.062500000000e+01 3.201919087068e-09 7.116455434191e-01
    -1.749023795128e-06 4.113628529012e-04 7.322058081627e-06 5.440618368149e+03
     3.120000000000e+05 8.009374141693e-08 2.851697000489e+00 1.862645149231e-08
     9.693842924382e-01 1.853125000000e+02 1.841918153227e-01-5.500229106620e-09
     2.453673633927e-10 5.160000000000e+02 1.404000000000e+03                   
     1.070000000000e+02 0.000000000000e+00 4.656612873077e-09 5.122274160385e-09
     3.132540000000e+05                                                         
E29 2026 07 22 15 00 54-2.276449813507e-04-3.694822225953e-12 0.000000000000e+00
     1.200000000000e+01-4.234375000000e+01 3.288351258743e-09-1.352897190718e+00
    -1.933425664902e-06 1.981367822737e-04 7.079914212227e-06 5.440613307953e+03
     3.120000000000e+05-2.980232238770e-08 2.851423342645e+00-3.166496753693e-08
     9.627706914238e-01 1.839687500000e+02 1.457682355441e+00-5.522730043874e-09
     1.789360248322e-10 5.160000000000e+02 1.404000000000e+03                   
     1.070000000000e+02 0.000000000000e+00-3.492459654808e-09-3.492459654808e-09
     3.132540000000e+05                                                         
G29 2026 07 22 15 01 24-2.770200371742e-04 7.389644451905e-12 0.000000000000e+00
     6.700000000000e+01 7.243750000000e+01 4.451613999020e-09-1.185631100580e-01
     3.799796104431e-06 3.656877204776e-03 5.764886736870e-06 5.153688289642e+03
     3.168000000000e+05 3.166496753693e-08-4.188184526468e-01-1.676380634308e-08
     9.601415921055e-01 2.647812500000e+02 2.870494491320e+00-8.142839181937e-09
     9.928985010651e-11 1.000000000000e+00 3.800000000000e+02 0.000000000000e+00
     2.000000000000e+00 0.000000000000e+00-9.778887033463e-09 6.700000000000e+01
     1.253136000000e+06 4.000000000000e+00                                      
G05 2026 07 22 15 01 24-2.353205345571e-04-3.410605131648e-13 0.000000000000e+00
     7.300000000000e+01-6.321875000000e+01 4.169102231271e-09 3.149757553416e-01
    -3.129243850708e-06 5.605997517705e-03 6.848946213722e-06 5.153773567200e+03
     3.168000000000e+05-2.980232238770e-08 1.559114861564e+00 1.117587089539e-08
     9.811699013447e-01 2.603125000000e+02 1.482981893931e+00-7.962831683902e-09
     2.535819912792e-11 1.000000000000e+00 3.800000000000e+02 0.000000000000e+00
     2.000000000000e+00 0.000000000000e+00-1.071020960808e-08 7.300000000000e+01
     1.253136000000e+06 4.000000000000e+00                                      
G20 2026 07 22 15 01 24 2.383058890700e-04 1.170974428533e-11 0.000000000000e+00
     8.400000000000e+01-3.559375000000e+01 4.600905931914e-09 2.655036371573e+00
    -1.765787601471e-06 1.910347025841e-03 7.467344403267e-06 5.153614461899e+03
     3.168000000000e+05 2.607703208923e-08 2.628767548914e+00-9.872019290924e-08
     9.621114317801e-01 2.310937500000e+02-1.761101963503e+00-7.957474317889e-09
     1.500062483624e-10 1.000000000000e+00 3.800000000000e+02 0.000000000000e+00
     2.000000000000e+00 0.000000000000e+00-6.984919309616e-09 8.400000000000e+01
     1.253136000000e+06 4.000000000000e+00                                      
G15 2026 07 22 15 01 24 4.304298199713e-04 3.069544618484e-12 0.000000000000e+00
     9.500000000000e+01-2.940625000000e+01 5.033781105760e-09-9.884843249684e-01
    -1.339241862297e-06 1.702985167503e-02 7.897615432739e-06 5.153755912781e+03
     3.168000000000e+05-2.719461917877e-07 2.476463248623e+00 1.881271600723e-07
     9.447575967861e-01 2.203437500000e+02 1.538294475408e+00-8.430351157964e-09
     1.939366496685e-10 1.000000000000e+00 3.800000000000e+02 0.000000000000e+00
     2.800000000000e+00 0.000000000000e+00-1.071020960808e-08 9.500000000000e+01
     1.253136000000e+06 4.000000000000e+00                                      
G21 2026 07 22 15 01 24 3.951624967158e-04-5.343281372916e-12 0.000000000000e+00
     5.000000000000e+00-7.212500000000e+01 4.474829251743e-09 2.369574025881e+00
    -3.596767783165e-06 7.908877450973e-04 7.167458534241e-06 5.153596527100e+03
     3.168000000000e+05-2.607703208923e-08 1.622755938070e+00 7.636845111847e-08
     9.641921474788e-01 2.438125000000e+02-8.269410547856e-02-8.028905864728e-09
     9.714690370133e-11 1.000000000000e+00 3.800000000000e+02 0.000000000000e+00
     2.000000000000e+00 0.000000000000e+00-9.778887033463e-09 5.170000000000e+02
     1.253136000000e+06 4.000000000000e+00                                      
G18 2026 07 22 15 01 24-2.981671132147e-04 8.981260180008e-12 0.000000000000e+00
     5.300000000000e+01-7.281250000000e+00 4.349466887040e-09-1.923633412904e+00
    -6.519258022308e-07 6.300113513134e-03 4.133209586143e-06 5.153621372223e+03
     3.168000000000e+05 7.264316082001e-08 5.757606699201e-01-1.043081283569e-07
     9.708337092465e-01 3.060000000000e+02-2.858937597952e+00-8.097837307428e-09
     9.964700784071e-11 1.000000000000e+00 3.800000000000e+02 0.000000000000e+00
     2.000000000000e+00 0.000000000000e+00-8.381903171539e-09 3.090000000000e+02
     1.253136000000e+06 4.000000000000e+00                                      
G11 2026 07 22 15 01 24-2.665547654033e-04 1.227817847393e-11 0.000000000000e+00
     8.300000000000e+01-9.562500000000e+00 4.651265172436e-09-6.693440441576e-01
    -3.818422555923e-07 2.491710707545e-03 3.444030880928e-06 5.153649814606e+03
     3.168000000000e+05 5.587935447693e-09 5.984622121933e-01 8.009374141693e-08
     9.627504943768e-01 3.154687500000e+02-2.354532641587e+00-8.298202796312e-09
     0.000000000000e+00 1.000000000000e+00 3.800000000000e+02 0.000000000000e+00
     2.000000000000e+00 0.000000000000e+00-8.847564458847e-09 8.510000000000e+02
     1.253136000000e+06 4.000000000000e+00                                      
G20 2026 07 22 15 01 36 2.382847596891e-04 1.176303499051e-11 0.000000000000e+00
    -2.622127532959e-03-3.616015625000e+01 4.566083052830e-09 2.392094755137e+00
    -1.820735633373e-06 1.910939696245e-03 7.497146725655e-06 5.153608122820e+03
     2.601000000000e+05 5.587935447693e-09 2.628781976212e+00-6.053596735001e-08
     9.621112481839e-01 2.346523437500e+02-1.760716728165e+00-8.402972109567e-09
     1.335769925893e-10 4.566083052830e-09-3.000000000000e+00 2.000000000000e+00
     3.000000000000e+01 4.000000000000e+00-6.984919309616e-09 7.000000000000e+00
    -1.455191522837e-10 4.220055416226e-09 2.095475792885e-09 2.066371962428e-09
     3.132960000000e+05 2.428000000000e+03 0.000000000000e+00                   
G21 2026 07 22 15 01 36 3.951719845645e-04-5.375255796025e-12 0.000000000000e+00
     9.581565856934e-03-7.526562500000e+01 4.500901766339e-09 2.110053267091e+00
    -3.783963620663e-06 7.883394719101e-04 6.401911377907e-06 5.153627558688e+03
     3.069000000000e+05 2.328306436539e-08 1.622770538724e+00 7.171183824539e-08
     9.641919404759e-01 2.573750000000e+02-8.572425135344e-02-8.289931686694e-09
     7.125296797212e-11 4.500901766339e-09-3.000000000000e+00 2.000000000000e+00
     2.700000000000e+01 4.000000000000e+00-9.778887033463e-09 7.000000000000e+00
    -8.731149137020e-11 6.199115887284e-09 1.746229827404e-10 1.455191522837e-10
     3.132960000000e+05 2.428000000000e+03 0.000000000000e+00                   
G18 2026 07 22 15 01 36-2.981834404636e-04 9.023892744153e-12 0.000000000000e+00
    -2.479553222656e-03-2.621093750000e+00 4.358931566996e-09-2.186209584359e+00
    -1.527369022369e-07 6.299139757175e-03 4.140660166740e-06 5.153600524224e+03
     2.556000000000e+05 3.352761268616e-08 5.757753876074e-01-1.341104507446e-07
     9.708335600289e-01 3.050898437500e+02-2.858915797547e+00-8.249572862730e-09
     7.036007363663e-11 4.358931566996e-09-2.000000000000e+00 3.000000000000e+00
     3.000000000000e+01 4.000000000000e+00-8.381903171539e-09 7.000000000000e+00
    -8.731149137020e-11 5.209585651755e-09-8.440110832453e-10-9.313225746155e-10
     3.132960000000e+05 2.428000000000e+03 0.000000000000e+00                   
G05 2026 07 22 15 01 36-2.353200106882e-04-3.446132268436e-13 0.000000000000e+00
    -1.029491424561e-03-6.177734375000e+01 4.169102231271e-09 5.251867785374e-02
    -3.159046173096e-06 5.605588841718e-03 6.617046892643e-06 5.153449928166e+03
     2.556000000000e+05-2.887099981308e-08 1.559129231076e+00-1.862645149231e-09
     9.811698596515e-01 2.638125000000e+02 1.482908841654e+00-8.372970859895e-09
     1.750072897561e-11 4.169102231271e-09-2.000000000000e+00 3.000000000000e+00
     3.000000000000e+01 4.000000000000e+00-1.071020960808e-08 7.000000000000e+00
    -3.783497959375e-10 5.733454599977e-09 0.000000000000e+00 0.000000000000e+00
     3.132960000000e+05 2.428000000000e+03 0.000000000000e+00                   
G15 2026 07 22 15 01 36 4.304244066589e-04 3.101519041593e-12 0.000000000000e+00
    -3.765583038330e-03-3.194531250000e+01 4.967349767199e-09-1.250973268469e+00
    -1.561827957630e-06 1.702870859299e-02 7.498078048229e-06 5.153466078956e+03
     2.286000000000e+05-1.648440957069e-07 2.476478621698e+00 3.026798367500e-07
     9.447577247914e-01 2.257539062500e+02 1.538247463804e+00-8.020099018509e-09
     1.664355041354e-10 4.967349767199e-09-2.000000000000e+00 3.000000000000e+00
     3.100000000000e+01 4.000000000000e+00-1.071020960808e-08 7.000000000000e+00
    -2.037268131971e-10 6.199115887284e-09 0.000000000000e+00 0.000000000000e+00
     3.132960000000e+05 2.428000000000e+03 0.000000000000e+00                   
G29 2026 07 22 15 01 36-2.770338614937e-04 7.350564601438e-12 0.000000000000e+00
    -4.967689514160e-03 6.650000000000e+01 4.448399579412e-09-3.806061239442e-01
     3.395602107048e-06 3.656744374894e-03 6.138347089291e-06 5.153533391754e+03
     2.619000000000e+05 2.980232238770e-08-4.188037971335e-01-1.769512891769e-08
     9.601414121666e-01 2.597929687500e+02 2.869991604453e+00-8.194749150531e-09
     1.001827444420e-10 4.448399579412e-09-2.000000000000e+00 3.000000000000e+00
     3.000000000000e+01 4.000000000000e+00-9.778887033463e-09 7.000000000000e+00
    -9.604264050722e-10 5.355104804039e-09 0.000000000000e+00 0.000000000000e+00
     3.132960000000e+05 2.428000000000e+03 0.000000000000e+00                   
E26 2026 07 22 15 02 05 3.688319702633e-04 1.082867129298e-11 0.000000000000e+00
     1.200000000000e+01-4.081250000000e+01 2.840832617796e-09-1.550099260245e+00
    -1.806765794754e-06 9.520235471427e-05 2.436339855194e-06 5.440600118637e+03
     3.120000000000e+05 2.980232238770e-08 7.659120653232e-01 5.215406417847e-08
     9.909111261230e-01 3.026250000000e+02-2.557279239391e+00-5.629520206399e-09
    -3.071556514086e-11 1.000000000000e+00 1.404000000000e+03                   
     1.070000000000e+02 0.000000000000e+00-4.656612873077e-09-5.355104804039e-09
     3.133250000000e+05                                                         
E12 2026 07 22 15 02 05-5.927507299930e-05-2.657429831743e-12 0.000000000000e+00
     8.000000000000e+00-2.587500000000e+01 2.702969732396e-09-5.750633744064e-01
    -1.333653926849e-06 3.136922605336e-04 3.678724169731e-06 5.440607740402e+03
     3.096000000000e+05-1.676380634308e-08 7.689073491288e-01-6.332993507385e-08
     9.945428451244e-01 2.812500000000e+02 8.697548387001e-01-5.545945296597e-09
    -3.678724662220e-11 1.000000000000e+00 1.404000000000e+03                   
     1.070000000000e+02 0.000000000000e+00-1.187436282635e-08-1.187436282635e-08
     3.133250000000e+05                                                         
E16 2026 07 22 15 02 05-4.674028605223e-05-2.515321284591e-12 0.000000000000e+00
     9.000000000000e+00 7.509375000000e+01 2.954765935004e-09-2.138292576034e+00
     3.436580300331e-06 4.942259984091e-04 8.622184395790e-06 5.440618877411e+03
     3.102000000000e+05 5.215406417847e-08-1.333027081037e+00-4.097819328308e-08
     9.625637353289e-01 1.555312500000e+02-2.464480594892e+00-5.421654405097e-09
    -1.782217093638e-10 1.000000000000e+00 1.404000000000e+03                   
     1.070000000000e+02 0.000000000000e+00-3.958120942116e-09-2.793967723846e-09
     3.133250000000e+05                                                         
E33 2026 07 22 15 02 05-2.540869172662e-05-2.003730514843e-12 0.000000000000e+00
     1.300000000000e+01-2.881250000000e+01 2.720470461372e-09-1.811594194798e+00
    -1.402571797371e-06 1.694493694231e-04 2.553686499596e-06 5.440600938797e+03
     3.126000000000e+05 2.607703208923e-08 7.693540058139e-01 1.862645149231e-09
     9.976480408911e-01 3.008750000000e+02-2.991807160297e+00-5.542016561521e-09
     6.785996949726e-12 1.000000000000e+00 1.404000000000e+03                   
     1.070000000000e+02 0.000000000000e+00-4.423782229424e-09-5.122274160385e-09
     3.133250000000e+05                                                         
E31 2026 07 22 15 02 05-1.584416604601e-04-2.955857780762e-12 0.000000000000e+00
     1.300000000000e+01 6.756250000000e+01 2.958694670080e-09-2.071900126591e+00
     3.231689333916e-06 3.463850589469e-04 9.205192327499e-06 5.440612926483e+03
     3.126000000000e+05 5.774199962616e-08-1.329804862065e+00 2.607703208923e-08
     9.605887681265e-01 1.427812500000e+02-1.405342151399e+00-5.447369761959e-09
    -1.325055193867e-10 1.000000000000e+00 1.404000000000e+03                   
     1.070000000000e+02 0.000000000000e+00 3.492459654808e-09 3.958120942116e-09
     3.133250000000e+05                                                         
E29 2026 07 22 15 02 05-2.276472514495e-04-3.694822225953e-12 0.000000000000e+00
     1.300000000000e+01-4.265625000000e+01 3.300137463972e-09-1.278602850712e+00
    -1.924112439156e-06 1.981100067496e-04 7.079914212227e-06 5.440613246918e+03
     3.126000000000e+05-1.676380634308e-08 2.851420013043e+00-4.656612873077e-08
     9.627707177563e-01 1.840000000000e+02 1.457773438184e+00-5.533087618166e-09
     1.875078104529e-10 1.000000000000e+00 1.404000000000e+03                   
     1.070000000000e+02 0.000000000000e+00-3.492459654808e-09-3.492459654808e-09
     3.133250000000e+05                                                         
E07 2026 07 22 15 02 05-7.882446516305e-05-2.600586412882e-12 0.000000000000e+00
     1.300000000000e+01-4.065625000000e+01 3.203704875739e-09 7.858978069753e-01
    -1.752749085426e-06 4.113712348044e-04 7.359310984612e-06 5.440618480682e+03
     3.126000000000e+05 8.009374141693e-08 2.851693651870e+00 3.166496753693e-08
     9.693843977683e-01 1.848750000000e+02 1.843248135941e-01-5.499871948885e-09
     2.535819912792e-10 1.000000000000e+00 1.404000000000e+03                   
     1.070000000000e+02 0.000000000000e+00 4.656612873077e-09 5.122274160385e-09
     3.133250000000e+05                                                         
END OF FILE                                                 COMMENT
