     3.05           N: NAVIGATION       M: MIXED            RINEX VERSION / TYPE
PYRINEXCONV 0.1.2 ALDELTUNES            20260722 161238 UTC PGM / RUN BY / DATE
GAL    1.1250e+02  3.1250e-02  2.0935e-02             Q 10  IONOSPHERIC CORR
GPSA   1.3039e-08  2.2352e-08  1.5199e-05  1.5140e-05 Q 23  IONOSPHERIC CORR
GPSB   1.1059e+05  1.4746e+05  1.6712e+07  1.6384e+07 Q 23  IONOSPHERIC CORR
GAUT  3.7252902985e-09-1.776356839e-15 315000 1404   E10  0 TIME SYSTEM CORR
GPUT -3.9872247726e-09-3.108624469e-15  30000 2428   G23  0 TIME SYSTEM CORR
                                                            END OF HEADER
G15 2026 07 22 16 03 54 4.304521717131e-04 3.069544618484e-12 0.000000000000e+00
     4.000000000000e+00-3.612500000000e+01 5.133785271335e-09 5.928322494999e-02
    -1.665204763412e-06 1.702920836397e-02 7.985159754753e-06 5.153754280090e+03
     3.239840000000e+05-1.732259988785e-07 2.476401627588e+00 7.450580596924e-09
     9.447590992029e-01 2.204062500000e+02 1.538329150955e+00-8.533569743147e-09
     2.546534644818e-10 1.000000000000e+00 3.800000000000e+02 0.000000000000e+00
     2.000000000000e+00 0.000000000000e+00-1.071020960808e-08 4.000000000000e+00
     1.268136000000e+06 4.000000000000e+00                                      
G29 2026 07 22 16 03 54-2.769674174488e-04 7.389644451905e-12 0.000000000000e+00
     7.300000000000e+01 7.828125000000e+01 4.393040130612e-09 9.315118829918e-01
     4.110857844353e-06 3.656640765257e-03 5.960464477539e-06 5.153688150406e+03
     3.240000000000e+05 7.823109626770e-08-4.188767440806e-01 5.960464477539e-08
     9.601425751865e-01 2.625000000000e+02 2.870591302850e+00-8.068907530958e-09
     7.893185925733e-11 1.000000000000e+00 3.800000000000e+02 0.000000000000e+00
     2.000000000000e+00 0.000000000000e+00-9.778887033463e-09 7.300000000000e+01
     1.268136000000e+06 4.000000000000e+00                                      
G20 2026 07 22 16 03 54 2.383906394243e-04 1.170974428533e-11 0.000000000000e+00
     8.500000000000e+01-3.465625000000e+01 4.654122434309e-09-2.577915912294e+00
    -1.639127731323e-06 1.909848069772e-03 7.836148142815e-06 5.153615402222e+03
     3.240000000000e+05 1.024454832077e-07 2.628709232611e+00 9.872019290924e-08
     9.621130263608e-01 2.275937500000e+02-1.761116825288e+00-7.984261147953e-09
     3.210848030423e-10 1.000000000000e+00 3.800000000000e+02 0.000000000000e+00
     2.000000000000e+00 0.000000000000e+00-6.984919309616e-09 8.500000000000e+01
     1.268136000000e+06 4.000000000000e+00                                      
G18 2026 07 22 16 03 54-2.981023862958e-04 8.981260180008e-12 0.000000000000e+00
     5.400000000000e+01 2.187500000000e-01 4.343038047824e-09-8.736840508705e-01
    -1.862645149231e-09 6.300016655587e-03 3.406777977943e-06 5.153618246078e+03
     3.240000000000e+05 1.769512891769e-07 5.757025525736e-01-1.490116119385e-08
     9.708342461375e-01 3.154375000000e+02-2.858674369251e+00-8.158554122241e-09
     5.643092200298e-11 1.000000000000e+00 3.800000000000e+02 0.000000000000e+00
     2.000000000000e+00 0.000000000000e+00-8.381903171539e-09 3.100000000000e+02
     1.268136000000e+06 4.000000000000e+00                                      
G05 2026 07 22 16 03 54-2.353228628635e-04-3.410605131648e-13 0.000000000000e+00
     8.400000000000e+01-8.018750000000e+01 4.079455639988e-09 1.364792451187e+00
    -4.138797521591e-06 5.607743281871e-03 7.053837180138e-06 5.153778146744e+03
     3.240000000000e+05-9.126961231232e-08 1.559057327921e+00-1.061707735062e-07
     9.811706415813e-01 2.565312500000e+02 1.483280871962e+00-7.867113411137e-09
     9.321816862518e-11 1.000000000000e+00 3.800000000000e+02 0.000000000000e+00
     2.000000000000e+00 0.000000000000e+00-1.071020960808e-08 8.400000000000e+01
     1.268136000000e+06 4.000000000000e+00                                      
G23 2026 07 22 16 03 54 6.716758944094e-04 3.865352482535e-12 0.000000000000e+00
     7.000000000000e+00-6.834375000000e+01 3.870518365483e-09-2.093257737227e+00
    -3.626570105553e-06 6.453724228777e-03 6.806105375290e-06 5.153729478836e+03
     3.240000000000e+05 6.519258022308e-08 1.585398370457e+00-1.043081283569e-07
     9.892078827875e-01 2.638437500000e+02-2.742511975055e+00-7.687463070837e-09
     1.528635102359e-10 1.000000000000e+00 3.800000000000e+02 0.000000000000e+00
     2.000000000000e+00 0.000000000000e+00-8.381903171539e-09 5.190000000000e+02
     1.268136000000e+06 4.000000000000e+00                                      
E31 2026 07 22 16 07 05-1.584434648976e-04-2.955857780762e-12 0.000000000000e+00
     1.400000000000e+01 6.596875000000e+01 2.961551931954e-09-1.998331170126e+00
     3.157183527946e-06 3.463263856247e-04 9.285286068916e-06 5.440612354279e+03
     3.132000000000e+05 6.332993507385e-08-1.329808147779e+00 3.539025783539e-08
     9.605887344794e-01 1.410312500000e+02-1.404526052308e+00-5.440226607275e-09
    -1.346484657919e-10 1.000000000000e+00 1.404000000000e+03                   
     1.070000000000e+02 0.000000000000e+00 3.492459654808e-09 3.958120942116e-09
     3.172250000000e+05                                                         
E07 2026 07 22 16 07 35-7.883325451985e-05-2.557953848736e-12 0.000000000000e+00
     1.900000000000e+01-4.115625000000e+01 3.209062241752e-09 1.231823938526e+00
    -1.827254891396e-06 4.113640170544e-04 7.482245564461e-06 5.440618808746e+03
     3.162000000000e+05 1.862645149231e-08 2.851673503099e+00 8.195638656616e-08
     9.693851921328e-01 1.838125000000e+02 1.847100979398e-01-5.482728377644e-09
     3.000124967247e-10 1.000000000000e+00 1.404000000000e+03                   
     1.070000000000e+02 0.000000000000e+00 4.656612873077e-09 5.122274160385e-09
     3.172550000000e+05                                                         
E26 2026 07 22 16 08 35 3.688774304464e-04 1.081446043827e-11 0.000000000000e+00
     1.900000000000e+01-4.231250000000e+01 2.809759894921e-09-1.023304984897e+00
    -1.864507794380e-06 9.591935668141e-05 2.201646566391e-06 5.440601947784e+03
     3.162000000000e+05 0.000000000000e+00 7.658885079534e-01 4.842877388000e-08
     9.909108657236e-01 3.099062500000e+02-2.563372922246e+00-5.652735459121e-09
    -3.035840740667e-11 1.000000000000e+00 1.404000000000e+03                   
     1.070000000000e+02 0.000000000000e+00-4.656612873077e-09-5.355104804039e-09
     3.173150000000e+05                                                         
E18 2026 07 22 16 10 35 3.030057472643e-03 4.204991910228e-11 0.000000000000e+00
     1.900000000000e+01 2.728125000000e+01 6.827070089158e-09-7.290294896559e-01
     1.661479473114e-06 1.681766957045e-01 1.056119799614e-06 5.289324558258e+03
     3.162000000000e+05 2.434477210045e-06-4.317331753740e-01-1.519918441772e-06
     8.525073183517e-01 2.736875000000e+02-3.128195164971e+00-9.982915828515e-09
     7.343163015071e-10 1.000000000000e+00 1.404000000000e+03                   
     1.070000000000e+02 1.440000000000e+02-3.259629011154e-09-3.958120942116e-09
     3.174350000000e+05                                                         
E19 2026 07 22 16 10 54 3.111535741482e-03 2.431477241771e-11 0.000000000000e+00
     1.900000000000e+01-4.268750000000e+01 3.087985769859e-09 1.279083477818e-01
    -2.030283212662e-06 2.390940207988e-04 7.295981049538e-06 5.440619096756e+03
     3.162000000000e+05 1.862645149231e-09 2.859829910686e+00-4.842877388000e-08
     9.747530759782e-01 1.863437500000e+02-2.505527286411e-01-5.403796518387e-09
     2.042942239602e-10 5.160000000000e+02 1.404000000000e+03                   
     1.070000000000e+02 0.000000000000e+00-4.656612873077e-09-4.889443516731e-09
     3.174540000000e+05                                                         
G15 2026 07 22 16 11 12 4.304455069359e-04 3.094413614235e-12 0.000000000000e+00
    -5.087852478027e-04-3.619140625000e+01 5.123070539309e-09-2.446650246518e-01
    -1.792795956135e-06 1.702896616189e-02 7.861293852329e-06 5.153468801259e+03
     3.132000000000e+05-1.536682248116e-07 2.476419311342e+00 3.818422555923e-08
     9.447585462199e-01 2.222304687500e+02 1.538320984215e+00-7.797232592371e-09
     2.771544017362e-10 5.123070539309e-09-2.000000000000e+00 2.000000000000e+00
     2.800000000000e+01 4.000000000000e+00-1.071020960808e-08 7.000000000000e+00
    -2.037268131971e-10 6.199115887284e-09 0.000000000000e+00 0.000000000000e+00
     3.174720000000e+05 2.428000000000e+03 0.000000000000e+00                   
G29 2026 07 22 16 11 12-2.769809507299e-04 7.350564601438e-12 0.000000000000e+00
     4.135608673096e-03 7.793750000000e+01 4.430363113835e-09 6.687789298754e-01
     4.087574779987e-06 3.655195469037e-03 6.358139216900e-06 5.153535844750e+03
     2.619000000000e+05 6.798654794693e-08-4.188623153196e-01 5.587935447693e-09
     9.601422826028e-01 2.550507812500e+02 2.870784167386e+00-8.231536397153e-09
     9.375390522647e-11 4.430363113835e-09-1.000000000000e+00 3.000000000000e+00
     3.000000000000e+01 4.000000000000e+00-9.778887033463e-09 7.000000000000e+00
    -9.604264050722e-10 5.355104804039e-09 0.000000000000e+00 0.000000000000e+00
     3.174720000000e+05 2.428000000000e+03 0.000000000000e+00                   
G05 2026 07 22 16 11 12-2.353225136176e-04-3.446132268436e-13 0.000000000000e+00
     5.661010742188e-03-7.648828125000e+01 4.097670684432e-09 1.102112110456e+00
    -3.889203071594e-06 5.605910206214e-03 6.668269634247e-06 5.153444664888e+03
     2.556000000000e+05-9.778887033463e-08 1.559071655741e+00-3.725290298462e-08
     9.811703116932e-01 2.632421875000e+02 1.483436258000e+00-8.425115889088e-09
     7.339591437730e-11 4.097670684432e-09-2.000000000000e+00 3.000000000000e+00
     3.000000000000e+01 4.000000000000e+00-1.071020960808e-08 7.000000000000e+00
    -3.783497959375e-10 5.733454599977e-09 0.000000000000e+00 0.000000000000e+00
     3.174720000000e+05 2.428000000000e+03 0.000000000000e+00                   
E33 2026 07 22 16 12 35-2.541241701692e-05-2.017941369559e-12 0.000000000000e+00
     1.600000000000e+01-2.971875000000e+01 2.711184360282e-09-1.587873191898e+00
    -1.400709152222e-06 1.695037353784e-04 2.557411789894e-06 5.440601152420e+03
     3.144000000000e+05 3.539025783539e-08 7.693440769889e-01 3.725290298462e-09
     9.976480628349e-01 3.006562500000e+02-2.992371176659e+00-5.545945296597e-09
     2.500104139373e-12 1.000000000000e+00 1.404000000000e+03                   
     1.070000000000e+02 0.000000000000e+00-4.423782229424e-09-5.122274160385e-09
     3.175550000000e+05                                                         
E29 2026 07 22 16 12 35-2.276540617459e-04-3.709033080668e-12 0.000000000000e+00
     1.600000000000e+01-4.253125000000e+01 3.332995975518e-09-1.055376580374e+00
    -1.855194568634e-06 1.981329405680e-04 7.102265954018e-06 5.440613302231e+03
     3.144000000000e+05 7.078051567078e-08 2.851409913057e+00-6.332993507385e-08
     9.627707265338e-01 1.839687500000e+02 1.457703637973e+00-5.568803391585e-09
     2.310810540249e-10 1.000000000000e+00 1.404000000000e+03                   
     1.070000000000e+02 0.000000000000e+00-3.492459654808e-09-3.492459654808e-09
     3.175550000000e+05                                                         
E12 2026 07 22 16 12 35-5.929265171289e-05-2.685851541173e-12 0.000000000000e+00
     1.900000000000e+01-3.046875000000e+01 2.708684256143e-09 2.473326060301e-01
    -1.655891537666e-06 3.116654697806e-04 2.622604370117e-06 5.440602838516e+03
     3.162000000000e+05 3.166496753693e-08 7.688703987440e-01 1.862645149231e-09
     9.945424355073e-01 2.985937500000e+02 8.655969109915e-01-5.560945921433e-09
     2.178662178596e-11 1.000000000000e+00 1.404000000000e+03                   
     1.070000000000e+02 0.000000000000e+00-1.187436282635e-08-1.187436282635e-08
     3.175550000000e+05                                                         
E16 2026 07 22 16 12 35-4.674942465499e-05-2.515321284591e-12 0.000000000000e+00
     1.500000000000e+01 6.871875000000e+01 2.936193732826e-09-1.690346628602e+00
     3.213062882423e-06 4.944599932060e-04 8.542090654373e-06 5.440620546341e+03
     3.138000000000e+05 6.146728992462e-08-1.333046341817e+00 5.587935447693e-09
     9.625630141103e-01 1.578750000000e+02-2.466115974921e+00-5.452727127972e-09
    -1.950081228711e-10 1.000000000000e+00 1.404000000000e+03                   
     1.070000000000e+02 0.000000000000e+00-3.958120942116e-09-2.793967723846e-09
     3.175550000000e+05                                                         
E10 2026 07 22 16 12 35-8.077201782726e-04-2.685851541173e-12 0.000000000000e+00
     1.700000000000e+01-2.803125000000e+01 2.642610075317e-09-1.757147646195e+00
    -1.562759280205e-06 2.886077854782e-04 3.460794687271e-06 5.440602785110e+03
     3.150000000000e+05 2.048909664154e-08 7.674109843535e-01-5.029141902924e-08
     9.974473519373e-01 2.865312500000e+02 2.353299533309e+00-5.534159091368e-09
     5.357366012941e-12 1.000000000000e+00 1.404000000000e+03                   
     1.070000000000e+02 0.000000000000e+00-1.164153218269e-09-4.656612873077e-10
     3.175550000000e+05                                                         
E18 2026 07 22 16 12 35 3.030082618352e-03 4.203570824757e-11 0.000000000000e+00
     2.000000000000e+01 3.353125000000e+01 7.329591021172e-09-6.480824784823e-01
     2.035871148109e-06 1.681745303795e-01 1.190230250359e-06 5.289318016052e+03
     3.168000000000e+05 2.468004822731e-06-4.317351386100e-01-8.251518011093e-07
     8.525059256537e-01 2.705000000000e+02-3.128191569118e+00-1.083473702457e-08
     4.060883437809e-10 1.000000000000e+00 1.404000000000e+03                   
     1.070000000000e+02 1.440000000000e+02-3.259629011154e-09-3.958120942116e-09
     3.175550000000e+05                                                         
E19 2026 07 22 16 12 35 3.111550351605e-03 2.430056156300e-11 0.000000000000e+00
     2.000000000000e+01-4.321875000000e+01 3.106200814303e-09 2.025098801036e-01
    -2.030283212662e-06 2.390480367467e-04 7.294118404388e-06 5.440618963242e+03
     3.168000000000e+05 9.313225746155e-09 2.859826676174e+00-8.009374141693e-08
     9.747530554973e-01 1.861250000000e+02-2.507692449056e-01-5.423083036033e-09
     2.153661137202e-10 1.000000000000e+00 1.404000000000e+03                   
     1.070000000000e+02 0.000000000000e+00-4.656612873077e-09-4.889443516731e-09
     3.175550000000e+05                                                         
G20 2026 07 22 16 12 48 2.383694227319e-04 1.175592956315e-11 0.000000000000e+00
     2.060413360596e-03-3.732031250000e+01 4.648407910562e-09-2.840104991236e+00
    -1.857057213783e-06 1.910104823764e-03 7.723458111286e-06 5.153607380394e+03
     2.601000000000e+05 1.350417733192e-07 2.628723817904e+00 3.073364496231e-08
     9.621124463138e-01 2.285078125000e+02-1.761480996800e+00-8.343683925691e-09
     2.759043496665e-10 4.648407910562e-09-3.000000000000e+00 2.000000000000e+00
     3.000000000000e+01 4.000000000000e+00-6.984919309616e-09 7.000000000000e+00
    -1.455191522837e-10 4.220055416226e-09 2.095475792885e-09 2.066371962428e-09
     3.175680000000e+05 2.428000000000e+03 0.000000000000e+00                   
G18 2026 07 22 16 12 48-2.981184807140e-04 9.023892744153e-12 0.000000000000e+00
    -3.716945648193e-03 9.296875000000e-01 4.340895101419e-09-1.136151294908e+00
    -1.583248376846e-08 6.298804888502e-03 3.834255039692e-06 5.153604479474e+03
     2.556000000000e+05 1.257285475731e-07 5.757170413142e-01-5.494803190231e-08
     9.708342351656e-01 3.104257812500e+02-2.858762650505e+00-8.210999827437e-09
     8.589643507416e-11 4.340895101419e-09-2.000000000000e+00 3.000000000000e+00
     3.100000000000e+01 4.000000000000e+00-8.381903171539e-09 7.000000000000e+00
    -8.731149137020e-11 5.209585651755e-09-8.440110832453e-10-9.313225746155e-10
     3.175680000000e+05 2.428000000000e+03 0.000000000000e+00                   
G23 2026 07 22 16 12 48 6.716689676978e-04 3.865352482535e-12 0.000000000000e+00
    -7.344245910645e-03-5.956250000000e+01 3.866946788141e-09-2.356054698129e+00
    -3.072433173656e-06 6.451646331698e-03 6.514601409435e-06 5.153492699131e+03
     3.069000000000e+05 1.955777406693e-08 1.585412350834e+00-1.285225152969e-07
     9.892076428689e-01 2.691015625000e+02-2.742255327290e+00-8.661554309125e-09
     1.237551548989e-10 3.866946788141e-09-2.000000000000e+00 3.000000000000e+00
     2.800000000000e+01 4.000000000000e+00-8.381903171539e-09 7.000000000000e+00
    -2.037268131971e-10 5.617039278150e-09-5.238689482212e-10-4.947651177645e-10
     3.175680000000e+05 2.428000000000e+03 0.000000000000e+00                   
END OF FILE                                                 COMMENT
