     3.05           N: NAVIGATION       M: MIXED            RINEX VERSION / TYPE
PYRINEXCONV 0.1.2 ALDELTUNES            20260722 144148 UTC PGM / RUN BY / DATE
GAL    1.1250e+02  3.1250e-02  2.0935e-02             O 16  IONOSPHERIC CORR
GPSA   1.3039e-08  2.2352e-08  1.5199e-05  1.5140e-05 O 18  IONOSPHERIC CORR
GPSB   1.1059e+05  1.4746e+05  1.6712e+07  1.6384e+07 O 18  IONOSPHERIC CORR
GAUT  3.7252902985e-09-1.776356839e-15 310200 1404   E16  0 TIME SYSTEM CORR
GPUT -4.5401975513e-09 1.190603172e-12  15900 2428   G18  0 TIME SYSTEM CORR
                                                            END OF HEADER
G05 2026 07 22 14 36 24-2.353205345571e-04-3.410605131648e-13 0.000000000000e+00
     7.300000000000e+01-6.321875000000e+01 4.169102231271e-09 3.149757553416e-01
    -3.129243850708e-06 5.605997517705e-03 6.848946213722e-06 5.153773567200e+03
     3.168000000000e+05-2.980232238770e-08 1.559114861564e+00 1.117587089539e-08
     9.811699013447e-01 2.603125000000e+02 1.482981893931e+00-7.962831683902e-09
     2.535819912792e-11 1.000000000000e+00 3.800000000000e+02 0.000000000000e+00
     2.000000000000e+00 0.000000000000e+00-1.071020960808e-08 7.300000000000e+01
     1.247136000000e+06 4.000000000000e+00                                      
G29 2026 07 22 14 36 24-2.770200371742e-04 7.389644451905e-12 0.000000000000e+00
     6.700000000000e+01 7.243750000000e+01 4.451613999020e-09-1.185631100580e-01
     3.799796104431e-06 3.656877204776e-03 5.764886736870e-06 5.153688289642e+03
     3.168000000000e+05 3.166496753693e-08-4.188184526468e-01-1.676380634308e-08
     9.601415921055e-01 2.647812500000e+02 2.870494491320e+00-8.142839181937e-09
     9.928985010651e-11 1.000000000000e+00 3.800000000000e+02 0.000000000000e+00
     2.000000000000e+00 0.000000000000e+00-9.778887033463e-09 6.700000000000e+01
     1.247136000000e+06 4.000000000000e+00                                      
G20 2026 07 22 14 36 24 2.383058890700e-04 1.170974428533e-11 0.000000000000e+00
     8.400000000000e+01-3.559375000000e+01 4.600905931914e-09 2.655036371573e+00
    -1.765787601471e-06 1.910347025841e-03 7.467344403267e-06 5.153614461899e+03
     3.168000000000e+05 2.607703208923e-08 2.628767548914e+00-9.872019290924e-08
     9.621114317801e-01 2.310937500000e+02-1.761101963503e+00-7.957474317889e-09
     1.500062483624e-10 1.000000000000e+00 3.800000000000e+02 0.000000000000e+00
     2.000000000000e+00 0.000000000000e+00-6.984919309616e-09 8.400000000000e+01
     1.247136000000e+06 4.000000000000e+00                                      
G21 2026 07 22 14 36 24 3.951624967158e-04-5.343281372916e-12 0.000000000000e+00
     5.000000000000e+00-7.212500000000e+01 4.474829251743e-09 2.369574025881e+00
    -3.596767783165e-06 7.908877450973e-04 7.167458534241e-06 5.153596527100e+03
     3.168000000000e+05-2.607703208923e-08 1.622755938070e+00 7.636845111847e-08
     9.641921474788e-01 2.438125000000e+02-8.269410547856e-02-8.028905864728e-09
     9.714690370133e-11 1.000000000000e+00 3.800000000000e+02 0.000000000000e+00
     2.000000000000e+00 0.000000000000e+00-9.778887033463e-09 5.170000000000e+02
     1.247136000000e+06 4.000000000000e+00                                      
G15 2026 07 22 14 36 24 4.304298199713e-04 3.069544618484e-12 0.000000000000e+00
     9.500000000000e+01-2.940625000000e+01 5.033781105760e-09-9.884843249684e-01
    -1.339241862297e-06 1.702985167503e-02 7.897615432739e-06 5.153755912781e+03
     3.168000000000e+05-2.719461917877e-07 2.476463248623e+00 1.881271600723e-07
     9.447575967861e-01 2.203437500000e+02 1.538294475408e+00-8.430351157964e-09
     1.939366496685e-10 1.000000000000e+00 3.800000000000e+02 0.000000000000e+00
     2.800000000000e+00 0.000000000000e+00-1.071020960808e-08 9.500000000000e+01
     1.247136000000e+06 4.000000000000e+00                                      
G25 2026 07 22 14 36 24 4.044021479785e-04-3.183231456205e-12 0.000000000000e+00
     3.900000000000e+01 2.325000000000e+01 4.556261215139e-09 2.734868027671e+00
     1.195818185806e-06 1.290272676852e-02 8.882954716682e-06 5.153665987015e+03
     3.168000000000e+05 1.192092895508e-07-1.563684018470e+00-4.842877388000e-08
     9.467101520836e-01 1.970937500000e+02 1.161714980812e+00-7.747822727916e-09
    -1.789360248322e-10 1.000000000000e+00 3.800000000000e+02 0.000000000000e+00
     2.000000000000e+00 0.000000000000e+00 5.587935447693e-09 3.900000000000e+01
     1.247136000000e+06 4.000000000000e+00                                      
G18 2026 07 22 14 36 24-2.981671132147e-04 8.981260180008e-12 0.000000000000e+00
     5.300000000000e+01-7.281250000000e+00 4.349466887040e-09-1.923633412904e+00
    -6.519258022308e-07 6.300113513134e-03 4.133209586143e-06 5.153621372223e+03
     3.168000000000e+05 7.264316082001e-08 5.757606699201e-01-1.043081283569e-07
     9.708337092465e-01 3.060000000000e+02-2.858937597952e+00-8.097837307428e-09
     9.964700784071e-11 1.000000000000e+00 3.800000000000e+02 0.000000000000e+00
     2.000000000000e+00 0.000000000000e+00-8.381903171539e-09 3.090000000000e+02
     1.247136000000e+06 4.000000000000e+00                                      
G11 2026 07 22 14 36 48-2.665767096914e-04 1.223554590979e-11 0.000000000000e+00
     5.102634429932e-03-2.394531250000e+00 4.653229539974e-09-9.324221940070e-01
    -8.847564458847e-08 2.492991741747e-03 3.426335752010e-06 5.153573445087e+03
     2.727000000000e+05 4.656612873077e-08 5.984771156712e-01 6.519258022308e-08
     9.627506392057e-01 3.151523437500e+02-2.354000238153e+00-8.071172574499e-09
     3.035840740667e-12 4.653229539974e-09-2.000000000000e+00 3.000000000000e+00
     2.900000000000e+01 4.000000000000e+00-8.847564458847e-09 7.000000000000e+00
    -2.037268131971e-10 5.675246939063e-09 3.783497959375e-10 2.328306436539e-10
     3.118080000000e+05 2.428000000000e+03 0.000000000000e+00                   
G05 2026 07 22 14 40 48-2.353200106882e-04-3.446132268436e-13 0.000000000000e+00
    -1.029491424561e-03-6.177734375000e+01 4.169102231271e-09 5.251867785374e-02
    -3.159046173096e-06 5.605588841718e-03 6.617046892643e-06 5.153449928166e+03
     2.556000000000e+05-2.887099981308e-08 1.559129231076e+00-1.862645149231e-09
     9.811698596515e-01 2.638125000000e+02 1.482908841654e+00-8.372970859895e-09
     1.750072897561e-11 4.169102231271e-09-2.000000000000e+00 3.000000000000e+00
     3.000000000000e+01 4.000000000000e+00-1.071020960808e-08 7.000000000000e+00
    -3.783497959375e-10 5.733454599977e-09 0.000000000000e+00 0.000000000000e+00
     3.120480000000e+05 2.428000000000e+03 0.000000000000e+00                   
G15 2026 07 22 14 40 48 4.304244066589e-04 3.101519041593e-12 0.000000000000e+00
    -3.765583038330e-03-3.194531250000e+01 4.967349767199e-09-1.250973268469e+00
    -1.561827957630e-06 1.702870859299e-02 7.498078048229e-06 5.153466078956e+03
     2.286000000000e+05-1.648440957069e-07 2.476478621698e+00 3.026798367500e-07
     9.447577247914e-01 2.257539062500e+02 1.538247463804e+00-8.020099018509e-09
     1.664355041354e-10 4.967349767199e-09-2.000000000000e+00 3.000000000000e+00
     3.100000000000e+01 4.000000000000e+00-1.071020960808e-08 7.000000000000e+00
    -2.037268131971e-10 6.199115887284e-09 0.000000000000e+00 0.000000000000e+00
     3.120480000000e+05 2.428000000000e+03 0.000000000000e+00                   
G29 2026 07 22 14 40 48-2.770338614937e-04 7.350564601438e-12 0.000000000000e+00
    -4.967689514160e-03 6.650000000000e+01 4.448399579412e-09-3.806061239442e-01
     3.395602107048e-06 3.656744374894e-03 6.138347089291e-06 5.153533391754e+03
     2.619000000000e+05 2.980232238770e-08-4.188037971335e-01-1.769512891769e-08
     9.601414121666e-01 2.597929687500e+02 2.869991604453e+00-8.194749150531e-09
     1.001827444420e-10 4.448399579412e-09-2.000000000000e+00 3.000000000000e+00
     3.000000000000e+01 4.000000000000e+00-9.778887033463e-09 7.000000000000e+00
    -9.604264050722e-10 5.355104804039e-09 0.000000000000e+00 0.000000000000e+00
     3.120480000000e+05 2.428000000000e+03 0.000000000000e+00                   
G25 2026 07 22 14 40 48 4.044078814331e-04-3.225864020351e-12 0.000000000000e+00
    -5.060672760010e-03 2.100000000000e+01 4.561440002285e-09 2.472195075408e+00
     1.092441380024e-06 1.290367147885e-02 8.680857717991e-06 5.153556264928e+03
     2.412000000000e+05 1.238659024239e-07-1.563670229004e+00-1.182779669762e-07
     9.467103034956e-01 2.039648437500e+02 1.161838080248e+00-8.544406572309e-09
    -1.575065607805e-10 4.561440002285e-09-2.000000000000e+00 3.000000000000e+00
     3.100000000000e+01 4.000000000000e+00 5.587935447693e-09 7.000000000000e+00
    -1.891748979688e-09-4.773028194904e-09-1.047737896442e-09 6.402842700481e-10
     3.120480000000e+05 2.428000000000e+03 0.000000000000e+00                   
E26 2026 07 22 14 40 54 3.688191645779e-04 1.084288214770e-11 0.000000000000e+00
     1.000000000000e+01-3.815625000000e+01 2.856904715834e-09-1.703003238452e+00
    -1.704320311546e-06 9.492773097008e-05 2.548098564148e-06 5.440599174500e+03
     3.108000000000e+05 3.352761268616e-08 7.659187991352e-01 4.842877388000e-08
     9.909111700105e-01 2.997187500000e+02-2.553147215572e+00-5.627020102259e-09
    -3.000124967247e-11 5.160000000000e+02 1.404000000000e+03                   
     1.070000000000e+02 0.000000000000e+00-4.656612873077e-09-5.355104804039e-09
     3.120540000000e+05                                                         
E07 2026 07 22 14 40 54-7.881992496550e-05-2.600586412882e-12 0.000000000000e+00
     1.000000000000e+01-4.075000000000e+01 3.197276036523e-09 5.631545161146e-01
    -1.762062311172e-06 4.113317700103e-04 7.247552275658e-06 5.440618131638e+03
     3.108000000000e+05 7.450580596924e-08 2.851703687488e+00-9.313225746155e-09
     9.693841022589e-01 1.862500000000e+02 1.839123058057e-01-5.498443317949e-09
     2.289381076197e-10 5.160000000000e+02 1.404000000000e+03                   
     1.070000000000e+02 0.000000000000e+00 4.656612873077e-09 5.122274160385e-09
     3.120540000000e+05                                                         
E33 2026 07 22 14 40 54-2.540502464399e-05-1.989519660128e-12 0.000000000000e+00
     1.000000000000e+01-3.103125000000e+01 2.724399196448e-09-2.032833346937e+00
    -1.540407538414e-06 1.695585669950e-04 2.650544047356e-06 5.440601621628e+03
     3.108000000000e+05 5.029141902924e-08 7.693641189666e-01-3.725290298462e-09
     9.976480833157e-01 2.992812500000e+02-2.993724678707e+00-5.549874031673e-09
    -6.428839215530e-12 5.160000000000e+02 1.404000000000e+03                   
     1.070000000000e+02 0.000000000000e+00-4.423782229424e-09-5.122274160385e-09
     3.120540000000e+05                                                         
E29 2026 07 22 14 40 54-2.276404411532e-04-3.694822225953e-12 0.000000000000e+00
     1.000000000000e+01-4.137500000000e+01 3.272279160705e-09-1.501285943957e+00
    -1.942738890648e-06 1.982201356441e-04 7.081776857376e-06 5.440613527298e+03
     3.108000000000e+05-2.793967723846e-08 2.851429966738e+00-2.235174179077e-08
     9.627705041703e-01 1.840937500000e+02 1.457300355346e+00-5.518086993329e-09
     1.775073938955e-10 5.160000000000e+02 1.404000000000e+03                   
     1.070000000000e+02 0.000000000000e+00-3.492459654808e-09-3.492459654808e-09
     3.120540000000e+05                                                         
E23 2026 07 22 14 41 35-4.285399336368e-05-1.350031197944e-12 0.000000000000e+00
     5.000000000000e+00 6.315625000000e+01 2.936908048294e-09-5.711174776554e-01
     3.047287464142e-06 1.775431446731e-04 9.369105100632e-06 5.440616048813e+03
     3.078000000000e+05 6.332993507385e-08-1.332890122647e+00 4.656612873077e-08
     9.625435309673e-01 1.402812500000e+02-2.735138092589e+00-5.407010937995e-09
    -9.571827276455e-11 1.000000000000e+00 1.404000000000e+03                   
     1.070000000000e+02 0.000000000000e+00 9.313225746155e-10 2.095475792885e-09
     3.120950000000e+05                                                         
G21 2026 07 22 14 41 36 3.951719845645e-04-5.375255796025e-12 0.000000000000e+00
     9.581565856934e-03-7.526562500000e+01 4.500901766339e-09 2.110053267091e+00
    -3.783963620663e-06 7.883394719101e-04 6.401911377907e-06 5.153627558688e+03
     3.069000000000e+05 2.328306436539e-08 1.622770538724e+00 7.171183824539e-08
     9.641919404759e-01 2.573750000000e+02-8.572425135344e-02-8.289931686694e-09
     7.125296797212e-11 4.500901766339e-09-3.000000000000e+00 2.000000000000e+00
     2.700000000000e+01 4.000000000000e+00-9.778887033463e-09 7.000000000000e+00
    -8.731149137020e-11 6.199115887284e-09 1.746229827404e-10 1.455191522837e-10
     3.120960000000e+05 2.428000000000e+03 0.000000000000e+00                   
G20 2026 07 22 14 41 36 2.382847596891e-04 1.176303499051e-11 0.000000000000e+00
    -2.622127532959e-03-3.616015625000e+01 4.566083052830e-09 2.392094755137e+00
    -1.820735633373e-06 1.910939696245e-03 7.497146725655e-06 5.153608122820e+03
     2.601000000000e+05 5.587935447693e-09 2.628781976212e+00-6.053596735001e-08
     9.621112481839e-01 2.346523437500e+02-1.760716728165e+00-8.402972109567e-09
     1.335769925893e-10 4.566083052830e-09-3.000000000000e+00 2.000000000000e+00
     3.000000000000e+01 4.000000000000e+00-6.984919309616e-09 7.000000000000e+00
    -1.455191522837e-10 4.220055416226e-09 2.095475792885e-09 2.066371962428e-09
     3.120960000000e+05 2.428000000000e+03 0.000000000000e+00                   
G18 2026 07 22 14 41 36-2.981834404636e-04 9.023892744153e-12 0.000000000000e+00
    -2.479553222656e-03-2.621093750000e+00 4.358931566996e-09-2.186209584359e+00
    -1.527369022369e-07 6.299139757175e-03 4.140660166740e-06 5.153600524224e+03
     2.556000000000e+05 3.352761268616e-08 5.757753876074e-01-1.341104507446e-07
     9.708335600289e-01 3.050898437500e+02-2.858915797547e+00-8.249572862730e-09
     7.036007363663e-11 4.358931566996e-09-2.000000000000e+00 3.000000000000e+00
     3.000000000000e+01 4.000000000000e+00-8.381903171539e-09 7.000000000000e+00
    -8.731149137020e-11 5.209585651755e-09-8.440110832453e-10-9.313225746155e-10
     3.120960000000e+05 2.428000000000e+03 0.000000000000e+00                   
E31 2026 07 22 14 41 54-1.584273995832e-04-2.941646926047e-12 0.000000000000e+00
     5.000000000000e+00 6.978125000000e+01 2.943336887510e-09-2.662078202357e+00
     3.328546881676e-06 3.462517634034e-04 8.519738912582e-06 5.440616336823e+03
     3.078000000000e+05 3.911554813385e-08-1.329778592445e+00 1.117587089539e-08
     9.605892903882e-01 1.558437500000e+02-1.410244269923e+00-5.463799017732e-09
    -1.292910997790e-10 5.160000000000e+02 1.404000000000e+03                   
     1.070000000000e+02 0.000000000000e+00 3.492459654808e-09 3.958120942116e-09
     3.121140000000e+05                                                         
E16 2026 07 22 14 41 54-4.674028605223e-05-2.515321284591e-12 0.000000000000e+00
     9.000000000000e+00 7.509375000000e+01 2.954765935004e-09-2.138292576034e+00
     3.436580300331e-06 4.942259984091e-04 8.622184395790e-06 5.440618877411e+03
     3.102000000000e+05 5.215406417847e-08-1.333027081037e+00-4.097819328308e-08
     9.625637353289e-01 1.555312500000e+02-2.464480594892e+00-5.421654405097e-09
    -1.782217093638e-10 5.160000000000e+02 1.404000000000e+03                   
     1.070000000000e+02 0.000000000000e+00-3.958120942116e-09-2.793967723846e-09
     3.121140000000e+05                                                         
E12 2026 07 22 14 41 54-5.927507299930e-05-2.657429831743e-12 0.000000000000e+00
     8.000000000000e+00-2.587500000000e+01 2.702969732396e-09-5.750633744064e-01
    -1.333653926849e-06 3.136922605336e-04 3.678724169731e-06 5.440607740402e+03
     3.096000000000e+05-1.676380634308e-08 7.689073491288e-01-6.332993507385e-08
     9.945428451244e-01 2.812500000000e+02 8.697548387001e-01-5.545945296597e-09
    -3.678724662220e-11 5.160000000000e+02 1.404000000000e+03                   
     1.070000000000e+02 0.000000000000e+00-1.187436282635e-08-1.187436282635e-08
     3.121140000000e+05                                                         
E26 2026 07 22 14 41 54 3.688255674206e-04 1.082867129298e-11 0.000000000000e+00
     1.100000000000e+01-3.959375000000e+01 2.849404403416e-09-1.626489416190e+00
    -1.760199666023e-06 9.505741763860e-05 2.495944499969e-06 5.440599647522e+03
     3.114000000000e+05 3.166496753693e-08 7.659154388123e-01 5.215406417847e-08
     9.909111451409e-01 3.010625000000e+02-2.555275053325e+00-5.628805890930e-09
    -3.071556514086e-11 5.160000000000e+02 1.404000000000e+03                   
     1.070000000000e+02 0.000000000000e+00-4.656612873077e-09-5.355104804039e-09
     3.121140000000e+05                                                         
E29 2026 07 22 14 41 54-2.276427112520e-04-3.694822225953e-12 0.000000000000e+00
     1.100000000000e+01-4.190625000000e+01 3.279065157654e-09-1.427122400531e+00
    -1.940876245499e-06 1.981754321605e-04 7.081776857376e-06 5.440613405228e+03
     3.114000000000e+05-3.352761268616e-08 2.851426657617e+00-2.235174179077e-08
     9.627706212037e-01 1.840000000000e+02 1.457522176152e+00-5.517372677861e-09
     1.760787629587e-10 5.160000000000e+02 1.404000000000e+03                   
     1.070000000000e+02 0.000000000000e+00-3.492459654808e-09-3.492459654808e-09
     3.121140000000e+05                                                         
E33 2026 07 22 14 41 54-2.540630521253e-05-2.003730514843e-12 0.000000000000e+00
     1.100000000000e+01-3.009375000000e+01 2.724399196448e-09-1.959373360314e+00
    -1.484528183937e-06 1.695164246485e-04 2.600252628326e-06 5.440601299286e+03
     3.114000000000e+05 4.097819328308e-08 7.693607425516e-01 0.000000000000e+00
     9.976480613719e-01 3.001562500000e+02-2.992799159195e+00-5.547373927534e-09
    -1.071473202588e-12 5.160000000000e+02 1.404000000000e+03                   
     1.070000000000e+02 0.000000000000e+00-4.423782229424e-09-5.122274160385e-09
     3.121140000000e+05                                                         
E07 2026 07 22 14 41 54-7.882149657235e-05-2.600586412882e-12 0.000000000000e+00
     1.100000000000e+01-4.065625000000e+01 3.199776140663e-09 6.374006251745e-01
    -1.752749085426e-06 4.113498143852e-04 7.284805178642e-06 5.440618249893e+03
     3.114000000000e+05 7.823109626770e-08 2.851700344720e+00 3.725290298462e-09
     9.693841929598e-01 1.857812500000e+02 1.840514644251e-01-5.499871948885e-09
     2.371527355062e-10 5.160000000000e+02 1.404000000000e+03                   
     1.070000000000e+02 0.000000000000e+00 4.656612873077e-09 5.122274160385e-09
     3.121140000000e+05                                                         
END OF FILE                                                 COMMENT
