     3.05           N: NAVIGATION       M: MIXED            RINEX VERSION / TYPE
PYRINEXCONV 0.1.2 ALDELTUNES            20260722 174328 UTC PGM / RUN BY / DATE
GAL    1.1250e+02  3.1250e-02  2.0935e-02             R 11  IONOSPHERIC CORR
GPSA   1.3039e-08  2.2352e-08  1.5199e-05  1.5140e-05 R 20  IONOSPHERIC CORR
GPSB   1.1059e+05  1.4746e+05  1.6712e+07  1.6384e+07 R 20  IONOSPHERIC CORR
GAUT  3.7252902985e-09-1.776356839e-15 321000 1404   E11  0 TIME SYSTEM CORR
GPUT -4.4819898903e-09-1.596500709e-12  30000 2428   G20  0 TIME SYSTEM CORR
                                                            END OF HEADER
E10 2026 07 22 17 36 24-8.077311795205e-04-2.700062395888e-12 0.000000000000e+00
     2.400000000000e+01-2.912500000000e+01 2.639395655709e-09-1.241189683435e+00
    -1.637265086174e-06 2.873381599784e-04 2.555549144745e-06 5.440599039078e+03
     3.192000000000e+05 3.352761268616e-08 7.673876669023e-01-2.980232238770e-08
     9.974473343823e-01 3.009062500000e+02 2.358039324980e+00-5.537373510976e-09
     1.964367538078e-11 5.160000000000e+02 1.404000000000e+03                   
     1.070000000000e+02 0.000000000000e+00-1.164153218269e-09-4.656612873077e-10
     3.225840000000e+05                                                         
E18 2026 07 22 17 39 35 3.030284482520e-03 4.203570824757e-11 0.000000000000e+00
     2.800000000000e+01 5.131250000000e+01 6.507413917053e-09-4.489885764621e-04
     3.261491656303e-06 1.681738125626e-01 2.074986696243e-06 5.289317863464e+03
     3.216000000000e+05 1.939013600349e-06-4.317870224626e-01 2.400949597359e-06
     8.525155779872e-01 2.512500000000e+02-3.128181482298e+00-9.046091091718e-09
    -1.111117711084e-09 1.000000000000e+00 1.404000000000e+03                   
     1.070000000000e+02 1.440000000000e+02-3.259629011154e-09-3.958120942116e-09
     3.227750000000e+05                                                         
E29 2026 07 22 17 40 54-2.276789746247e-04-3.652189661807e-12 0.000000000000e+00
     2.800000000000e+01-4.175000000000e+01 3.368711748937e-09-1.627737364309e-01
    -1.788139343262e-06 1.986527349800e-04 7.482245564461e-06 5.440614389420e+03
     3.216000000000e+05 6.332993507385e-08 2.851369119586e+00 8.381903171539e-08
     9.627721455643e-01 1.804062500000e+02 1.457727117808e+00-5.567731918383e-09
     3.389426897521e-10 5.160000000000e+02 1.404000000000e+03                   
     1.070000000000e+02 0.000000000000e+00-3.492459654808e-09-3.492459654808e-09
     3.228540000000e+05                                                         
E04 2026 07 22 17 40 54-1.178452512249e-04 3.356603883731e-11 0.000000000000e+00
     2.800000000000e+01-4.006250000000e+01 3.164774682711e-09-2.012243978953e-01
    -1.883134245872e-06 2.889499301091e-04 7.452443242073e-06 5.440612001419e+03
     3.216000000000e+05-4.284083843231e-08 2.851694964107e+00-6.891787052155e-08
     9.693851423936e-01 1.829687500000e+02-7.524012239596e-02-5.439869449541e-09
     2.642967233051e-10 5.160000000000e+02 1.404000000000e+03                   
     1.070000000000e+02 0.000000000000e+00-4.423782229424e-09-5.122274160385e-09
     3.228540000000e+05                                                         
E10 2026 07 22 17 40 54-8.077379898168e-04-2.756905814749e-12 0.000000000000e+00
     2.800000000000e+01-2.484375000000e+01 2.635466920633e-09-9.448460360356e-01
    -1.357868313789e-06 2.865883288905e-04 2.240762114525e-06 5.440597387314e+03
     3.216000000000e+05 3.166496753693e-08 7.673743704398e-01-2.793967723846e-08
     9.974473782698e-01 3.058750000000e+02 2.359237873281e+00-5.536659195508e-09
     2.071514858337e-11 5.160000000000e+02 1.404000000000e+03                   
     1.070000000000e+02 0.000000000000e+00-1.164153218269e-09-4.656612873077e-10
     3.228540000000e+05                                                         
E18 2026 07 22 17 41 59 3.030309919268e-03 4.203570824757e-11 0.000000000000e+00
     2.900000000000e+01 6.103125000000e+01 6.198829634707e-09 8.050037350653e-02
     3.878027200699e-06 1.681756516919e-01 2.074986696243e-06 5.289323736191e+03
     3.222000000000e+05 1.348555088043e-06-4.317920402716e-01 2.712011337280e-06
     8.525177211622e-01 2.512812500000e+02-3.128175238563e+00-8.532141112210e-09
    -1.520420474473e-09 1.000000000000e+00 1.404000000000e+03                   
     1.070000000000e+02 1.440000000000e+02-3.259629011154e-09-3.958120942116e-09
     3.229190000000e+05                                                         
E12 2026 07 22 17 42 24-5.930371116847e-05-2.685851541173e-12 0.000000000000e+00
     2.600000000000e+01-2.553125000000e+01 2.702255416928e-09 7.706265514377e-01
    -1.277774572372e-06 3.112555714324e-04 2.291053533554e-06 5.440601020813e+03
     3.204000000000e+05 7.636845111847e-08 7.688472700092e-01 3.725290298462e-09
     9.945425613183e-01 3.035625000000e+02 8.630013841802e-01-5.578089492674e-09
    -2.142946405177e-12 5.160000000000e+02 1.404000000000e+03                   
     1.070000000000e+02 0.000000000000e+00-1.187436282635e-08-1.187436282635e-08
     3.229440000000e+05                                                         
G15 2026 07 22 17 42 24 4.304455069359e-04 3.094413614235e-12 0.000000000000e+00
    -5.087852478027e-04-3.619140625000e+01 5.123070539309e-09-2.446650246518e-01
    -1.792795956135e-06 1.702896616189e-02 7.861293852329e-06 5.153468801259e+03
     3.132000000000e+05-1.536682248116e-07 2.476419311342e+00 3.818422555923e-08
     9.447585462199e-01 2.222304687500e+02 1.538320984215e+00-7.797232592371e-09
     2.771544017362e-10 5.123070539309e-09-2.000000000000e+00 2.000000000000e+00
     2.800000000000e+01 4.000000000000e+00-1.071020960808e-08 7.000000000000e+00
    -2.037268131971e-10 6.199115887284e-09 0.000000000000e+00 0.000000000000e+00
     3.229440000000e+05 2.428000000000e+03 0.000000000000e+00                   
G10 2026 07 22 17 42 24-5.627309728879e-04 5.247358103588e-12 0.000000000000e+00
    -7.446765899658e-03-6.226562500000e+01 3.673188717340e-09 2.915439619602e+00
    -3.258697688580e-06 1.113900891505e-02 6.675720214844e-06 5.153568552393e+03
     2.988000000000e+05-6.519258022308e-09 1.618197755243e+00-1.406297087669e-07
     9.942809140310e-01 2.703007812500e+02-2.265158622480e+00-8.889599522410e-09
     8.143196339671e-11 3.673188717340e-09-2.000000000000e+00 3.000000000000e+00
     2.800000000000e+01 4.000000000000e+00 2.328306436539e-09 7.000000000000e+00
    -8.149072527885e-10-4.656612873077e-10 1.059379428625e-08 1.103035174310e-08
     3.229440000000e+05 2.428000000000e+03 0.000000000000e+00                   
G24 2026 07 22 17 42 24 1.244730665348e-04 1.857358711277e-11 0.000000000000e+00
    -8.621215820312e-04-1.130078125000e+01 5.465941964137e-09-9.454410084758e-01
    -5.112960934639e-07 1.844293728936e-02 6.570480763912e-06 5.153600112838e+03
     2.844000000000e+05-3.352761268616e-08-2.698133550515e+00 3.455206751823e-07
     9.354936256245e-01 2.379257812500e+02 1.162813363113e+00-7.739551618298e-09
    -1.198264198228e-10 5.465941964137e-09-2.000000000000e+00 3.000000000000e+00
     2.900000000000e+01 4.000000000000e+00 2.328306436539e-09 7.000000000000e+00
     2.910383045673e-11-1.426087692380e-09 1.484295353293e-09 2.764863893390e-09
     3.229440000000e+05 2.428000000000e+03 0.000000000000e+00                   
G27 2026 07 22 17 42 24 5.444162525237e-07 3.552713678801e-15 0.000000000000e+00
     5.980014801025e-03 6.405859375000e+01 4.640550440410e-09 9.699169474940e-01
     3.329478204250e-06 1.432850240963e-02 6.205402314663e-06 5.153543759516e+03
     3.069000000000e+05-1.564621925354e-07-5.095485741377e-01 7.264316082001e-08
     9.508970126545e-01 2.551132812500e+02 9.007010727407e-01-7.967596831582e-09
    -1.494705117611e-10 4.640550440410e-09-2.000000000000e+00 1.000000000000e+00
     2.800000000000e+01 4.000000000000e+00 2.328306436539e-09 7.000000000000e+00
    -9.022187441587e-10-1.688022166491e-09 6.664777174592e-09 5.326000973582e-09
     3.229440000000e+05 2.428000000000e+03 0.000000000000e+00                   
G18 2026 07 22 17 43 12-2.981184807140e-04 9.023892744153e-12 0.000000000000e+00
    -3.716945648193e-03 9.296875000000e-01 4.340895101419e-09-1.136151294908e+00
    -1.583248376846e-08 6.298804888502e-03 3.834255039692e-06 5.153604479474e+03
     2.556000000000e+05 1.257285475731e-07 5.757170413142e-01-5.494803190231e-08
     9.708342351656e-01 3.104257812500e+02-2.858762650505e+00-8.210999827437e-09
     8.589643507416e-11 4.340895101419e-09-2.000000000000e+00 3.000000000000e+00
     3.100000000000e+01 4.000000000000e+00-8.381903171539e-09 7.000000000000e+00
    -8.731149137020e-11 5.209585651755e-09-8.440110832453e-10-9.313225746155e-10
     3.229920000000e+05 2.428000000000e+03 0.000000000000e+00                   
G23 2026 07 22 17 43 12 6.716689676978e-04 3.865352482535e-12 0.000000000000e+00
    -7.344245910645e-03-5.956250000000e+01 3.866946788141e-09-2.356054698129e+00
    -3.072433173656e-06 6.451646331698e-03 6.514601409435e-06 5.153492699131e+03
     3.069000000000e+05 1.955777406693e-08 1.585412350834e+00-1.285225152969e-07
     9.892076428689e-01 2.691015625000e+02-2.742255327290e+00-8.661554309125e-09
     1.237551548989e-10 3.866946788141e-09-2.000000000000e+00 3.000000000000e+00
     2.800000000000e+01 4.000000000000e+00-8.381903171539e-09 7.000000000000e+00
    -2.037268131971e-10 5.617039278150e-09-5.238689482212e-10-4.947651177645e-10
     3.229920000000e+05 2.428000000000e+03 0.000000000000e+00                   
G20 2026 07 22 17 43 12 2.383694227319e-04 1.175592956315e-11 0.000000000000e+00
     2.060413360596e-03-3.732031250000e+01 4.648407910562e-09-2.840104991236e+00
    -1.857057213783e-06 1.910104823764e-03 7.723458111286e-06 5.153607380394e+03
     2.601000000000e+05 1.350417733192e-07 2.628723817904e+00 3.073364496231e-08
     9.621124463138e-01 2.285078125000e+02-1.761480996800e+00-8.343683925691e-09
     2.759043496665e-10 4.648407910562e-09-3.000000000000e+00 2.000000000000e+00
     3.000000000000e+01 4.000000000000e+00-6.984919309616e-09 7.000000000000e+00
    -1.455191522837e-10 4.220055416226e-09 2.095475792885e-09 2.066371962428e-09
     3.229920000000e+05 2.428000000000e+03 0.000000000000e+00                   
E33 2026 07 22 17 43 35-2.542720176280e-05-2.046363078989e-12 0.000000000000e+00
     2.800000000000e+01-4.025000000000e+01 2.640467128912e-09-6.891867270507e-01
    -1.769512891769e-06 1.714656827971e-04 2.108514308929e-06 5.440605640411e+03
     3.216000000000e+05 1.676380634308e-08 7.693043807068e-01 6.332993507385e-08
     9.976478170646e-01 3.137187500000e+02-2.998429680723e+00-5.599518956726e-09
    -1.678641350722e-11 1.000000000000e+00 1.404000000000e+03                   
     1.070000000000e+02 0.000000000000e+00-4.423782229424e-09-5.122274160385e-09
     3.230150000000e+05                                                         
E11 2026 07 22 17 43 35 5.525462271180e-03 6.686207143503e-11-3.469446951954e-18
     2.700000000000e+01-2.953125000000e+01 2.658682173356e-09-4.492873862573e-01
    -1.700595021248e-06 4.115656483918e-04 2.823770046234e-06 5.440607622147e+03
     3.210000000000e+05 2.048909664154e-08 7.688349478502e-01-2.235174179077e-08
     9.945300533687e-01 2.959687500000e+02 1.360474670419e+00-5.556302870888e-09
     2.285809498855e-11 1.000000000000e+00 1.404000000000e+03                   
     1.070000000000e+02 0.000000000000e+00-1.466833055019e-08-1.606531441212e-08
     3.230150000000e+05                                                         
E19 2026 07 22 17 43 35 3.111651050858e-03 2.418687472527e-11 0.000000000000e+00
     2.700000000000e+01-4.409375000000e+01 3.154417108420e-09 7.234793042741e-01
    -1.896172761917e-06 2.390004228801e-04 7.331371307373e-06 5.440618814468e+03
     3.210000000000e+05 2.235174179077e-08 2.859803845875e+00-1.154839992523e-07
     9.747538966752e-01 1.860312500000e+02-2.510429203053e-01-5.439155134072e-09
     2.232235838726e-10 1.000000000000e+00 1.404000000000e+03                   
     1.070000000000e+02 0.000000000000e+00-4.656612873077e-09-4.889443516731e-09
     3.230150000000e+05                                                         
E28 2026 07 22 17 43 35-6.068736547604e-05-2.856381797756e-12 0.000000000000e+00
     2.400000000000e+01-3.818750000000e+01 3.494788429109e-09-2.185257337334e+00
    -1.804903149605e-06 2.854970516637e-04 7.184222340584e-06 5.440611495972e+03
     3.192000000000e+05-4.842877388000e-08 2.869380291949e+00-5.774199962616e-08
     9.490834148252e-01 1.777187500000e+02 1.977134249338e+00-5.619162632107e-09
     2.325096849617e-10 1.000000000000e+00 1.404000000000e+03                   
     1.070000000000e+02 0.000000000000e+00 6.984919309616e-10 1.629814505577e-09
     3.230150000000e+05                                                         
E10 2026 07 22 17 43 35-8.077395032160e-04-2.742694960034e-12 0.000000000000e+00
     2.900000000000e+01-2.409375000000e+01 2.632609658759e-09-8.705371092734e-01
    -1.300126314163e-06 2.864892594516e-04 2.214685082436e-06 5.440597185135e+03
     3.222000000000e+05 3.352761268616e-08 7.673710525416e-01-2.793967723846e-08
     9.974473914361e-01 3.061875000000e+02 2.359314607723e+00-5.537016353242e-09
     2.000083311498e-11 1.000000000000e+00 1.404000000000e+03                   
     1.070000000000e+02 0.000000000000e+00-1.164153218269e-09-4.656612873077e-10
     3.230150000000e+05                                                         
E29 2026 07 22 17 43 35-2.276810118929e-04-3.637978807092e-12 0.000000000000e+00
     2.900000000000e+01-4.175000000000e+01 3.369068906672e-09-8.840230503084e-02
    -1.803040504456e-06 1.986564602703e-04 7.493421435356e-06 5.440614400864e+03
     3.222000000000e+05 4.656612873077e-08 2.851365691969e+00 8.754432201385e-08
     9.627723167258e-01 1.803750000000e+02 1.457741192543e+00-5.562374552370e-09
     3.482287908412e-10 1.000000000000e+00 1.404000000000e+03                   
     1.070000000000e+02 0.000000000000e+00-3.492459654808e-09-3.492459654808e-09
     3.230150000000e+05                                                         
E04 2026 07 22 17 43 35-1.178251113743e-04 3.355182798259e-11 0.000000000000e+00
     2.900000000000e+01-4.081250000000e+01 3.166560471382e-09-1.266443821726e-01
    -1.903623342514e-06 2.888485323638e-04 7.471069693565e-06 5.440611774445e+03
     3.222000000000e+05-3.725290298462e-08 2.851691688634e+00-5.960464477539e-08
     9.693853486651e-01 1.823437500000e+02-7.543480168228e-02-5.432369137122e-09
     2.617966191657e-10 1.000000000000e+00 1.404000000000e+03                   
     1.070000000000e+02 0.000000000000e+00-4.423782229424e-09-5.122274160385e-09
     3.230150000000e+05                                                         
E12 2026 07 22 17 43 35-5.930819315836e-05-2.700062395888e-12 0.000000000000e+00
     2.900000000000e+01-2.825000000000e+01 2.679040164205e-09 9.927296035156e-01
    -1.329928636551e-06 3.112604608759e-04 2.287328243256e-06 5.440601665497e+03
     3.222000000000e+05 7.450580596924e-08 7.688372212249e-01 3.725290298462e-09
     9.945425598553e-01 3.038750000000e+02 8.640554824877e-01-5.577018019472e-09
    -1.071473202588e-12 1.000000000000e+00 1.404000000000e+03                   
     1.070000000000e+02 0.000000000000e+00-1.187436282635e-08-1.187436282635e-08
     3.230150000000e+05                                                         
END OF FILE                                                 COMMENT
