     3.05           N: NAVIGATION       M: MIXED            RINEX VERSION / TYPE
PYRINEXCONV 0.1.2 ALDELTUNES            20260722 193557 UTC PGM / RUN BY / DATE
GAL    1.1250e+02  3.1250e-02  2.0935e-02             T 06  IONOSPHERIC CORR
GPSA   1.3039e-08  2.2352e-08  1.5199e-05  1.5140e-05 T 23  IONOSPHERIC CORR
GPSB   1.1059e+05  1.4746e+05  1.6712e+07  1.6384e+07 T 23  IONOSPHERIC CORR
GAUT  3.7252902985e-09-1.776356839e-15 326400 1404   E06  0 TIME SYSTEM CORR
GPUT -3.9872247726e-09-3.108624469e-15  44400 2428   G23  0 TIME SYSTEM CORR
                                                            END OF HEADER
G18 2026 07 22 19 30 24-2.980535209645e-04 9.023892744153e-12 0.000000000000e+00
     3.526687622070e-03 3.058593750000e+00 4.342680890090e-09-8.616132153631e-02
     1.341104507446e-07 6.301042332780e-03 3.274530172348e-06 5.153602586268e+03
     2.556000000000e+05 6.612390279770e-08 5.756583270971e-01 7.916241884232e-08
     9.708339235640e-01 3.206093750000e+02-2.858535000702e+00-8.049921689315e-09
     3.303709041314e-11 4.342680890090e-09-2.000000000000e+00 3.000000000000e+00
     3.100000000000e+01 4.000000000000e+00-8.381903171539e-09 7.000000000000e+00
    -8.731149137020e-11 5.209585651755e-09-8.440110832453e-10-9.313225746155e-10
     3.294240000000e+05 2.428000000000e+03 0.000000000000e+00                   
E04 2026 07 22 19 30 54-1.176221412607e-04 3.359446054674e-11 0.000000000000e+00
     3.900000000000e+01-4.446875000000e+01 3.221562762449e-09 6.182264329381e-01
    -1.979991793633e-06 2.884943969548e-04 7.523223757744e-06 5.440610879898e+03
     3.282000000000e+05 8.009374141693e-08 2.851658868067e+00-7.078051567078e-08
     9.693865643500e-01 1.811875000000e+02-7.645102796647e-02-5.475228065226e-09
     3.200133298397e-10 5.160000000000e+02 1.404000000000e+03                   
     1.070000000000e+02 0.000000000000e+00-4.423782229424e-09-5.122274160385e-09
     3.294540000000e+05                                                         
E09 2026 07 22 19 30 54-2.987041953020e-04 1.577404873387e-11-5.204170427930e-18
     3.900000000000e+01-3.993750000000e+01 3.080842615175e-09-6.269199962485e-01
    -1.812353730202e-06 4.928543930873e-04 7.720664143562e-06 5.440617874146e+03
     3.282000000000e+05-3.166496753693e-08 2.854820427141e+00-5.774199962616e-08
     9.751236916444e-01 1.824687500000e+02 3.890249409989e-01-5.374509584183e-09
     3.342996392075e-10 5.160000000000e+02 1.404000000000e+03                   
     1.070000000000e+02 0.000000000000e+00 4.656612873077e-10 6.984919309616e-10
     3.294540000000e+05                                                         
E12 2026 07 22 19 30 54-5.932390922680e-05-2.657429831743e-12 0.000000000000e+00
     3.900000000000e+01-3.628125000000e+01 2.619394822594e-09 1.730869241423e+00
    -1.601874828339e-06 3.104567294940e-04 1.860782504082e-06 5.440605581284e+03
     3.282000000000e+05 2.048909664154e-08 7.688040042070e-01 5.587935447693e-08
     9.945422819009e-01 3.167500000000e+02 8.697722474253e-01-5.633806099209e-09
    -1.357199389945e-11 5.160000000000e+02 1.404000000000e+03                   
     1.070000000000e+02 0.000000000000e+00-1.187436282635e-08-1.187436282635e-08
     3.294540000000e+05                                                         
E19 2026 07 22 19 33 24 3.111769154202e-03 2.421529643470e-11 0.000000000000e+00
     3.500000000000e+01-4.328125000000e+01 3.182632569421e-09 1.316617644513e+00
    -1.827254891396e-06 2.389356959611e-04 7.612630724907e-06 5.440619775772e+03
     3.258000000000e+05 1.117587089539e-07 2.859777087640e+00 4.097819328308e-08
     9.747545842467e-01 1.825625000000e+02-2.490994672841e-01-5.463441859997e-09
     3.392998474863e-10 5.160000000000e+02 1.404000000000e+03                   
     1.070000000000e+02 0.000000000000e+00-4.656612873077e-09-4.889443516731e-09
     3.296040000000e+05                                                         
E28 2026 07 22 19 34 24-6.070319795981e-05-2.899014361901e-12 0.000000000000e+00
     3.300000000000e+01-4.109375000000e+01 3.562648398606e-09-1.517010609010e+00
    -1.797452569008e-06 2.854240592569e-04 7.221475243568e-06 5.440610807419e+03
     3.246000000000e+05 7.450580596924e-08 2.869349721350e+00-8.195638656616e-08
     9.490842369851e-01 1.767500000000e+02 1.978358473314e+00-5.669879030363e-09
     2.946551307118e-10 5.160000000000e+02 1.404000000000e+03                   
     1.070000000000e+02 0.000000000000e+00 6.984919309616e-10 1.629814505577e-09
     3.296640000000e+05                                                         
G32 2026 07 22 19 35 12 1.777267607395e-04 2.013678113144e-11 0.000000000000e+00
    -4.674434661865e-03-4.019531250000e+01 4.354288516452e-09 2.526870164731e+00
    -2.005137503147e-06 9.467360679992e-03 7.748603820801e-06 5.153648096366e+03
     2.673000000000e+05 2.048909664154e-08 2.641256296229e+00-2.020969986916e-07
     9.697144891408e-01 2.356484375000e+02-1.973031821815e+00-8.654411154441e-09
     2.600108304947e-10 4.354288516452e-09-2.000000000000e+00 3.000000000000e+00
     3.000000000000e+01 4.000000000000e+00 9.313225746155e-10 7.000000000000e+00
    -2.910383045673e-10-1.891748979688e-09 8.614733815193e-09 9.051291272044e-09
     3.297120000000e+05 2.428000000000e+03 0.000000000000e+00                   
G10 2026 07 22 19 35 12-5.626931670122e-04 5.250910817267e-12 0.000000000000e+00
     3.091812133789e-03-7.529687500000e+01 3.695332496860e-09-2.317258995733e+00
    -3.830529749393e-06 1.114093395881e-02 6.755813956261e-06 5.153571733403e+03
     2.988000000000e+05 1.452863216400e-07 1.618143075754e+00-6.146728992462e-08
     9.942817625235e-01 2.657421875000e+02-2.265449371597e+00-8.825311130254e-09
     2.232235838726e-10 3.695332496860e-09-2.000000000000e+00 3.000000000000e+00
     2.900000000000e+01 4.000000000000e+00 2.328306436539e-09 7.000000000000e+00
    -8.149072527885e-10-4.656612873077e-10 1.059379428625e-08 1.103035174310e-08
     3.297120000000e+05 2.428000000000e+03 0.000000000000e+00                   
G24 2026 07 22 19 35 12 1.246067695320e-04 1.857003439909e-11 0.000000000000e+00
     1.955509185791e-03-1.205078125000e+01 5.535230564571e-09 1.047298759283e-01
    -5.401670932770e-07 1.844316843199e-02 6.870366632938e-06 5.153600061486e+03
     2.844000000000e+05-1.695007085800e-07-2.698196457456e+00 1.760199666023e-07
     9.354924684563e-01 2.349101562500e+02 1.162863662625e+00-7.615082147931e-09
    -1.116117919363e-10 5.535230564571e-09-2.000000000000e+00 3.000000000000e+00
     2.900000000000e+01 4.000000000000e+00 2.328306436539e-09 7.000000000000e+00
     2.910383045673e-11-1.426087692380e-09 1.484295353293e-09 2.764863893390e-09
     3.297120000000e+05 2.428000000000e+03 0.000000000000e+00                   
G08 2026 07 22 19 35 12 3.927373909391e-04-9.276135415348e-12 0.000000000000e+00
    -4.906177520752e-03 7.155078125000e+01 4.782877797487e-09 1.827488257718e+00
     3.713183104992e-06 1.168901857454e-02 6.807968020439e-06 5.153467397092e+03
     3.195000000000e+05-2.142041921616e-07-5.428330303746e-01 5.774199962616e-08
     9.417726287473e-01 2.369531250000e+02 5.449373465992e-01-8.062957946613e-09
    -1.007184810433e-10 4.782877797487e-09-2.000000000000e+00 2.000000000000e+00
     2.700000000000e+01 4.000000000000e+00 4.656612873077e-09 7.000000000000e+00
    -1.047737896442e-09-4.685716703534e-09 6.257323548198e-09 6.839400157332e-09
     3.297120000000e+05 2.428000000000e+03 0.000000000000e+00                   
G23 2026 07 22 19 35 48 6.716967909597e-04 3.865352482535e-12 0.000000000000e+00
     7.329463958740e-03-7.666796875000e+01 3.808908656334e-09-1.305600771261e+00
    -3.942288458347e-06 6.456336879637e-03 6.474554538727e-06 5.153491371906e+03
     3.069000000000e+05 8.102506399155e-08 1.585356821389e+00-5.867332220078e-08
     9.892087810192e-01 2.691914062500e+02-2.742557813398e+00-8.640124845074e-09
     1.653640309328e-10 3.808908656334e-09-2.000000000000e+00 3.000000000000e+00
     2.900000000000e+01 4.000000000000e+00-8.381903171539e-09 7.000000000000e+00
    -2.037268131971e-10 5.617039278150e-09-5.238689482212e-10-4.947651177645e-10
     3.297480000000e+05 2.428000000000e+03 0.000000000000e+00                   
E11 2026 07 22 19 36 05 5.525783170015e-03 6.680522801616e-11-3.469446951954e-18
     3.500000000000e+01-2.265625000000e+01 2.659039331090e-09 1.477799657316e-01
    -1.238659024239e-06 4.099921789020e-04 2.078711986542e-06 5.440604045868e+03
     3.258000000000e+05 7.078051567078e-08 7.688085099947e-01-2.607703208923e-08
     9.945302318447e-01 3.076875000000e+02 1.358489143874e+00-5.572732126661e-09
    -1.785788670980e-12 1.000000000000e+00 1.404000000000e+03                   
     1.070000000000e+02 0.000000000000e+00-1.466833055019e-08-1.606531441212e-08
     3.297650000000e+05                                                         
E10 2026 07 22 19 36 05-8.077536476776e-04-2.700062395888e-12 0.000000000000e+00
     3.800000000000e+01-3.165625000000e+01 2.589036415187e-09-2.020491062591e-01
    -1.432374119759e-06 2.875222126022e-04 2.076849341393e-06 5.440599302292e+03
     3.276000000000e+05 6.705522537231e-08 7.673416142411e-01 5.587935447693e-08
     9.974473343823e-01 3.106250000000e+02 2.360298728807e+00-5.594875906182e-09
    -1.678641350722e-11 1.000000000000e+00 1.404000000000e+03                   
     1.070000000000e+02 0.000000000000e+00-1.164153218269e-09-4.656612873077e-10
     3.297650000000e+05                                                         
E06 2026 07 22 19 36 05-3.013248206116e-04-5.101696842758e-12 0.000000000000e+00
     3.600000000000e+01-4.096875000000e+01 3.271564845236e-09-1.470876229270e+00
    -1.873821020126e-06 5.020375829190e-04 7.586553692818e-06 5.440613422394e+03
     3.264000000000e+05-4.470348358154e-08 2.851311068071e+00-3.166496753693e-08
     9.626926140230e-01 1.780937500000e+02 1.396446952626e+00-5.470942172416e-09
     2.935836575092e-10 1.000000000000e+00 1.404000000000e+03                   
     1.070000000000e+02 0.000000000000e+00 2.095475792885e-09 3.492459654808e-09
     3.297650000000e+05                                                         
E04 2026 07 22 19 36 05-1.176018849947e-04 3.360867140145e-11 0.000000000000e+00
     4.000000000000e+01-4.425000000000e+01 3.222634235651e-09 6.924655609530e-01
    -1.963227987289e-06 2.885060384870e-04 7.543712854385e-06 5.440610967636e+03
     3.288000000000e+05 8.009374141693e-08 2.851655591130e+00-7.450580596924e-08
     9.693867647698e-01 1.809375000000e+02-7.630461181050e-02-5.475228065226e-09
     3.192990143713e-10 1.000000000000e+00 1.404000000000e+03                   
     1.070000000000e+02 0.000000000000e+00-4.423782229424e-09-5.122274160385e-09
     3.297650000000e+05                                                         
E09 2026 07 22 19 36 05-2.986948238686e-04 1.574562702444e-11-5.204170427930e-18
     4.000000000000e+01-4.087500000000e+01 3.078342511036e-09-5.525110804985e-01
    -1.857057213783e-06 4.927144618705e-04 7.754191756248e-06 5.440617595673e+03
     3.288000000000e+05-2.793967723846e-08 2.854817192629e+00-4.284083843231e-08
     9.751239608213e-01 1.818125000000e+02 3.890010720275e-01-5.364509167625e-09
     3.303709041314e-10 1.000000000000e+00 1.404000000000e+03                   
     1.070000000000e+02 0.000000000000e+00 4.656612873077e-10 6.984919309616e-10
     3.297650000000e+05                                                         
E12 2026 07 22 19 36 05-5.932553904131e-05-2.657429831743e-12 0.000000000000e+00
     4.000000000000e+01-3.609375000000e+01 2.615466087518e-09 1.805167668822e+00
    -1.598149538040e-06 3.104190109298e-04 1.857057213783e-06 5.440605669022e+03
     3.288000000000e+05 2.048909664154e-08 7.688006234033e-01 5.587935447693e-08
     9.945422760492e-01 3.170937500000e+02 8.698592559410e-01-5.633448941475e-09
    -1.357199389945e-11 1.000000000000e+00 1.404000000000e+03                   
     1.070000000000e+02 0.000000000000e+00-1.187436282635e-08-1.187436282635e-08
     3.297650000000e+05                                                         
E19 2026 07 22 19 36 05 3.111842146609e-03 2.422950728942e-11 0.000000000000e+00
     4.000000000000e+01-4.425000000000e+01 3.179418149814e-09 1.687849430367e+00
    -1.914799213409e-06 2.388253342360e-04 7.718801498413e-06 5.440620178223e+03
     3.288000000000e+05 3.539025783539e-08 2.859760291878e+00 8.568167686462e-08
     9.747554722380e-01 1.813750000000e+02-2.484052892488e-01-5.441298080477e-09
     3.900162457421e-10 1.000000000000e+00 1.404000000000e+03                   
     1.070000000000e+02 0.000000000000e+00-4.656612873077e-09-4.889443516731e-09
     3.297650000000e+05                                                         
E28 2026 07 22 19 36 05-6.071577081457e-05-2.941646926047e-12 0.000000000000e+00
     4.000000000000e+01-4.012500000000e+01 3.578720496645e-09-9.955415017624e-01
    -1.715496182442e-06 2.857546787709e-04 7.444992661476e-06 5.440611612320e+03
     3.288000000000e+05 1.080334186554e-07 2.869325575887e+00 7.450580596924e-09
     9.490852288436e-01 1.739062500000e+02 1.977589834212e+00-5.678807973718e-09
     3.543004723225e-10 1.000000000000e+00 1.404000000000e+03                   
     1.070000000000e+02 0.000000000000e+00 6.984919309616e-10 1.629814505577e-09
     3.297650000000e+05                                                         
END OF FILE                                                 COMMENT
