     3.05           N: NAVIGATION       M: MIXED            RINEX VERSION / TYPE
PYRINEXCONV 0.1.2 ALDELTUNES            20260722 171310 UTC PGM / RUN BY / DATE
GAL    1.1250e+02  3.1250e-02  2.0935e-02             R 11  IONOSPHERIC CORR
GPSA   1.3039e-08  2.2352e-08  1.5199e-05  1.5140e-05 R 20  IONOSPHERIC CORR
GPSB   1.1059e+05  1.4746e+05  1.6712e+07  1.6384e+07 R 20  IONOSPHERIC CORR
GAUT  3.7252902985e-09-1.776356839e-15 320400 1404   E11  0 TIME SYSTEM CORR
GPUT -4.4819898903e-09-1.596500709e-12  30000 2428   G20  0 TIME SYSTEM CORR
                                                            END OF HEADER
E29 2026 07 22 17 06 24-2.276708837599e-04-3.680611371237e-12 0.000000000000e+00
     2.400000000000e+01-4.134375000000e+01 3.364068698393e-09-4.601146214380e-01
    -1.735985279083e-06 1.985437702388e-04 7.381662726402e-06 5.440614149094e+03
     3.192000000000e+05 1.117587089539e-07 2.851382822740e+00 2.793967723846e-08
     9.627715808780e-01 1.811562500000e+02 1.457525915370e+00-5.580589596814e-09
     2.964409193827e-10 5.160000000000e+02 1.404000000000e+03                   
     1.070000000000e+02 0.000000000000e+00-3.492459654808e-09-3.492459654808e-09
     3.207840000000e+05                                                         
G15 2026 07 22 17 06 24 4.304521717131e-04 3.069544618484e-12 0.000000000000e+00
     4.000000000000e+00-3.612500000000e+01 5.133785271335e-09 5.928322494999e-02
    -1.665204763412e-06 1.702920836397e-02 7.985159754753e-06 5.153754280090e+03
     3.239840000000e+05-1.732259988785e-07 2.476401627588e+00 7.450580596924e-09
     9.447590992029e-01 2.204062500000e+02 1.538329150955e+00-8.533569743147e-09
     2.546534644818e-10 1.000000000000e+00 3.800000000000e+02 0.000000000000e+00
     2.000000000000e+00 0.000000000000e+00-1.071020960808e-08 4.000000000000e+00
     1.283136000000e+06 4.000000000000e+00                                      
G18 2026 07 22 17 06 24-2.981023862958e-04 8.981260180008e-12 0.000000000000e+00
     5.400000000000e+01 2.187500000000e-01 4.343038047824e-09-8.736840508705e-01
    -1.862645149231e-09 6.300016655587e-03 3.406777977943e-06 5.153618246078e+03
     3.240000000000e+05 1.769512891769e-07 5.757025525736e-01-1.490116119385e-08
     9.708342461375e-01 3.154375000000e+02-2.858674369251e+00-8.158554122241e-09
     5.643092200298e-11 1.000000000000e+00 3.800000000000e+02 0.000000000000e+00
     2.000000000000e+00 0.000000000000e+00-8.381903171539e-09 3.100000000000e+02
     1.283136000000e+06 4.000000000000e+00                                      
G23 2026 07 22 17 06 24 6.716758944094e-04 3.865352482535e-12 0.000000000000e+00
     7.000000000000e+00-6.834375000000e+01 3.870518365483e-09-2.093257737227e+00
    -3.626570105553e-06 6.453724228777e-03 6.806105375290e-06 5.153729478836e+03
     3.240000000000e+05 6.519258022308e-08 1.585398370457e+00-1.043081283569e-07
     9.892078827875e-01 2.638437500000e+02-2.742511975055e+00-7.687463070837e-09
     1.528635102359e-10 1.000000000000e+00 3.800000000000e+02 0.000000000000e+00
     2.000000000000e+00 0.000000000000e+00-8.381903171539e-09 5.190000000000e+02
     1.283136000000e+06 4.000000000000e+00                                      
G29 2026 07 22 17 06 24-2.769664861262e-04 7.389644451905e-12 0.000000000000e+00
     1.000000000000e+00 7.828125000000e+01 4.393040130612e-09 9.291779654319e-01
     4.110857844353e-06 3.656641463749e-03 5.960464477539e-06 5.153688117981e+03
     3.239840000000e+05 7.823109626770e-08-4.188765890113e-01 5.960464477539e-08
     9.601425649460e-01 2.625000000000e+02 2.870591621766e+00-8.068907530958e-09
     7.893185925733e-11 1.000000000000e+00 3.800000000000e+02 0.000000000000e+00
     2.000000000000e+00 0.000000000000e+00-9.778887033463e-09 1.000000000000e+00
     1.283136000000e+06 4.000000000000e+00                                      
G20 2026 07 22 17 06 24 2.383906394243e-04 1.170974428533e-11 0.000000000000e+00
     8.500000000000e+01-3.465625000000e+01 4.654122434309e-09-2.577915912294e+00
    -1.639127731323e-06 1.909848069772e-03 7.836148142815e-06 5.153615402222e+03
     3.240000000000e+05 1.024454832077e-07 2.628709232611e+00 9.872019290924e-08
     9.621130263608e-01 2.275937500000e+02-1.761116825288e+00-7.984261147953e-09
     3.210848030423e-10 1.000000000000e+00 3.800000000000e+02 0.000000000000e+00
     2.000000000000e+00 0.000000000000e+00-6.984919309616e-09 8.500000000000e+01
     1.283136000000e+06 4.000000000000e+00                                      
G10 2026 07 22 17 06 24-5.627213977277e-04 5.229594535194e-12 0.000000000000e+00
     2.700000000000e+01-6.540625000000e+01 3.700511284006e-09-3.104945060602e+00
    -3.455206751823e-06 1.113914442249e-02 7.256865501404e-06 5.153652793884e+03
     3.240000000000e+05 2.048909664154e-08 1.618184183021e+00-1.825392246246e-07
     9.942809988803e-01 2.592187500000e+02-2.265407363904e+00-7.472811272585e-09
     1.007184810433e-10 1.000000000000e+00 3.800000000000e+02 0.000000000000e+00
     2.000000000000e+00 0.000000000000e+00 2.328306436539e-09 2.700000000000e+01
     1.283136000000e+06 4.000000000000e+00                                      
E12 2026 07 22 17 09 24-5.929265171289e-05-2.685851541173e-12 0.000000000000e+00
     1.900000000000e+01-3.046875000000e+01 2.708684256143e-09 2.473326060301e-01
    -1.655891537666e-06 3.116654697806e-04 2.622604370117e-06 5.440602838516e+03
     3.162000000000e+05 3.166496753693e-08 7.688703987440e-01 1.862645149231e-09
     9.945424355073e-01 2.985937500000e+02 8.655969109915e-01-5.560945921433e-09
     2.178662178596e-11 5.160000000000e+02 1.404000000000e+03                   
     1.070000000000e+02 0.000000000000e+00-1.187436282635e-08-1.187436282635e-08
     3.209640000000e+05                                                         
G29 2026 07 22 17 09 36-2.769816492219e-04 7.361222742475e-12 0.000000000000e+00
     4.135608673096e-03 7.793750000000e+01 4.432148902506e-09 6.250214789505e-01
     4.087574779987e-06 3.655197098851e-03 6.358139216900e-06 5.153535993882e+03
     3.177000000000e+05 6.798654794693e-08-4.188598605430e-01 5.587935447693e-09
     9.601422526130e-01 2.550507812500e+02 2.870784530922e+00-8.231536397153e-09
     9.375390522647e-11 4.432148902506e-09-2.000000000000e+00 2.000000000000e+00
     2.600000000000e+01 4.000000000000e+00-9.778887033463e-09 7.000000000000e+00
    -9.604264050722e-10 5.355104804039e-09 0.000000000000e+00 0.000000000000e+00
     3.209760000000e+05 2.428000000000e+03 0.000000000000e+00                   
E18 2026 07 22 17 10 35 3.030208754353e-03 4.202149739285e-11 0.000000000000e+00
     2.500000000000e+01 4.040625000000e+01 7.930330330090e-09-2.433126651434e-01
     2.445653080940e-06 1.681692803977e-01 2.086162567139e-06 5.289303577423e+03
     3.198000000000e+05 2.227723598480e-06-4.317662768214e-01 4.097819328308e-07
     8.525051020308e-01 2.503437500000e+02-3.128187595832e+00-1.162441277488e-08
    -5.178787145843e-11 1.000000000000e+00 1.404000000000e+03                   
     1.070000000000e+02 1.440000000000e+02-3.259629011154e-09-3.958120942116e-09
     3.210350000000e+05                                                         
E19 2026 07 22 17 10 54 3.111622179858e-03 2.422950728942e-11 0.000000000000e+00
     2.500000000000e+01-4.421875000000e+01 3.143702376394e-09 5.748003753828e-01
    -1.942738890648e-06 2.389918081462e-04 7.303431630135e-06 5.440618764877e+03
     3.198000000000e+05 1.862645149231e-08 2.859810374878e+00-1.061707735062e-07
     9.747536348129e-01 1.860625000000e+02-2.511342663731e-01-5.436297872199e-09
     2.225092684042e-10 5.160000000000e+02 1.404000000000e+03                   
     1.070000000000e+02 0.000000000000e+00-4.656612873077e-09-4.889443516731e-09
     3.210540000000e+05                                                         
E11 2026 07 22 17 10 54 5.525382061023e-03 6.686207143503e-11-3.469446951954e-18
     2.500000000000e+01-2.893750000000e+01 2.660467962027e-09-5.982467843399e-01
    -1.663342118263e-06 4.121173406020e-04 3.103166818619e-06 5.440608730316e+03
     3.198000000000e+05 1.862645149231e-08 7.688416348487e-01-2.793967723846e-08
     9.945300489799e-01 2.915937500000e+02 1.360663857911e+00-5.555945713154e-09
     1.928651764659e-11 5.160000000000e+02 1.404000000000e+03                   
     1.070000000000e+02 0.000000000000e+00-1.466833055019e-08-1.606531441212e-08
     3.210540000000e+05                                                         
E29 2026 07 22 17 10 54-2.276728628203e-04-3.666400516522e-12 0.000000000000e+00
     2.500000000000e+01-4.143750000000e+01 3.365854487064e-09-3.857868976414e-01
    -1.745298504829e-06 1.985847484320e-04 7.415190339088e-06 5.440614236832e+03
     3.198000000000e+05 1.043081283569e-07 2.851379398049e+00 4.656612873077e-08
     9.627717037631e-01 1.808437500000e+02 1.457583725504e+00-5.578803808143e-09
     3.078699668770e-10 5.160000000000e+02 1.404000000000e+03                   
     1.070000000000e+02 0.000000000000e+00-3.492459654808e-09-3.492459654808e-09
     3.210540000000e+05                                                         
E12 2026 07 22 17 10 54-5.930219776928e-05-2.700062395888e-12 0.000000000000e+00
     2.500000000000e+01-2.543750000000e+01 2.706184152004e-09 6.962635479086e-01
    -1.300126314163e-06 3.112520789728e-04 2.291053533554e-06 5.440601007462e+03
     3.198000000000e+05 7.264316082001e-08 7.688505805928e-01 0.000000000000e+00
     9.945425583924e-01 3.036250000000e+02 8.629787616151e-01-5.574875073067e-09
     3.571577341961e-13 5.160000000000e+02 1.404000000000e+03                   
     1.070000000000e+02 0.000000000000e+00-1.187436282635e-08-1.187436282635e-08
     3.210540000000e+05                                                         
G15 2026 07 22 17 11 12 4.304455069359e-04 3.094413614235e-12 0.000000000000e+00
    -5.087852478027e-04-3.619140625000e+01 5.123070539309e-09-2.446650246518e-01
    -1.792795956135e-06 1.702896616189e-02 7.861293852329e-06 5.153468801259e+03
     3.132000000000e+05-1.536682248116e-07 2.476419311342e+00 3.818422555923e-08
     9.447585462199e-01 2.222304687500e+02 1.538320984215e+00-7.797232592371e-09
     2.771544017362e-10 5.123070539309e-09-2.000000000000e+00 2.000000000000e+00
     2.800000000000e+01 4.000000000000e+00-1.071020960808e-08 7.000000000000e+00
    -2.037268131971e-10 6.199115887284e-09 0.000000000000e+00 0.000000000000e+00
     3.210720000000e+05 2.428000000000e+03 0.000000000000e+00                   
G10 2026 07 22 17 11 12-5.627309728879e-04 5.247358103588e-12 0.000000000000e+00
    -7.446765899658e-03-6.226562500000e+01 3.673188717340e-09 2.915439619602e+00
    -3.258697688580e-06 1.113900891505e-02 6.675720214844e-06 5.153568552393e+03
     2.988000000000e+05-6.519258022308e-09 1.618197755243e+00-1.406297087669e-07
     9.942809140310e-01 2.703007812500e+02-2.265158622480e+00-8.889599522410e-09
     8.143196339671e-11 3.673188717340e-09-2.000000000000e+00 3.000000000000e+00
     2.800000000000e+01 4.000000000000e+00 2.328306436539e-09 7.000000000000e+00
    -8.149072527885e-10-4.656612873077e-10 1.059379428625e-08 1.103035174310e-08
     3.210720000000e+05 2.428000000000e+03 0.000000000000e+00                   
G27 2026 07 22 17 11 12 5.444162525237e-07 3.552713678801e-15 0.000000000000e+00
     5.980014801025e-03 6.405859375000e+01 4.640550440410e-09 9.699169474940e-01
     3.329478204250e-06 1.432850240963e-02 6.205402314663e-06 5.153543759516e+03
     3.069000000000e+05-1.564621925354e-07-5.095485741377e-01 7.264316082001e-08
     9.508970126545e-01 2.551132812500e+02 9.007010727407e-01-7.967596831582e-09
    -1.494705117611e-10 4.640550440410e-09-2.000000000000e+00 1.000000000000e+00
     2.800000000000e+01 4.000000000000e+00 2.328306436539e-09 7.000000000000e+00
    -9.022187441587e-10-1.688022166491e-09 6.664777174592e-09 5.326000973582e-09
     3.210720000000e+05 2.428000000000e+03 0.000000000000e+00                   
G18 2026 07 22 17 12 48-2.981184807140e-04 9.023892744153e-12 0.000000000000e+00
    -3.716945648193e-03 9.296875000000e-01 4.340895101419e-09-1.136151294908e+00
    -1.583248376846e-08 6.298804888502e-03 3.834255039692e-06 5.153604479474e+03
     2.556000000000e+05 1.257285475731e-07 5.757170413142e-01-5.494803190231e-08
     9.708342351656e-01 3.104257812500e+02-2.858762650505e+00-8.210999827437e-09
     8.589643507416e-11 4.340895101419e-09-2.000000000000e+00 3.000000000000e+00
     3.100000000000e+01 4.000000000000e+00-8.381903171539e-09 7.000000000000e+00
    -8.731149137020e-11 5.209585651755e-09-8.440110832453e-10-9.313225746155e-10
     3.211680000000e+05 2.428000000000e+03 0.000000000000e+00                   
G23 2026 07 22 17 12 48 6.716689676978e-04 3.865352482535e-12 0.000000000000e+00
    -7.344245910645e-03-5.956250000000e+01 3.866946788141e-09-2.356054698129e+00
    -3.072433173656e-06 6.451646331698e-03 6.514601409435e-06 5.153492699131e+03
     3.069000000000e+05 1.955777406693e-08 1.585412350834e+00-1.285225152969e-07
     9.892076428689e-01 2.691015625000e+02-2.742255327290e+00-8.661554309125e-09
     1.237551548989e-10 3.866946788141e-09-2.000000000000e+00 3.000000000000e+00
     2.800000000000e+01 4.000000000000e+00-8.381903171539e-09 7.000000000000e+00
    -2.037268131971e-10 5.617039278150e-09-5.238689482212e-10-4.947651177645e-10
     3.211680000000e+05 2.428000000000e+03 0.000000000000e+00                   
G20 2026 07 22 17 12 48 2.383694227319e-04 1.175592956315e-11 0.000000000000e+00
     2.060413360596e-03-3.732031250000e+01 4.648407910562e-09-2.840104991236e+00
    -1.857057213783e-06 1.910104823764e-03 7.723458111286e-06 5.153607380394e+03
     2.601000000000e+05 1.350417733192e-07 2.628723817904e+00 3.073364496231e-08
     9.621124463138e-01 2.285078125000e+02-1.761480996800e+00-8.343683925691e-09
     2.759043496665e-10 4.648407910562e-09-3.000000000000e+00 2.000000000000e+00
     3.000000000000e+01 4.000000000000e+00-6.984919309616e-09 7.000000000000e+00
    -1.455191522837e-10 4.220055416226e-09 2.095475792885e-09 2.066371962428e-09
     3.211680000000e+05 2.428000000000e+03 0.000000000000e+00                   
E18 2026 07 22 17 13 05 3.030234016478e-03 4.202149739285e-11 0.000000000000e+00
     2.600000000000e+01 4.153125000000e+01 7.448167388925e-09-1.623560118767e-01
     2.564862370491e-06 1.681704600342e-01 2.110376954079e-06 5.289307369232e+03
     3.204000000000e+05 2.454966306686e-06-4.317742716687e-01 1.024454832077e-06
     8.525086291263e-01 2.499375000000e+02-3.128187058942e+00-1.072794686205e-08
    -3.017982853957e-10 1.000000000000e+00 1.404000000000e+03                   
     1.070000000000e+02 1.440000000000e+02-3.259629011154e-09-3.958120942116e-09
     3.211850000000e+05                                                         
E33 2026 07 22 17 13 24-2.542231231928e-05-2.032152224274e-12 0.000000000000e+00
     2.400000000000e+01-3.993750000000e+01 2.660110804292e-09-9.873386801734e-01
    -1.760199666023e-06 1.708692871034e-04 2.268701791763e-06 5.440604446411e+03
     3.192000000000e+05 4.097819328308e-08 7.693177020388e-01 6.146728992462e-08
     9.976479472643e-01 3.087812500000e+02-2.997819949634e+00-5.582375385485e-09
    -1.678641350722e-11 5.160000000000e+02 1.404000000000e+03                   
     1.070000000000e+02 0.000000000000e+00-4.423782229424e-09-5.122274160385e-09
     3.212040000000e+05                                                         
E28 2026 07 22 17 13 24-6.068736547604e-05-2.856381797756e-12 0.000000000000e+00
     2.400000000000e+01-3.818750000000e+01 3.494788429109e-09-2.185257337334e+00
    -1.804903149605e-06 2.854970516637e-04 7.184222340584e-06 5.440611495972e+03
     3.192000000000e+05-4.842877388000e-08 2.869380291949e+00-5.774199962616e-08
     9.490834148252e-01 1.777187500000e+02 1.977134249338e+00-5.619162632107e-09
     2.325096849617e-10 5.160000000000e+02 1.404000000000e+03                   
     1.070000000000e+02 0.000000000000e+00 6.984919309616e-10 1.629814505577e-09
     3.212040000000e+05                                                         
E10 2026 07 22 17 13 24-8.077311795205e-04-2.700062395888e-12 0.000000000000e+00
     2.400000000000e+01-2.912500000000e+01 2.639395655709e-09-1.241189683435e+00
    -1.637265086174e-06 2.873381599784e-04 2.555549144745e-06 5.440599039078e+03
     3.192000000000e+05 3.352761268616e-08 7.673876669023e-01-2.980232238770e-08
     9.974473343823e-01 3.009062500000e+02 2.358039324980e+00-5.537373510976e-09
     1.964367538078e-11 5.160000000000e+02 1.404000000000e+03                   
     1.070000000000e+02 0.000000000000e+00-1.164153218269e-09-4.656612873077e-10
     3.212040000000e+05                                                         
E29 2026 07 22 17 13 24-2.276748418808e-04-3.652189661807e-12 0.000000000000e+00
     2.600000000000e+01-4.156250000000e+01 3.367283118001e-09-3.114600018564e-01
    -1.758337020874e-06 1.986168790609e-04 7.443130016327e-06 5.440614307404e+03
     3.204000000000e+05 9.313225746155e-08 2.851375971894e+00 6.146728992462e-08
     9.627718383515e-01 1.805937500000e+02 1.457642356335e+00-5.575946546269e-09
     3.185846989029e-10 5.160000000000e+02 1.404000000000e+03                   
     1.070000000000e+02 0.000000000000e+00-3.492459654808e-09-3.492459654808e-09
     3.212040000000e+05                                                         
E11 2026 07 22 17 13 24 5.525422107894e-03 6.686207143503e-11-3.469446951954e-18
     2.600000000000e+01-2.940625000000e+01 2.659039331090e-09-5.237946466752e-01
    -1.693144440651e-06 4.118477227166e-04 2.967193722725e-06 5.440608192444e+03
     3.204000000000e+05 2.048909664154e-08 7.688382920809e-01-2.421438694000e-08
     9.945300504428e-01 2.936875000000e+02 1.360596819690e+00-5.556302870888e-09
     2.107230631757e-11 5.160000000000e+02 1.404000000000e+03                   
     1.070000000000e+02 0.000000000000e+00-1.466833055019e-08-1.606531441212e-08
     3.212040000000e+05                                                         
E19 2026 07 22 17 13 24 3.111636498943e-03 2.421529643470e-11 0.000000000000e+00
     2.600000000000e+01-4.418750000000e+01 3.147631111470e-09 6.491570869012e-01
    -1.918524503708e-06 2.389953006059e-04 7.314607501030e-06 5.440618782043e+03
     3.204000000000e+05 1.117587089539e-08 2.859807125737e+00-1.117587089539e-07
     9.747538015855e-01 1.860625000000e+02-2.511058550411e-01-5.434512083528e-09
     2.178662178596e-10 5.160000000000e+02 1.404000000000e+03                   
     1.070000000000e+02 0.000000000000e+00-4.656612873077e-09-4.889443516731e-09
     3.212040000000e+05                                                         
E12 2026 07 22 17 13 24-5.930371116847e-05-2.685851541173e-12 0.000000000000e+00
     2.600000000000e+01-2.553125000000e+01 2.702255416928e-09 7.706265514377e-01
    -1.277774572372e-06 3.112555714324e-04 2.291053533554e-06 5.440601020813e+03
     3.204000000000e+05 7.636845111847e-08 7.688472700092e-01 3.725290298462e-09
     9.945425613183e-01 3.035625000000e+02 8.630013841802e-01-5.578089492674e-09
    -2.142946405177e-12 5.160000000000e+02 1.404000000000e+03                   
     1.070000000000e+02 0.000000000000e+00-1.187436282635e-08-1.187436282635e-08
     3.212040000000e+05                                                         
END OF FILE                                                 COMMENT
