     3.05           N: NAVIGATION       M: MIXED            RINEX VERSION / TYPE
PYRINEXCONV 0.1.2 ALDELTUNES            20260722 164253 UTC PGM / RUN BY / DATE
GAL    1.1250e+02  3.1250e-02  2.0935e-02             Q 12  IONOSPHERIC CORR
GPSA   1.3039e-08  2.2352e-08  1.5199e-05  1.5140e-05 Q 20  IONOSPHERIC CORR
GPSB   1.1059e+05  1.4746e+05  1.6712e+07  1.6384e+07 Q 20  IONOSPHERIC CORR
GAUT  3.7252902985e-09-1.776356839e-15 316200 1404   E12  0 TIME SYSTEM CORR
GPUT -4.4819898903e-09-1.596500709e-12  30000 2428   G20  0 TIME SYSTEM CORR
                                                            END OF HEADER
E33 2026 07 22 16 37 24-2.541241701692e-05-2.017941369559e-12 0.000000000000e+00
     1.600000000000e+01-2.971875000000e+01 2.711184360282e-09-1.587873191898e+00
    -1.400709152222e-06 1.695037353784e-04 2.557411789894e-06 5.440601152420e+03
     3.144000000000e+05 3.539025783539e-08 7.693440769889e-01 3.725290298462e-09
     9.976480628349e-01 3.006562500000e+02-2.992371176659e+00-5.545945296597e-09
     2.500104139373e-12 5.160000000000e+02 1.404000000000e+03                   
     1.070000000000e+02 0.000000000000e+00-4.423782229424e-09-5.122274160385e-09
     3.190440000000e+05                                                         
G29 2026 07 22 16 37 36-2.769809507299e-04 7.350564601438e-12 0.000000000000e+00
     4.135608673096e-03 7.793750000000e+01 4.430363113835e-09 6.687789298754e-01
     4.087574779987e-06 3.655195469037e-03 6.358139216900e-06 5.153535844750e+03
     2.619000000000e+05 6.798654794693e-08-4.188623153196e-01 5.587935447693e-09
     9.601422826028e-01 2.550507812500e+02 2.870784167386e+00-8.231536397153e-09
     9.375390522647e-11 4.430363113835e-09-1.000000000000e+00 3.000000000000e+00
     3.000000000000e+01 4.000000000000e+00-9.778887033463e-09 7.000000000000e+00
    -9.604264050722e-10 5.355104804039e-09 0.000000000000e+00 0.000000000000e+00
     3.190560000000e+05 2.428000000000e+03 0.000000000000e+00                   
G05 2026 07 22 16 40 48-2.353225136176e-04-3.446132268436e-13 0.000000000000e+00
     5.661010742188e-03-7.648828125000e+01 4.097670684432e-09 1.102112110456e+00
    -3.889203071594e-06 5.605910206214e-03 6.668269634247e-06 5.153444664888e+03
     2.556000000000e+05-9.778887033463e-08 1.559071655741e+00-3.725290298462e-08
     9.811703116932e-01 2.632421875000e+02 1.483436258000e+00-8.425115889088e-09
     7.339591437730e-11 4.097670684432e-09-2.000000000000e+00 3.000000000000e+00
     3.000000000000e+01 4.000000000000e+00-1.071020960808e-08 7.000000000000e+00
    -3.783497959375e-10 5.733454599977e-09 0.000000000000e+00 0.000000000000e+00
     3.192480000000e+05 2.428000000000e+03 0.000000000000e+00                   
E29 2026 07 22 16 40 54-2.276668674313e-04-3.694822225953e-12 0.000000000000e+00
     2.200000000000e+01-4.131250000000e+01 3.359068490114e-09-6.088073354064e-01
    -1.732259988785e-06 1.984403934330e-04 7.305294275284e-06 5.440613937378e+03
     3.180000000000e+05 1.154839992523e-07 2.851389656030e+00-1.117587089539e-08
     9.627713629032e-01 1.819687500000e+02 1.457447548312e+00-5.581303912282e-09
     2.732256666600e-10 5.160000000000e+02 1.404000000000e+03                   
     1.070000000000e+02 0.000000000000e+00-3.492459654808e-09-3.492459654808e-09
     3.192540000000e+05                                                         
E16 2026 07 22 16 40 54-4.675996024162e-05-2.515321284591e-12 0.000000000000e+00
     2.200000000000e+01 6.906250000000e+01 2.959408985549e-09-1.171097114793e+00
     3.242865204811e-06 4.936112090945e-04 8.979812264442e-06 5.440618330002e+03
     3.180000000000e+05 5.587935447693e-08-1.333069213078e+00 1.676380634308e-08
     9.625621714695e-01 1.491250000000e+02-2.464671477906e+00-5.458798809453e-09
    -1.975082270104e-10 5.160000000000e+02 1.404000000000e+03                   
     1.070000000000e+02 0.000000000000e+00-3.958120942116e-09-2.793967723846e-09
     3.192540000000e+05                                                         
E33 2026 07 22 16 40 54-2.541992580518e-05-2.046363078989e-12 0.000000000000e+00
     2.200000000000e+01-3.812500000000e+01 2.678325848736e-09-1.137151508090e+00
    -1.695007085800e-06 1.704359892756e-04 2.389773726463e-06 5.440603523254e+03
     3.180000000000e+05 4.284083843231e-08 7.693243861115e-01 5.960464477539e-08
     9.976479735969e-01 3.053750000000e+02-2.996778512882e+00-5.580232439080e-09
    -1.607209803882e-11 5.160000000000e+02 1.404000000000e+03                   
     1.070000000000e+02 0.000000000000e+00-4.423782229424e-09-5.122274160385e-09
     3.192540000000e+05                                                         
G15 2026 07 22 16 41 24 4.304521717131e-04 3.069544618484e-12 0.000000000000e+00
     4.000000000000e+00-3.612500000000e+01 5.133785271335e-09 5.928322494999e-02
    -1.665204763412e-06 1.702920836397e-02 7.985159754753e-06 5.153754280090e+03
     3.239840000000e+05-1.732259988785e-07 2.476401627588e+00 7.450580596924e-09
     9.447590992029e-01 2.204062500000e+02 1.538329150955e+00-8.533569743147e-09
     2.546534644818e-10 1.000000000000e+00 3.800000000000e+02 0.000000000000e+00
     2.000000000000e+00 0.000000000000e+00-1.071020960808e-08 4.000000000000e+00
     1.277136000000e+06 4.000000000000e+00                                      
G18 2026 07 22 16 41 24-2.981023862958e-04 8.981260180008e-12 0.000000000000e+00
     5.400000000000e+01 2.187500000000e-01 4.343038047824e-09-8.736840508705e-01
    -1.862645149231e-09 6.300016655587e-03 3.406777977943e-06 5.153618246078e+03
     3.240000000000e+05 1.769512891769e-07 5.757025525736e-01-1.490116119385e-08
     9.708342461375e-01 3.154375000000e+02-2.858674369251e+00-8.158554122241e-09
     5.643092200298e-11 1.000000000000e+00 3.800000000000e+02 0.000000000000e+00
     2.000000000000e+00 0.000000000000e+00-8.381903171539e-09 3.100000000000e+02
     1.277136000000e+06 4.000000000000e+00                                      
G29 2026 07 22 16 41 24-2.769664861262e-04 7.389644451905e-12 0.000000000000e+00
     1.000000000000e+00 7.828125000000e+01 4.393040130612e-09 9.291779654319e-01
     4.110857844353e-06 3.656641463749e-03 5.960464477539e-06 5.153688117981e+03
     3.239840000000e+05 7.823109626770e-08-4.188765890113e-01 5.960464477539e-08
     9.601425649460e-01 2.625000000000e+02 2.870591621766e+00-8.068907530958e-09
     7.893185925733e-11 1.000000000000e+00 3.800000000000e+02 0.000000000000e+00
     2.000000000000e+00 0.000000000000e+00-9.778887033463e-09 1.000000000000e+00
     1.277136000000e+06 4.000000000000e+00                                      
G23 2026 07 22 16 41 24 6.716758944094e-04 3.865352482535e-12 0.000000000000e+00
     7.000000000000e+00-6.834375000000e+01 3.870518365483e-09-2.093257737227e+00
    -3.626570105553e-06 6.453724228777e-03 6.806105375290e-06 5.153729478836e+03
     3.240000000000e+05 6.519258022308e-08 1.585398370457e+00-1.043081283569e-07
     9.892078827875e-01 2.638437500000e+02-2.742511975055e+00-7.687463070837e-09
     1.528635102359e-10 1.000000000000e+00 3.800000000000e+02 0.000000000000e+00
     2.000000000000e+00 0.000000000000e+00-8.381903171539e-09 5.190000000000e+02
     1.277136000000e+06 4.000000000000e+00                                      
G20 2026 07 22 16 41 24 2.383906394243e-04 1.170974428533e-11 0.000000000000e+00
     8.500000000000e+01-3.465625000000e+01 4.654122434309e-09-2.577915912294e+00
    -1.639127731323e-06 1.909848069772e-03 7.836148142815e-06 5.153615402222e+03
     3.240000000000e+05 1.024454832077e-07 2.628709232611e+00 9.872019290924e-08
     9.621130263608e-01 2.275937500000e+02-1.761116825288e+00-7.984261147953e-09
     3.210848030423e-10 1.000000000000e+00 3.800000000000e+02 0.000000000000e+00
     2.000000000000e+00 0.000000000000e+00-6.984919309616e-09 8.500000000000e+01
     1.277136000000e+06 4.000000000000e+00                                      
G10 2026 07 22 16 41 24-5.627213977277e-04 5.229594535194e-12 0.000000000000e+00
     2.700000000000e+01-6.540625000000e+01 3.700511284006e-09-3.104945060602e+00
    -3.455206751823e-06 1.113914442249e-02 7.256865501404e-06 5.153652793884e+03
     3.240000000000e+05 2.048909664154e-08 1.618184183021e+00-1.825392246246e-07
     9.942809988803e-01 2.592187500000e+02-2.265407363904e+00-7.472811272585e-09
     1.007184810433e-10 1.000000000000e+00 3.800000000000e+02 0.000000000000e+00
     2.000000000000e+00 0.000000000000e+00 2.328306436539e-09 2.700000000000e+01
     1.277136000000e+06 4.000000000000e+00                                      
G18 2026 07 22 16 42 24-2.981184807140e-04 9.023892744153e-12 0.000000000000e+00
    -3.716945648193e-03 9.296875000000e-01 4.340895101419e-09-1.136151294908e+00
    -1.583248376846e-08 6.298804888502e-03 3.834255039692e-06 5.153604479474e+03
     2.556000000000e+05 1.257285475731e-07 5.757170413142e-01-5.494803190231e-08
     9.708342351656e-01 3.104257812500e+02-2.858762650505e+00-8.210999827437e-09
     8.589643507416e-11 4.340895101419e-09-2.000000000000e+00 3.000000000000e+00
     3.100000000000e+01 4.000000000000e+00-8.381903171539e-09 7.000000000000e+00
    -8.731149137020e-11 5.209585651755e-09-8.440110832453e-10-9.313225746155e-10
     3.193440000000e+05 2.428000000000e+03 0.000000000000e+00                   
G23 2026 07 22 16 42 24 6.716689676978e-04 3.865352482535e-12 0.000000000000e+00
    -7.344245910645e-03-5.956250000000e+01 3.866946788141e-09-2.356054698129e+00
    -3.072433173656e-06 6.451646331698e-03 6.514601409435e-06 5.153492699131e+03
     3.069000000000e+05 1.955777406693e-08 1.585412350834e+00-1.285225152969e-07
     9.892076428689e-01 2.691015625000e+02-2.742255327290e+00-8.661554309125e-09
     1.237551548989e-10 3.866946788141e-09-2.000000000000e+00 3.000000000000e+00
     2.800000000000e+01 4.000000000000e+00-8.381903171539e-09 7.000000000000e+00
    -2.037268131971e-10 5.617039278150e-09-5.238689482212e-10-4.947651177645e-10
     3.193440000000e+05 2.428000000000e+03 0.000000000000e+00                   
G20 2026 07 22 16 42 24 2.383694227319e-04 1.175592956315e-11 0.000000000000e+00
     2.060413360596e-03-3.732031250000e+01 4.648407910562e-09-2.840104991236e+00
    -1.857057213783e-06 1.910104823764e-03 7.723458111286e-06 5.153607380394e+03
     2.601000000000e+05 1.350417733192e-07 2.628723817904e+00 3.073364496231e-08
     9.621124463138e-01 2.285078125000e+02-1.761480996800e+00-8.343683925691e-09
     2.759043496665e-10 4.648407910562e-09-3.000000000000e+00 2.000000000000e+00
     3.000000000000e+01 4.000000000000e+00-6.984919309616e-09 7.000000000000e+00
    -1.455191522837e-10 4.220055416226e-09 2.095475792885e-09 2.066371962428e-09
     3.193440000000e+05 2.428000000000e+03 0.000000000000e+00                   
G15 2026 07 22 16 42 24 4.304455069359e-04 3.094413614235e-12 0.000000000000e+00
    -5.087852478027e-04-3.619140625000e+01 5.123070539309e-09-2.446650246518e-01
    -1.792795956135e-06 1.702896616189e-02 7.861293852329e-06 5.153468801259e+03
     3.132000000000e+05-1.536682248116e-07 2.476419311342e+00 3.818422555923e-08
     9.447585462199e-01 2.222304687500e+02 1.538320984215e+00-7.797232592371e-09
     2.771544017362e-10 5.123070539309e-09-2.000000000000e+00 2.000000000000e+00
     2.800000000000e+01 4.000000000000e+00-1.071020960808e-08 7.000000000000e+00
    -2.037268131971e-10 6.199115887284e-09 0.000000000000e+00 0.000000000000e+00
     3.193440000000e+05 2.428000000000e+03 0.000000000000e+00                   
G29 2026 07 22 16 42 24-2.769816492219e-04 7.361222742475e-12 0.000000000000e+00
     4.135608673096e-03 7.793750000000e+01 4.432148902506e-09 6.250214789505e-01
     4.087574779987e-06 3.655197098851e-03 6.358139216900e-06 5.153535993882e+03
     3.177000000000e+05 6.798654794693e-08-4.188598605430e-01 5.587935447693e-09
     9.601422526130e-01 2.550507812500e+02 2.870784530922e+00-8.231536397153e-09
     9.375390522647e-11 4.432148902506e-09-2.000000000000e+00 2.000000000000e+00
     2.600000000000e+01 4.000000000000e+00-9.778887033463e-09 7.000000000000e+00
    -9.604264050722e-10 5.355104804039e-09 0.000000000000e+00 0.000000000000e+00
     3.193440000000e+05 2.428000000000e+03 0.000000000000e+00                   
E18 2026 07 22 16 43 05 3.030107822269e-03 4.202149739285e-11 0.000000000000e+00
     2.100000000000e+01 3.812500000000e+01 7.832111953186e-09-5.671334865176e-01
     2.300366759300e-06 1.681723010261e-01 1.393258571625e-06 5.289311439514e+03
     3.174000000000e+05 2.220273017883e-06-4.317381551471e-01-2.644956111908e-07
     8.525040384894e-01 2.658750000000e+02-3.128188987068e+00-1.167798643501e-08
     1.864363372504e-10 1.000000000000e+00 1.404000000000e+03                   
     1.070000000000e+02 1.440000000000e+02-3.259629011154e-09-3.958120942116e-09
     3.193850000000e+05                                                         
E10 2026 07 22 16 43 05-8.077201782726e-04-2.685851541173e-12 0.000000000000e+00
     1.700000000000e+01-2.803125000000e+01 2.642610075317e-09-1.757147646195e+00
    -1.562759280205e-06 2.886077854782e-04 3.460794687271e-06 5.440602785110e+03
     3.150000000000e+05 2.048909664154e-08 7.674109843535e-01-5.029141902924e-08
     9.974473519373e-01 2.865312500000e+02 2.353299533309e+00-5.534159091368e-09
     5.357366012941e-12 1.000000000000e+00 1.404000000000e+03                   
     1.070000000000e+02 0.000000000000e+00-1.164153218269e-09-4.656612873077e-10
     3.193850000000e+05                                                         
E19 2026 07 22 16 43 05 3.111564787105e-03 2.428635070828e-11 0.000000000000e+00
     2.100000000000e+01-4.365625000000e+01 3.121201439140e-09 2.770585352515e-01
    -2.022832632065e-06 2.390185836703e-04 7.290393114090e-06 5.440618865967e+03
     3.174000000000e+05 2.421438694000e-08 2.859823419719e+00-1.043081283569e-07
     9.747530672007e-01 1.860312500000e+02-2.509328444973e-01-5.438083660870e-09
     2.257236880119e-10 1.000000000000e+00 1.404000000000e+03                   
     1.070000000000e+02 0.000000000000e+00-4.656612873077e-09-4.889443516731e-09
     3.193850000000e+05                                                         
E28 2026 07 22 16 43 05-6.068381480873e-05-2.856381797756e-12 0.000000000000e+00
     2.200000000000e+01-3.700000000000e+01 3.484788012551e-09-2.333319371226e+00
    -1.780688762665e-06 2.854934427887e-04 7.160007953644e-06 5.440611890793e+03
     3.180000000000e+05-5.587935447693e-08 2.869387053557e+00-6.332993507385e-08
     9.490830959090e-01 1.789375000000e+02 1.976425194888e+00-5.625948629057e-09
     2.335811581642e-10 1.000000000000e+00 1.404000000000e+03                   
     1.070000000000e+02 0.000000000000e+00 6.984919309616e-10 1.629814505577e-09
     3.193850000000e+05                                                         
E12 2026 07 22 16 43 05-5.929265171289e-05-2.685851541173e-12 0.000000000000e+00
     1.900000000000e+01-3.046875000000e+01 2.708684256143e-09 2.473326060301e-01
    -1.655891537666e-06 3.116654697806e-04 2.622604370117e-06 5.440602838516e+03
     3.162000000000e+05 3.166496753693e-08 7.688703987440e-01 1.862645149231e-09
     9.945424355073e-01 2.985937500000e+02 8.655969109915e-01-5.560945921433e-09
     2.178662178596e-11 1.000000000000e+00 1.404000000000e+03                   
     1.070000000000e+02 0.000000000000e+00-1.187436282635e-08-1.187436282635e-08
     3.193850000000e+05                                                         
E29 2026 07 22 16 43 05-2.276689046994e-04-3.694822225953e-12 0.000000000000e+00
     2.300000000000e+01-4.131250000000e+01 3.361925751988e-09-5.344509281750e-01
    -1.730397343636e-06 1.984949922189e-04 7.344409823418e-06 5.440614048004e+03
     3.186000000000e+05 1.154839992523e-07 2.851386241579e+00 9.313225746155e-09
     9.627714667704e-01 1.815625000000e+02 1.457476683788e+00-5.581303912282e-09
     2.850118718885e-10 1.000000000000e+00 1.404000000000e+03                   
     1.070000000000e+02 0.000000000000e+00-3.492459654808e-09-3.492459654808e-09
     3.193850000000e+05                                                         
E16 2026 07 22 16 43 05-4.676135722548e-05-2.515321284591e-12 0.000000000000e+00
     2.300000000000e+01 6.809375000000e+01 2.965123509296e-09-1.096986722106e+00
     3.200024366379e-06 4.933434538543e-04 9.078532457352e-06 5.440617738724e+03
     3.186000000000e+05 5.960464477539e-08-1.333072503181e+00 2.048909664154e-08
     9.625620793057e-01 1.468750000000e+02-2.464397049103e+00-5.454512916643e-09
    -1.982225424788e-10 1.000000000000e+00 1.404000000000e+03                   
     1.070000000000e+02 0.000000000000e+00-3.958120942116e-09-2.793967723846e-09
     3.193850000000e+05                                                         
E33 2026 07 22 16 43 05-2.542114816606e-05-2.046363078989e-12 0.000000000000e+00
     2.300000000000e+01-3.918750000000e+01 2.669039747647e-09-1.062179607336e+00
    -1.734122633934e-06 1.706553157419e-04 2.330169081688e-06 5.440603998184e+03
     3.186000000000e+05 4.284083843231e-08 7.693210448066e-01 5.960464477539e-08
     9.976479604306e-01 3.070625000000e+02-2.997364701231e+00-5.581303912282e-09
    -1.642925577302e-11 1.000000000000e+00 1.404000000000e+03                   
     1.070000000000e+02 0.000000000000e+00-4.423782229424e-09-5.122274160385e-09
     3.193850000000e+05                                                         
END OF FILE                                                 COMMENT
