     3.05           N: NAVIGATION       M: MIXED            RINEX VERSION / TYPE
PYRINEXCONV 0.1.2 ALDELTUNES            20260722 183522 UTC PGM / RUN BY / DATE
GAL    1.1250e+02  3.1250e-02  2.0935e-02             S 28  IONOSPHERIC CORR
GPSA   1.3039e-08  2.2352e-08  1.5199e-05  1.5140e-05 S 27  IONOSPHERIC CORR
GPSB   1.1059e+05  1.4746e+05  1.6712e+07  1.6384e+07 S 27  IONOSPHERIC CORR
GAUT  3.7252902985e-09-1.776356839e-15 324600 1404   E28  0 TIME SYSTEM CORR
GPUT -3.9872247726e-09-3.552713679e-15  44400 2428   G27  0 TIME SYSTEM CORR
                                                            END OF HEADER
E19 2026 07 22 18 27 24 3.111651050858e-03 2.418687472527e-11 0.000000000000e+00
     2.700000000000e+01-4.409375000000e+01 3.154417108420e-09 7.234793042741e-01
    -1.896172761917e-06 2.390004228801e-04 7.331371307373e-06 5.440618814468e+03
     3.210000000000e+05 2.235174179077e-08 2.859803845875e+00-1.154839992523e-07
     9.747538966752e-01 1.860312500000e+02-2.510429203053e-01-5.439155134072e-09
     2.232235838726e-10 5.160000000000e+02 1.404000000000e+03                   
     1.070000000000e+02 0.000000000000e+00-4.656612873077e-09-4.889443516731e-09
     3.256440000000e+05                                                         
E33 2026 07 22 18 28 24-2.542720176280e-05-2.046363078989e-12 0.000000000000e+00
     2.800000000000e+01-4.025000000000e+01 2.640467128912e-09-6.891867270507e-01
    -1.769512891769e-06 1.714656827971e-04 2.108514308929e-06 5.440605640411e+03
     3.216000000000e+05 1.676380634308e-08 7.693043807068e-01 6.332993507385e-08
     9.976478170646e-01 3.137187500000e+02-2.998429680723e+00-5.599518956726e-09
    -1.678641350722e-11 5.160000000000e+02 1.404000000000e+03                   
     1.070000000000e+02 0.000000000000e+00-4.423782229424e-09-5.122274160385e-09
     3.257040000000e+05                                                         
E29 2026 07 22 18 30 24-2.276870654896e-04-3.609557097661e-12 0.000000000000e+00
     3.200000000000e+01-4.146875000000e+01 3.367997433469e-09 1.348694576714e-01
    -1.827254891396e-06 1.986295683309e-04 7.502734661102e-06 5.440614336014e+03
     3.240000000000e+05 1.862645149231e-09 2.851355435450e+00 8.009374141693e-08
     9.627729033559e-01 1.805000000000e+02 1.457625908747e+00-5.544159507926e-09
     3.710868858297e-10 5.160000000000e+02 1.404000000000e+03                   
     1.070000000000e+02 0.000000000000e+00-3.492459654808e-09-3.492459654808e-09
     3.258240000000e+05                                                         
E19 2026 07 22 18 30 54 3.111739759333e-03 2.420108557999e-11 0.000000000000e+00
     3.300000000000e+01-4.312500000000e+01 3.180489623016e-09 1.168341050277e+00
    -1.812353730202e-06 2.389777218923e-04 7.534399628639e-06 5.440619522095e+03
     3.246000000000e+05 1.229345798492e-07 2.859783795120e+00 1.862645149231e-09
     9.747543121440e-01 1.835625000000e+02-2.495933089289e-01-5.466299121871e-09
     3.157274370293e-10 5.160000000000e+02 1.404000000000e+03                   
     1.070000000000e+02 0.000000000000e+00-4.656612873077e-09-4.889443516731e-09
     3.258540000000e+05                                                         
E33 2026 07 22 18 30 54-2.543313894421e-05-2.046363078989e-12 0.000000000000e+00
     3.300000000000e+01-4.093750000000e+01 2.636181236101e-09-3.170663984025e-01
    -1.830980181694e-06 1.713547389954e-04 2.184882760048e-06 5.440605403900e+03
     3.246000000000e+05 7.450580596924e-09 7.692875966477e-01 5.401670932770e-08
     9.976477102716e-01 3.131562500000e+02-2.998623107751e+00-5.608447900081e-09
    -1.500062483624e-11 5.160000000000e+02 1.404000000000e+03                   
     1.070000000000e+02 0.000000000000e+00-4.423782229424e-09-5.122274160385e-09
     3.258540000000e+05                                                         
G23 2026 07 22 18 33 54 6.717038340867e-04 3.865352482535e-12 0.000000000000e+00
     8.000000000000e+00-7.718750000000e+01 3.804444184657e-09-1.042908095937e+00
    -3.946945071220e-06 6.453909911215e-03 6.910413503647e-06 5.153732009888e+03
     3.312000000000e+05 1.341104507446e-07 1.585343107264e+00-2.421438694000e-08
     9.892089492548e-01 2.590000000000e+02-2.742720372124e+00-7.727107579332e-09
     1.357199389945e-10 1.000000000000e+00 3.800000000000e+02 0.000000000000e+00
     2.000000000000e+00 0.000000000000e+00-8.381903171539e-09 5.200000000000e+02
     1.304136000000e+06 4.000000000000e+00                                      
G24 2026 07 22 18 33 54 1.246402971447e-04 1.853095454862e-11 0.000000000000e+00
     3.900000000000e+01-8.687500000000e+00 5.534516249103e-09 3.673181654645e-01
    -2.440065145493e-07 1.844356034417e-02 6.923452019691e-06 5.153623254776e+03
     3.312000000000e+05-2.197921276093e-07-2.698211924888e+00 1.247972249985e-07
     9.354922241490e-01 2.342187500000e+02 1.162828890525e+00-8.706434086498e-09
    -1.550064566411e-10 1.000000000000e+00 3.800000000000e+02 0.000000000000e+00
     2.000000000000e+00 0.000000000000e+00 2.328306436539e-09 3.900000000000e+01
     1.304136000000e+06 4.000000000000e+00                                      
G18 2026 07 22 18 33 54-2.980371937156e-04 8.981260180008e-12 0.000000000000e+00
     5.500000000000e+01-9.375000000000e-01 4.323751530178e-09 1.765889569189e-01
     0.000000000000e+00 6.301032728516e-03 3.201887011528e-06 5.153620307922e+03
     3.312000000000e+05 8.568167686462e-08 5.756434740898e-01 9.872019290924e-08
     9.708340588840e-01 3.230937500000e+02-2.858734604902e+00-8.266772915703e-09
     2.857261873569e-11 1.000000000000e+00 3.800000000000e+02 0.000000000000e+00
     2.000000000000e+00 0.000000000000e+00-8.381903171539e-09 3.110000000000e+02
     1.304136000000e+06 4.000000000000e+00                                      
G10 2026 07 22 18 33 54-5.626836791635e-04 5.229594535194e-12 0.000000000000e+00
     2.800000000000e+01-7.209375000000e+01 3.659438144573e-09-2.054753266710e+00
    -3.846362233162e-06 1.113982324023e-02 6.832182407379e-06 5.153651752472e+03
     3.312000000000e+05 1.452863216400e-07 1.618129534253e+00-5.401670932770e-08
     9.942821765293e-01 2.613437500000e+02-2.265410275111e+00-7.510669992409e-09
     2.278666344171e-10 1.000000000000e+00 3.800000000000e+02 0.000000000000e+00
     2.000000000000e+00 0.000000000000e+00 2.328306436539e-09 2.800000000000e+01
     1.304136000000e+06 4.000000000000e+00                                      
G15 2026 07 22 18 33 54 4.304745234549e-04 3.069544618484e-12 0.000000000000e+00
     1.400000000000e+01-4.578125000000e+01 5.092712131902e-09 1.111701600640e+00
    -2.514570951462e-06 1.703049463686e-02 8.359551429749e-06 5.153757265091e+03
     3.312000000000e+05-3.017485141754e-07 2.476339594010e+00-2.235174179077e-07
     9.447615686087e-01 2.156875000000e+02 1.538379972729e+00-8.381420548380e-09
     3.560862609935e-10 1.000000000000e+00 3.800000000000e+02 0.000000000000e+00
     2.000000000000e+00 0.000000000000e+00-1.071020960808e-08 1.400000000000e+01
     1.304136000000e+06 4.000000000000e+00                                      
G32 2026 07 22 18 33 54 1.777629368007e-04 2.012257027673e-11 0.000000000000e+00
     1.090000000000e+02-3.903125000000e+01 4.353038464382e-09 2.789593668859e+00
    -1.985579729080e-06 9.466584655456e-03 7.921829819679e-06 5.153574169159e+03
     3.312000000000e+05 2.607703208923e-08 2.641242617945e+00-1.639127731323e-07
     9.697150348093e-01 2.290937500000e+02-1.973192018659e+00-7.655676032493e-09
     2.489389407347e-10 1.000000000000e+00 3.800000000000e+02 0.000000000000e+00
     2.000000000000e+00 0.000000000000e+00 9.313225746155e-10 1.090000000000e+02
     1.304136000000e+06 4.000000000000e+00                                      
G27 2026 07 22 18 33 54 5.443580448627e-07 0.000000000000e+00 0.000000000000e+00
     8.000000000000e+00 7.875000000000e+01 4.526974280935e-09 2.282824695394e+00
     3.904104232788e-06 1.433082099538e-02 6.832182407379e-06 5.153676126480e+03
     3.312000000000e+05-7.450580596924e-08-5.096237527663e-01-2.924352884293e-07
     9.508980067074e-01 2.408125000000e+02 9.005135632159e-01-7.985689778890e-09
     1.928651764659e-11 1.000000000000e+00 3.800000000000e+02 0.000000000000e+00
     2.000000000000e+00 0.000000000000e+00 2.328306436539e-09 8.000000000000e+00
     1.304136000000e+06 4.000000000000e+00                                      
G08 2026 07 22 18 33 54 3.927182406187e-04-9.322320693173e-12 0.000000000000e+00
     2.000000000000e+00 7.759375000000e+01 4.781984903151e-09 2.131546162539e+00
     3.941357135773e-06 1.168756536208e-02 6.649643182755e-06 5.153753910065e+03
     3.311840000000e+05-2.607703208923e-07-5.428504654323e-01-3.911554813385e-08
     9.417726953101e-01 2.424062500000e+02 5.448382682779e-01-8.209984835965e-09
    -5.964534161075e-11 1.000000000000e+00 3.800000000000e+02 0.000000000000e+00
     2.000000000000e+00 0.000000000000e+00 4.656612873077e-09 2.000000000000e+00
     1.304136000000e+06 4.000000000000e+00                                      
G18 2026 07 22 18 35 12-2.980535209645e-04 9.023892744153e-12 0.000000000000e+00
     3.526687622070e-03 3.058593750000e+00 4.342680890090e-09-8.616132153631e-02
     1.341104507446e-07 6.301042332780e-03 3.274530172348e-06 5.153602586268e+03
     2.556000000000e+05 6.612390279770e-08 5.756583270971e-01 7.916241884232e-08
     9.708339235640e-01 3.206093750000e+02-2.858535000702e+00-8.049921689315e-09
     3.303709041314e-11 4.342680890090e-09-2.000000000000e+00 3.000000000000e+00
     3.100000000000e+01 4.000000000000e+00-8.381903171539e-09 7.000000000000e+00
    -8.731149137020e-11 5.209585651755e-09-8.440110832453e-10-9.313225746155e-10
     3.261120000000e+05 2.428000000000e+03 0.000000000000e+00                   
G23 2026 07 22 18 35 12 6.716967909597e-04 3.865352482535e-12 0.000000000000e+00
     7.329463958740e-03-7.666796875000e+01 3.808908656334e-09-1.305600771261e+00
    -3.942288458347e-06 6.456336879637e-03 6.474554538727e-06 5.153491371906e+03
     3.069000000000e+05 8.102506399155e-08 1.585356821389e+00-5.867332220078e-08
     9.892087810192e-01 2.691914062500e+02-2.742557813398e+00-8.640124845074e-09
     1.653640309328e-10 3.808908656334e-09-2.000000000000e+00 3.000000000000e+00
     2.900000000000e+01 4.000000000000e+00-8.381903171539e-09 7.000000000000e+00
    -2.037268131971e-10 5.617039278150e-09-5.238689482212e-10-4.947651177645e-10
     3.261120000000e+05 2.428000000000e+03 0.000000000000e+00                   
G24 2026 07 22 18 35 12 1.246067695320e-04 1.857003439909e-11 0.000000000000e+00
     1.955509185791e-03-1.205078125000e+01 5.535230564571e-09 1.047298759283e-01
    -5.401670932770e-07 1.844316843199e-02 6.870366632938e-06 5.153600061486e+03
     2.844000000000e+05-1.695007085800e-07-2.698196457456e+00 1.760199666023e-07
     9.354924684563e-01 2.349101562500e+02 1.162863662625e+00-7.615082147931e-09
    -1.116117919363e-10 5.535230564571e-09-2.000000000000e+00 3.000000000000e+00
     2.900000000000e+01 4.000000000000e+00 2.328306436539e-09 7.000000000000e+00
     2.910383045673e-11-1.426087692380e-09 1.484295353293e-09 2.764863893390e-09
     3.261120000000e+05 2.428000000000e+03 0.000000000000e+00                   
G32 2026 07 22 18 35 12 1.777267607395e-04 2.013678113144e-11 0.000000000000e+00
    -4.674434661865e-03-4.019531250000e+01 4.354288516452e-09 2.526870164731e+00
    -2.005137503147e-06 9.467360679992e-03 7.748603820801e-06 5.153648096366e+03
     2.673000000000e+05 2.048909664154e-08 2.641256296229e+00-2.020969986916e-07
     9.697144891408e-01 2.356484375000e+02-1.973031821815e+00-8.654411154441e-09
     2.600108304947e-10 4.354288516452e-09-2.000000000000e+00 3.000000000000e+00
     3.000000000000e+01 4.000000000000e+00 9.313225746155e-10 7.000000000000e+00
    -2.910383045673e-10-1.891748979688e-09 8.614733815193e-09 9.051291272044e-09
     3.261120000000e+05 2.428000000000e+03 0.000000000000e+00                   
G10 2026 07 22 18 35 12-5.626931670122e-04 5.250910817267e-12 0.000000000000e+00
     3.091812133789e-03-7.529687500000e+01 3.695332496860e-09-2.317258995733e+00
    -3.830529749393e-06 1.114093395881e-02 6.755813956261e-06 5.153571733403e+03
     2.988000000000e+05 1.452863216400e-07 1.618143075754e+00-6.146728992462e-08
     9.942817625235e-01 2.657421875000e+02-2.265449371597e+00-8.825311130254e-09
     2.232235838726e-10 3.695332496860e-09-2.000000000000e+00 3.000000000000e+00
     2.900000000000e+01 4.000000000000e+00 2.328306436539e-09 7.000000000000e+00
    -8.149072527885e-10-4.656612873077e-10 1.059379428625e-08 1.103035174310e-08
     3.261120000000e+05 2.428000000000e+03 0.000000000000e+00                   
G27 2026 07 22 18 35 12 5.444162525237e-07 3.552713678801e-15 0.000000000000e+00
    -7.489681243896e-03 6.823046875000e+01 4.568404578102e-09 2.020167554350e+00
     3.491528332233e-06 1.433306600666e-02 6.917864084244e-06 5.153545802823e+03
     3.069000000000e+05-2.048909664154e-07-5.096092325729e-01-2.244487404823e-07
     9.508975005377e-01 2.393789062500e+02 9.006207585382e-01-8.242251129179e-09
     4.285892810353e-12 4.568404578102e-09-2.000000000000e+00 1.000000000000e+00
     2.800000000000e+01 4.000000000000e+00 2.328306436539e-09 7.000000000000e+00
    -9.022187441587e-10-1.688022166491e-09 6.664777174592e-09 5.326000973582e-09
     3.261120000000e+05 2.428000000000e+03 0.000000000000e+00                   
E33 2026 07 22 18 35 25-2.543441951275e-05-2.060573933704e-12 0.000000000000e+00
     3.400000000000e+01-4.159375000000e+01 2.636181236101e-09-2.424715252837e-01
    -1.870095729828e-06 1.712674275041e-04 2.205371856689e-06 5.440605215073e+03
     3.252000000000e+05 7.450580596924e-09 7.692842304732e-01 5.587935447693e-08
     9.976477102716e-01 3.127812500000e+02-2.998832648823e+00-5.607376426879e-09
    -1.535778257043e-11 1.000000000000e+00 1.404000000000e+03                   
     1.070000000000e+02 0.000000000000e+00-4.423782229424e-09-5.122274160385e-09
     3.261250000000e+05                                                         
E12 2026 07 22 18 35 35-5.931471241638e-05-2.700062395888e-12 0.000000000000e+00
     3.300000000000e+01-3.421875000000e+01 2.647967441330e-09 1.287418462352e+00
    -1.532956957817e-06 3.110443940386e-04 2.136453986168e-06 5.440603467941e+03
     3.246000000000e+05 6.891787052155e-08 7.688239759646e-01 3.166496753693e-08
     9.945425028015e-01 3.083750000000e+02 8.669095537369e-01-5.595233063916e-09
    -8.571785620706e-12 1.000000000000e+00 1.404000000000e+03                   
     1.070000000000e+02 0.000000000000e+00-1.187436282635e-08-1.187436282635e-08
     3.261350000000e+05                                                         
E10 2026 07 22 18 35 35-8.077395032160e-04-2.742694960034e-12 0.000000000000e+00
     2.900000000000e+01-2.409375000000e+01 2.632609658759e-09-8.705371092734e-01
    -1.300126314163e-06 2.864892594516e-04 2.214685082436e-06 5.440597185135e+03
     3.222000000000e+05 3.352761268616e-08 7.673710525416e-01-2.793967723846e-08
     9.974473914361e-01 3.061875000000e+02 2.359314607723e+00-5.537016353242e-09
     2.000083311498e-11 1.000000000000e+00 1.404000000000e+03                   
     1.070000000000e+02 0.000000000000e+00-1.164153218269e-09-4.656612873077e-10
     3.261350000000e+05                                                         
E06 2026 07 22 18 35 35-3.013094537891e-04-5.115907697473e-12 0.000000000000e+00
     3.100000000000e+01-3.721875000000e+01 3.261207270944e-09-1.841747753992e+00
    -1.722946763039e-06 5.023854319006e-04 7.443130016327e-06 5.440614679337e+03
     3.234000000000e+05-5.215406417847e-08 2.851327547843e+00-5.774199962616e-08
     9.626915899803e-01 1.815937500000e+02 1.395391926829e+00-5.489871532328e-09
     3.007268121931e-10 1.000000000000e+00 1.404000000000e+03                   
     1.070000000000e+02 0.000000000000e+00 2.095475792885e-09 3.492459654808e-09
     3.261350000000e+05                                                         
E04 2026 07 22 18 35 35-1.177436788566e-04 3.359446054674e-11 0.000000000000e+00
     3.300000000000e+01-4.387500000000e+01 3.180132465282e-09 1.717678050585e-01
    -1.996755599976e-06 2.885408466682e-04 7.504597306252e-06 5.440610994339e+03
     3.246000000000e+05-4.470348358154e-08 2.851678661348e+00-4.284083843231e-08
     9.693860537916e-01 1.812812500000e+02-7.630548370968e-02-5.421297247362e-09
     2.553677799502e-10 1.000000000000e+00 1.404000000000e+03                   
     1.070000000000e+02 0.000000000000e+00-4.423782229424e-09-5.122274160385e-09
     3.261350000000e+05                                                         
E11 2026 07 22 18 35 35 5.525462271180e-03 6.686207143503e-11-3.469446951954e-18
     2.700000000000e+01-2.953125000000e+01 2.658682173356e-09-4.492873862573e-01
    -1.700595021248e-06 4.115656483918e-04 2.823770046234e-06 5.440607622147e+03
     3.210000000000e+05 2.048909664154e-08 7.688349478502e-01-2.235174179077e-08
     9.945300533687e-01 2.959687500000e+02 1.360474670419e+00-5.556302870888e-09
     2.285809498855e-11 1.000000000000e+00 1.404000000000e+03                   
     1.070000000000e+02 0.000000000000e+00-1.466833055019e-08-1.606531441212e-08
     3.261350000000e+05                                                         
E28 2026 07 22 18 35 35-6.070319795981e-05-2.899014361901e-12 0.000000000000e+00
     3.300000000000e+01-4.109375000000e+01 3.562648398606e-09-1.517010609010e+00
    -1.797452569008e-06 2.854240592569e-04 7.221475243568e-06 5.440610807419e+03
     3.246000000000e+05 7.450580596924e-08 2.869349721350e+00-8.195638656616e-08
     9.490842369851e-01 1.767500000000e+02 1.978358473314e+00-5.669879030363e-09
     2.946551307118e-10 1.000000000000e+00 1.404000000000e+03                   
     1.070000000000e+02 0.000000000000e+00 6.984919309616e-10 1.629814505577e-09
     3.261350000000e+05                                                         
E19 2026 07 22 18 35 35 3.111754485872e-03 2.421529643470e-11 0.000000000000e+00
     3.400000000000e+01-4.318750000000e+01 3.181918253953e-09 1.242467715002e+00
    -1.817941665649e-06 2.389582805336e-04 7.575377821922e-06 5.440619653702e+03
     3.252000000000e+05 1.210719347000e-07 2.859780445037e+00 2.235174179077e-08
     9.747544423437e-01 1.830312500000e+02-2.493347527875e-01-5.465584806403e-09
     3.275136422578e-10 1.000000000000e+00 1.404000000000e+03                   
     1.070000000000e+02 0.000000000000e+00-4.656612873077e-09-4.889443516731e-09
     3.261350000000e+05                                                         
END OF FILE                                                 COMMENT
