     3.05           NAVIGATION DATA     C                   RINEX VERSION / TYPE
PYRINEXCONV 0.1.2 ALDELTUNES            20260721 151719 UTC PGM / RUN BY / DATE 
gfzrnx-2.2.0        FILE MERGE          20260722 154108 UTC COMMENT             
BDSA   2.1420e-08  7.4506e-08 -8.3447e-07  1.3709e-06 P 19  IONOSPHERIC CORR    
BDSB   1.4131e+05 -6.3898e+05  5.1773e+06 -4.3909e+06 P 19  IONOSPHERIC CORR    
GAL    9.2500e+01  2.3047e-01  2.8290e-02           0 P 09  IONOSPHERIC CORR    
GPSA   1.1176e-08  2.2352e-08  1.5199e-05  1.5140e-05 P 20  IONOSPHERIC CORR    
GPSB   1.0650e+05  1.4746e+05  1.6712e+07  1.6450e+07 P 20  IONOSPHERIC CORR    
BDUT  0.0000000000e+00 0.000000000e+00 226800 1072 C19    0 TIME SYSTEM CORR    
GPUT  1.2805685401e-09 2.224886941e-13 457200 2428 G20    0 TIME SYSTEM CORR    
B_TOP                                                       COMMENT             
B_TOP   ----------------------------------------------      COMMENT             
B_TOP    # of NAV. EPOCHS based on # of FILE CONTRIB.       COMMENT             
B_TOP   ----------------------------------------------      COMMENT             
B_TOP                                                       COMMENT             
B_BEG C                                                     COMMENT             
B_HD  BTP C   MTP    =1   <5  <10  <15  <25  <50 >=50  #EPO COMMENT             
B_LN  --- C ----------------------------------------------- COMMENT             
B_STK EPH C14 D2      1    .    .    .    .    .    .     1 COMMENT             
B_STK EPH C19 D2      1    .    .    .    .    .    .     1 COMMENT             
B_STK EPH C21 D2      1    .    .    .    .    .    .     1 COMMENT             
B_STK EPH C22 D2      1    .    .    .    .    .    .     1 COMMENT             
B_STK EPH C31 D2      1    .    .    .    .    .    .     1 COMMENT             
B_STK EPH C35 D2      1    .    .    .    .    .    .     1 COMMENT             
B_LN  --- C ----------------------------------------------- COMMENT             
B_SUM EPH C   D2                                          6 COMMENT             
B_LN  --- C ----------------------------------------------- COMMENT             
B_SUM EPH C                                               6 COMMENT             
B_LN  --- C ----------------------------------------------- COMMENT             
B_ALL EPH -   -                                           6 COMMENT             
                                                            COMMENT             
                                                            END OF HEADER
C14 2026 07 21 15 16 54-3.057799767703e-04 7.762679388179e-12 0.000000000000e+00
     1.000000000000e+00-2.575000000000e+01 3.611936165925e-09-1.314648618220e+00
    -1.267064362764e-06 3.322358243167e-04 7.124152034521e-06 5.282647661209e+03
     2.268000000000e+05-4.051253199577e-08 2.170650700109e+00-3.389082849026e-05
     9.735729399636e-01 2.245625000000e+02 8.509870568096e-01-1.432580744167e-06
     2.378670509746e-10                    1.072000000000e+03                   
     0.000000000000e+00 0.000000000000e+00 1.471489667892e-07 1.471489667892e-07
     2.278140000000e+05 1.000000000000e+00                                      
C19 2026 07 21 15 16 54-9.325984865427e-04 8.126832540256e-13 0.000000000000e+00
     1.000000000000e+00-3.334375000000e+01 3.432642983359e-09 1.801419893604e+00
    -1.478940248489e-06 7.835614960641e-04 7.794704288244e-06 5.282632587433e+03
     2.268000000000e+05 1.210719347000e-07 2.184769875475e+00 2.924352884293e-07
     9.899566393705e-01 2.162500000000e+02-3.190487343233e-01 3.724776580467e-07
     2.664396697103e-10                    1.072000000000e+03                   
     0.000000000000e+00 0.000000000000e+00 4.330649971962e-08 4.330649971962e-08
     2.278140000000e+05 1.000000000000e+00                                      
C21 2026 07 21 15 16 54-8.454507915303e-04 1.081801315195e-12 0.000000000000e+00
     1.000000000000e+00-2.667187500000e+01 3.322638401226e-09-1.874511265833e-01
    -1.355074346066e-06 7.084667449817e-04 7.296912372112e-06 5.282635606766e+03
     2.268000000000e+05-6.519258022308e-09 2.185935527137e+00 2.212962135673e-05
     9.892332483241e-01 2.274687500000e+02 9.314678535464e-02 1.510993653236e-06
     2.082229590363e-10                    1.072000000000e+03                   
     0.000000000000e+00 0.000000000000e+00 5.168840289116e-08 5.168840289116e-08
     2.278140000000e+05 1.000000000000e+00                                      
C22 2026 07 21 15 16 54 4.575536586344e-04 2.806643806252e-13 0.000000000000e+00
     1.000000000000e+00-3.640625000000e+01 3.429785721485e-09-9.167121157106e-02
    -1.687556505203e-06 8.537262910977e-04 7.410533726215e-06 5.282631006241e+03
     2.268000000000e+05 1.490116119385e-08 2.185866892873e+00 8.287373930216e-06
     9.892422467332e-01 2.218906250000e+02 7.765723171827e-01 1.443653705400e-06
     1.814361289716e-10                    1.072000000000e+03                   
     0.000000000000e+00 0.000000000000e+00 6.239861249924e-08 6.239861249924e-08
     2.278140000000e+05 1.000000000000e+00                                      
C31 2026 07 21 15 16 54 7.555967895314e-04-9.036327242029e-12 0.000000000000e+00
     1.000000000000e+00 2.823437500000e+01 4.319108479633e-09 1.019837140516e+00
     1.327600330114e-06 7.332909153774e-04 3.285706043243e-06 5.282664857864e+03
     2.268000000000e+05-6.519258022308e-09 3.184428872816e-02 2.865027636290e-05
     9.410537866447e-01 2.815468750000e+02 1.053555522394e+00 1.136485910628e-06
     1.964367538078e-11                    1.072000000000e+03                   
     0.000000000000e+00 0.000000000000e+00-6.519258022308e-09-6.519258022308e-09
     2.278140000000e+05 1.000000000000e+00                                      
C35 2026 07 21 15 16 54-4.785080673173e-04-1.603073229717e-11 0.000000000000e+00
     1.000000000000e+00 2.846875000000e+01 4.310536694013e-09 1.931562790235e+00
     1.444481313229e-06 8.112853392959e-04 3.417953848839e-06 5.282617630005e+03
     2.268000000000e+05 4.656612873077e-09 3.467315975056e-02 3.984896466136e-05
     9.437466048228e-01 2.826093750000e+02 8.851252844723e-01-2.093545776013e-06
     9.286101089098e-12                    1.072000000000e+03                   
     0.000000000000e+00 0.000000000000e+00-1.257285475731e-08-1.257285475731e-08
     2.278140000000e+05 1.000000000000e+00                                      
