     3.05           O: OBSERVATION      M: MIXED            RINEX VERSION / TYPE
PYRINEXCONV 0.1.2 ALDELTUNES            20260616 191854 UTC PGM / RUN BY / DATE
UNKN                                                        MARKER NAME
NONE                                                        MARKER TYPE
                                                            OBSERVER / AGENCY
                                                            REC # / TYPE / VERS
                                                            ANT # / TYPE
   112730.2914 -5325854.1487  3496028.6365                  APPROX POSITION XYZ
        0.0000        0.0000        0.0000                  ANTENNA: DELTA H/E/N
G    8 C1C L1C D1C S1C C2L L2L D2L S2L                      SYS / # / OBS TYPES
S    4 C1C L1C D1C S1C                                      SYS / # / OBS TYPES
E    8 C1C L1C D1C S1C C7Q L7Q D7Q S7Q                      SYS / # / OBS TYPES
C    4 C2I L2I D2I S2I                                      SYS / # / OBS TYPES
R    8 C1C L1C D1C S1C C2C L2C D2C S2C                      SYS / # / OBS TYPES
DBHZ                                                        SIGNAL STRENGTH UNIT
     5.000                                                  INTERVAL
  2026     6    16    19    18   37.0030000     GPS         TIME OF FIRST OBS
  2026     6    16    19    18   52.0030000     GPS         TIME OF LAST OBS
  6 R06 -4 R07  5 R08  6 R21  4 R22 -3 R23  3               GLONASS SLOT / FRQ
 C1C    0.000 C1P    0.000 C2C    0.000 C2P    0.000        GLONASS COD/PHS/BIS
    18        2423     2GPS                                 LEAPSECONDS
    32                                                      # OF SATELLITES
                                                            END OF HEADER
> 2026  6 16 19 18 37.0030000  0 31                           
G15  21013007.833   110424051.1060      -1719.608          38.000    21013025.248    86044825.6291      -1335.192          18.000  
S35  39147649.241   205722285.1641       -601.984          28.000  
G18  21732536.228   114205359.5220        926.318          37.000    21732535.218    88991125.5330        722.131          38.000  
E07  24539617.836   128956569.3660       -437.175          36.000    24539619.275    98810956.9890       -335.096          39.000  
S33  39419241.346   207149511.0430       -605.240          29.000  
C22  24555464.931   127866822.4280      -3077.375          37.000  
C31  23388681.329   121790927.4790      -2794.392          41.000  
C35  27671555.293   144093049.9081      -3878.512          23.000  
C21  22902572.188   119259724.2000       -769.775          27.000  
C14  23414979.592   121927942.7971        589.371          22.000  
C34  22647766.780   117932916.7290        202.216          35.000  
R21  22350866.349   119603984.3200      -3690.803          34.000    22350865.500    93025325.9730      -2870.966          30.000  
R06  23834485.058   127185378.4331      -4439.390          21.000                                                                  
R07  20348827.266   108928854.0460      -1628.120          33.000                                                                  
R08  21960891.435   117599536.7940       1936.522          34.000    21960898.322    91466365.7851       1507.001          23.000  
R23  22633922.731   121076234.6950       2958.443          26.000                                                                  
G05  24418785.938   128321586.1481      -3045.521          21.000    24418789.507    99990860.4411      -2374.170          17.000  
G29  22868964.492   120177235.7400      -3486.001          36.000                                                                  
G20  23066065.440   121212963.9880      -3192.356          37.000    23066067.033    94451686.2710      -2486.539          32.000  
G24  23937634.260   125793118.3950       2372.230          35.000    23937636.080    98020596.5950       1848.675          28.000  
C42  25117129.521   130791470.4460       1532.003          31.000  
R22  20339740.820   108574901.6370        680.962          29.000    20339740.894    84447151.7330        528.741          30.000  
E08  27213974.606   143010401.3661      -2878.575          23.000    27213983.459   109579434.0501      -2194.758          14.000  
E13  25922543.307   136223898.0810      -1829.934          39.000    25922546.127   104379351.8170      -1402.214          32.000  
G10  25504479.263   134026990.4180       1467.819          35.000    25504473.868   104436556.6031       1147.951          21.000  
G23  22677583.539   119171505.3231        741.030          22.000    22677612.832    92861033.0231        584.448          16.000  
E26  24557166.380   129048769.8000        212.121          27.000    24557173.696    98881556.1550        162.130          36.000  
E33  27534260.217   144693526.1630       1568.462          30.000                                                                  
E32  29374224.181   154362589.8451      -3300.360          15.000    29374257.068   118277960.4571      -2558.227          10.000  
E29  26276125.051   138081931.2370       1982.481          28.000    26276131.810   105803094.4141       1519.046          25.000  
E31                                                                  29446594.815   118569234.8891      -1156.191          11.000  
> 2026  6 16 19 18 42.0030000  0 31                           
G15  21014644.981   110432656.0810      -1722.535          37.000    21014663.814    86051535.0781      -1334.219          18.000  
S35  39148272.874   205725561.6691       -472.328          27.000  
G18  21731655.771   114200733.1310        924.646          37.000    21731654.590    88987520.5790        720.380          37.000  
E07  24540034.759   128958761.7560       -439.768          35.000    24540036.204    98812636.8620       -336.754          40.000  
S31  38716215.132   203455083.2921       -625.488          28.000  
S33  39419817.943   207152541.4051       -610.889          29.000  
C22  24558420.343   127882213.7780      -3078.600          37.000  
C31  23391365.743   121804905.5500      -2796.648          40.000  
C35  27675277.667   144112432.6621      -3877.466          23.000  
C21  22903312.719   119263576.6350       -771.830          26.000  
C14  23414421.872   121925038.8671        584.784          23.000  
C34  22647573.770   117931910.7150        199.959          35.000  
R21  22354316.010   119622446.3870      -3693.933          32.000    22354315.614    93039685.2800      -2872.566          31.000  
R06  23838638.201   127207540.9261      -4443.289          19.000                                                                  
R07  20350349.786   108937005.3620      -1631.530          32.000                                                                  
R08  21959085.029   117589862.2360       1933.237          33.000    21959095.840    91458858.2691       1496.416          20.000  
R23  22631157.302   121061431.2741       2955.866          24.000                                                                  
G05  24421687.493   128336833.8651      -3036.671          22.000    24421680.086   100002696.8901      -2368.861          21.000  
G29  22872282.757   120194672.7200      -3488.135          36.000                                                                  
G20  23069103.459   121228929.4600      -3194.252          37.000    23069105.199    94464126.8830      -2488.143          32.000  
G24  23935377.941   125781259.3760       2371.146          36.000    23935379.519    98011355.8330       1847.259          28.000  
C42  25115659.904   130783815.4320       1529.690          31.000  
R22  20339105.254   108571503.6890        677.565          28.000    20339103.963    84444508.8060        527.323          29.000  
E08  27216712.604   143024789.0751      -2879.445          23.000    27216720.149   109590453.1021      -2207.176          14.000  
E13  25924285.078   136233050.5410      -1830.983          40.000    25924287.838   104386364.7010      -1402.658          32.000  
G10  25503083.245   134019656.5250       1466.864          34.000    25503079.202   104430845.8551       1148.633          21.000  
G23  22676879.281   119167804.7881        744.286          23.000    22676906.879    92858142.0841        573.344          18.000  
E26  24556963.478   129047712.8070        210.906          26.000    24556972.760    98880746.1980        161.902          36.000  
E33  27532767.952   144685680.0460       1569.838          30.000                                                                  
E29  26274240.179   138072022.5760       1980.972          29.000    26274245.294   105795498.0121       1518.147          25.000  
E31                                                                  29448030.671   118575016.3011      -1157.290          13.000  
> 2026  6 16 19 18 47.0030000  0 31                           
G15  21016285.573   110441277.1650      -1725.702          38.000    21016308.407    86058269.3701      -1352.612          14.000  
S35  39148851.317   205728602.0621       -630.141          28.000  
G18  21730777.441   114196116.8330        922.131          37.000    21730776.191    88983923.4620        718.494          38.000  
E07  24540454.347   128960966.9200       -442.213          35.000    24540455.621    98814326.5370       -338.570          39.000  
S31  38716789.184   203458099.3941       -585.791          28.000  
S33  39420394.709   207155571.6940       -604.577          29.000  
C22  24561376.638   127897609.0880      -3079.290          36.000  
C31  23394052.434   121818894.5050      -2798.673          40.000  
C35  27678999.017   144131810.5291      -3878.441          23.000  
C21  22904055.383   119267426.1471       -773.999          26.000  
C14  23413860.597   121922116.2021        582.231          25.000  
C34  22647383.416   117930918.1310        196.725          34.000  
R21  22357768.397   119640922.8610      -3696.927          31.000    22357768.405    93054055.7800      -2874.895          30.000  
R06  23842793.742   127229715.4641      -4436.523          20.000                                                                  
R07  20351875.341   108945173.7620      -1634.961          32.000                                                                  
R08  21957281.698   117580202.8020       1930.704          34.000    21957293.830    91451353.2141       1497.209          14.000  
R23  22628391.705   121046636.9761       2955.969          25.000                                                                  
G05  24424586.593   128352067.9061      -3047.517          22.000    24424578.770   100014566.9841      -2372.678          21.000  
G29  22875603.082   120212120.8470      -3490.733          36.000                                                                  
G20  23072143.737   121244905.2030      -3196.177          38.000    23072145.458    94476575.5690      -2490.484          32.000  
G24  23933122.777   125769407.3260       2369.729          36.000    23933124.204    98002120.4780       1846.906          29.000  
C42  25114191.919   130776168.9660       1529.156          31.000  
R22  20338471.949   108568123.2190        674.297          28.000    20338470.534    84441879.5750        523.125          30.000  
E08  27219449.933   143039174.2021      -2885.589          23.000    27219466.722   109601512.8161      -2206.180          10.000  
E13  25926028.206   136242209.5950      -1832.157          40.000    25926030.664   104393382.7140      -1404.480          33.000  
G10  25501688.209   134012326.3940       1466.129          34.000    25501686.539   104425142.7761       1146.657          21.000  
G23  22676173.791   119164097.4871        743.462          24.000    22676196.962    92855235.2791        578.344          17.000  
E26  24556764.925   129046669.9451        210.150          25.000    24556772.585    98879940.3640        160.767          36.000  
E33  27531274.152   144677834.4590       1569.419          30.000                                                                  
E29  26272356.210   138062121.3300       1979.034          29.000    26272361.250   105787911.4071       1519.663          25.000  
E31                                                                  29449467.765   118580802.7621      -1157.290          12.000  
> 2026  6 16 19 18 52.0030000  0 31                           
G15  21017928.470   110449909.6780      -1727.602          38.000                                                                  
S35  39149436.800   205731678.4460       -602.330          28.000  
G18  21729899.931   114191505.8630        921.979          38.000    21729898.794    88980330.5250        717.834          38.000  
E07  24540875.780   128963180.2050       -443.317          35.000    24540876.822    98816022.4180       -339.572          40.000  
S31  38717363.667   203461118.4691       -607.054          28.000  
S33  39420972.822   207158610.3130       -604.184          29.000  
C22  24564332.846   127913003.7610      -3078.645          36.000  
C31  23396740.161   121832889.7480      -2799.520          40.000  
C35  27682722.089   144151198.1521      -3882.508          23.000  
C21  22904801.097   119271299.3880       -774.350          26.000  
C14  23413302.139   121919207.8311        580.643          25.000  
C34  22647194.294   117929934.3160        196.026          34.000  
R21  22361222.677   119659408.7240      -3697.960          32.000    22361223.123    93068433.6410      -2875.748          30.000  
R06  23846949.649   127251892.3431      -4446.734          17.000                                                                  
R07  20353403.338   108953354.3190      -1635.897          32.000                                                                  
R08  21955480.029   117570553.6300       1928.864          34.000                                                                  
R23  22625630.827   121031868.3971       2956.099          25.000                                                                  
G05  24427482.859   128367288.6241      -3047.742          22.000    24427477.212   100026435.5731      -2360.969          21.000  
G29  22878924.754   120229575.3440      -3491.425          36.000                                                                  
G20  23075185.120   121260886.5600      -3196.774          38.000    23075186.915    94489028.5180      -2490.536          32.000  
G24  23930867.918   125757557.6170       2369.875          36.000    23930869.656    97992886.9860       1846.180          29.000  
C42  25112725.032   130768526.3300       1528.795          31.000  
R22  20337841.746   108564755.5280        672.434          27.000    20337839.437    84439260.2100        523.151          30.000  
E08  27222194.497   143053596.7991      -2882.493          23.000                                                                  
E13  25927771.547   136251370.5720      -1832.093          40.000    25927773.967   104400402.1160      -1403.530          33.000  
G10  25500292.917   134004995.3470       1466.876          34.000    25500291.577   104419430.4441       1135.193          21.000  
G23  22675469.323   119160395.5321        741.549          25.000    22675488.916    92852336.1531        581.500          19.000  
E26  24556559.074   129045587.9291        210.271          22.000    24556572.709    98879135.0060        161.266          37.000  
E33  27529780.210   144669984.6660       1570.690          30.000                                                                  
E29  26270473.747   138052222.7730       1979.790          29.000    26270476.485   105780322.7661       1516.016          25.000  
E31                                                                  29450906.034   118586594.5801      -1161.929          11.000  
