     3.05           O: OBSERVATION      M: MIXED            RINEX VERSION / TYPE
PYRINEXCONV 0.1.2 ALELIJA               20260616 172426 UTC PGM / RUN BY / DATE
UNKN                                                        MARKER NAME
NONE                                                        MARKER TYPE
                                                            OBSERVER / AGENCY
                                                            REC # / TYPE / VERS
                                                            ANT # / TYPE
   112732.9329 -5325855.1947  3496016.4474                  APPROX POSITION XYZ
        0.0000        0.0000        0.0000                  ANTENNA: DELTA H/E/N
G    8 C1C L1C D1C S1C C2L L2L D2L S2L                      SYS / # / OBS TYPES
C    8 C2I L2I D2I S2I C7I L7I D7I S7I                      SYS / # / OBS TYPES
R    8 C1C L1C D1C S1C C2C L2C D2C S2C                      SYS / # / OBS TYPES
E    8 C1C L1C D1C S1C C7Q L7Q D7Q S7Q                      SYS / # / OBS TYPES
DBHZ                                                        SIGNAL STRENGTH UNIT
     5.000                                                  INTERVAL
  2026     6    16    17    24    7.0020000     GPS         TIME OF FIRST OBS
  2026     6    16    17    24   22.0020000     GPS         TIME OF LAST OBS
  4 R13 -2 R20  2 R21  4 R22 -3                             GLONASS SLOT / FRQ
 C1C    0.000 C1P    0.000 C2C    0.000 C2P    0.000        GLONASS COD/PHS/BIS
    18        2423     2GPS                                 LEAPSECONDS
    27                                                      # OF SATELLITES
                                                            END OF HEADER
> 2026  6 16 17 24  7.0020000  0 17                           
G21  23088594.428   121331382.3691      -3383.640          24.000                                                                  
G15  22093012.207   116099557.7060       2444.037          28.000                                                                  
G20  21723497.080   114157727.9350        739.855          41.000    21723495.026    88954081.4830        577.117          33.000  
C19  25435804.790   132450910.3540      -3389.546          25.000                                                                  
C22  22149223.373   115336834.1300       -737.899          29.000                                                                  
R21  20589007.492   110175951.6810         52.240          36.000                                                                  
G05  21323185.266   112054094.6291      -1998.165          14.000                                                                  
G29  21294966.605   111905803.9311        614.352          23.000                                                                  
C31  22101489.416   115088254.5501         88.977          22.000                                                                  
C35  23793483.142   123898909.0550      -2383.652          34.000                                                                  
G23  24990372.516   131325293.4811       1889.586          18.000                                                                  
E08  25607274.811   134567140.9330        -22.319          36.000    25607277.279   103109892.4250        -17.284          36.000  
E23  26892508.307   141321088.0940       -699.007          29.000    26892509.635   108284992.2150       -535.879          28.000  
E07  26293998.560   138175894.6111       2088.712          20.000                                                                  
E13  24702594.450   129813003.5910       -913.769          28.000    24702608.253    99467166.8551       -700.010          25.000  
E21  26630116.482   139942205.9821      -2845.064          26.000    26629929.973   107227692.5361      -2161.858          10.000  
E32  26589314.232   139727788.8290      -1220.236          28.000                                                                  
> 2026  6 16 17 24 12.0020000  0 21                           
G21  23091813.852   121348299.9620      -3384.813          27.000                                                                  
G15  22090687.292   116087343.6490       2442.395          30.000                                                                  
G20  21722794.544   114154036.4360        736.594          41.000    21722792.795    88951204.9700        574.414          33.000  
C19  25439059.862   132467860.3681      -3390.017          26.000                                                                  
C22  22149933.160   115340530.3350       -741.019          29.000    22149832.017    89188194.8181       -438.858          15.000  
R21  20588959.513   110175696.0270         50.110          36.000                                                                  
R20  22042324.501   117870214.7780      -2471.184          30.000                                                                  
C31  22101403.251   115087806.0501         81.605          22.000                                                                  
C35  23795773.643   123910833.7770      -2386.273          35.000    23795952.622    95816440.5671      -1871.701          14.000  
E08  25607297.511   134567259.5860        -24.897          36.000    25607299.757   103109983.3470        -18.939          36.000  
E23  26893175.279   141324588.9550       -700.834          29.000    26893175.793   108287674.6590       -537.302          29.000  
E07  26292021.571   138165505.8331       2078.424          16.000                                                                  
E13  24703468.586   129817571.7110       -913.599          29.000    24703475.262    99470658.1421       -704.844          23.000  
E21  26632822.439   139956434.8580      -2845.735          27.000                                                                  
E32  26590478.237   139733896.5730      -1222.932          29.000                                                                  
C24                                                                  27449076.994   110526058.2831      -1848.541          13.000  
C21                                                                  24845215.096   100041385.7931       1654.055          11.000  
C14                                                                  27653767.481   111350261.9431       2131.848          12.000  
R22                                                                  23350676.818    96948053.7941       1625.094          23.000  
G05                                                                  21325132.484    87322851.7371      -1582.754          22.000  
R13                                                                  25424294.076   105594464.3491        119.852          22.000  
> 2026  6 16 17 24 17.0020000  0 22                           
G21  23095034.095   121365223.8340      -3386.178          26.000                                                                  
G15  22088364.580   116075140.8550       2439.621          28.000                                                                  
G20  21722095.097   114150360.8940        733.225          41.000    21722093.470    88948340.9150        572.002          33.000  
C19  25442315.297   132484809.7160      -3391.263          27.000                                                                  
C12  29010956.631   151067664.0611      -3682.803          10.000                                                                  
C22  22150647.733   115344236.0070       -743.497          29.000                                                                  
R21  20588913.340   110175451.0220         47.505          36.000                                                                  
R20  22044635.888   117882574.6010      -2472.355          30.000                                                                  
G26  26275338.158   138077833.5311       -128.195          22.000                                                                  
C31  22101316.867   115087356.5921         84.728          22.000                                                                  
C35  23798065.544   123922767.3590      -2387.828          34.000                                                                  
R13  25425026.167   135768221.1191        213.687          22.000    25424143.785   105593840.0881        119.852          23.000  
G18  24265458.752   127515845.8501       1878.221          16.000                                                                  
E08  25607322.271   134567390.9820        -27.275          36.000    25607324.635   103110084.0420        -21.125          36.000  
E23  26893843.254   141328102.1620       -702.753          28.000    26893843.494   108290364.6470       -539.594          28.000  
E13  24704334.948   129822142.6560       -914.497          28.000    24704348.805    99474175.4951       -702.551          22.000  
G13  25786548.284   135509225.5261      -3329.648          21.000                                                                  
E21  26635528.969   139970669.4800      -2847.502          25.000                                                                  
E32  26591640.014   139740016.7840      -1224.872          28.000                                                                  
C14                                                                  27651108.782   111339556.2261       2142.103          12.000  
R22                                                                  23348712.823    96939900.3101       1625.094          20.000  
G05                                                                  21327062.952    87330757.1781      -1575.616          22.000  
> 2026  6 16 17 24 22.0020000  0 20                           
G21  23098255.765   121382152.5031      -3392.590          25.000                                                                  
G15  22086044.488   116062951.8230       2436.558          29.000                                                                  
G20  21721399.200   114146703.9230        729.097          41.000    21721397.462    88945491.3550        568.583          34.000  
C19  25445575.320   132501773.1150      -3393.279          28.000                                                                  
C22  22151361.110   115347963.7930       -747.214          30.000                                                                  
R21  20588869.850   110175219.3730         44.604          36.000                                                                  
R20  22046949.390   117894946.4740      -2476.075          31.000                                                                  
G26  26275450.788   138078425.5121       -128.195          18.000                                                                  
C31  22101233.809   115086923.6501         93.468          20.000    20302117.697    81748214.8131        157.972          10.000  
C35  23800359.859   123934712.5450      -2391.030          35.000    23800411.362    95834393.4841      -1842.987          14.000  
R13  25425444.212   135770453.1381        288.969          24.000                                                                  
G23  24983849.008   131291011.8041       1877.053          18.000                                                                  
G18  24263970.904   127508027.4361       1845.359          23.000                                                                  
E08  25607350.227   134567537.7610        -31.140          36.000    25607352.565   103110196.4700        -23.573          36.000  
E23  26894514.207   141331630.5680       -707.908          29.000    26894515.561   108293068.1950       -542.265          29.000  
E13  24705205.826   129826718.8790       -916.323          29.000    24705217.593    99477673.3091       -704.128          23.000  
E21  26638239.836   139984913.3670      -2850.443          25.000                                                                  
E32  26592807.888   139746151.8940      -1229.033          28.000                                                                  
C12                                                                  29913883.333   120450812.3191      -2885.797          14.000  
G05                                                                  21328996.098    87338672.6791      -1595.421          22.000  
