     3.05           O: OBSERVATION      M: MIXED            RINEX VERSION / TYPE
PYRINEXCONV 0.1.2 ALDELTUNES            20260616 201502 UTC PGM / RUN BY / DATE
UNKN                                                        MARKER NAME
NONE                                                        MARKER TYPE
                                                            OBSERVER / AGENCY
                                                            REC # / TYPE / VERS
                                                            ANT # / TYPE
   112730.3572 -5325852.8643  3496028.7639                  APPROX POSITION XYZ
        0.0000        0.0000        0.0000                  ANTENNA: DELTA H/E/N
G    8 C1C L1C D1C S1C C2L L2L D2L S2L                      SYS / # / OBS TYPES
E    8 C1C L1C D1C S1C C7Q L7Q D7Q S7Q                      SYS / # / OBS TYPES
S    4 C1C L1C D1C S1C                                      SYS / # / OBS TYPES
C    4 C2I L2I D2I S2I                                      SYS / # / OBS TYPES
R    8 C1C L1C D1C S1C C2C L2C D2C S2C                      SYS / # / OBS TYPES
DBHZ                                                        SIGNAL STRENGTH UNIT
    10.000                                                  INTERVAL
  2026     6    16    20     8    2.0040000     GPS         TIME OF FIRST OBS
  2026     6    16    20    14   52.0050000     GPS         TIME OF LAST OBS
  9 R01  1 R07  5 R08  6 R09 -2 R16 -1 R21  4 R22 -3 R23  3 GLONASS SLOT / FRQ
    R255 -6                                                 GLONASS SLOT / FRQ
 C1C    0.000 C1P    0.000 C2C    0.000 C2P    0.000        GLONASS COD/PHS/BIS
    18        2423     2GPS                                 LEAPSECONDS
    35                                                      # OF SATELLITES
                                                            END OF HEADER
> 2026  6 16 20  8  2.0040000  0 31                           
G15  22418858.339   117811880.4360      -3118.060          38.000    22418855.07
→8    91801462.8520      -2428.975          30.000  
G18  21568220.196   113341768.2920       -423.057          35.000    21568212.92
→9    88318245.2580       -330.651          32.000  
E07  25157647.544   132204342.8910      -1687.440          47.000    25157650.71
→3   101299437.1870      -1292.890          43.000  
S33  40365087.264   212119964.3361       -603.076          28.000  
S35  39493384.876   207539138.6370       -601.428          32.000  
C22  26358913.528   137257801.3680      -3169.095          29.000  
C31  25263873.784   131555620.3681      -3679.626          23.000  
C21  23616744.637   122978571.0230      -1644.438          34.000  
C14  23372228.387   121705348.7800       -377.805          34.000  
C34  22972040.299   119621424.7340      -1344.337          29.000  
R21  24757104.173   132480264.5161      -4836.059          20.000    24757104.99
→4   103040209.0091      -3753.584          22.000  
R07  21680102.949   116055282.3170      -2989.862          34.000               
→                                                   
R23  21302671.703   113954957.3340       1652.713          35.000               
→                                                   
G05  26159861.059   137471019.3170      -3105.743          29.000               
→                                                   
G29  25076051.019   131775537.2140      -4149.951          32.000               
→                                                   
G20  25095413.617   131877288.4671      -3850.089          25.000               
→                                                   
G32  25861805.174   135904702.6051       2596.928          24.000               
→                                                   
G24  22896837.766   120323676.1910       1161.137          38.000    22896838.54
→0    93758726.0001        907.671          25.000  
C42  24496782.006   127561171.5100        673.886          31.000  
C38  25662228.614   133629957.9101       1741.035          17.000  
R22  20567253.556   109789389.0860      -1564.857          33.000    20567248.91
→1    85391751.7080      -1217.529          32.000  
E08  29006211.722   152428659.7530      -3362.194          28.000               
→                                                   
E13  27147900.280   142663178.1761      -2506.352          25.000    27147913.42
→8   109313392.1040      -1920.004          33.000  
G27  25266298.916   132775291.9130        817.785          26.000               
→                                                   
G10  24749929.439   130061762.8330       1250.638          28.000               
→                                                   
G23  22392063.106   117671105.1330        299.394          35.000    22392062.79
→1    91691753.0610        233.013          32.000  
E26  24611029.295   129331826.5630       -444.148          37.000    24611030.97
→0    99098419.4280       -339.834          41.000  
E33  26649832.537   140045792.3790       1533.544          34.000    26649829.06
→8   107307819.8890       1175.183          27.000  
E29                                                                  25404546.61
→8   102293583.9170        820.398          33.000  
R08                                                                  21360586.38
→0    88966143.1270        196.211          30.000  
R25                                                                  21039138.48
→2    87258838.4500       -315.105          35.000  
> 2026  6 16 20  8 12.0040000  0 28                           
G15  22424790.866   117843056.9740      -3118.081          38.000    22424788.51
→9    91825756.3030      -2430.008          30.000  
G18  21569028.715   113346018.8640       -426.610          35.000    21569021.60
→9    88321557.3710       -332.535          33.000  
E07  25160859.489   132221220.3550      -1688.044          48.000    25160862.44
→7   101312369.2600      -1293.516          43.000  
S35  39494526.002   207545136.0640       -598.474          32.000  
C22  26364996.358   137289471.5880      -3165.443          29.000  
C31  25270945.862   131592446.1501      -3683.178          23.000  
C21  23619902.860   122995013.1440      -1643.843          34.000  
C14  23372954.137   121709126.4530       -377.853          34.000  
C34  22974624.306   119634882.2200      -1347.071          30.000  
R21  24766123.360   132528528.4881      -4834.482          17.000    24766125.54
→6   103077752.8151      -3756.340          22.000  
R07  21685687.658   116085176.4240      -2990.244          33.000    21685675.36
→0    90288424.5901      -2322.788          23.000  
R23  21299586.322   113938449.5040       1649.100          35.000               
→                                                   
G05  26165769.299   137502063.7610      -3102.765          30.000               
→                                                   
G29  25083946.683   131817028.2370      -4147.778          32.000               
→                                                   
G32  25856857.602   135878702.9741       2596.934          24.000               
→                                                   
G24  22894630.899   120312078.5360       1158.043          38.000    22894633.17
→9    93749694.7151        901.906          26.000  
C42  24495488.607   127554436.0620        672.915          31.000  
C38  25658888.434   133612564.5961       1745.184          15.000  
R22  20570189.302   109805063.8270      -1570.066          33.000    20570184.54
→4    85403943.1590      -1220.640          32.000  
E08  29012606.383   152462274.7240      -3359.872          28.000               
→                                                   
E13  27152665.855   142688221.8481      -2499.579          23.000    27152681.17
→3   109332588.8910      -1919.420          33.000  
G27  25264746.498   132767127.0780        815.213          26.000               
→                                                   
G10  24747546.179   130049249.4150       1252.226          29.000               
→                                                   
G23  22391492.901   117668101.7120        301.243          35.000    22391491.61
→1    91689412.7120        234.240          32.000  
E26  24611873.660   129336267.0370       -443.849          36.000    24611875.82
→0    99101821.8890       -340.102          41.000  
E33  26646913.956   140030449.6620       1535.503          34.000    26646909.81
→9   107296063.8140       1176.520          27.000  
E29                                                                  25402509.92
→8   102285384.8030        819.551          32.000  
R08                                                                  21360114.63
→3    88964183.6470        194.078          30.000  
> 2026  6 16 20  8 22.0040000  0 30                           
G15  22430726.110   117874245.7560      -3120.173          39.000    22430723.66
→4    91850059.2630      -2431.598          31.000  
S31  39664022.220   208435843.5811       -605.176          28.000  
G18  21569843.739   113350302.7330       -430.780          35.000    21569836.38
→0    88324895.4010       -335.627          32.000  
E07  25164074.069   132238112.8030      -1690.792          48.000    25164076.80
→6   101325312.8260      -1295.499          43.000  
S35  39495663.289   207551112.5240       -597.430          32.000  
C22  26371074.649   137321117.4290      -3164.733          30.000  
C31  25278014.745   131629255.5651      -3682.549          21.000  
C21  23623060.428   123011455.7500      -1645.726          32.000  
C14  23373680.944   121712910.8450       -379.745          33.000  
C34  22977214.860   119648371.2760      -1351.585          31.000  
R21  24775143.871   132576798.9111      -4858.579          12.000    24775150.59
→0   103115316.3421      -3756.655          22.000  
R07  21691272.816   116115077.4130      -2991.397          32.000    21691260.48
→9    90311678.8031      -2323.319          24.000  
R23  21296508.531   113921985.3290       1643.517          35.000               
→                                                   
G05  26171674.294   137533088.8690      -3102.902          31.000               
→                                                   
G29  25091839.303   131858503.1570      -4147.424          32.000               
→                                                   
G20  25110062.225   131954267.5711      -3846.875          27.000               
→                                                   
G32  25851917.564   135852742.7601       2596.010          26.000               
→                                                   
G24  22892430.594   120300517.2290       1153.397          38.000    22892437.06
→9    93740696.9320        899.008          26.000  
C42  24494195.811   127547706.8190        670.473          30.000  
R22  20573136.268   109820797.9710      -1576.807          33.000    20573132.27
→7    85416180.8030      -1226.351          32.000  
E08  29018997.514   152495866.2360      -3359.458          27.000               
→                                                   
E13  27157432.458   142713270.6351      -2502.654          20.000    27157449.32
→4   109351787.1510      -1920.939          34.000  
G27  25263201.241   132758998.5540        810.399          27.000               
→                                                   
S33  39767767.277   208981026.7941       -683.250          27.000  
G10  24745162.729   130036719.6260       1252.521          29.000               
→                                                   
G23  22390921.691   117665091.0070        300.707          36.000    22390918.83
→5    91687066.7630        233.506          32.000  
E26  24612720.180   129340714.2240       -445.990          36.000    24612722.09
→4    99105229.4740       -341.577          41.000  
E33  26643992.456   140015092.5600       1535.878          35.000    26643988.99
→3   107284296.7060       1176.909          28.000  
E29                                                                  25400475.97
→3   102277196.4970        817.937          31.000  
R08                                                                  21359650.30
→6    88962249.5520        191.763          30.000  
> 2026  6 16 20  8 32.0050000  0 30                           
G15  22436666.436   117905460.8450      -3122.742          39.000    22436664.38
→4    91874382.6550      -2432.812          31.000  
S31  39665159.868   208441821.0040       -597.388          29.000  
G18  21570667.230   113354631.2060       -435.201          35.000    21570659.69
→2    88328268.2700       -339.864          32.000  
E07  25167293.939   132255032.7840      -1693.426          48.000    25167296.79
→4   101338277.4870      -1297.595          42.000  
S35  39496797.857   207557077.5320       -595.711          32.000  
C22  26377150.231   137352752.5790      -3162.976          30.000  
C31  25285085.998   131666077.3421      -3674.307          20.000  
C21  23626220.241   123027911.1690      -1646.559          31.000  
C14  23374410.884   121716713.1550       -381.356          33.000  
C34  22979813.307   119661903.9350      -1355.387          31.000  
R07  21696861.768   116144998.8950      -2992.659          33.000    21696855.34
→2    90334972.3371      -2328.247          25.000  
R23  21293440.583   113905574.2900       1637.808          35.000               
→                                                   
G05  26177577.825   137564108.7350      -3101.137          31.000               
→                                                   
G29  25099732.684   131899977.0030      -4147.546          32.000               
→                                                   
G20  25117383.673   131992741.2690      -3847.505          27.000               
→                                                   
G32  25846979.901   135826795.8261       2595.229          27.000               
→                                                   
G24  22890239.458   120289001.9760       1148.907          38.000    22890244.03
→2    93731724.0750        894.789          27.000  
C42  24492906.365   127540993.8360        670.110          29.000  
C38  25652216.006   133577819.5541       1734.297          12.000  
R22  20576096.475   109836604.2500      -1583.770          33.000    20576093.12
→0    85428474.5490      -1232.246          32.000  
E08  29025390.239   152529457.4830      -3359.288          26.000               
→                                                   
E13  27162203.052   142738339.4991      -2508.887          20.000    27162220.23
→7   109370997.0320      -1920.819          34.000  
G27  25261665.124   132750916.5030        805.975          27.000               
→                                                   
G10  24742777.579   130024183.0180       1253.053          29.000               
→                                                   
G23  22390350.730   117662083.6510        300.439          37.000    22390346.62
→1    91684723.3190        233.716          32.000  
E26  24613570.252   129345179.5040       -447.676          36.000    24613571.82
→1    99108650.8980       -342.882          40.000  
E33  26641069.275   139999730.4890       1536.031          35.000    26641067.39
→3   107272525.7600       1177.119          28.000  
E29                                                                  25398446.81
→7   102269026.6080        815.092          31.000  
R21                                                                  24784178.59
→2   103152891.0021      -3756.893          23.000  
R08                                                                  21359193.42
→2    88960349.1200        188.936          30.000  
> 2026  6 16 20  8 42.0050000  0 30                           
G15  22442611.855   117936702.4010      -3125.970          39.000    22442609.85
→2    91898726.7490      -2436.084          31.000  
S31  40265882.277   211598638.9090       -595.721          28.000  
G18  21571500.229   113359010.0030       -440.640          35.000    21571492.54
→3    88331680.2970       -343.534          32.000  
E07  25170519.440   132271983.3640      -1696.817          48.000    25170522.26
→1   101351265.5910      -1300.202          42.000  
S35  39497932.098   207563038.8940       -596.133          32.000  
C22  26383223.726   137384377.3190      -3162.374          29.000  
C31  25292157.248   131702899.0871      -3684.694          17.000  
C21  23629382.500   123044382.5990      -1648.540          31.000  
C14  23375145.674   121720539.0190       -383.999          32.000  
C34  22982421.667   119675484.0190      -1360.156          31.000  
R07  21702455.259   116174941.7490      -2996.113          33.000    21702446.80
→1    90358252.8291      -2338.200          22.000  
R23  21290384.849   113889226.7500       1631.528          35.000               
→                                                   
G05  26183480.645   137595123.6820      -3102.274          32.000               
→                                                   
G29  25107624.857   131941447.7500      -4147.395          32.000               
→                                                   
G20  25124708.576   132031216.1430      -3847.782          28.000               
→                                                   
G32  25842038.316   135800837.1000       2593.226          26.000               
→                                                   
G24  22888058.481   120277541.7970       1143.384          37.000    22888064.77
→6    93722794.1300        890.192          28.000  
C42  24491620.886   127534304.9950        667.704          29.000  
R22  20579070.656   109852486.0680      -1592.808          32.000    20579069.08
→3    85440827.0160      -1238.495          32.000  
E08  29031781.237   152563048.1170      -3358.866          26.000               
→                                                   
E13  27166967.745   142763378.7741      -2513.697          20.000    27166994.00
→6   109390219.8500      -1923.259          34.000  
G27  25260134.503   132742889.1540        800.720          26.000               
→                                                   
S33  39770054.174   208993045.1671       -610.205          28.000  
G10  24740392.355   130011648.6580       1252.749          28.000               
→                                                   
G23  22389781.095   117659086.7300        298.969          37.000    22389776.72
→5    91682388.0730        232.300          31.000  
E26  24614424.554   129349668.5300       -450.361          36.000    24614425.86
→6    99112090.5570       -345.036          40.000  
E33  26638147.070   139984373.0370       1535.312          35.000    26638143.72
→3   107260758.3870       1176.734          28.000  
E29                                                                  25396423.95
→6   102260881.7150        813.278          31.000  
R21                                                                  24793212.43
→0   103190489.9331      -3749.297          23.000  
R08                                                                  21358746.60
→1    88958488.2320        183.932          29.000  
> 2026  6 16 20  8 52.0050000  0 26                           
G15  22448562.405   117967972.6500      -3128.393          38.000    22448561.22
→0    91923093.2000      -2438.319          31.000  
G18  21572343.341   113363438.8990       -445.434          32.000    21572335.76
→1    88335131.3720       -346.824          33.000  
E07  25173751.118   132288965.5560      -1699.503          48.000    25173753.63
→4   101364277.8900      -1302.179          42.000  
S35  39499066.507   207568995.3900       -594.977          32.000  
C22  26389295.534   137415994.1290      -3160.859          28.000  
C31  25299225.572   131739706.4781      -3674.482          21.000  
C21  23632548.466   123060870.9280      -1649.403          30.000  
C14  23375884.533   121724388.1390       -385.878          33.000  
C34  22985037.867   119689112.1630      -1364.604          28.000  
R07  21708052.641   116204907.9810      -2997.886          30.000    21708043.55
→6    90381555.1881      -2325.050          20.000  
R23  21287340.011   113872940.1210       1624.961          33.000               
→                                                   
G05  26189382.302   137626136.2070      -3101.263          32.000               
→                                                   
G29  25115517.227   131982918.9780      -4148.685          31.000               
→                                                   
G20  25132032.956   132069695.1910      -3847.864          28.000               
→                                                   
G32  25837104.957   135774902.0370       2593.087          26.000               
→                                                   
G24  22885887.650   120266134.9380       1138.246          37.000    22885892.96
→1    93713905.6480        886.821          28.000  
C42  24490340.574   127527638.8590        665.926          32.000  
R22  20582059.521   109868444.1600      -1598.771          32.000    20582059.85
→4    85453238.8820      -1243.759          30.000  
E08  29038174.630   152596640.9650      -3359.288          27.000               
→                                                   
G27  25258614.188   132734915.0840        795.258          27.000               
→                                                   
G23  22389213.155   117656099.2540        298.456          36.000    22389208.07
→4    91680060.1950        232.208          32.000  
E26  24615283.426   129354181.0910       -452.113          37.000    24615284.51
→0    99115548.2750       -346.439          40.000  
E33  26635224.029   139969018.1140       1535.104          35.000    26635221.76
→1   107248993.0040       1176.680          28.000  
E29                                                                  25394406.79
→5   102252760.6300        810.926          32.000  
E13                                                                  27171771.25
→7   109409456.8870      -1924.457          34.000  
R08                                                                  21358309.65
→8    88956665.8510        180.430          28.000  
> 2026  6 16 20  9  2.0050000  0 29                           
G15  22454518.424   117999273.1220      -3131.146          38.000    22454518.11
→2    91947483.0790      -2439.252          31.000  
G18  21573196.464   113367919.7020       -450.211          34.000    21573188.95
→8    88338622.9330       -350.680          32.000  
E07  25176988.807   132305980.9290      -1702.911          48.000    25176991.66
→6   101377315.6630      -1305.113          42.000  
S35  39500199.889   207574948.3980       -594.569          32.000  
C22  26395365.601   137447594.5780      -3160.504          28.000  
C31  25306292.038   131776502.7671      -3683.396          24.000  
C21  23635717.137   123077377.7490      -1650.685          30.000  
C14  23376628.403   121728262.0930       -388.395          30.000  
C34  22987664.005   119702800.1600      -1370.071          28.000  
R07  21713654.914   116234899.3330      -3000.315          34.000    21713647.83
→4    90404888.2191      -2342.749          20.000  
R23  21284306.923   113856716.4200       1619.247          34.000               
→                                                   
G05  26195283.061   137657147.7080      -3100.235          32.000               
→                                                   
G29  25123410.188   132024391.8510      -4146.837          31.000               
→                                                   
G20  25139352.815   132108180.0010      -3847.455          26.000               
→                                                   
G32  25832166.394   135748986.5840       2590.525          26.000               
→                                                   
G24  22883727.059   120254783.2090       1132.548          34.000    22883730.55
→3    93705060.1740        882.219          28.000  
C42  24489065.219   127520997.3420        662.334          30.000  
C38  25642260.565   133525983.0840       1724.877          27.000  
R22  20585062.546   109884480.5710      -1607.243          34.000    20585064.77
→5    85465711.6040      -1249.650          31.000  
E08  29044566.037   152630237.4320      -3359.067          27.000               
→                                                   
G27  25257105.623   132726995.9510        788.696          27.000               
→                                                   
G10  24735619.363   129986576.4230       1253.795          25.000               
→                                                   
G23  22388646.815   117653122.9860        297.412          37.000    22388642.08
→8    91677740.9840        232.269          31.000  
E26  24616146.852   129358718.9410       -454.758          36.000    24616148.09
→4    99119025.2990       -348.556          40.000  
E33  26632302.373   139953667.3850       1535.217          35.000    26632300.86
→9   107237230.7320       1176.483          29.000  
E29                                                                  25392395.87
→8   102244664.5570        807.979          30.000  
E13                                                                  27176552.75
→6   109428709.4560      -1926.075          34.000  
R21                                                                  24811275.78
→2   103265670.4891      -3757.850          21.000  
R08                                                                  21357880.93
→6    88954883.4360        176.621          28.000  
> 2026  6 16 20  9 12.0050000  0 29                           
G15  22460477.372   118030586.5510      -3132.116          37.000    22460476.84
→3    91971883.1660      -2440.131          31.000  
G18  21574055.009   113372435.1750       -452.778          32.000    21574048.58
→0    88342141.5090       -353.744          34.000  
E07  25180229.563   132323012.2500      -1704.091          48.000    25180232.84
→0   101390365.6040      -1305.591          42.000  
E29  25390388.647   133427388.3840       1054.324          27.000    25390388.59
→5   102236580.2830        807.275          29.000  
S35  39501328.626   207580880.3390       -592.590          31.000  
C22  26401431.539   137479181.5050      -3158.106          28.000  
C31  25313373.777   131813379.9111      -3685.768          25.000  
C21  23638887.943   123093886.0870      -1651.147          28.000  
C14  23377372.721   121732143.8940       -388.845          29.000  
C34  22990294.601   119716510.8550      -1372.265          30.000  
R07  21719258.942   116264897.8670      -3000.974          31.000    21719249.82
→7    90428211.9041      -2324.083          15.000  
R23  21281282.085   113840538.5050       1615.009          33.000               
→                                                   
G05  26201181.395   137688141.0590      -3097.883          33.000               
→                                                   
G29  25131299.419   132065849.3530      -4145.162          33.000               
→                                                   
G20  25146673.885   132146653.3690      -3846.889          26.000               
→                                                   
G24  22881573.542   120243469.4600       1129.696          34.000    22881577.32
→4    93696244.2180        879.989          30.000  
C42  24487789.700   127514362.9260        662.997          30.000  
C38  25638949.216   133508736.5370       1723.719          25.000  
R22  20588077.965   109900577.4040      -1612.884          35.000    20588079.84
→8    85478231.4270      -1255.220          31.000  
E08  29050955.734   152663820.4090      -3357.809          27.000               
→                                                   
G27  25255603.271   132719114.4000        786.078          25.000               
→                                                   
S33  39773448.723   209010883.3731       -589.258          28.000  
G10  24733223.187   129974029.2060       1255.253          27.000               
→                                                   
G23  22388079.127   117650140.6520        298.389          37.000    22388073.82
→2    91675417.1040        232.953          31.000  
E26  24617011.956   129363264.9100       -455.207          37.000    24617013.00
→9    99122508.5630       -348.916          41.000  
E33  26629379.066   139938303.6840       1536.899          36.000    26629378.12
→2   107225458.6140       1177.588          28.000  
E13                                                                  27181334.55
→0   109447964.3260      -1925.742          34.000  
R21                                                                  24820318.67
→2   103303307.6941      -3777.402          19.000  
R08                                                                  21357458.56
→0    88953127.0620        174.186          28.000  
> 2026  6 16 20  9 22.0050000  0 30                           
G15  22466441.499   118061926.9240      -3135.101          38.000    22466440.89
→5    91996304.2180      -2442.822          31.000  
G18  21574922.768   113376999.4700       -458.601          32.000    21574917.20
→7    88345698.0300       -357.048          33.000  
E07  25183476.228   132340073.4690      -1707.270          48.000    25183479.35
→0   101403438.5020      -1308.138          42.000  
E29  25388383.240   133416850.2490       1050.769          29.000    25388386.91
→2   102228518.5670        805.308          30.000  
S35  39502456.309   207586806.4640       -591.910          32.000  
C22  26407495.680   137510758.7710      -3156.341          29.000  
C31  25320457.139   131850263.9631      -3686.081          22.000  
C21  23642060.899   123110409.6220      -1653.239          28.000  
C14  23378121.881   121736047.2950       -391.220          29.000  
C34  22992935.229   119730268.0280      -1377.807          28.000  
R07  21724866.905   116294917.9660      -3003.116          31.000    21724857.71
→4    90451560.8851      -2339.836          20.000  
R23  21278268.136   113824420.3050       1609.800          33.000               
→                                                   
G05  26207079.009   137719130.3050      -3098.319          33.000               
→                                                   
G29  25139188.618   132107305.3000      -4145.352          32.000    25139190.76
→2   102940782.8841      -3230.112          25.000  
G20  25153996.047   132185129.1830      -3847.607          28.000               
→                                                   
G24  22879429.937   120232207.7660       1123.330          33.000    22879434.87
→7    93687468.8960        875.417          30.000  
C42  24486518.195   127507749.7760        660.386          28.000  
C38  25635643.313   133491521.4031       1720.482          25.000  
R22  20591107.640   109916749.1590      -1620.479          36.000    20591109.38
→4    85490809.3900      -1260.462          31.000  
E08  29057344.420   152697403.7270      -3357.996          28.000               
→                                                   
G27  25254113.358   132711261.2691        780.359          25.000               
→                                                   
S33  39774576.646   209016811.0001       -599.414          28.000  
G10  24730831.709   129961480.7410       1255.325          29.000               
→                                                   
G23  22387512.859   117647166.2760        297.485          36.000    22387508.49
→8    91673099.3790        232.812          30.000  
E26  24617880.925   129367833.0220       -457.893          37.000    24617882.06
→5    99126008.7820       -350.611          40.000  
E33  26626454.718   139922941.1610       1536.702          35.000    26626455.64
→2   107213687.3290       1177.283          29.000  
E13                                                                  27186119.68
→8   109467232.3030      -1927.396          34.000  
R21                                                                  24829362.02
→9   103340946.3971      -3753.670          21.000  
R08                                                                  21357045.19
→2    88951408.0520        169.893          27.000  
R25                                                                  21045469.99
→5    87285088.4430       -341.837          36.000  
> 2026  6 16 20  9 32.0050000  0 31                           
G15  22472408.808   118093284.8220      -3135.907          38.000    22472408.16
→5    92020738.9780      -2444.214          30.000  
G18  21575798.231   113381603.2490       -461.531          33.000    21575793.68
→7    88349285.3710       -359.867          34.000  
E07  25186726.766   132357155.2770      -1708.581          47.000    25186729.55
→5   101416527.1530      -1309.030          41.000  
E29  25386384.845   133406349.2740       1049.919          30.000    25386389.04
→1   102220472.4220        804.932          29.000  
S35  39503580.886   207592716.6860       -590.049          31.000  
C22  26413556.124   137542317.3320      -3154.114          29.000  
C31  25327536.989   131887139.9810      -3686.627          26.000  
C21  23645235.245   123126939.0700      -1652.450          28.000  
C14  23378874.229   121739963.1160       -391.459          32.000  
C34  22995582.871   119744062.4090      -1380.428          28.000  
R07  21730476.250   116324950.3770      -3003.956          32.000    21730463.34
→0    90474899.5521      -2338.492          21.000  
R23  21275264.334   113808352.8610       1605.040          34.000               
→                                                   
G05  26212974.032   137750106.4780      -3096.977          33.000               
→                                                   
G29  25147075.665   132148750.4360      -4143.232          33.000    25147078.16
→0   102973080.7011      -3225.970          23.000  
G20  25161316.897   132223598.0060      -3845.708          29.000               
→                                                   
G32  25817378.426   135671238.9011       2589.852          25.000               
→                                                   
G24  22877294.382   120220988.9800       1120.189          33.000    22877300.23
→2    93678727.0100        872.974          30.000  
C42  24485249.790   127501148.5570        660.278          29.000  
C38  25632339.578   133474319.7010       1720.306          26.000  
R22  20594149.848   109932986.2810      -1626.105          36.000    20594150.86
→8    85503438.2700      -1265.094          31.000  
E08  29063739.919   152730978.1420      -3356.455          29.000               
→                                                   
G27  25252634.112   132703475.7030        777.478          27.000               
→                                                   
S33  39775700.931   209022719.5640       -589.957          29.000  
G10  24728451.785   129948921.7220       1257.197          31.000               
→                                                   
G23  22386946.575   117644190.5730        298.328          36.000    22386943.18
→6    91670780.6820        232.582          29.000  
E26  24618752.265   129372413.9930       -457.887          37.000    24618753.49
→9    99129518.9030       -350.863          39.000  
E33  26623529.733   139907570.5000       1538.064          36.000    26623530.57
→2   107201909.8400       1178.322          29.000  
E13                                                                  27190906.40
→8   109486506.2150      -1927.256          33.000  
R21                                                                  24838398.41
→1   103378556.5241      -3767.529          21.000  
R08                                                                  21356638.74
→0    88949718.9270        168.162          29.000  
R25                                                                  21046297.24
→5    87288521.3450       -343.942          36.000  
> 2026  6 16 20  9 42.0050000  0 31                           
G15  22478376.695   118124645.3950      -3135.980          38.000    22478375.47
→5    92045175.7150      -2443.054          30.000  
S31  39073504.772   205332652.6951       -597.510          27.000  
G18  21576679.457   113386231.7340       -463.873          32.000    21576675.19
→3    88352891.9140       -360.929          33.000  
E07  25189978.412   132374242.7300      -1708.619          47.000    25189981.06
→0   101429620.1210      -1309.212          39.000  
E29  25384386.015   133395853.8240       1049.245          30.000    25384392.69
→5   102212430.4120        804.730          27.000  
S35  39504699.984   207598599.1640       -585.606          31.000  
C22  26419610.346   137573842.2750      -3151.029          28.000  
C31  25334615.195   131924000.5650      -3685.217          25.000  
C21  23648407.392   123143459.7530      -1651.377          26.000  
C14  23379626.763   121743876.5340       -391.171          31.000  
C34  22998236.078   119757879.3760      -1382.445          28.000  
R21  24847412.169   132963521.5441      -4837.255          21.000    24847437.39
→9   103416177.0731      -3766.106          19.000  
R07  21736086.579   116354979.2770      -3002.136          34.000    21736074.77
→8    90498262.8081      -2335.426          22.000  
R23  21272267.515   113792321.0480       1601.790          35.000               
→                                                   
G05  26218863.196   137781054.3860      -3092.603          32.000               
→                                                   
G29  25154957.393   132190169.6250      -4140.339          32.000    25154955.86
→7   103005338.8911      -3222.012          22.000  
G20  25168632.462   132262044.9450      -3843.071          28.000               
→                                                   
G32  25812451.583   135645348.5111       2592.940          24.000               
→                                                   
G24  22875164.343   120209798.3070       1117.809          33.000    22875171.37
→1    93670007.0140        870.702          30.000  
C42  24483980.880   127494544.5660        660.871          28.000  
C38  25629033.273   133457101.5151       1719.046          26.000  
R22  20597201.625   109949273.5960      -1631.069          37.000    20597201.88
→0    85516106.1630      -1268.033          30.000  
E08  29070122.794   152764528.6270      -3353.450          29.000               
→                                                   
G27  25251156.538   132695716.3510        775.311          27.000               
→                                                   
S33  39776821.478   209028607.0531       -570.020          29.000  
G10  24726057.830   129936337.3000       1260.896          31.000               
→                                                   
G23  22386377.434   117641198.6530        301.050          36.000    22386373.33
→2    91668449.2540        235.100          28.000  
E26  24619623.927   129376993.0510       -457.215          37.000    24619624.66
→3    99133027.5430       -350.302          38.000  
E33  26620600.578   139892176.8720       1540.817          35.000    26620601.61
→5   107190114.7470       1180.230          28.000  
E13                                                                  27195691.27
→0   109505774.6600      -1925.877          32.000  
R08                                                                  21356237.19
→0    88948047.9200        166.965          28.000  
> 2026  6 16 20  9 52.0050000  0 30                           
G15  22484344.760   118156005.2950      -3137.097          39.000    22484342.83
→8    92069612.0240      -2444.226          30.000  
S31  39074571.613   205338259.5811       -515.820          27.000  
G18  21577565.251   113390881.7230       -467.141          33.000    21577559.21
→0    88356515.3250       -364.391          33.000  
E07  25193230.377   132391332.6160      -1710.188          47.000    25193233.16
→5   101442714.9660      -1310.207          40.000  
E29  25382388.506   133385360.4810       1048.041          31.000    25382396.05
→0   102204390.0840        803.784          28.000  
S35  39505812.114   207604442.4010       -583.960          31.000  
C22  26425657.561   137605330.3850      -3148.359          27.000  
C31  25341693.042   131960847.0260      -3684.778          25.000  
C21  23651577.289   123159968.4460      -1650.915          25.000  
C14  23380378.059   121747784.3930       -391.022          33.000  
C34  23000893.641   119771715.6400      -1385.695          29.000  
R21  24856457.111   133011922.5911      -4831.975          21.000    24856474.74
→4   103453790.4531      -3757.719          19.000  
R07  21741696.552   116385001.6030      -3003.298          34.000    21741688.66
→7    90521636.5781      -2336.505          23.000  
R23  21269276.817   113776321.4650       1597.513          34.000               
→                                                   
G05  26224746.532   137811970.8050      -3091.694          32.000               
→                                                   
G29  25162833.800   132231559.5980      -4139.419          32.000    25162835.54
→4   103037604.6271      -3223.944          22.000  
G20  25175943.776   132300466.7620      -3842.379          28.000               
→                                                   
G24  22873039.331   120198632.6930       1114.292          33.000    22873046.94
→2    93661306.4990        869.019          30.000  
C42  24482711.177   127487934.5770        660.617          29.000  
C38  25625732.313   133439912.4511       1717.824          26.000  
R22  20600262.554   109965607.9580      -1637.034          38.000    20600261.51
→6    85528810.6660      -1273.240          29.000  
E08  29076503.118   152798052.0480      -3351.961          30.000               
→                                                   
G27  25249681.813   132687981.6390        770.953          28.000               
→                                                   
S33  39777927.982   209034421.7551       -495.801          28.000  
G10  24723658.526   129923724.3650       1261.372          31.000               
→                                                   
G23  22385804.657   117638187.4090        301.141          36.000    22385799.22
→5    91666102.8960        234.432          26.000  
E26  24620493.751   129381567.0470       -458.182          37.000    24620494.92
→9    99136532.2910       -351.050          39.000  
E33  26617665.497   139876757.1460       1542.618          35.000    26617667.52
→7   107178299.6520       1181.315          29.000  
E13                                                                  27200475.00
→1   109525035.2760      -1926.647          33.000  
R08                                                                  21355839.78
→7    88946392.4650        163.935          29.000  
> 2026  6 16 20 10 12.0050000  0 29                           
G15  22496295.627   118218803.8100      -3143.200          37.000    22496293.79
→0    92118545.9090      -2449.458          30.000  
G18  21579362.362   113400327.5450       -477.087          31.000    21579355.82
→4    88363875.7250       -371.711          33.000  
E07  25199751.679   132425600.4960      -1716.443          47.000    25199754.35
→9   101468972.1530      -1315.117          39.000  
E29  25378410.934   133364461.6790       1041.722          32.000    25378417.55
→8   102188372.7110        798.206          25.000  
S35  39508033.634   207616117.3900       -583.961          30.000  
C22  26437746.556   137668276.4580      -3145.961          27.000  
C31  25355853.955   132034584.4061      -3688.758          23.000  
C21  23657920.288   123192999.0611      -1652.485          24.000  
C14  23381892.505   121755663.6540       -395.892          34.000  
C34  23006235.878   119799526.5720      -1395.153          31.000  
R21  24874550.757   133108745.6641      -4839.583          26.000    24874548.19
→8   103529013.3691      -3785.402          16.000  
R01  24824599.855   132701712.4211       2484.664          16.000               
→                                                   
R07  21752925.297   116445108.5900      -3006.432          32.000    21752918.51
→1    90568402.9300      -2339.109          27.000  
R23  21263328.397   113744503.1690       1585.097          32.000               
→                                                   
G05  26236510.240   137873790.2120      -3090.425          31.000               
→                                                   
G29  25178585.375   132314332.5910      -4138.752          30.000    25178585.61
→1   103102098.5111      -3224.512          24.000  
G20  25190567.019   132377315.6470      -3843.127          30.000               
→                                                   
G24  22868820.584   120176458.0130       1102.948          33.000    22868827.27
→8    93644027.5390        859.984          31.000  
C42  24480183.453   127474777.0490        655.739          26.000  
C38  25619149.992   133405633.4630       1712.409          27.000  
R22  20606423.686   109998500.0370      -1652.469          37.000    20606423.35
→6    85554393.4750      -1285.368          29.000  
E08  29089263.062   152865098.3350      -3352.391          30.000               
→                                                   
E13  27210035.679   142989706.4520      -2518.374          27.000    27210051.96
→0   109563594.9040      -1930.077          32.000  
G27  25246770.458   132672667.2550        760.144          26.000               
→                                                   
G10  24718858.577   129898493.5690       1261.647          31.000               
→                                                   
G23  22384663.813   117632187.8470        299.213          36.000    22384652.38
→3    91661408.8991        230.389          24.000  
E26  24622246.719   129390781.0670       -463.292          37.000    24622248.60
→1    99143592.2960       -354.436          37.000  
E33  26611796.495   139845920.7410       1541.800          33.000    26611800.55
→5   107154671.7540       1181.421          28.000  
R08                                                                  21355072.88
→0    88943192.0490        156.815          30.000  
> 2026  6 16 20 10 22.0050000  0 31                           
G15  22502280.232   118250252.4840      -3147.514          38.000    22502278.09
→1    92143051.3040      -2451.920          30.000  
S33  39781272.624   209051998.6211       -575.516          28.000  
G18  21580275.641   113405133.9210       -484.718          28.000    21580270.74
→0    88367620.9180       -377.722          34.000  
E07  25203022.432   132442788.7640      -1721.980          47.000    25203025.10
→7   101482142.3960      -1319.242          40.000  
E29  25376431.528   133354066.5960       1036.714          32.000    25376439.75
→9   102180406.5531        794.929          25.000  
S35  39509143.970   207621952.8800       -584.382          32.000  
C22  26443789.753   137699744.7070      -3148.105          28.000  
C31  25362940.143   132071484.6261      -3692.391          26.000  
C21  23661101.660   123209565.0511      -1659.036          26.000  
C14  23382657.722   121759645.2260       -400.759          36.000  
C34  23008922.621   119813511.4400      -1401.334          32.000  
R21  24883608.093   133157174.4960      -4843.757          27.000    24883597.34
→9   103566676.7511      -3760.008          18.000  
R07  21758547.730   116475203.6420      -3012.257          32.000    21758549.66
→0    90591812.1530      -2342.086          30.000  
R23  21260373.017   113728695.0570       1575.697          32.000               
→                                                   
G05  26242392.708   137904703.6860      -3092.734          31.000               
→                                                   
G29  25186463.025   132355725.8330      -4141.485          31.000    25186467.11
→6   103134371.8781      -3222.249          22.000  
G20  25197880.714   132415752.9630      -3845.679          29.000               
→                                                   
G32  25792725.301   135541685.7501       2584.827          24.000               
→                                                   
G24  22866728.351   120165459.4930       1095.607          34.000    22866732.96
→3    93635457.3410        852.988          31.000  
C42  24478927.731   127468239.7410        651.097          27.000  
C38  25615866.286   133388536.3020       1706.567          27.000  
R22  20609526.828   110015068.2520      -1661.967          37.000    20609527.60
→1    85567279.8480      -1293.218          30.000  
E08  29095644.501   152898631.4450      -3354.761          31.000    29095661.25
→2   117156170.8461      -2571.699          12.000  
E13  27214833.722   143014903.7060      -2522.702          27.000    27214846.83
→7   109582901.8090      -1932.435          35.000  
G27  25245334.393   132665097.8470        752.362          27.000               
→                                                   
G10  24716459.144   129885886.1280       1259.402          28.000               
→                                                   
G23  22384097.123   117629209.9280        295.715          36.000    22384084.77
→6    91659084.3621        230.047          22.000  
E26  24623132.222   129395431.4710       -467.980          38.000    24623133.35
→7    99147155.6120       -358.449          38.000  
E33  26608864.883   139830514.4940       1538.887          34.000    26608869.52
→4   107142867.0340       1178.924          29.000  
R08                                                                  21354704.89
→6    88941655.2700        151.278          31.000  
R25                                                                  21050527.23
→7    87306061.4390       -361.269          36.000  
> 2026  6 16 20 10 32.0050000  0 31                           
G15  22508273.503   118281746.0690      -3150.467          38.000    22508270.19
→5    92167591.8020      -2455.766          30.000  
S33  39782381.456   209057825.1781       -582.764          29.000  
G18  21581202.248   113410007.9430       -489.260          29.000    21581198.33
→9    88371418.8390       -381.102          35.000  
E07  25206302.617   132460025.1830      -1724.589          47.000    25206304.81
→9   101495349.5190      -1321.322          40.000  
E29  25374462.774   133343719.8070       1033.676          33.000    25374470.73
→7   102172478.4861        792.427          24.000  
S35  39510256.206   207627800.9850       -583.942          31.000  
C22  26449834.867   137731221.5110      -3146.467          27.000  
C31  25370033.300   132108420.5911      -3692.130          26.000  
C21  23664290.583   123226170.3110      -1659.477          27.000  
C14  23383430.266   121763666.6130       -402.415          36.000  
C34  23011621.221   119827561.2370      -1407.717          32.000  
R21  24892663.953   133205620.8000      -4844.616          27.000    24892656.78
→9   103604382.2791      -3775.868          18.000  
R07  21764176.504   116505338.5190      -3014.230          32.000    21764179.05
→3    90615250.3780      -2343.601          31.000  
R23  21257432.350   113712966.8850       1570.404          32.000               
→                                                   
G05  26248278.119   137935631.8300      -3092.499          30.000               
→                                                   
G29  25194343.281   132397135.3490      -4139.837          31.000    25194342.54
→9   103166620.1271      -3221.208          22.000  
G20  25205198.193   132454210.7150      -3844.861          30.000               
→                                                   
G32  25787805.411   135515831.4261       2584.487          25.000               
→                                                   
G24  22864649.334   120154532.3250       1090.500          35.000    22864653.24
→9    93626942.6410        849.680          31.000  
C42  24477679.587   127461741.8630        649.488          27.000  
C38  25612592.108   133371486.4020       1704.288          28.000  
R22  20612648.059   110031730.0640      -1669.464          37.000    20612648.99
→5    85580238.9900      -1298.135          30.000  
E08  29102028.782   152932183.1710      -3354.703          31.000               
→                                                   
E13  27219635.386   143040136.5960      -2523.749          27.000    27219648.36
→3   109602236.0760      -1933.725          34.000  
G27  25243907.225   132657599.0770        747.235          28.000               
→                                                   
G10  24714062.730   129873295.9830       1259.489          28.000               
→                                                   
G23  22383535.600   117626258.5540        295.404          36.000    22383517.06
→3    91656759.9901        230.654          20.000  
E26  24624025.214   129400122.9030       -469.789          38.000    24624025.95
→2    99150750.3540       -359.720          38.000  
E33  26605937.147   139815128.3300       1538.315          34.000    26605941.40
→9   107131077.6050       1179.258          30.000  
R08                                                                  21354348.64
→2    88940170.3470        146.783          32.000  
R25                                                                  21051404.21
→6    87309698.4010       -364.628          36.000  
> 2026  6 16 20 10 42.0050000  0 30                           
G15  22514269.489   118313256.7550      -3151.847          38.000    22514267.09
→6    92192145.5400      -2455.736          30.000  
S33  39783486.701   209063632.7471       -586.035          28.000  
G18  21582137.498   113414921.9720       -493.186          32.000    21582133.55
→3    88375247.9440       -384.550          34.000  
E07  25209586.129   132477282.0270      -1726.903          47.000    25209588.55
→3   101508572.2870      -1323.009          39.000  
E29  25372499.657   133333393.4830       1031.573          34.000    25372505.25
→2   102164564.6341        792.308          25.000  
S35  39511365.511   207633626.8460       -582.116          31.000  
C22  26455876.016   137762679.4180      -3144.529          28.000  
C31  25377128.114   132145365.4911      -3692.667          24.000  
C21  23667483.793   123242794.5170      -1660.442          25.000  
C14  23384204.905   121767700.3160       -403.991          37.000  
C34  23014327.136   119841648.1920      -1410.632          33.000  
R21  24901716.067   133254072.4760      -4845.520          27.000    24901714.88
→7   103642082.6841      -3764.193          19.000  
R07  21769808.904   116535484.5320      -3015.141          33.000    21769811.27
→3    90638697.2730      -2344.250          31.000  
R23  21254500.996   113697290.3950       1564.671          32.000               
→                                                   
G05  26254160.654   137966546.8060      -3090.823          30.000               
→                                                   
G29  25202221.495   132438533.4090      -4139.337          29.000    25202220.57
→2   103198879.5221      -3225.434          25.000  
G20  25212513.931   132492661.2150      -3844.495          30.000               
→                                                   
G32  25782892.138   135490012.6081       2583.093          25.000               
→                                                   
G24  22862579.143   120143648.8960       1086.072          36.000    22862580.79
→6    93618462.0440        846.045          31.000  
C42  24476432.104   127455204.5171        648.003          24.000  
C38  25609320.980   133354456.3680       1701.949          29.000  
R22  20615782.110   110048457.4140      -1675.987          38.000    20615783.10
→8    85593249.1420      -1303.713          30.000  
E08  29108411.892   152965725.7590      -3353.856          31.000               
→                                                   
E13  27224443.334   143065377.3760      -2524.613          28.000    27224451.45
→8   109621576.3940      -1934.238          33.000  
G27  25242486.655   132650143.1790        743.408          28.000               
→                                                   
G10  24711664.243   129860695.4150       1260.222          26.000               
→                                                   
G23  22382973.912   117623306.0530        295.978          34.000    22382954.98
→3    91654458.2821        246.864          18.000  
E26  24624920.150   129404827.6900       -471.602          38.000    24624921.05
→2    99154355.3120       -360.956          38.000  
E33  26603007.215   139799734.5180       1539.498          33.000    26603012.52
→4   107119282.3650       1179.226          28.000  
R08                                                                  21353999.20
→0    88938715.1150        143.871          32.000  
> 2026  6 16 20 10 52.0050000  0 32                           
G15  22520271.506   118344795.9060      -3155.759          38.000    22520269.37
→1    92216721.4580      -2458.444          30.000  
S33  39784598.138   209069474.1180       -585.415          29.000  
G18  21583082.058   113419887.4360       -499.622          29.000    21583078.56
→2    88379117.1310       -389.899          35.000  
E07  25212876.655   132494570.6170      -1731.090          47.000    25212878.23
→2   101521819.3800      -1326.314          39.000  
E29  25370542.005   133323099.2270       1026.792          35.000    25370543.19
→1   102156664.0131        790.943          21.000  
S35  39512474.470   207639455.8550       -583.772          31.000  
C22  26461915.161   137794129.8580      -3145.657          28.000  
C31  25384226.131   132182326.3411      -3694.912          24.000  
C21  23670678.029   123259413.7330      -1663.472          28.000  
C14  23384984.215   121771757.6300       -407.569          37.000  
C34  23017041.419   119855783.8430      -1416.875          33.000  
R21  24910769.206   133302540.8990      -4848.291          27.000    24910770.12
→8   103679771.0611      -3766.812          18.000  
R07  21775445.519   116565653.4660      -3018.246          34.000    21775447.27
→4    90662162.0540      -2347.827          33.000  
R23  21251582.272   113681677.4700       1557.647          32.000               
→                                                   
G05  26260042.547   137997460.1290      -3092.159          30.000               
→                                                   
G29  25210108.576   132479972.3260      -4140.295          29.000    25210097.40
→0   103231134.5441      -3222.837          23.000  
G20  25219831.046   132531115.8090      -3847.082          31.000               
→                                                   
G32  25777976.205   135464178.5611       2581.718          25.000               
→                                                   
G24  22860519.902   120132820.7320       1079.117          38.000    22860519.13
→4    93610024.5320        841.527          31.000  
C42  24475197.494   127448775.5031        644.018          25.000  
C38  25606057.885   133337457.5590       1697.415          28.000  
R22  20618930.182   110065261.7650      -1684.828          38.000    20618931.08
→3    85606319.1530      -1310.235          30.000  
E08  29114795.637   152999270.4810      -3355.319          31.000               
→                                                   
E13  27229252.604   143090637.5090      -2527.716          29.000    27229258.29
→2   109640931.5320      -1936.764          34.000  
G27  25241083.446   132642742.0080        736.761          28.000               
→                                                   
S31  39081254.772   205373379.0101       -606.006          27.000  
G10  24709270.720   129848093.4051       1259.212          26.000               
→                                                   
G23  22382413.775   117620363.8980        293.146          34.000    22382392.56
→4    91652155.0891        224.367          16.000  
E26  24625820.034   129409557.2170       -474.932          39.000    24625820.90
→6    99157979.2900       -364.138          37.000  
E33  26600078.137   139784344.5260       1538.876          32.000    26600083.77
→7   107107490.0710       1178.472          28.000  
R08                                                                  21353659.66
→2    88937298.9370        139.749          32.000  
R25                                                                  21053175.18
→7    87317042.4520       -372.996          36.000  
> 2026  6 16 20 11  2.0050000  0 31                           
G15  22526281.628   118376377.7890      -3160.688          38.000    22526279.09
→5    92241330.7440      -2462.831          29.000  
S33  39785710.551   209075319.1661       -584.131          29.000  
G18  21584037.104   113424918.8990       -506.932          31.000    21584036.15
→9    88383037.6550       -395.086          35.000  
E07  25216175.274   132511905.3560      -1736.445          47.000    25216177.08
→4   101535101.8500      -1330.252          39.000  
E29  25368591.967   133312851.3090       1022.197          34.000    25368591.45
→6   102148804.9751        782.597          22.000  
S35  39513585.118   207645291.9770       -585.017          31.000  
C22  26467955.474   137825586.8580      -3146.549          28.000  
C31  25391324.755   132219290.4581      -3700.087          20.000  
C21  23673871.153   123276064.2540      -1667.337          29.000  
C14  23385770.468   121775852.8370       -412.403          38.000  
C34  23019768.037   119869982.3470      -1423.345          33.000  
R21  24919830.876   133351040.7850      -4852.106          27.000    24919815.85
→7   103717419.3481      -3773.013          17.000  
R07  21781088.857   116595859.9050      -3023.385          34.000    21781090.46
→9    90685655.9030      -2351.256          34.000  
R23  21248677.964   113666142.9510       1548.468          31.000               
→                                                   
G05  26265927.158   138028386.1450      -3093.742          31.000               
→                                                   
G29  25217982.459   132521384.2970      -4142.419          28.000    25217979.05
→9   103263408.3851      -3227.932          24.000  
G20  25227152.017   132569588.6670      -3848.151          32.000               
→                                                   
G32  25773064.580   135438367.7351       2577.560          26.000               
→                                                   
G24  22858473.305   120122062.2880       1071.890          39.000    22858470.86
→9    93601641.3850        834.884          31.000  
C42  24473968.119   127442373.4841        640.128          25.000  
C38  25602802.443   133320504.3850       1692.414          28.000  
R22  20622096.121   110082157.8350      -1694.696          38.000    20622096.23
→0    85619460.5600      -1318.294          30.000  
R09  25794236.096   137739781.6541       2035.695          12.000               
→                                                   
E08  29121183.088   153032831.7610      -3357.213          32.000               
→                                                   
E13  27234065.673   143115931.3310      -2531.914          29.000    27234071.80
→4   109660312.5160      -1939.946          34.000  
G27  25239690.373   132635409.6890        729.114          29.000               
→                                                   
G23  22381858.962   117617446.4480        289.563          33.000    22381843.20
→9    91649906.1461        234.902          18.000  
E26  24626727.789   129414326.0370       -479.367          39.000    24626728.50
→7    99161633.3070       -367.664          38.000  
E33  26597151.815   139768972.9210       1535.489          30.000    26597158.52
→3   107095711.8280       1176.641          28.000  
R08                                                                  21353332.68
→8    88935932.8530        133.836          33.000  
R25                                                                  21054081.82
→1    87320797.7910       -378.854          36.000  
> 2026  6 16 20 11 22.0050000  0 28                           
G15  22538321.334   118439646.4490      -3166.137          39.000    22538319.03
→8    92290631.0260      -2467.777          29.000  
G18  21585982.469   113435156.5860       -517.076          32.000    21585985.32
→5    88391015.1070       -402.856          36.000  
E07  25222794.362   132546690.0550      -1742.297          47.000    25222796.46
→6   101561755.0800      -1335.197          38.000  
E29  25364714.399   133292471.9410       1015.953          36.000    25364711.86
→9   102133183.4261        777.652          22.000  
S35  39515808.650   207656974.3950       -583.023          31.000  
C22  26480035.681   137888497.9980      -3144.627          26.000  
C31  25405545.234   132293340.0531      -3697.299          17.000  
C21  23680278.915   123309436.1940      -1670.197          28.000  
C14  23387360.290   121784133.7960       -416.299          38.000  
C34  23025252.525   119898545.3540      -1433.098          33.000  
R21  24937976.639   133448111.0900      -4855.273          29.000               
→                                                   
R07  21792393.146   116656361.6730      -3027.370          34.000    21792392.77
→4    90732712.8350      -2354.652          34.000  
R08  21352705.173   114342766.6051        160.674          25.000    21352709.91
→0    88933332.8670        126.009          33.000  
R23  21242907.377   113635285.6050       1536.746          32.000               
→                                                   
G05  26277699.838   138090253.2450      -3092.964          29.000               
→                                                   
G29  25233747.832   132604227.0010      -4142.371          26.000    25233746.66
→9   103327973.7081      -3224.378          24.000  
G20  25241799.057   132646566.3650      -3848.804          31.000               
→                                                   
G32  25763261.068   135386840.5640       2575.510          28.000               
→                                                   
G24  22854415.122   120100732.0970       1061.248          39.000    22854412.03
→8    93585020.5430        826.239          31.000  
C42  24471515.308   127429601.6931        637.466          23.000  
C38  25596313.582   133286712.4290       1685.627          30.000  
R22  20628473.805   110116201.6230      -1709.825          37.000    20628473.25
→6    85645939.0070      -1329.580          29.000  
E08  29133960.664   153099980.8270      -3357.219          31.000               
→                                                   
E13  27243707.697   143166597.2550      -2535.153          29.000    27243712.85
→9   109699134.3660      -1942.815          34.000  
G27  25236928.901   132620928.9840        718.677          28.000               
→                                                   
G23  22380758.805   117611681.6800        288.654          30.000    22380751.96
→6    91645437.6401        226.113          16.000  
E26  24628561.015   129423958.5990       -483.973          40.000    24628561.71
→3    99169014.1020       -370.954          37.000  
E33  26591300.845   139738261.7910       1535.194          28.000    26591314.20
→2   107072179.8800       1176.940          27.000  
> 2026  6 16 20 11 32.0050000  0 28                           
G15  22544348.172   118471318.5760      -3168.383          37.000    22544345.54
→2    92315310.5570      -2468.464          28.000  
G18  21586970.130   113440348.5910       -521.369          33.000    21586973.68
→8    88395060.8110       -406.390          37.000  
E07  25226112.278   132564125.4890      -1744.678          47.000    25226114.15
→6   101575114.6830      -1336.648          38.000  
E29  25362782.882   133282326.0530       1013.572          35.000    25362780.76
→2   102125407.3941        775.996          22.000  
S35  39516917.692   207662803.4150       -583.401          30.000  
C22  26486073.543   137919935.0011      -3142.217          26.000  
C31  25412663.369   132330406.0521      -3693.327          11.000  
C21  23683488.100   123326143.2630      -1671.517          26.000  
C14  23388160.986   121788305.2240       -418.048          38.000  
C34  23028007.898   119912895.3960      -1436.701          33.000  
R21  24947049.132   133496666.4610      -4856.686          29.000               
→                                                   
R07  21798050.623   116686641.7800      -3028.540          34.000    21798050.89
→9    90756264.0110      -2355.352          35.000  
R08  21352410.453   114341188.3031        158.147          25.000    21352411.63
→0    88932087.3960        122.799          33.000  
R23  21240040.361   113619948.7220       1530.961          33.000               
→                                                   
G05  26283584.520   138121180.0140      -3091.870          28.000               
→                                                   
G29  25241629.788   132645658.1330      -4141.211          25.000    25241627.75
→1   103360245.4911      -3226.943          24.000  
G20  25249123.745   132685056.5540      -3848.889          32.000               
→                                                   
G32  25758363.170   135361092.9260       2574.310          28.000               
→                                                   
G24  22852400.873   120090146.1000       1056.121          40.000    22852397.99
→5    93576771.7680        821.559          31.000  
C42  24470295.652   127423250.1431        633.137          24.000  
C38  25593077.724   133269859.4630       1684.330          30.000  
R22  20631684.041   110133334.6850      -1716.672          37.000    20631682.89
→8    85659264.7230      -1335.457          29.000  
E08  29140348.434   153133554.0110      -3356.846          31.000               
→                                                   
E13  27248532.598   143191954.8130      -2536.327          28.000    27248538.43
→2   109718564.1390      -1943.006          34.000  
G27  25235566.898   132613766.2280        713.696          28.000               
→                                                   
G23  22380210.531   117608801.0090        288.799          26.000    22380206.15
→4    91643202.3541        249.125          14.000  
E26  24629483.900   129428807.9590       -485.516          40.000    24629484.64
→6    99172729.8350       -372.042          38.000  
E33  26588378.711   139722907.9730       1535.879          29.000    26588392.37
→0   107060415.3460       1176.485          27.000  
> 2026  6 16 20 11 42.0050000  0 28                           
G15  22550378.556   118503008.4540      -3169.957          37.000    22550376.14
→5    92340003.9510      -2470.309          28.000  
G18  21587967.176   113445581.9720       -526.151          35.000    21587969.69
→8    88399138.7470       -409.382          37.000  
E07  25229434.363   132581582.1600      -1747.032          47.000    25229436.01
→2   101588490.5710      -1339.104          38.000  
E29  25360856.085   133272201.9620       1010.280          34.000    25360858.65
→5   102117667.9591        771.869          23.000  
S35  39518024.956   207668621.7000       -581.148          30.000  
C22  26492103.910   137951336.5691      -3141.881          25.000  
C31  25419768.663   132367405.2221      -3704.131          13.000  
C21  23686696.738   123342834.9100      -1671.933          27.000  
C14  23388964.109   121792489.8630       -419.842          38.000  
C34  23030770.094   119927283.7800      -1441.898          33.000  
R21  24956124.744   133545227.5170      -4857.056          29.000               
→                                                   
R07  21803709.930   116716933.8560      -3031.224          32.000    21803710.19
→7    90779824.4900      -2357.277          35.000  
R23  21237182.815   113604665.3730       1525.449          33.000               
→                                                   
G05  26289467.729   138152094.6890      -3089.438          30.000               
→                                                   
G20  25256446.533   132723540.0760      -3848.425          32.000               
→                                                   
G32  25753467.260   135335350.4490       2573.479          27.000               
→                                                   
G24  22850394.946   120079605.5020       1051.416          39.000    22850392.48
→6    93568558.2660        819.606          31.000  
C42  24469082.286   127416932.2231        632.854          25.000  
C38  25589845.590   133253027.8750       1682.362          29.000  
R22  20634906.810   110150534.3160      -1724.028          37.000    20634905.27
→0    85672642.2220      -1340.637          28.000  
E08  29146735.204   153167118.8280      -3355.510          31.000               
→                                                   
E13  27253357.682   143217321.4550      -2538.129          28.000    27253365.75
→9   109738000.9070      -1944.829          34.000  
G27  25234212.735   132606647.9390        709.052          28.000               
→                                                   
E26  24630410.058   129433672.0430       -487.418          40.000    24630410.52
→1    99176456.8620       -373.779          38.000  
E33  26585456.589   139707548.0010       1535.953          27.000    26585471.96
→9   107048674.9590       1177.456          26.000  
G29                                                                  25249506.60
→1   103392508.0741      -3223.805          24.000  
R08                                                                  21352120.09
→4    88930872.3860        119.056          33.000  
G23                                                                  22379653.20
→5    91640938.6671        235.673          17.000  
> 2026  6 16 20 11 52.0050000  0 31                           
G15  22556409.419   118534702.3190      -3168.939          37.000    22556407.01
→5    92364700.4490      -2469.322          28.000  
S33  39791233.353   209104342.0321       -595.654          28.000  
G18  21588970.266   113450843.1490       -526.698          35.000    21588970.97
→0    88403238.4230       -410.876          37.000  
E07  25232757.432   132599046.3880      -1746.036          46.000    25232759.83
→3   101601872.2370      -1337.644          38.000  
E29  25358930.468   133262086.0310       1012.078          34.000    25358934.10
→7   102109919.7860        776.038          27.000  
S35  39519126.665   207674412.1440       -576.492          30.000  
C22  26498135.626   137982745.0201      -3136.572          25.000  
C31  25426864.678   132404356.3861      -3697.444          17.000  
C21  23689906.601   123359541.7830      -1668.954          28.000  
C14  23389767.445   121796674.2070       -417.245          37.000  
C34  23033537.705   119941696.9760      -1442.052          33.000  
R21  24965198.451   133593780.4930      -4853.973          28.000    24965181.44
→7   103906233.3611      -3779.727          16.000  
R07  21809368.348   116747223.8600      -3027.404          31.000    21809369.19
→1    90803383.4030      -2354.878          35.000  
R08  21351833.996   114338101.3451        154.224          24.000    21351832.56
→7    88929677.1470        118.726          33.000  
R23  21234333.929   113589421.9650       1523.184          34.000               
→                                                   
G05  26295346.352   138182984.0080      -3086.802          31.000               
→                                                   
G20  25263765.726   132762003.3100      -3844.623          32.000               
→                                                   
G32  25748565.219   135309599.6620       2577.091          26.000               
→                                                   
G24  22848394.799   120069096.8320       1049.917          39.000    22848392.52
→7    93560369.7200        818.578          30.000  
C42  24467860.523   127410569.9641        631.188          24.000  
C38  25586615.314   133236204.3150       1683.238          28.000  
R22  20638138.984   110167786.6360      -1726.816          37.000    20638137.31
→5    85686060.6200      -1342.799          27.000  
E08  29153118.040   153200661.5850      -3352.268          32.000               
→                                                   
E13  27258183.872   143242683.3840      -2535.181          28.000    27258192.29
→8   109757434.0650      -1941.890          34.000  
G27  25232864.770   132599560.2620        708.160          27.000               
→                                                   
S31  39087948.962   205408557.4881       -576.953          27.000  
E26  24631335.991   129438537.2360       -485.585          40.000    24631335.72
→4    99180184.7310       -372.304          37.000  
E33  26582528.608   139692168.2350       1539.518          26.000    26582542.18
→4   107036890.3990       1181.083          25.000  
G29                                                                  25257380.62
→2   103424751.4181      -3222.028          23.000  
G23                                                                  22379104.50
→3    91638691.6161        219.203          17.000  
R25                                                                  21058747.85
→9    87340154.9360       -392.618          35.000  
> 2026  6 16 20 12  2.0050000  0 29                           
G15  22562441.343   118566396.0380      -3171.191          38.000    22562438.78
→4    92389396.8050      -2469.995          27.000  
S33  39792372.879   209110330.5651       -562.988          27.000  
G18  21589976.610   113456128.2330       -531.208          35.000    21589976.69
→8    88407356.6240       -414.021          37.000  
E07  25236081.320   132616514.1300      -1748.726          46.000    25236083.48
→1   101615256.6240      -1339.903          38.000  
E29  25357006.050   133251974.3600       1009.161          32.000    25357014.34
→6   102102171.8490        773.468          28.000  
S35  39520222.755   207680170.5660       -575.761          32.000  
C22  26504160.317   138014109.0780      -3134.774          27.000  
C21  23693113.174   123376237.5640      -1670.466          28.000  
C14  23390569.936   121800854.2620       -420.243          36.000  
C34  23036309.356   119956131.0190      -1446.210          33.000  
R21  24974270.194   133642321.0890      -4854.697          27.000               
→                                                   
R07  21815025.086   116777507.5510      -3029.865          29.000    21815026.48
→5    90826937.4320      -2356.270          34.000  
R08  21351546.881   114336563.4801        149.101          26.000    21351548.74
→4    88928498.2280        115.849          33.000  
R23  21231492.078   113574214.4730       1516.707          35.000               
→                                                   
G05  26301219.020   138213843.6810      -3084.779          31.000               
→                                                   
G29  25265256.166   132769816.6661      -4132.089          25.000    25265247.64
→6   103456964.6041      -3218.275          22.000  
G20  25271078.981   132800442.1310      -3843.451          31.000               
→                                                   
G32  25743659.979   135283845.3931       2575.422          23.000               
→                                                   
G24  22846400.202   120058616.1270       1045.001          39.000    22846397.99
→1    93552202.9450        814.211          31.000  
C42  24466640.664   127404217.7181        633.816          25.000  
C38  25583385.054   133219384.9080       1680.418          28.000  
R22  20641379.405   110185087.4590      -1734.078          36.000    20641376.24
→6    85699496.8171      -1348.460          26.000  
E08  29159496.147   153234178.2450      -3351.837          32.000               
→                                                   
E13  27263008.421   143268075.8871      -2537.264          26.000    27263016.60
→6   109776860.6350      -1943.862          34.000  
G27  25231521.841   132592541.9771        703.061          25.000               
→                                                   
E26  24632261.564   129443399.5840       -487.645          40.000    24632261.11
→2    99183910.4270       -373.737          36.000  
E33  26579606.219   139676766.7570       1539.659          26.000    26579611.74
→1   107025081.6031       1179.420          22.000  
G23                                                                  22378557.98
→9    91636453.3001        220.914          20.000  
R25                                                                  21059698.75
→5    87344096.6280       -396.288          35.000  
> 2026  6 16 20 12 12.0050000  0 28                           
G15  22568475.943   118598106.3320      -3172.587          37.000    22568472.92
→1    92414106.0990      -2471.744          27.000  
S33  39793435.323   209115913.3951       -574.658          27.000  
G18  21590990.497   113461454.0320       -535.231          36.000    21590990.41
→4    88411506.5980       -417.257          38.000  
E07  25239409.264   132634002.1600      -1750.441          46.000    25239411.41
→9   101628656.5250      -1341.118          38.000  
