     3.05           O: OBSERVATION      M: MIXED            RINEX VERSION / TYPE
PYRINEXCONV 0.1.2 ALDELTUNES            20260616 200957 UTC PGM / RUN BY / DATE
UNKN                                                        MARKER NAME
NONE                                                        MARKER TYPE
                                                            OBSERVER / AGENCY
                                                            REC # / TYPE / VERS
                                                            ANT # / TYPE
   112730.1118 -5325855.1845  3496029.2517                  APPROX POSITION XYZ
        0.0000        0.0000        0.0000                  ANTENNA: DELTA H/E/N
G    8 C1C L1C D1C S1C C2L L2L D2L S2L                      SYS / # / OBS TYPES
E    8 C1C L1C D1C S1C C7Q L7Q D7Q S7Q                      SYS / # / OBS TYPES
S    4 C1C L1C D1C S1C                                      SYS / # / OBS TYPES
C    4 C2I L2I D2I S2I                                      SYS / # / OBS TYPES
R    8 C1C L1C D1C S1C C2C L2C D2C S2C                      SYS / # / OBS TYPES
DBHZ                                                        SIGNAL STRENGTH UNIT
    10.000                                                  INTERVAL
  2026     6    16    20     8    2.0040000     GPS         TIME OF FIRST OBS
  2026     6    16    20     9   52.0050000     GPS         TIME OF LAST OBS
  6 R07  5 R08  6 R21  4 R22 -3 R23  3 R255 -6              GLONASS SLOT / FRQ
 C1C    0.000 C1P    0.000 C2C    0.000 C2P    0.000        GLONASS COD/PHS/BIS
    18        2423     2GPS                                 LEAPSECONDS
    32                                                      # OF SATELLITES
                                                            END OF HEADER
> 2026  6 16 20  8  2.0040000  0 31                           
G15  22418858.339   117811880.4360      -3118.060          38.000    22418855.078    91801462.8520      -2428.975          30.000  
G18  21568220.196   113341768.2920       -423.057          35.000    21568212.929    88318245.2580       -330.651          32.000  
E07  25157647.544   132204342.8910      -1687.440          47.000    25157650.713   101299437.1870      -1292.890          43.000  
S33  40365087.264   212119964.3361       -603.076          28.000  
S35  39493384.876   207539138.6370       -601.428          32.000  
C22  26358913.528   137257801.3680      -3169.095          29.000  
C31  25263873.784   131555620.3681      -3679.626          23.000  
C21  23616744.637   122978571.0230      -1644.438          34.000  
C14  23372228.387   121705348.7800       -377.805          34.000  
C34  22972040.299   119621424.7340      -1344.337          29.000  
R21  24757104.173   132480264.5161      -4836.059          20.000    24757104.994   103040209.0091      -3753.584          22.000  
R07  21680102.949   116055282.3170      -2989.862          34.000                                                                  
R23  21302671.703   113954957.3340       1652.713          35.000                                                                  
G05  26159861.059   137471019.3170      -3105.743          29.000                                                                  
G29  25076051.019   131775537.2140      -4149.951          32.000                                                                  
G20  25095413.617   131877288.4671      -3850.089          25.000                                                                  
G32  25861805.174   135904702.6051       2596.928          24.000                                                                  
G24  22896837.766   120323676.1910       1161.137          38.000    22896838.540    93758726.0001        907.671          25.000  
C42  24496782.006   127561171.5100        673.886          31.000  
C38  25662228.614   133629957.9101       1741.035          17.000  
R22  20567253.556   109789389.0860      -1564.857          33.000    20567248.911    85391751.7080      -1217.529          32.000  
E08  29006211.722   152428659.7530      -3362.194          28.000                                                                  
E13  27147900.280   142663178.1761      -2506.352          25.000    27147913.428   109313392.1040      -1920.004          33.000  
G27  25266298.916   132775291.9130        817.785          26.000                                                                  
G10  24749929.439   130061762.8330       1250.638          28.000                                                                  
G23  22392063.106   117671105.1330        299.394          35.000    22392062.791    91691753.0610        233.013          32.000  
E26  24611029.295   129331826.5630       -444.148          37.000    24611030.970    99098419.4280       -339.834          41.000  
E33  26649832.537   140045792.3790       1533.544          34.000    26649829.068   107307819.8890       1175.183          27.000  
E29                                                                  25404546.618   102293583.9170        820.398          33.000  
R08                                                                  21360586.380    88966143.1270        196.211          30.000  
R25                                                                  21039138.482    87258838.4500       -315.105          35.000  
> 2026  6 16 20  8 12.0040000  0 28                           
G15  22424790.866   117843056.9740      -3118.081          38.000    22424788.519    91825756.3030      -2430.008          30.000  
G18  21569028.715   113346018.8640       -426.610          35.000    21569021.609    88321557.3710       -332.535          33.000  
E07  25160859.489   132221220.3550      -1688.044          48.000    25160862.447   101312369.2600      -1293.516          43.000  
S35  39494526.002   207545136.0640       -598.474          32.000  
C22  26364996.358   137289471.5880      -3165.443          29.000  
C31  25270945.862   131592446.1501      -3683.178          23.000  
C21  23619902.860   122995013.1440      -1643.843          34.000  
C14  23372954.137   121709126.4530       -377.853          34.000  
C34  22974624.306   119634882.2200      -1347.071          30.000  
R21  24766123.360   132528528.4881      -4834.482          17.000    24766125.546   103077752.8151      -3756.340          22.000  
R07  21685687.658   116085176.4240      -2990.244          33.000    21685675.360    90288424.5901      -2322.788          23.000  
R23  21299586.322   113938449.5040       1649.100          35.000                                                                  
G05  26165769.299   137502063.7610      -3102.765          30.000                                                                  
G29  25083946.683   131817028.2370      -4147.778          32.000                                                                  
G32  25856857.602   135878702.9741       2596.934          24.000                                                                  
G24  22894630.899   120312078.5360       1158.043          38.000    22894633.179    93749694.7151        901.906          26.000  
C42  24495488.607   127554436.0620        672.915          31.000  
C38  25658888.434   133612564.5961       1745.184          15.000  
R22  20570189.302   109805063.8270      -1570.066          33.000    20570184.544    85403943.1590      -1220.640          32.000  
E08  29012606.383   152462274.7240      -3359.872          28.000                                                                  
E13  27152665.855   142688221.8481      -2499.579          23.000    27152681.173   109332588.8910      -1919.420          33.000  
G27  25264746.498   132767127.0780        815.213          26.000                                                                  
G10  24747546.179   130049249.4150       1252.226          29.000                                                                  
G23  22391492.901   117668101.7120        301.243          35.000    22391491.611    91689412.7120        234.240          32.000  
E26  24611873.660   129336267.0370       -443.849          36.000    24611875.820    99101821.8890       -340.102          41.000  
E33  26646913.956   140030449.6620       1535.503          34.000    26646909.819   107296063.8140       1176.520          27.000  
E29                                                                  25402509.928   102285384.8030        819.551          32.000  
R08                                                                  21360114.633    88964183.6470        194.078          30.000  
> 2026  6 16 20  8 22.0040000  0 30                           
G15  22430726.110   117874245.7560      -3120.173          39.000    22430723.664    91850059.2630      -2431.598          31.000  
S31  39664022.220   208435843.5811       -605.176          28.000  
G18  21569843.739   113350302.7330       -430.780          35.000    21569836.380    88324895.4010       -335.627          32.000  
E07  25164074.069   132238112.8030      -1690.792          48.000    25164076.806   101325312.8260      -1295.499          43.000  
S35  39495663.289   207551112.5240       -597.430          32.000  
C22  26371074.649   137321117.4290      -3164.733          30.000  
C31  25278014.745   131629255.5651      -3682.549          21.000  
C21  23623060.428   123011455.7500      -1645.726          32.000  
C14  23373680.944   121712910.8450       -379.745          33.000  
C34  22977214.860   119648371.2760      -1351.585          31.000  
R21  24775143.871   132576798.9111      -4858.579          12.000    24775150.590   103115316.3421      -3756.655          22.000  
R07  21691272.816   116115077.4130      -2991.397          32.000    21691260.489    90311678.8031      -2323.319          24.000  
R23  21296508.531   113921985.3290       1643.517          35.000                                                                  
G05  26171674.294   137533088.8690      -3102.902          31.000                                                                  
G29  25091839.303   131858503.1570      -4147.424          32.000                                                                  
G20  25110062.225   131954267.5711      -3846.875          27.000                                                                  
G32  25851917.564   135852742.7601       2596.010          26.000                                                                  
G24  22892430.594   120300517.2290       1153.397          38.000    22892437.069    93740696.9320        899.008          26.000  
C42  24494195.811   127547706.8190        670.473          30.000  
R22  20573136.268   109820797.9710      -1576.807          33.000    20573132.277    85416180.8030      -1226.351          32.000  
E08  29018997.514   152495866.2360      -3359.458          27.000                                                                  
E13  27157432.458   142713270.6351      -2502.654          20.000    27157449.324   109351787.1510      -1920.939          34.000  
G27  25263201.241   132758998.5540        810.399          27.000                                                                  
S33  39767767.277   208981026.7941       -683.250          27.000  
G10  24745162.729   130036719.6260       1252.521          29.000                                                                  
G23  22390921.691   117665091.0070        300.707          36.000    22390918.835    91687066.7630        233.506          32.000  
E26  24612720.180   129340714.2240       -445.990          36.000    24612722.094    99105229.4740       -341.577          41.000  
E33  26643992.456   140015092.5600       1535.878          35.000    26643988.993   107284296.7060       1176.909          28.000  
E29                                                                  25400475.973   102277196.4970        817.937          31.000  
R08                                                                  21359650.306    88962249.5520        191.763          30.000  
> 2026  6 16 20  8 32.0050000  0 30                           
G15  22436666.436   117905460.8450      -3122.742          39.000    22436664.384    91874382.6550      -2432.812          31.000  
S31  39665159.868   208441821.0040       -597.388          29.000  
G18  21570667.230   113354631.2060       -435.201          35.000    21570659.692    88328268.2700       -339.864          32.000  
E07  25167293.939   132255032.7840      -1693.426          48.000    25167296.794   101338277.4870      -1297.595          42.000  
S35  39496797.857   207557077.5320       -595.711          32.000  
C22  26377150.231   137352752.5790      -3162.976          30.000  
C31  25285085.998   131666077.3421      -3674.307          20.000  
C21  23626220.241   123027911.1690      -1646.559          31.000  
C14  23374410.884   121716713.1550       -381.356          33.000  
C34  22979813.307   119661903.9350      -1355.387          31.000  
R07  21696861.768   116144998.8950      -2992.659          33.000    21696855.342    90334972.3371      -2328.247          25.000  
R23  21293440.583   113905574.2900       1637.808          35.000                                                                  
G05  26177577.825   137564108.7350      -3101.137          31.000                                                                  
G29  25099732.684   131899977.0030      -4147.546          32.000                                                                  
G20  25117383.673   131992741.2690      -3847.505          27.000                                                                  
G32  25846979.901   135826795.8261       2595.229          27.000                                                                  
G24  22890239.458   120289001.9760       1148.907          38.000    22890244.032    93731724.0750        894.789          27.000  
C42  24492906.365   127540993.8360        670.110          29.000  
C38  25652216.006   133577819.5541       1734.297          12.000  
R22  20576096.475   109836604.2500      -1583.770          33.000    20576093.120    85428474.5490      -1232.246          32.000  
E08  29025390.239   152529457.4830      -3359.288          26.000                                                                  
E13  27162203.052   142738339.4991      -2508.887          20.000    27162220.237   109370997.0320      -1920.819          34.000  
G27  25261665.124   132750916.5030        805.975          27.000                                                                  
G10  24742777.579   130024183.0180       1253.053          29.000                                                                  
G23  22390350.730   117662083.6510        300.439          37.000    22390346.621    91684723.3190        233.716          32.000  
E26  24613570.252   129345179.5040       -447.676          36.000    24613571.821    99108650.8980       -342.882          40.000  
E33  26641069.275   139999730.4890       1536.031          35.000    26641067.393   107272525.7600       1177.119          28.000  
E29                                                                  25398446.817   102269026.6080        815.092          31.000  
R21                                                                  24784178.592   103152891.0021      -3756.893          23.000  
R08                                                                  21359193.422    88960349.1200        188.936          30.000  
> 2026  6 16 20  8 42.0050000  0 30                           
G15  22442611.855   117936702.4010      -3125.970          39.000    22442609.852    91898726.7490      -2436.084          31.000  
S31  40265882.277   211598638.9090       -595.721          28.000  
G18  21571500.229   113359010.0030       -440.640          35.000    21571492.543    88331680.2970       -343.534          32.000  
E07  25170519.440   132271983.3640      -1696.817          48.000    25170522.261   101351265.5910      -1300.202          42.000  
S35  39497932.098   207563038.8940       -596.133          32.000  
C22  26383223.726   137384377.3190      -3162.374          29.000  
C31  25292157.248   131702899.0871      -3684.694          17.000  
C21  23629382.500   123044382.5990      -1648.540          31.000  
C14  23375145.674   121720539.0190       -383.999          32.000  
C34  22982421.667   119675484.0190      -1360.156          31.000  
R07  21702455.259   116174941.7490      -2996.113          33.000    21702446.801    90358252.8291      -2338.200          22.000  
R23  21290384.849   113889226.7500       1631.528          35.000                                                                  
G05  26183480.645   137595123.6820      -3102.274          32.000                                                                  
G29  25107624.857   131941447.7500      -4147.395          32.000                                                                  
G20  25124708.576   132031216.1430      -3847.782          28.000                                                                  
G32  25842038.316   135800837.1000       2593.226          26.000                                                                  
G24  22888058.481   120277541.7970       1143.384          37.000    22888064.776    93722794.1300        890.192          28.000  
C42  24491620.886   127534304.9950        667.704          29.000  
R22  20579070.656   109852486.0680      -1592.808          32.000    20579069.083    85440827.0160      -1238.495          32.000  
E08  29031781.237   152563048.1170      -3358.866          26.000                                                                  
E13  27166967.745   142763378.7741      -2513.697          20.000    27166994.006   109390219.8500      -1923.259          34.000  
G27  25260134.503   132742889.1540        800.720          26.000                                                                  
S33  39770054.174   208993045.1671       -610.205          28.000  
G10  24740392.355   130011648.6580       1252.749          28.000                                                                  
G23  22389781.095   117659086.7300        298.969          37.000    22389776.725    91682388.0730        232.300          31.000  
E26  24614424.554   129349668.5300       -450.361          36.000    24614425.866    99112090.5570       -345.036          40.000  
E33  26638147.070   139984373.0370       1535.312          35.000    26638143.723   107260758.3870       1176.734          28.000  
E29                                                                  25396423.956   102260881.7150        813.278          31.000  
R21                                                                  24793212.430   103190489.9331      -3749.297          23.000  
R08                                                                  21358746.601    88958488.2320        183.932          29.000  
> 2026  6 16 20  8 52.0050000  0 26                           
G15  22448562.405   117967972.6500      -3128.393          38.000    22448561.220    91923093.2000      -2438.319          31.000  
G18  21572343.341   113363438.8990       -445.434          32.000    21572335.761    88335131.3720       -346.824          33.000  
E07  25173751.118   132288965.5560      -1699.503          48.000    25173753.634   101364277.8900      -1302.179          42.000  
S35  39499066.507   207568995.3900       -594.977          32.000  
C22  26389295.534   137415994.1290      -3160.859          28.000  
C31  25299225.572   131739706.4781      -3674.482          21.000  
C21  23632548.466   123060870.9280      -1649.403          30.000  
C14  23375884.533   121724388.1390       -385.878          33.000  
C34  22985037.867   119689112.1630      -1364.604          28.000  
R07  21708052.641   116204907.9810      -2997.886          30.000    21708043.556    90381555.1881      -2325.050          20.000  
R23  21287340.011   113872940.1210       1624.961          33.000                                                                  
G05  26189382.302   137626136.2070      -3101.263          32.000                                                                  
G29  25115517.227   131982918.9780      -4148.685          31.000                                                                  
G20  25132032.956   132069695.1910      -3847.864          28.000                                                                  
G32  25837104.957   135774902.0370       2593.087          26.000                                                                  
G24  22885887.650   120266134.9380       1138.246          37.000    22885892.961    93713905.6480        886.821          28.000  
C42  24490340.574   127527638.8590        665.926          32.000  
R22  20582059.521   109868444.1600      -1598.771          32.000    20582059.854    85453238.8820      -1243.759          30.000  
E08  29038174.630   152596640.9650      -3359.288          27.000                                                                  
G27  25258614.188   132734915.0840        795.258          27.000                                                                  
G23  22389213.155   117656099.2540        298.456          36.000    22389208.074    91680060.1950        232.208          32.000  
E26  24615283.426   129354181.0910       -452.113          37.000    24615284.510    99115548.2750       -346.439          40.000  
E33  26635224.029   139969018.1140       1535.104          35.000    26635221.761   107248993.0040       1176.680          28.000  
E29                                                                  25394406.795   102252760.6300        810.926          32.000  
E13                                                                  27171771.257   109409456.8870      -1924.457          34.000  
R08                                                                  21358309.658    88956665.8510        180.430          28.000  
> 2026  6 16 20  9  2.0050000  0 29                           
G15  22454518.424   117999273.1220      -3131.146          38.000    22454518.112    91947483.0790      -2439.252          31.000  
G18  21573196.464   113367919.7020       -450.211          34.000    21573188.958    88338622.9330       -350.680          32.000  
E07  25176988.807   132305980.9290      -1702.911          48.000    25176991.666   101377315.6630      -1305.113          42.000  
S35  39500199.889   207574948.3980       -594.569          32.000  
C22  26395365.601   137447594.5780      -3160.504          28.000  
C31  25306292.038   131776502.7671      -3683.396          24.000  
C21  23635717.137   123077377.7490      -1650.685          30.000  
C14  23376628.403   121728262.0930       -388.395          30.000  
C34  22987664.005   119702800.1600      -1370.071          28.000  
R07  21713654.914   116234899.3330      -3000.315          34.000    21713647.834    90404888.2191      -2342.749          20.000  
R23  21284306.923   113856716.4200       1619.247          34.000                                                                  
G05  26195283.061   137657147.7080      -3100.235          32.000                                                                  
G29  25123410.188   132024391.8510      -4146.837          31.000                                                                  
G20  25139352.815   132108180.0010      -3847.455          26.000                                                                  
G32  25832166.394   135748986.5840       2590.525          26.000                                                                  
G24  22883727.059   120254783.2090       1132.548          34.000    22883730.553    93705060.1740        882.219          28.000  
C42  24489065.219   127520997.3420        662.334          30.000  
C38  25642260.565   133525983.0840       1724.877          27.000  
R22  20585062.546   109884480.5710      -1607.243          34.000    20585064.775    85465711.6040      -1249.650          31.000  
E08  29044566.037   152630237.4320      -3359.067          27.000                                                                  
G27  25257105.623   132726995.9510        788.696          27.000                                                                  
G10  24735619.363   129986576.4230       1253.795          25.000                                                                  
G23  22388646.815   117653122.9860        297.412          37.000    22388642.088    91677740.9840        232.269          31.000  
E26  24616146.852   129358718.9410       -454.758          36.000    24616148.094    99119025.2990       -348.556          40.000  
E33  26632302.373   139953667.3850       1535.217          35.000    26632300.869   107237230.7320       1176.483          29.000  
E29                                                                  25392395.878   102244664.5570        807.979          30.000  
E13                                                                  27176552.756   109428709.4560      -1926.075          34.000  
R21                                                                  24811275.782   103265670.4891      -3757.850          21.000  
R08                                                                  21357880.936    88954883.4360        176.621          28.000  
> 2026  6 16 20  9 12.0050000  0 29                           
G15  22460477.372   118030586.5510      -3132.116          37.000    22460476.843    91971883.1660      -2440.131          31.000  
G18  21574055.009   113372435.1750       -452.778          32.000    21574048.580    88342141.5090       -353.744          34.000  
E07  25180229.563   132323012.2500      -1704.091          48.000    25180232.840   101390365.6040      -1305.591          42.000  
E29  25390388.647   133427388.3840       1054.324          27.000    25390388.595   102236580.2830        807.275          29.000  
S35  39501328.626   207580880.3390       -592.590          31.000  
C22  26401431.539   137479181.5050      -3158.106          28.000  
C31  25313373.777   131813379.9111      -3685.768          25.000  
C21  23638887.943   123093886.0870      -1651.147          28.000  
C14  23377372.721   121732143.8940       -388.845          29.000  
C34  22990294.601   119716510.8550      -1372.265          30.000  
R07  21719258.942   116264897.8670      -3000.974          31.000    21719249.827    90428211.9041      -2324.083          15.000  
R23  21281282.085   113840538.5050       1615.009          33.000                                                                  
G05  26201181.395   137688141.0590      -3097.883          33.000                                                                  
G29  25131299.419   132065849.3530      -4145.162          33.000                                                                  
G20  25146673.885   132146653.3690      -3846.889          26.000                                                                  
G24  22881573.542   120243469.4600       1129.696          34.000    22881577.324    93696244.2180        879.989          30.000  
C42  24487789.700   127514362.9260        662.997          30.000  
C38  25638949.216   133508736.5370       1723.719          25.000  
R22  20588077.965   109900577.4040      -1612.884          35.000    20588079.848    85478231.4270      -1255.220          31.000  
E08  29050955.734   152663820.4090      -3357.809          27.000                                                                  
G27  25255603.271   132719114.4000        786.078          25.000                                                                  
S33  39773448.723   209010883.3731       -589.258          28.000  
G10  24733223.187   129974029.2060       1255.253          27.000                                                                  
G23  22388079.127   117650140.6520        298.389          37.000    22388073.822    91675417.1040        232.953          31.000  
E26  24617011.956   129363264.9100       -455.207          37.000    24617013.009    99122508.5630       -348.916          41.000  
E33  26629379.066   139938303.6840       1536.899          36.000    26629378.122   107225458.6140       1177.588          28.000  
E13                                                                  27181334.550   109447964.3260      -1925.742          34.000  
R21                                                                  24820318.672   103303307.6941      -3777.402          19.000  
R08                                                                  21357458.560    88953127.0620        174.186          28.000  
> 2026  6 16 20  9 22.0050000  0 30                           
G15  22466441.499   118061926.9240      -3135.101          38.000    22466440.895    91996304.2180      -2442.822          31.000  
G18  21574922.768   113376999.4700       -458.601          32.000    21574917.207    88345698.0300       -357.048          33.000  
E07  25183476.228   132340073.4690      -1707.270          48.000    25183479.350   101403438.5020      -1308.138          42.000  
E29  25388383.240   133416850.2490       1050.769          29.000    25388386.912   102228518.5670        805.308          30.000  
S35  39502456.309   207586806.4640       -591.910          32.000  
C22  26407495.680   137510758.7710      -3156.341          29.000  
C31  25320457.139   131850263.9631      -3686.081          22.000  
C21  23642060.899   123110409.6220      -1653.239          28.000  
C14  23378121.881   121736047.2950       -391.220          29.000  
C34  22992935.229   119730268.0280      -1377.807          28.000  
R07  21724866.905   116294917.9660      -3003.116          31.000    21724857.714    90451560.8851      -2339.836          20.000  
R23  21278268.136   113824420.3050       1609.800          33.000                                                                  
G05  26207079.009   137719130.3050      -3098.319          33.000                                                                  
G29  25139188.618   132107305.3000      -4145.352          32.000    25139190.762   102940782.8841      -3230.112          25.000  
G20  25153996.047   132185129.1830      -3847.607          28.000                                                                  
G24  22879429.937   120232207.7660       1123.330          33.000    22879434.877    93687468.8960        875.417          30.000  
C42  24486518.195   127507749.7760        660.386          28.000  
C38  25635643.313   133491521.4031       1720.482          25.000  
R22  20591107.640   109916749.1590      -1620.479          36.000    20591109.384    85490809.3900      -1260.462          31.000  
E08  29057344.420   152697403.7270      -3357.996          28.000                                                                  
G27  25254113.358   132711261.2691        780.359          25.000                                                                  
S33  39774576.646   209016811.0001       -599.414          28.000  
G10  24730831.709   129961480.7410       1255.325          29.000                                                                  
G23  22387512.859   117647166.2760        297.485          36.000    22387508.498    91673099.3790        232.812          30.000  
E26  24617880.925   129367833.0220       -457.893          37.000    24617882.065    99126008.7820       -350.611          40.000  
E33  26626454.718   139922941.1610       1536.702          35.000    26626455.642   107213687.3290       1177.283          29.000  
E13                                                                  27186119.688   109467232.3030      -1927.396          34.000  
R21                                                                  24829362.029   103340946.3971      -3753.670          21.000  
R08                                                                  21357045.192    88951408.0520        169.893          27.000  
R25                                                                  21045469.995    87285088.4430       -341.837          36.000  
> 2026  6 16 20  9 32.0050000  0 31                           
G15  22472408.808   118093284.8220      -3135.907          38.000    22472408.165    92020738.9780      -2444.214          30.000  
G18  21575798.231   113381603.2490       -461.531          33.000    21575793.687    88349285.3710       -359.867          34.000  
E07  25186726.766   132357155.2770      -1708.581          47.000    25186729.555   101416527.1530      -1309.030          41.000  
E29  25386384.845   133406349.2740       1049.919          30.000    25386389.041   102220472.4220        804.932          29.000  
S35  39503580.886   207592716.6860       -590.049          31.000  
C22  26413556.124   137542317.3320      -3154.114          29.000  
C31  25327536.989   131887139.9810      -3686.627          26.000  
C21  23645235.245   123126939.0700      -1652.450          28.000  
C14  23378874.229   121739963.1160       -391.459          32.000  
C34  22995582.871   119744062.4090      -1380.428          28.000  
R07  21730476.250   116324950.3770      -3003.956          32.000    21730463.340    90474899.5521      -2338.492          21.000  
R23  21275264.334   113808352.8610       1605.040          34.000                                                                  
G05  26212974.032   137750106.4780      -3096.977          33.000                                                                  
G29  25147075.665   132148750.4360      -4143.232          33.000    25147078.160   102973080.7011      -3225.970          23.000  
G20  25161316.897   132223598.0060      -3845.708          29.000                                                                  
G32  25817378.426   135671238.9011       2589.852          25.000                                                                  
G24  22877294.382   120220988.9800       1120.189          33.000    22877300.232    93678727.0100        872.974          30.000  
C42  24485249.790   127501148.5570        660.278          29.000  
C38  25632339.578   133474319.7010       1720.306          26.000  
R22  20594149.848   109932986.2810      -1626.105          36.000    20594150.868    85503438.2700      -1265.094          31.000  
E08  29063739.919   152730978.1420      -3356.455          29.000                                                                  
G27  25252634.112   132703475.7030        777.478          27.000                                                                  
S33  39775700.931   209022719.5640       -589.957          29.000  
G10  24728451.785   129948921.7220       1257.197          31.000                                                                  
G23  22386946.575   117644190.5730        298.328          36.000    22386943.186    91670780.6820        232.582          29.000  
E26  24618752.265   129372413.9930       -457.887          37.000    24618753.499    99129518.9030       -350.863          39.000  
E33  26623529.733   139907570.5000       1538.064          36.000    26623530.572   107201909.8400       1178.322          29.000  
E13                                                                  27190906.408   109486506.2150      -1927.256          33.000  
R21                                                                  24838398.411   103378556.5241      -3767.529          21.000  
R08                                                                  21356638.740    88949718.9270        168.162          29.000  
R25                                                                  21046297.245    87288521.3450       -343.942          36.000  
> 2026  6 16 20  9 42.0050000  0 31                           
G15  22478376.695   118124645.3950      -3135.980          38.000    22478375.475    92045175.7150      -2443.054          30.000  
S31  39073504.772   205332652.6951       -597.510          27.000  
G18  21576679.457   113386231.7340       -463.873          32.000    21576675.193    88352891.9140       -360.929          33.000  
E07  25189978.412   132374242.7300      -1708.619          47.000    25189981.060   101429620.1210      -1309.212          39.000  
E29  25384386.015   133395853.8240       1049.245          30.000    25384392.695   102212430.4120        804.730          27.000  
S35  39504699.984   207598599.1640       -585.606          31.000  
C22  26419610.346   137573842.2750      -3151.029          28.000  
C31  25334615.195   131924000.5650      -3685.217          25.000  
C21  23648407.392   123143459.7530      -1651.377          26.000  
C14  23379626.763   121743876.5340       -391.171          31.000  
C34  22998236.078   119757879.3760      -1382.445          28.000  
R21  24847412.169   132963521.5441      -4837.255          21.000    24847437.399   103416177.0731      -3766.106          19.000  
R07  21736086.579   116354979.2770      -3002.136          34.000    21736074.778    90498262.8081      -2335.426          22.000  
R23  21272267.515   113792321.0480       1601.790          35.000                                                                  
G05  26218863.196   137781054.3860      -3092.603          32.000                                                                  
G29  25154957.393   132190169.6250      -4140.339          32.000    25154955.867   103005338.8911      -3222.012          22.000  
G20  25168632.462   132262044.9450      -3843.071          28.000                                                                  
G32  25812451.583   135645348.5111       2592.940          24.000                                                                  
G24  22875164.343   120209798.3070       1117.809          33.000    22875171.371    93670007.0140        870.702          30.000  
C42  24483980.880   127494544.5660        660.871          28.000  
C38  25629033.273   133457101.5151       1719.046          26.000  
R22  20597201.625   109949273.5960      -1631.069          37.000    20597201.880    85516106.1630      -1268.033          30.000  
E08  29070122.794   152764528.6270      -3353.450          29.000                                                                  
G27  25251156.538   132695716.3510        775.311          27.000                                                                  
S33  39776821.478   209028607.0531       -570.020          29.000  
G10  24726057.830   129936337.3000       1260.896          31.000                                                                  
G23  22386377.434   117641198.6530        301.050          36.000    22386373.332    91668449.2540        235.100          28.000  
E26  24619623.927   129376993.0510       -457.215          37.000    24619624.663    99133027.5430       -350.302          38.000  
E33  26620600.578   139892176.8720       1540.817          35.000    26620601.615   107190114.7470       1180.230          28.000  
E13                                                                  27195691.270   109505774.6600      -1925.877          32.000  
R08                                                                  21356237.190    88948047.9200        166.965          28.000  
> 2026  6 16 20  9 52.0050000  0 30                           
G15  22484344.760   118156005.2950      -3137.097          39.000    22484342.838    92069612.0240      -2444.226          30.000  
S31  39074571.613   205338259.5811       -515.820          27.000  
G18  21577565.251   113390881.7230       -467.141          33.000    21577559.210    88356515.3250       -364.391          33.000  
E07  25193230.377   132391332.6160      -1710.188          47.000    25193233.165   101442714.9660      -1310.207          40.000  
E29  25382388.506   133385360.4810       1048.041          31.000    25382396.050   102204390.0840        803.784          28.000  
S35  39505812.114   207604442.4010       -583.960          31.000  
C22  26425657.561   137605330.3850      -3148.359          27.000  
C31  25341693.042   131960847.0260      -3684.778          25.000  
C21  23651577.289   123159968.4460      -1650.915          25.000  
C14  23380378.059   121747784.3930       -391.022          33.000  
C34  23000893.641   119771715.6400      -1385.695          29.000  
R21  24856457.111   133011922.5911      -4831.975          21.000    24856474.744   103453790.4531      -3757.719          19.000  
R07  21741696.552   116385001.6030      -3003.298          34.000    21741688.667    90521636.5781      -2336.505          23.000  
R23  21269276.817   113776321.4650       1597.513          34.000                                                                  
G05  26224746.532   137811970.8050      -3091.694          32.000                                                                  
G29  25162833.800   132231559.5980      -4139.419          32.000    25162835.544   103037604.6271      -3223.944          22.000  
G20  25175943.776   132300466.7620      -3842.379          28.000                                                                  
G24  22873039.331   120198632.6930       1114.292          33.000    22873046.942    93661306.4990        869.019          30.000  
C42  24482711.177   127487934.5770        660.617          29.000  
C38  25625732.313   133439912.4511       1717.824          26.000  
R22  20600262.554   109965607.9580      -1637.034          38.000    20600261.516    85528810.6660      -1273.240          29.000  
E08  29076503.118   152798052.0480      -3351.961          30.000                                                                  
G27  25249681.813   132687981.6390        770.953          28.000                                                                  
S33  39777927.982   209034421.7551       -495.801          28.000  
G10  24723658.526   129923724.3650       1261.372          31.000                                                                  
G23  22385804.657   117638187.4090        301.141          36.000    22385799.225    91666102.8960        234.432          26.000  
E26  24620493.751   129381567.0470       -458.182          37.000    24620494.929    99136532.2910       -351.050          39.000  
E33  26617665.497   139876757.1460       1542.618          35.000    26617667.527   107178299.6520       1181.315          29.000  
E13                                                                  27200475.001   109525035.2760      -1926.647          33.000  
R08                                                                  21355839.787    88946392.4650        163.935          29.000  
