     3.05           O: OBSERVATION      M: MIXED            RINEX VERSION / TYPE
PYRINEXCONV 0.1.2 ALDELTUNES            20260616 195514 UTC PGM / RUN BY / DATE
UNKN                                                        MARKER NAME
NONE                                                        MARKER TYPE
                                                            OBSERVER / AGENCY
                                                            REC # / TYPE / VERS
                                                            ANT # / TYPE
   112731.4782 -5325854.5701  3496027.7793                  APPROX POSITION XYZ
        0.0000        0.0000        0.0000                  ANTENNA: DELTA H/E/N
G    8 C1C L1C D1C S1C C2L L2L D2L S2L                      SYS / # / OBS TYPES
S    4 C1C L1C D1C S1C                                      SYS / # / OBS TYPES
E    8 C1C L1C D1C S1C C7Q L7Q D7Q S7Q                      SYS / # / OBS TYPES
C    4 C2I L2I D2I S2I                                      SYS / # / OBS TYPES
R    8 C1C L1C D1C S1C C2C L2C D2C S2C                      SYS / # / OBS TYPES
DBHZ                                                        SIGNAL STRENGTH UNIT
     5.000                                                  INTERVAL
  2026     6    16    19    53   12.0040000     GPS         TIME OF FIRST OBS
  2026     6    16    19    55   12.0040000     GPS         TIME OF LAST OBS
  6 R06 -4 R07  5 R08  6 R21  4 R22 -3 R23  3               GLONASS SLOT / FRQ
 C1C    0.000 C1P    0.000 C2C    0.000 C2P    0.000        GLONASS COD/PHS/BIS
    18        2423     2GPS                                 LEAPSECONDS
    32                                                      # OF SATELLITES
                                                            END OF HEADER
> 2026  6 16 19 53 12.0040000  0 29                           
G15  21915639.052   115167446.3120      -2796.472          43.000    21915635.037    89740836.1490      -2177.905          31.000  
S31  38957226.359   204721606.1061       -680.762          28.000  
G18  21533693.817   113160286.0060         25.228          37.000    21533703.538    88176912.0500         19.419          33.000  
E07  24897612.271   130837852.8340      -1361.094          40.000    24897616.758   100252460.0990      -1042.909          38.000  
S33  39660626.782   208417999.9921       -572.998          28.000  
S35  39388638.853   206988693.3411       -573.422          27.000  
C31  24648785.203   128352630.0650      -3491.589          33.000  
C21  23350602.253   121592694.3260      -1447.071          35.000  
C14  23326976.689   121469645.7790       -131.224          39.000  
C34  22779873.100   118620773.1470       -886.752          27.000  
R21  23970385.628   128270374.8271      -4599.199          26.000    23970390.383    99765856.8210      -3577.296          28.000  
R06  25550441.736   136342051.9711      -4326.875          18.000                                                                  
R07  21204012.402   113506672.2740      -2705.919          37.000    21204009.743    88283003.7510      -2104.415          30.000  
R08  21440988.689   114815550.6350        735.558          32.000    21440999.524    89301019.2360        571.777          26.000  
R23  21620134.205   115653138.7681       2154.366          17.000                                                                  
G05  25632571.416   134700087.5720      -3104.810          33.000    25632575.022   104961109.0971      -2423.169          24.000  
G29  24376996.127   128101978.4971      -4078.536          22.000                                                                  
G27  25444492.989   133711712.3021       1295.403          25.000                                                                  
G20  24449432.044   128482631.1760      -3752.193          30.000                                                                  
G24  23131852.968   121558681.2990       1616.490          34.000    23131849.931    94721050.7350       1259.402          27.000  
C38  25980854.489   135289127.1261       2002.456          22.000  
R22  20363705.919   108702857.4720       -862.016          28.000    20363706.537    84546624.0710       -671.005          31.000  
E08  28440705.579   149456916.5061      -3292.583          22.000                                                                  
E13  26738377.302   140511083.6590      -2313.917          32.000    26738383.107   107664388.7091      -1771.388          21.000  
G10  24962969.074   131181274.7830       1284.106          32.000    24962974.412   102219206.5491       1000.720          25.000  
G23  22450687.676   117979160.9010        409.099          39.000    22450690.325    91931846.7390        319.128          27.000  
E26  24553342.531   129028597.8670       -226.115          34.000    24553333.639    98866099.8421       -172.247          23.000  
E33  26910953.652   141418015.1181       1567.462          19.000    26910973.251   108359337.7501       1195.472          22.000  
E29  25609306.233   134577827.0760       1360.685          27.000    25609304.760   103118077.1820       1042.663          36.000  
> 2026  6 16 19 53 17.0040000  0 31                           
G15  21918301.122   115181435.2780      -2799.011          42.000    21918296.721    89751736.6450      -2180.511          32.000  
S31  38957787.000   204724552.1831       -625.244          29.000  
G18  21533671.555   113160167.2090         22.458          38.000    21533680.714    88176819.4520         17.654          33.000  
E07  24898908.517   130844664.5640      -1363.667          41.000    24898912.871   100257679.4880      -1045.020          37.000  
S33  39661223.230   208421134.0501       -630.908          28.000  
S35  39988802.073   210142572.9121       -628.271          27.000  
C22  25815950.960   134430382.7180      -3200.277          27.000  
C31  24652138.652   128370091.0470      -3493.185          34.000  
C21  23351991.806   121599932.1090      -1448.049          35.000  
C14  23327102.890   121470306.5830       -133.249          39.000  
C34  22780726.554   118625215.4170       -890.557          29.000  
R21  23974688.025   128293397.7790      -4601.239          26.000    23974688.924    99783747.2940      -3579.070          30.000  
R06  25554502.467   136363720.8751      -4328.247          23.000                                                                  
R07  21206540.561   113520206.8960      -2708.065          36.000    21206538.003    88293530.6270      -2105.625          31.000  
R08  21440303.439   114811884.0600        732.784          31.000    21440318.973    89298167.5170        568.922          29.000  
R23  21618116.601   115642346.4091       2155.587          18.000                                                                  
G05  25635526.964   134715613.9630      -3105.374          35.000    25635527.242   104973198.5381      -2418.854          24.000  
G29  24380874.184   128122358.3391      -4080.381          25.000                                                                  
G27  25443263.468   133705251.4251       1288.333          23.000                                                                  
G20  24453002.231   128501392.8060      -3752.442          34.000                                                                  
G24  23130315.977   121550606.6670       1613.116          35.000    23130313.441    94714758.6730       1257.505          25.000  
C42  24629492.629   128252231.0741        906.133          25.000  
C38  25978941.397   135279164.6701       1994.842          21.000  
R22  20364515.827   108707178.9010       -865.864          28.000    20364515.989    84549985.1780       -674.375          32.000  
E08  28443839.795   149473386.9221      -3295.169          13.000                                                                  
E13  26740578.353   140522658.1500      -2315.721          32.000    26740581.823   107673242.0191      -1763.421          17.000  
G10  24961748.127   131174857.7940       1282.538          29.000    24961752.932   102214205.3021       1000.796          25.000  
G23  22450298.947   117977117.4430        408.208          38.000    22450301.060    91930254.4120        318.363          29.000  
E26  24553559.008   129029732.6430       -227.839          34.000    24553548.003    98866970.2220       -173.866          25.000  
E33  26909470.061   141410219.3231       1561.617          18.000    26909488.464   108353361.3610       1196.030          26.000  
E29  25608012.504   134571013.7731       1352.837          21.000    25608011.500   103112868.8870       1040.981          37.000  
> 2026  6 16 19 53 22.0040000  0 31                           
G15  21920965.570   115195436.3300      -2801.807          42.000    21920960.581    89762646.5680      -2183.099          31.000  
S31  39557943.185   207878394.0641       -458.545          27.000  
G18  21533651.705   113160062.5070         19.098          38.000    21533660.503    88176737.8500         15.367          33.000  
E07  24900207.043   130851488.0120      -1366.259          41.000    24900211.312   100262907.8300      -1046.557          38.000  
S33  39661816.407   208424251.1081       -619.482          28.000  
S35  39989396.270   210145695.5981       -638.086          27.000  
C22  25819026.057   134446384.8980      -3201.502          28.000  
C31  24655493.449   128387560.2210      -3495.513          34.000  
C21  23353383.020   121607178.1630      -1450.354          35.000  
C14  23327231.352   121470976.7520       -135.669          39.000  
C34  22781582.302   118629672.5990       -893.751          30.000  
R21  23978988.726   128316409.7020      -4604.002          26.000    23978989.619    99801645.4020      -3580.699          30.000  
R06  25558559.384   136385370.1301      -4332.717          22.000                                                                  
R07  21209070.625   113533752.8780      -2710.701          35.000    21209068.880    88304066.4360      -2108.249          30.000  
R08  21439621.322   114808233.6050        728.650          31.000    21439639.581    89295328.2370        566.469          29.000  
R23  21616099.806   115631557.4681       2154.015          19.000                                                                  
G05  25638482.888   134731142.3340      -3106.638          35.000    25638482.187   104985298.6061      -2422.113          25.000  
G29  24384750.021   128142725.7621      -4075.962          25.000                                                                  
G27  25442031.337   133698776.5691       1286.839          23.000                                                                  
G20  24456572.849   128520160.1860      -3754.347          34.000                                                                  
G24  23128781.487   121542545.6050       1610.769          34.000    23128781.157    94708489.3860       1255.049          26.000  
C42  24628623.869   128247707.1951        903.263          26.000  
C38  25977026.623   135269194.0881       1996.904          21.000  
R22  20365329.646   108711521.9910       -871.068          28.000    20365329.441    84553363.0890       -677.455          32.000  
E08  28446977.188   149489873.7931      -3284.701          16.000                                                                  
E13  26742780.703   140534240.0430      -2317.232          32.000    26742781.670   107682099.9571      -1788.913          17.000  
G10  24960527.409   131168443.9190       1282.343          27.000    24960531.278   102209202.0770        999.261          27.000  
G23  22449911.281   117975079.2240        406.737          38.000    22449912.926    91928666.2470        316.722          29.000  
E26  24553777.320   129030875.1910       -229.856          34.000    24553765.445    98867837.8881       -179.074          25.000  
E33  26907986.521   141402423.5461       1555.336          19.000    26908004.701   108347383.2880       1194.602          26.000  
E29  25606722.100   134564232.3191       1363.198          22.000    25606719.862   103107668.2720       1038.748          37.000  
> 2026  6 16 19 53 27.0040000  0 31                           
G15  21923633.358   115209455.1640      -2805.536          42.000    21923628.192    89773570.3740      -2186.676          31.000  
S31  39558522.286   207881436.7901       -621.729          28.000  
G18  21533635.761   113159977.5850         14.848          38.000    21533644.301    88176671.6310         12.256          33.000  
E07  24901508.934   130858328.8590      -1369.536          40.000    24901513.251   100268149.5480      -1049.690          38.000  
S33  40261987.700   211578172.4551       -624.268          28.000  
S35  39989997.373   210148854.4871       -731.836          27.000  
C22  25822100.855   134462394.2020      -3202.219          28.000  
C31  24658850.876   128405043.1550      -3497.749          34.000  
C21  23354777.003   121614438.0430      -1453.781          35.000  
C14  23327362.492   121471661.9190       -138.737          38.000  
C34  22782442.083   118634150.2970       -896.706          29.000  
R21  23983293.241   128339437.2880      -4607.017          27.000    23983293.176    99819555.7620      -3584.244          30.000  
R06  25562617.896   136407026.5931      -4322.975          22.000                                                                  
R07  21211603.859   113547316.1540      -2714.229          36.000    21211602.739    88314615.6210      -2110.947          31.000  
R08  21438943.292   114804604.7160        724.172          30.000    21438962.141    89292505.8140        562.951          28.000  
R23  21614090.508   115620809.4671       2151.328          21.000                                                                  
G05  25641440.202   134746678.4410      -3108.218          35.000    25641438.932   104997405.6011      -2421.208          25.000  
G29  24388630.894   128163120.0151      -4078.070          26.000                                                                  
G27  25440806.633   133692340.2121       1282.027          25.000                                                                  
G20  24460146.072   128538939.0230      -3756.723          33.000                                                                  
G24  23127250.790   121534503.9830       1606.807          35.000    23127247.223    94702223.2490       1251.644          25.000  
C42  24627755.671   128243184.2010        900.883          26.000  
C38  25975117.643   135259253.2491       1987.776          21.000  
R22  20366149.238   108715887.0891       -875.613          25.000    20366148.232    84556762.3380       -682.016          32.000  
E08  28450112.228   149506347.9451      -3264.975          16.000                                                                  
E13  26744986.025   140545835.1240      -2320.098          32.000    26744990.327   107690992.8071      -1777.324          18.000  
G10  24959308.441   131162038.9710       1280.341          27.000    24959314.918   102204211.2130        997.418          26.000  
G23  22449525.783   117973051.8870        404.680          38.000    22449527.638    91927086.4990        315.061          29.000  
E26  24553998.397   129032031.1930       -232.169          33.000    24553986.450    98868728.5951       -178.279          26.000  
E33  26906505.282   141394638.6091       1548.339          18.000    26906521.595   108341411.3430       1194.429          26.000  
E29  25605429.686   134557440.8211       1347.448          18.000    25605430.954   103102479.5390       1036.874          37.000  
> 2026  6 16 19 53 32.0040000  0 29                           
G15  21926303.454   115223486.8070      -2808.191          44.000    21926298.107    89784504.0470      -2186.298          31.000  
G18  21533622.521   113159907.5010         12.465          38.000    21533630.600    88176617.0170          8.476          32.000  
E07  24902812.765   130865182.1570      -1371.540          40.000    24902817.897   100273400.8130      -1051.510          38.000  
S33  40262577.996   211581274.8470       -623.976          29.000  
C22  25825175.814   134478405.8410      -3202.495          28.000  
C31  24662210.001   128422534.9740      -3499.333          35.000  
C21  23356172.701   121621706.7780      -1455.124          33.000  
C14  23327495.643   121472357.1000       -139.369          38.000  
C34  22783304.514   118638643.7510       -899.737          29.000  
R21  23987595.471   128362468.7011      -4608.537          25.000    23987598.390    99837486.5980      -3584.504          30.000  
R06  25566675.696   136428679.6501      -4329.445          22.000                                                                  
R07  21214139.370   113560891.4570      -2715.978          37.000    21214138.856    88325174.1890      -2111.937          28.000  
R08  21438268.546   114800992.6570        720.790          30.000    21438287.106    89289696.3950        561.496          29.000  
R23  21612080.041   115610054.3301       2154.431          22.000                                                                  
G05  25644396.352   134762222.2700      -3105.627          31.000    25644397.643   105009521.2191      -2433.116          19.000  
G29  24392505.108   128183478.9921      -4075.221          24.000                                                                  
G27  25439590.298   133685949.1161       1282.176          25.000                                                                  
G20  24463720.519   128557724.3180      -3758.005          32.000                                                                  
G24  23125722.970   121526476.7880       1603.592          35.000    23125718.010    94695949.3250       1249.879          27.000  
C42  24626893.629   128238696.8040        900.433          26.000  
C38  25973204.961   135249293.1861       2005.262          20.000  
R22  20366972.505   108720282.2181       -879.099          24.000    20366971.184    84560179.0110       -685.485          32.000  
E08  28453248.890   149522831.1681      -3294.716          16.000                                                                  
E13  26747193.974   140557438.3500      -2321.979          25.000    26747203.344   107699903.4601      -1780.902          22.000  
G10  24958090.112   131155637.8440       1280.505          29.000    24958099.582   102199245.4181        998.315          25.000  
G23  22449141.283   117971030.5250        403.520          37.000    22449143.969    91925491.3291        312.957          28.000  
E26  24554220.404   129033195.7620       -233.589          33.000    24554209.494    98869624.7450       -178.727          26.000  
E33  26905024.950   141386860.0071       1547.981          20.000    26905039.636   108335444.7101       1191.829          25.000  
E29  25604144.191   134550684.8981       1355.075          22.000    25604144.444   103097299.0500       1034.699          36.000  
> 2026  6 16 19 53 37.0040000  0 28                           
G15  21928976.684   115237535.3510      -2812.042          42.000    21928971.707    89795451.0310      -2190.363          31.000  
G18  21533612.130   113159856.2450          7.485          38.000    21533620.679    88176577.1190          6.034          31.000  
E07  24904120.638   130872051.9900      -1376.063          39.000    24904124.729   100278664.6700      -1054.641          40.000  
C22  25828243.355   134494423.8570      -3204.630          26.000  
C31  24665571.419   128440039.6500      -3502.631          34.000  
C21  23357570.692   121628988.5470      -1458.123          35.000  
C14  23327631.670   121473066.4510       -143.541          37.000  
C34  22784170.330   118643156.9130       -905.490          28.000  
R21  23991902.780   128385517.9710      -4612.706          26.000    23991906.703    99855415.8720      -3587.868          26.000  
R06  25570731.463   136450322.4761      -4332.609          22.000                                                                  
R07  21216677.913   113574483.0160      -2720.439          35.000    21216677.667    88335745.4400      -2116.072          30.000  
R08  21437598.066   114797401.3950        715.130          31.000    21437609.084    89286903.2890        556.567          26.000  
R23  21610072.633   115599316.3051       2137.378          25.000                                                                  
G05  25647354.391   134777768.0860      -3110.330          35.000    25647358.312   105021644.0491      -2424.342          26.000  
G29  24396385.810   128203871.9741      -4077.381          17.000                                                                  
G27  25438368.437   133679528.0920       1278.181          25.000                                                                  
G20  24467297.726   128576520.1200      -3761.043          33.000    24467297.697   100189493.2410      -2930.290          27.000  
G24  23124199.049   121518468.0930       1599.091          34.000    23124191.762    94689708.7540       1246.380          28.000  
C42  24626028.726   128234207.9760        895.714          28.000  
C38  25971303.863   135239394.3251       1980.870          19.000  
R22  20367805.636   108724729.6421       -887.539          24.000    20367799.187    84563616.2200       -689.416          32.000  
E08  28456386.876   149539322.3071      -3285.364          11.000                                                                  
E13  26749403.858   140569053.8630      -2324.680          30.000    26749414.100   107708805.1771      -1780.996          25.000  
G10  24956873.144   131149244.9200       1277.142          29.000    24956882.191   102194259.8111        995.413          25.000  
G23  22448758.796   117969019.0610        401.042          39.000    22448760.669    91923921.9730        312.422          27.000  
E26  24554445.435   129034372.8280       -237.589          31.000    24554431.389    98870519.7051       -177.072          19.000  
E33  26903543.498   141379075.0021       1561.792          22.000    26903557.974   108329478.9021       1190.236          25.000  
E29  25602860.670   134543940.8641       1355.107          23.000    25602860.151   103092129.8280       1031.997          35.000  
> 2026  6 16 19 53 42.0040000  0 28                           
G15  21931653.568   115251603.9350      -2815.021          42.000    21931648.571    89806413.5670      -2193.390          30.000  
S31  38960705.377   204739888.0991       -632.812          26.000  
G18  21533606.362   113159827.0440          4.732          38.000    21533615.966    88176554.3420          2.849          31.000  
E07  24905431.260   130878941.4630      -1379.009          39.000    24905435.979   100283943.6300      -1056.925          39.000  
C22  25831323.094   134510451.4190      -3206.622          28.000  
C31  24668935.996   128457560.3760      -3505.380          35.000  
C21  23358971.849   121636286.3420      -1460.635          36.000  
C14  23327770.658   121473793.0190       -146.235          37.000  
C34  22785040.989   118647692.9240       -908.931          28.000  
R21  23996215.558   128408592.5130      -4615.584          27.000    23996217.730    99873359.5780      -3589.387          26.000  
R06  25574789.408   136471976.0741      -4334.415          21.000                                                                  
R07  21219220.319   113588093.9020      -2723.586          34.000    21219220.760    88346331.6590      -2117.433          30.000  
R08  21436931.997   114793834.2500        710.724          30.000    21436942.269    89284128.8350        553.769          25.000  
R23  21608066.574   115588585.3661       2138.553          24.000                                                                  
G05  25650314.733   134793323.9770      -3111.190          35.000    25650318.019   105033763.4791      -2425.299          26.000  
G29  24400267.205   128224268.8771      -4086.207          14.000                                                                  
G27  25437154.171   133673151.0200       1273.927          25.000                                                                  
G20  24470877.217   128595329.6020      -3762.144          33.000    24470878.607   100204150.0050      -2931.747          27.000  
G24  23122678.791   121510481.0550       1596.664          35.000    23122673.080    94683485.1380       1243.412          27.000  
C42  24625167.173   128229736.3210        892.898          29.000  
C38  25969404.969   135229506.4301       1991.053          19.000  
R22  20368640.905   108729187.6671       -894.056          21.000    20368632.773    84567076.6360       -693.658          33.000  
E13  26751616.811   140580684.7720      -2326.657          29.000    26751628.230   107717720.7731      -1785.750          23.000  
G10  24955658.476   131142862.9880       1275.409          28.000    24955665.853   102189278.9421        994.536          24.000  
G23  22448378.892   117967020.8100        399.151          39.000    22448378.881    91922364.9230        311.059          27.000  
E26  24554672.231   129035565.6410       -239.475          30.000    24554655.761    98871423.0551       -185.170          19.000  
E33  26902064.885   141371305.0541       1556.214          17.000    26902079.295   108323524.8801       1191.161          25.000  
E29  25601583.937   134537231.3801       1345.012          22.000    25601579.545   103086974.3140       1030.152          34.000  
> 2026  6 16 19 53 47.0040000  0 28                           
G15  21934333.207   115265685.2030      -2817.316          42.000    21934328.074    89817385.9830      -2196.057          31.000  
G18  21533603.696   113159812.6380          1.161          38.000    21533613.703    88176543.0250          1.997          31.000  
E07  24906744.273   130885843.2660      -1381.284          38.000    24906749.282   100289232.0190      -1058.633          38.000  
C22  25834401.881   134526481.0190      -3206.210          29.000  
C31  24672302.226   128475089.8310      -3506.764          35.000  
C21  23360374.814   121643592.9160      -1461.701          35.000  
C14  23327911.864   121474529.5460       -148.533          37.000  
C34  22785914.227   118652244.5700       -911.547          28.000  
R21  24000528.671   128431680.4400      -4617.189          28.000    24000530.566    99891311.3630      -3590.697          26.000  
R06  25578844.589   136493615.6551      -4333.139          22.000                                                                  
R07  21221764.855   113601716.7280      -2726.258          33.000    21221765.715    88356927.1790      -2119.751          29.000  
R08  21436269.774   114790283.6470        709.141          31.000    21436279.137    89281367.3120        551.433          25.000  
R23  21606062.764   115577865.8331       2137.181          25.000                                                                  
G05  25653275.792   134808882.5520      -3111.531          34.000    25653278.762   105045888.0181      -2425.487          26.000  
G29  24404154.702   128244698.1111      -4088.040          21.000                                                                  
G27  25435941.956   133666789.4060       1271.451          25.000                                                                  
G20  24474458.200   128614145.4690      -3763.446          33.000    24474459.731   100218820.6981      -2933.768          25.000  
G24  23121161.813   121502508.4490       1593.289          34.000    23121157.482    94677272.6960       1241.287          27.000  
C42  24624319.506   128225274.0870        891.722          30.000  
C38  25967506.542   135219620.6161       1986.182          16.000  
E08  28462666.808   149572323.0341      -3304.213          12.000                                                                  
E13  26753830.298   140592323.8060      -2328.617          28.000    26753843.359   107726640.3001      -1784.450          24.000  
G10  24954444.239   131136484.8010       1275.049          28.000    24954450.283   102184301.9311        992.907          24.000  
G23  22447999.836   117965028.3920        398.134          39.000    22447997.811    91920812.3840        310.109          26.000  
E26  24554900.247   129036766.9680       -241.421          30.000    24554884.232    98872343.5731       -189.941          17.000  
E33  26900590.388   141363555.8921       1557.365          19.000    26900600.814   108317572.2631       1191.319          25.000  
E29  25600304.779   134530509.4641       1350.704          19.000    25600301.101   103081826.9000       1028.491          35.000  
R22                                                                  20369470.491    84570554.4190       -697.711          33.000  
> 2026  6 16 19 54  7.0040000  0 28                           
G15  21945071.759   115322115.8990      -2822.888          42.000    21945066.288    89861357.9180      -2199.463          31.000  
S31  38963729.270   204755779.2761       -666.844          28.000  
G18  21533616.408   113159881.2280         -5.927          37.000    21533628.432    88176596.5080         -5.008          29.000  
E07  24912016.413   130913552.5900      -1386.411          37.000    24912022.232   100310463.8710      -1062.511          40.000  
S35  39395136.088   207022836.9881       -583.740          27.000  
C22  25846716.518   134590635.2111      -3203.614          27.000  
C31  24685779.979   128545273.8510      -3508.971          37.000  
C21  23365999.580   121672886.1060      -1464.895          35.000  
C14  23328491.922   121477554.1010       -151.755          36.000  
C34  22789433.707   118670586.1990       -919.872          29.000  
R21  24017799.104   128524086.0990      -4620.604          28.000    24017798.938    99963183.6041      -3594.556          26.000  
R06  25595078.231   136580240.9261      -4331.388          21.000                                                                  
R07  21231961.493   113656305.8470      -2730.388          35.000    21231965.198    88399385.3630      -2123.593          29.000  
R08  21433646.692   114776225.2020        700.164          30.000    21433650.934    89270399.0101        542.215          24.000  
R23  21598097.369   115535230.5410       2128.804          26.000                                                                  
G05  25665120.843   134871122.6360      -3109.475          35.000    25665120.534   105094377.7041      -2424.049          26.000  
G29  24419708.356   128326432.5921      -4090.064          21.000                                                                  
G27  25431124.965   133641462.9061       1263.263          26.000                                                                  
G20  24488788.486   128689450.8730      -3764.873          33.000    24488790.419   100277502.1901      -2933.728          26.000  
G24  23115115.831   121470740.7460       1587.082          34.000    23115119.607    94652518.7050       1236.232          27.000  
C42  24620907.428   128207498.1950        888.925          33.000  
R22  20372878.157   108751806.8600       -909.688          26.000    20372858.858    84584622.1410       -707.426          32.000  
E13  26762698.777   140638939.7560      -2330.142          25.000    26762713.407   107762364.8550      -1785.141          27.000  
G10  24949589.033   131110977.2040       1276.526          27.000    24949597.246   102164429.2821        994.416          23.000  
G23  22446491.058   117957095.7220        398.098          37.000    22446491.724    91914631.1481        309.772          24.000  
E26  24555824.905   129041635.0510       -243.219          28.000    24555817.764    98876102.3021       -183.570          16.000  
E33  26894674.229   141332466.5671       1554.781          21.000    26894688.601   108293766.0051       1193.129          25.000  
E29  25595203.238   134503700.1641       1341.832          15.000    25595203.548   103061302.1070       1025.373          34.000  
> 2026  6 16 19 54 12.0040000  0 29                           
G15  21947758.713   115336236.4740      -2824.567          44.000    21947753.462    89872360.9390      -2201.270          33.000  
S31  39563911.051   207909755.7091       -631.836          28.000  
G18  21533623.570   113159916.5340         -7.730          39.000    21533636.335    88176623.9610         -5.842          26.000  
E07  24913337.018   130920491.9470      -1388.287          39.000    24913343.424   100315781.0330      -1063.677          37.000  
S35  39395755.005   207026089.8191       -713.428          28.000  
C22  25849792.760   134606651.6820      -3202.331          29.000  
C31  24689150.214   128562823.0480      -3509.367          35.000  
C21  23367406.630   121680212.7240      -1464.705          34.000  
C14  23328638.454   121478316.5380       -153.090          35.000  
C34  22790319.037   118675192.0350       -922.043          33.000  
R21  24022117.338   128547194.2450      -4621.801          30.000    24022116.513    99981153.1721      -3597.529          22.000  
R06  25599131.383   136601869.3041      -4321.348          14.000                                                                  
R07  21234513.308   113669963.7660      -2732.239          34.000    21234516.722    88410008.2010      -2124.271          26.000  
R08  21432994.967   114772732.8700        697.784          30.000    21432998.017    89267679.2281        542.522          24.000  
R23  21596112.141   115524594.6230       2126.077          28.000                                                                  
G05  25668079.911   134886670.8590      -3109.158          27.000    25668080.654   105106498.9581      -2424.631          19.000  
G29  24423594.934   128346856.9121      -4085.351          25.000                                                                  
G27  25429924.452   133635154.9001       1260.990          25.000                                                                  
G20  24492370.714   128708274.2180      -3764.734          33.000    24492372.269   100292169.7581      -2933.291          25.000  
G24  23113607.038   121462816.1870       1584.818          35.000    23113613.556    94646343.7120       1235.041          26.000  
C42  24620055.189   128203059.2090        887.983          31.000  
C38  25958003.683   135170136.6371       1975.854          25.000  
R22  20373731.341   108756361.4041       -914.069          26.000    20373712.649    84588167.6330       -710.918          31.000  
E13  26764911.675   140650560.1111      -2326.476          19.000    26764935.348   107771303.6621      -1786.530          23.000  
G10  24948373.825   131104594.0440       1277.325          27.000    24948381.034   102159449.4281        998.348          18.000  
G23  22446112.446   117955108.3720        398.103          35.000    22446115.249    91913089.5811        319.515          21.000  
E26  24556056.829   129042951.4830       -244.203          27.000    24556051.269    98877042.0331       -184.715          26.000  
E33  26893199.405   141324716.4901       1554.699          20.000    26893207.939   108287803.7941       1193.324          24.000  
E29  25593929.255   134497005.4451       1335.845          26.000    25593930.160   103056176.8260       1024.738          32.000  
> 2026  6 16 19 54 17.0040000  0 29                           
G15  21950446.637   115350360.1430      -2824.768          44.000    21950440.915    89883366.3950      -2201.184          33.000  
S31  38964937.041   204762126.0081       -624.316          28.000  
G18  21533631.554   113159957.0770         -8.450          39.000    21533645.050    88176675.8051         -5.796          24.000  
E07  24914657.707   130927434.0650      -1388.710          39.000    24914664.822   100321100.3200      -1063.919          36.000  
S35  39396345.180   207029190.9000       -619.832          30.000  
C22  25852867.689   134622661.2510      -3201.228          28.000  
C31  24692520.006   128580371.4700      -3509.553          35.000  
C21  23368813.716   121687538.6510      -1464.901          34.000  
C14  23328785.486   121479079.4400       -152.799          35.000  
C34  22791205.587   118679803.9200       -922.450          34.000  
R21  24026435.953   128570302.9680      -4622.269          30.000    24026438.075    99999140.0491      -3589.985          21.000  
R06  25603179.156   136623469.5001      -4324.091          16.000                                                                  
R07  21237065.299   113683623.7900      -2731.871          35.000    21237069.769    88420652.6551      -2124.952          25.000  
R08  21432344.195   114769247.3860        696.604          31.000    21432345.349    89264961.0431        543.620          24.000  
R23  21594121.473   115513964.5550       2125.569          29.000                                                                  
G05  25671037.309   134902212.0510      -3107.074          28.000    25671038.372   105118610.2211      -2426.869          20.000  
G29  24427477.104   128367258.4131      -4084.221          25.000                                                                  
G27  25428721.816   133628834.1891       1258.699          25.000                                                                  
G20  24495951.465   128727094.2390      -3763.271          32.000    24495955.696   100306842.6971      -2933.199          25.000  
G24  23112099.409   121454896.5010       1583.819          34.000    23112105.804    94640172.5300       1234.240          26.000  
C42  24619202.725   128198620.1540        887.592          31.000  
C38  25956103.888   135160243.7851       1977.634          26.000  
E13  26767123.328   140662181.6181      -2312.956          19.000    26767153.494   107780235.2751      -1785.041          22.000  
G10  24947157.071   131098205.1120       1279.169          27.000    24947169.387   102154487.5621        983.699          17.000  
G23  22445733.027   117953117.3090        398.418          34.000    22445738.729    91911547.8541        306.588          19.000  
E26  24556291.035   129044169.8430       -243.584          28.000    24556284.079    98877979.4991       -185.751          24.000  
E33  26891725.301   141316970.0641       1559.099          15.000    26891724.550   108281830.6681       1197.170          24.000  
E29  25592656.992   134490319.6541       1338.102          26.000    25592657.296   103051052.3140       1025.315          31.000  
R22                                                                  20374569.024    84591722.9340       -712.046          30.000  
> 2026  6 16 19 54 22.0040000  0 29                           
G15  21953135.208   115364489.0780      -2826.629          44.000    21953130.013    89894375.9400      -2202.704          33.000  
S31  39565101.511   207916010.9891       -623.584          28.000  
G18  21533640.948   113160005.1090        -10.352          39.000    21533657.896    88176729.0731         -7.617          25.000  
E07  24915980.006   130934381.1620      -1390.096          38.000    24915986.856   100326423.4240      -1065.227          37.000  
S35  39396934.749   207032290.7280       -620.476          29.000  
C22  25855941.227   134638665.7310      -3200.930          28.000  
C31  24695890.243   128597921.3190      -3510.440          35.000  
C21  23370220.710   121694866.1150      -1465.798          34.000  
C14  23328932.308   121479844.9840       -153.175          35.000  
C34  22792094.209   118684424.1980       -924.903          34.000  
R21  24030754.886   128593414.5220      -4623.095          30.000    24030755.646   100017110.0151      -3596.250          21.000  
R06  25607227.943   136645074.8911      -4314.834          12.000                                                                  
R07  21239618.282   113697288.1720      -2733.359          35.000    21239624.980    88431291.9731      -2125.633          26.000  
R08  21431695.360   114765771.0920        694.786          31.000    21431695.019    89262252.3221        535.661          25.000  
R23  21592134.892   115503342.7940       2123.042          29.000                                                                  
G05  25673994.615   134917748.7040      -3107.330          29.000    25673994.891   105130716.4831      -2413.271          21.000  
G29  24431362.163   128387673.9871      -4084.969          23.000                                                                  
G27  25427523.550   133622537.8241       1257.219          25.000                                                                  
G20  24499532.308   128745913.2700      -3763.964          32.000    24499536.295   100321504.8601      -2932.938          25.000  
G24  23110593.220   121446983.9600       1582.321          34.000    23110600.426    94634006.9700       1232.543          26.000  
C42  24618351.030   128194183.2470        887.283          32.000  
C38  25954208.155   135150361.9930       1975.134          26.000  
E13  26769337.937   140673819.8581      -2326.609          17.000    26769370.705   107789162.5171      -1786.292          23.000  
G10  24945938.100   131091812.7110       1278.998          27.000    24945951.510   102149500.5651       1008.324          18.000  
G23  22445353.550   117951124.6990        399.182          33.000    22445356.048    91909980.5981        313.050          19.000  
E26  24556526.381   129045389.2440       -243.703          27.000    24556516.300    98878914.8731       -187.292          24.000  
E33  26890242.211   141309175.7251       1565.864          18.000    26890242.741   108275864.0831       1192.067          23.000  
E29  25591381.740   134483617.9811       1335.397          25.000    25591385.512   103045930.3940       1023.981          32.000  
R22                                                                  20375427.661    84595289.8220       -714.350          30.000  
> 2026  6 16 19 54 27.0040000  0 29                           
G15  21955824.902   115378621.1610      -2826.410          44.000    21955819.240    89905387.9270      -2202.063          33.000  
S31  39565724.854   207919287.1131       -722.949          27.000  
G18  21533651.061   113160058.4870        -10.779          38.000    21533672.367    88176788.5671         -8.528          25.000  
E07  24917302.728   130941331.0800      -1389.493          39.000    24917309.208   100331748.6860      -1064.698          37.000  
S35  39397522.969   207035381.9130       -617.651          29.000  
C22  25859013.734   134654662.9730      -3198.371          28.000  
C31  24699260.325   128615470.4580      -3509.560          35.000  
C21  23371627.862   121702192.9140      -1465.301          34.000  
C14  23329079.690   121480611.1970       -153.516          35.000  
C34  22792983.884   118689050.6540       -925.218          34.000  
R21  24035073.963   128616526.6800      -4621.925          31.000    24035074.697   100035086.2351      -3600.197          22.000  
R06  25611273.324   136666661.6821      -4318.033          14.000                                                                  
R07  21242171.548   113710954.7920      -2732.917          34.000    21242178.750    88441924.5391      -2125.521          25.000  
R08  21431047.406   114762301.6130        693.239          30.000    21431047.268    89259554.1081        538.786          25.000  
R23  21590147.367   115492727.1220       2123.353          29.000                                                                  
G05  25676950.357   134933278.5770      -3105.076          30.000    25676951.890   105142825.2451      -2417.359          22.000  
G29  24435246.523   128408087.1601      -4083.631          21.000                                                                  
G27  25426327.571   133616252.6611       1257.454          26.000                                                                  
G20  24503112.512   128764729.0840      -3762.618          32.000    24503119.235   100336176.5351      -2930.587          25.000  
G24  23109088.241   121439076.5100       1580.867          35.000    23109095.258    94627845.2310       1232.439          26.000  
C42  24617499.148   128189746.4120        887.578          31.000  
C38  25952311.027   135140481.8760       1976.856          27.000  
R22  20376304.722   108770098.2221       -919.941          24.000    20376288.549    84598866.6850       -716.724          30.000  
E13  26771552.577   140685458.0181      -2329.447          18.000    26771589.054   107798094.7621      -1785.856          25.000  
G10  24944718.676   131085414.6430       1280.231          27.000    24944733.240   102144512.4461       1001.851          15.000  
G23  22444973.157   117949128.5120        400.289          32.000    22444976.514    91908425.9441        315.603          19.000  
E26  24556757.328   129046607.7480       -242.898          27.000    24556748.195    98879848.5191       -187.057          23.000  
E33  26888759.691   141301384.9451       1557.221          20.000    26888758.516   108269887.7801       1196.189          23.000  
E29  25590110.086   134476935.6051       1336.021          25.000    25590113.685   103040809.3200       1024.007          32.000  
> 2026  6 16 19 54 32.0040000  0 30                           
G15  21958516.101   115392761.6520      -2829.297          44.000    21958510.238    89916406.4780      -2204.144          33.000  
S31  38966700.786   204771394.2881       -644.922          28.000  
G18  21533663.296   113160122.5250        -14.310          38.000    21533686.745    88176846.5181        -12.101          24.000  
E07  24918626.724   130948289.1640      -1392.958          39.000    24918633.273   100337080.2030      -1066.896          37.000  
S33  39670132.173   208467951.2781       -536.719          27.000  
S35  39398109.960   207038464.6280       -620.708          29.000  
C22  25862085.835   134670658.3000      -3199.365          28.000  
C31  24702631.458   128633024.1400      -3511.232          36.000  
C21  23373035.369   121709524.3470      -1467.261          35.000  
C14  23329228.235   121481383.1400       -155.756          35.000  
C34  22793875.457   118693688.6050       -928.555          35.000  
R21  24039394.003   128639644.9450      -4624.659          31.000    24039394.263   100053064.2311      -3600.271          22.000  
R06  25615319.646   136688253.5761      -4317.099          14.000                                                                  
R07  21244725.761   113724628.9340      -2736.414          34.000    21244733.564    88452560.9591      -2127.601          25.000  
R08  21430402.344   114758844.5690        689.409          31.000    21430400.396    89256856.8710        536.537          26.000  
R23  21588164.741   115482123.0090       2119.609          29.000                                                                  
G05  25679906.081   134948806.9880      -3105.850          31.000    25679912.038   105154946.4471      -2426.177          22.000  
G29  24439130.599   128428497.2061      -4088.828          19.000                                                                  
G27  25425137.348   133609997.9861       1253.892          25.000                                                                  
G20  24506693.184   128783546.9720      -3764.356          33.000    24506698.399   100350832.8041      -2932.983          25.000  
G24  23107584.904   121431179.3260       1578.027          35.000    23107591.910    94621725.6841       1229.703          26.000  
C42  24616648.244   128185314.8350        885.170          31.000  
C38  25950413.482   135130606.8430       1974.442          27.000  
R22  20377165.945   108774695.3481       -924.860          22.000    20377152.947    84602457.4810       -719.467          29.000  
E13  26773769.893   140697110.0191      -2329.966          19.000    26773807.278   107807026.9881      -1786.995          26.000  
G10  24943499.667   131079016.1000       1279.761          27.000    24943509.187   102139500.0131       1000.240          16.000  
G23  22444593.524   117947134.0030        398.136          31.000    22444595.700    91906867.3331        318.628          21.000  
E26  24556988.956   129047830.5580       -245.229          27.000    24556981.078    98880786.6321       -188.182          22.000  
E33  26887275.911   141293588.4341       1559.005          20.000    26887276.958   108263922.7101       1194.868          22.000  
E29  25588837.336   134470247.5921       1332.673          24.000    25588843.131   103035693.1730       1022.771          31.000  
> 2026  6 16 19 54 37.0040000  0 29                           
G15  21961209.795   115406916.9080      -2832.843          44.000    21961203.879    89927436.5420      -2206.946          33.000  
S31  39566871.288   207925311.6481       -621.729          28.000  
G18  21533678.445   113160203.5590        -18.252          38.000    21533702.564    88176911.6271        -13.877          24.000  
E07  24919953.960   130955261.7100      -1396.562          39.000    24919960.269   100342422.8270      -1070.060          37.000  
S33  40270269.357   211621693.4661       -881.494          27.000  
S35  39398698.301   207041562.9680       -621.518          30.000  
C22  25865158.697   134686657.9640      -3200.712          27.000  
C31  24706004.435   128650588.6700      -3514.573          36.000  
C21  23374444.872   121716866.6890      -1470.201          35.000  
C14  23329378.633   121482167.1790       -158.461          35.000  
C34  22794769.514   118698344.3620       -933.380          35.000  
R21  24043717.052   128662775.6760      -4627.451          31.000    24043713.639   100071041.8111      -3601.022          22.000  
R07  21247282.711   113738317.1700      -2738.951          34.000    21247291.257    88463210.3341      -2129.467          26.000  
R08  21429760.426   114755406.1840        686.020          31.000    21429755.506    89254182.7020        533.205          26.000  
R23  21586185.247   115471536.7520       2115.374          29.000                                                                  
G05  25682862.418   134964340.4150      -3107.609          31.000    25682872.537   105167069.3151      -2424.723          22.000  
G29  24443017.124   128448921.2891      -4094.396          17.000                                                                  
G27  25423946.667   133603741.0501       1249.149          26.000                                                                  
G20  24510275.351   128802373.2650      -3766.199          33.000    24510281.766   100365505.6471      -2935.165          26.000  
G24  23106085.084   121423298.8870       1573.657          34.000    23106090.293    94615577.0591       1225.594          25.000  
C42  24615799.236   128180894.8310        882.135          32.000  
C38  25948519.384   135120743.3110       1970.521          27.000  
R22  20378035.530   108779336.7791       -928.018          20.000    20378021.917    84606067.4830       -724.277          29.000  
E13  26775988.281   140708767.8981      -2336.879          18.000    26776027.951   107815968.1071      -1788.220          27.000  
G10  24942282.092   131072623.6460       1277.704          27.000    24942291.730   102134514.8981       1007.997          15.000  
G23  22444214.916   117945147.4790        396.127          30.000    22444220.287    91905329.5791        308.103          20.000  
E26  24557220.178   129049064.0150       -247.683          26.000    24557216.740    98881735.5011       -191.167          21.000  
E33  26885794.921   141285804.9341       1544.477          20.000    26885792.966   108257946.4981       1200.045          22.000  
E29  25587566.517   134463569.3811       1331.027          23.000    25587574.702   103030586.8460       1019.918          32.000  
> 2026  6 16 19 54 42.0040000  0 29                           
G15  21963905.825   115421083.9960      -2834.314          44.000    21963899.882    89938475.8070      -2207.538          33.000  
S31  39567454.251   207928374.7741       -569.238          27.000  
G18  21533696.490   113160298.6810        -19.878          38.000    21533722.076    88176991.7781        -14.791          22.000  
E07  24921282.874   130962245.7870      -1397.335          39.000    24921289.232   100347774.2860      -1070.698          37.000  
S33  40270916.275   211625092.9441       -607.520          27.000  
S35  39399287.865   207044655.7370       -619.796          30.000  
C22  25868231.678   134702659.0200      -3199.844          28.000  
C31  24709379.257   128668161.0980      -3514.946          36.000  
C21  23375856.293   121724217.0050      -1470.274          35.000  
C14  23329531.085   121482960.4280       -159.152          35.000  
C34  22795666.491   118703014.9470       -934.994          35.000  
R21  24048041.635   128685915.8080      -4628.086          31.000    24048035.938   100089031.6981      -3595.375          23.000  
R07  21249841.765   113752016.4810      -2740.959          33.000    21249853.657    88473878.8571      -2131.348          25.000  
R08  21429121.671   114751983.7020        682.581          30.000    21429113.386    89251520.7610        531.355          28.000  
R23  21584211.813   115460965.5650       2113.067          28.000                                                                  
G05  25685819.217   134979875.8190      -3106.296          32.000    25685827.465   105179169.4521      -2423.994          22.000  
G29  24446908.554   128469371.3191      -4093.635          17.000                                                                  
G27  25422758.996   133597500.1411       1247.375          25.000                                                                  
G20  24513858.926   128821205.0620      -3766.471          33.000    24513866.315   100380183.7691      -2935.105          26.000  
G24  23104587.977   121415432.2460       1572.272          34.000    23104592.702    94609444.2521       1225.256          24.000  
C42  24614952.092   128176483.5120        881.717          31.000  
C38  25946628.051   135110888.1780       1970.447          28.000  
R22  20378908.463   108783996.3471       -939.446          20.000    20378895.083    84609694.2940       -726.881          29.000  
E13  26778211.395   140720449.8511      -2337.267          19.000    26778249.122   107824914.8630      -1788.913          27.000  
G10  24941063.077   131066234.2660       1277.850          27.000    24941077.097   102129540.9341        985.206          15.000  
G23  22443837.168   117943166.0400        396.035          28.000    22443842.578    91903782.9261        310.855          19.000  
E26  24557454.716   129050305.2210       -247.893          25.000    24557450.964    98882678.0571       -180.976          20.000  
E33  26884313.194   141278019.2411       1560.700          22.000    26884309.785   108251974.8031       1195.480          22.000  
E29  25586299.610   134456910.9771       1334.245          22.000    25586309.018   103025488.1150       1019.288          31.000  
> 2026  6 16 19 54 57.0040000  0 29                           
G15  21972008.648   115463664.0350      -2842.346          42.000    21972002.400    89971655.1090      -2214.795          30.000  
S31  38969662.630   204786959.1031       -626.938          29.000  
G18  21533768.045   113160676.5690        -29.786          36.000    21533779.602    88177227.1190        -22.748          27.000  
E07  24925285.206   130983275.1880      -1405.353          38.000    24925290.209   100363887.6910      -1076.755          38.000  
C22  25877454.148   134750678.4830      -3201.562          25.000  
C31  24719513.492   128720933.6500      -3520.903          38.000  
C21  23380101.144   121746323.7690      -1476.008          37.000  
C14  23329999.940   121485403.1500       -165.560          35.000  
C34  22798376.334   118717123.7620       -944.653          34.000  
R21  24061026.876   128755401.4010      -4635.483          28.000    24061028.002   100143101.4740      -3605.036          30.000  
R07  21257532.470   113793188.4730      -2748.482          34.000    21257541.485    88505896.5190      -2137.453          28.000  
R08  21427223.862   114741818.9610        672.462          30.000    21427220.906    89243614.9630        523.002          29.000  
R23  21578299.255   115429350.3980       2103.156          26.000                                                                  
G05  25694692.111   135026501.6030      -3109.027          35.000    25694699.878   105215500.0131      -2421.580          26.000  
G29  24458601.624   128530799.2980      -4091.383          27.000                                                                  
G27  25419211.978   133578859.9301       1237.989          25.000                                                                  
G20  24524617.915   128877741.1080      -3770.838          33.000    24524621.313   100424233.6780      -2937.765          28.000  
G24  23100113.801   121391923.0490       1563.030          35.000    23100118.590    94591123.9361       1218.846          24.000  
C42  24612421.311   128163309.4690        875.180          30.000  
C38  25940962.319   135081397.7771       1959.007          18.000  
R22  20381551.751   108798107.0701       -950.796          20.000    20381540.359    84620681.6490       -737.452          28.000  
E13  26784892.773   140755560.7921      -2340.454          26.000    26784921.015   107851792.1560      -1794.014          31.000  
G32  26257030.643   137981627.2691       2706.062          18.000                                                                  
G10  24937418.159   131047016.5291       1276.798          22.000                                                                  
G23  22442708.226   117937227.5811        395.691          24.000    22442716.825    91899173.3071        313.442          21.000  
E26  24558179.049   129054101.7971       -254.937          25.000    24558166.835    98885560.8531       -189.054          11.000  
E33  26879862.333   141254629.5821       1557.902          20.000    26879863.978   108234072.7591       1196.278          23.000  
E29  25582525.977   134437073.9860       1323.012          27.000    25582524.307   103010243.4130       1014.417          32.000  
E08                                                                  28506668.907   114784542.2921      -2534.447          23.000  
> 2026  6 16 19 55  2.0040000  0 28                           
G15  21974714.267   115477881.8940      -2845.398          42.000    21974708.363    89982733.9000      -2216.544          29.000  
S31  39569826.304   207940840.1880       -624.155          29.000  
G18  21533797.360   113160831.6520        -33.104          36.000    21533802.494    88177348.0170        -25.802          27.000  
E07  24926623.388   130990308.9290      -1408.573          38.000    24926628.255   100369277.1930      -1079.456          38.000  
C22  25880528.901   134766688.7830      -3203.484          26.000  
C31  24722894.982   128738541.1720      -3523.192          39.000  
C21  23381519.687   121753709.5190      -1478.385          37.000  
C14  23330159.649   121486236.6350       -167.685          34.000  
C34  22799285.243   118721857.3650       -949.041          34.000  
R21  24065358.797   128778583.0570      -4637.708          28.000    24065363.129   100161131.5860      -3606.852          30.000  
R07  21260100.487   113806935.2290      -2751.377          34.000    21260105.861    88516588.4180      -2139.521          28.000  
R08  21426597.569   114738463.0830        669.133          29.000    21426593.416    89241004.8670        520.174          30.000  
R23  21576331.607   115418824.2851       2099.476          26.000                                                                  
G05  25697649.708   135042048.4140      -3110.645          36.000    25697656.094   105227605.2461      -2425.208          25.000  
G29  24462497.844   128551259.5010      -4093.640          28.000                                                                  
G27  25418032.202   133572660.2711       1233.269          25.000                                                                  
G20  24528206.212   128896598.2830      -3772.823          33.000    24528209.188   100438927.5990      -2939.988          29.000  
G24  23098627.665   121384115.2480       1559.663          35.000    23098629.309    94585025.3001       1214.536          25.000  
C42  24611581.591   128158936.3460        872.615          29.000  
C38  25939077.783   135071584.9011       1950.875          15.000  
R22  20382437.734   108802836.4321       -957.546          21.000    20382430.909    84624378.4560       -741.682          28.000  
E08  28509789.253   149819953.1141      -3302.249          15.000    28509817.076   114797218.9061      -2535.831          23.000  
E13  26787125.884   140767295.7431      -2344.092          26.000    26787149.383   107860763.1260      -1795.002          31.000  
G10  24936204.346   131040638.0871       1272.316          20.000                                                                  
G23  22442341.068   117935297.3201        390.049          20.000    22442342.696    91897641.1401        300.868          20.000  
E26  24558426.905   129055403.6311       -256.692          25.000                                                                  
E33  26878378.383   141246831.6241       1550.390          20.000    26878384.017   108228113.6541       1196.560          24.000  
E29  25581275.379   134430462.7340       1321.004          28.000    25581267.629   103005177.7350       1011.803          32.000  
> 2026  6 16 19 55  7.0040000  0 28                           
G15  21977423.224   115492117.8900      -2848.615          42.000    21977417.572    89993826.8610      -2220.166          30.000  
S31  39570422.231   207943971.8921       -625.684          28.000  
G18  21533830.455   113161007.2160        -36.477          36.000    21533828.850    88177484.8640        -28.945          26.000  
E07  24927965.665   130997360.5320      -1411.527          38.000    24927970.183   100374680.4080      -1081.670          38.000  
C22  25883605.211   134782706.5850      -3203.844          26.000  
C31  24726278.879   128756162.8670      -3525.509          39.000  
C21  23382941.051   121761109.5690      -1481.131          38.000  
C14  23330322.263   121487085.5780       -170.717          35.000  
C34  22800198.515   118726612.0400       -952.987          33.000  
R21  24069694.167   128801780.6360      -4641.357          29.000    24069698.496   100179174.0150      -3609.137          30.000  
R07  21262671.674   113820699.6270      -2754.237          33.000    21262673.815    88527294.1120      -2142.422          28.000  
R08  21425975.770   114735129.6750        664.708          29.000    21425971.249    89238412.1830        517.858          30.000  
R23  21574371.572   115408339.9291       2094.300          26.000                                                                  
G05  25700609.271   135057603.5250      -3111.708          36.000    25700614.481   105239719.1821      -2425.044          26.000  
G29  24466393.855   128571731.6010      -4095.051          28.000                                                                  
G27  25416861.810   133566510.0461       1229.758          25.000                                                                  
G20  24531797.057   128915467.1760      -3774.876          33.000    24531802.021   100453630.6610      -2940.969          29.000  
G24  23097145.700   121376327.6620       1556.412          34.000    23097147.462    94578956.9841       1217.061          23.000  
C42  24610744.428   128154578.1340        870.526          29.000  
C38  25937193.755   135061773.8731       1955.523          20.000  
R22  20383335.599   108807628.8011       -962.592          22.000    20383327.260    84628097.0180       -745.494          28.000  
E08  28512942.055   149836520.9621      -3304.143          14.000                                                                  
E13  26789362.590   140779020.2580      -2345.470          27.000    26789379.782   107869744.7140      -1796.562          31.000  
G10  24934994.603   131034280.3371       1275.414          17.000                                                                  
G23  22441976.873   117933383.6551        388.177          21.000    22441972.652    91896126.3201        304.609          21.000  
E26  24558677.134   129056718.4661       -259.320          23.000                                                                  
E33  26876897.462   141239048.6831       1549.820          21.000    26876905.904   108222162.5241       1191.247          24.000  
E29  25580026.260   134423867.7320       1317.968          27.000    25580013.787   103000124.4350       1010.322          32.000  
> 2026  6 16 19 55 12.0040000  0 29                           
G15  21980133.811   115506361.7390      -2850.018          44.000    21980128.471    90004925.9710      -2220.819          32.000  
S31  39571013.098   207947076.4961       -623.633          27.000  
G18  21533864.929   113161193.0400        -38.885          35.000    21533859.588    88177563.6550        -29.081          26.000  
E07  24929310.180   131004419.7780      -1412.785          40.000    24929314.152   100380089.4530      -1082.530          39.000  
S33  39674868.191   208492839.0251       -522.266          28.000  
C22  25886679.623   134798722.0360      -3202.063          26.000  
C31  24729663.786   128773788.5740      -3525.475          38.000  
C21  23384363.074   121768513.6810      -1481.076          36.000  
C14  23330486.231   121487939.8530       -171.551          34.000  
C34  22801113.807   118731377.8350       -954.466          35.000  
R21  24074030.536   128824983.4850      -4640.649          27.000    24074034.693   100197220.8110      -3609.643          28.000  
R07  21265243.915   113834471.0390      -2754.713          33.000    21265245.830    88538005.1690      -2142.212          28.000  
R08  21425355.563   114731807.8720        663.814          29.000    21425350.850    89235828.5790        515.749          29.000  
R23  21572411.645   115397864.7510       2094.216          29.000                                                                  
G05  25703568.832   135073156.8530      -3110.144          33.000    25703575.057   105251842.6011      -2423.681          21.000  
G29  24470284.840   128592214.0121      -4095.099          24.000                                                                  
G27  25415693.258   133560368.8361       1226.513          23.000                                                                  
G20  24535388.298   128934337.7290      -3774.802          33.000    24535395.004   100468334.8850      -2940.311          28.000  
G24  23095665.112   121368550.1420       1553.297          30.000    23095665.660    94572889.6051       1211.793          23.000  
C42  24609908.271   128150224.8790        870.510          27.000  
C38  25935309.404   135051961.1100       1959.532          26.000  
R22  20384235.045   108812430.3791       -963.887          21.000    20384226.022    84631829.4040       -748.182          29.000  
E13  26791592.328   140790767.8811      -2342.524          25.000    26791611.392   107878728.9370      -1797.383          30.000  
G10  24933783.777   131027917.6281       1261.785          18.000                                                                  
G23  22441609.529   117931453.4871        392.850          20.000    22441603.793    91894615.4991        301.331          22.000  
E26  24558915.005   129057969.0861       -260.917          24.000                                                                  
E33  26875419.623   141231283.1921       1558.040          22.000    26875428.550   108216213.2641       1192.986          23.000  
E29  25578768.145   134417332.9391       1319.553          25.000    25578759.199   102995075.7250       1009.258          30.000  
E08                                                                  28516113.825   114822573.1001      -2536.189          24.000  
