     3.05           O: OBSERVATION      M: MIXED            RINEX VERSION / TYPE
PYRINEXCONV 0.1.2 ALDELTUNES            20260616 174640 UTC PGM / RUN BY / DATE
UNKN                                                        MARKER NAME
NONE                                                        MARKER TYPE
                                                            OBSERVER / AGENCY
                                                            REC # / TYPE / VERS
                                                            ANT # / TYPE
   112730.3048 -5325851.1218  3496026.5043                  APPROX POSITION XYZ
        0.0000        0.0000        0.0000                  ANTENNA: DELTA H/E/N
G    8 C1C L1C D1C S1C C2L L2L D2L S2L                      SYS / # / OBS TYPES
E    8 C1C L1C D1C S1C C7Q L7Q D7Q S7Q                      SYS / # / OBS TYPES
C    4 C2I L2I D2I S2I                                      SYS / # / OBS TYPES
R    8 C1C L1C D1C S1C C2C L2C D2C S2C                      SYS / # / OBS TYPES
S    4 C1C L1C D1C S1C                                      SYS / # / OBS TYPES
DBHZ                                                        SIGNAL STRENGTH UNIT
     5.000                                                  INTERVAL
  2026     6    16    17    46   22.0010000     GPS         TIME OF FIRST OBS
  2026     6    16    17    46   37.0010000     GPS         TIME OF LAST OBS
  6 R05  1 R06 -4 R07  5 R20  2 R21  4 R22 -3               GLONASS SLOT / FRQ
 C1C    0.000 C1P    0.000 C2C    0.000 C2P    0.000        GLONASS COD/PHS/BIS
    18        2423     2GPS                                 LEAPSECONDS
    33                                                      # OF SATELLITES
                                                            END OF HEADER
> 2026  6 16 17 46 22.0010000  0 30                           
G15  21079721.943   110774688.0390       1793.292          37.000    21079717.142    86317935.0730       1398.438          32.000  
G05  21421981.578   112573244.2500      -2440.893          39.000    21421974.713    87719431.4880      -1902.050          29.000  
G18  23332587.538   122613556.4140       1810.708          28.000                                                                  
E07  25331265.913   133116715.9600       1764.090          42.000    25331269.934   101998536.6410       1351.510          42.000  
C22  21959255.910   114347593.8470      -1445.547          32.000  
C31  21671408.801   112848731.0240       -424.682          28.000  
C35  23989400.673   124919173.0320      -2817.517          39.000  
C21  23307288.851   121367179.8150       1568.344          29.000  
C14  25044110.286   130411253.9391       2368.794          22.000  
C34  23957790.426   124754513.2930       1927.949          31.000  
R21  20176612.237   107969125.3740       -548.085          43.000    20176609.585    83975940.8480       -426.470          40.000  
R06  20001137.043   106729873.8600      -2242.359          34.000    20001140.906    83012145.4290      -1744.253          35.000  
R20  22250243.908   118982055.5700      -2994.175          30.000    22250256.982    92541636.0520      -2328.274          28.000  
R07  20733452.357   110987792.9111       2378.888          23.000    20733452.174    86323838.2480       1852.617          27.000  
G29  20774454.601   109170502.4510       -239.085          28.000    20774456.452    85067896.4560       -185.437          28.000  
G11  24400057.502   128223167.3981      -2969.976          25.000                                                                  
G20  21171625.666   111257658.6320       -118.066          43.000    21171624.198    86694280.7320        -92.047          37.000  
G21  23494855.150   123466294.9570      -3506.485          33.000                                                                  
C19  25868795.477   134705656.1730      -3643.111          29.000  
R22  22265945.273   118857206.4470       2454.666          28.000    22265947.461    92444397.5270       1908.939          29.000  
R05  23543163.333   125851700.1640      -4752.924          27.000                                                                  
E08  25224784.278   132557113.8730       -680.635          39.000    25224780.874   101569726.8470       -521.504          28.000  
E13  24477902.195   128632216.2980      -1032.686          40.000    24477907.230    98562442.9130       -791.466          41.000  
E21  26916322.722   141446230.0841      -3089.519          22.000                                                                  
E03  28399778.939   149241844.8021      -2842.610          17.000                                                                  
E23  26676948.537   140188303.6300      -1307.584          33.000    26676941.397   107416987.8151      -1001.512          25.000  
G23  24013127.706   126189807.2960       1846.576          29.000                                                                  
E26  25053845.567   131658877.2810        605.144          29.000    25053833.809   100881408.2330        463.934          28.000  
E32  26505477.216   139287243.4540      -1822.871          28.000    26505476.556   106726562.0930      -1397.256          35.000  
E15  27779491.913   145982214.3601      -2260.792          24.000    27779504.255   111856551.5730      -1733.240          27.000  
> 2026  6 16 17 46 27.0010000  0 31                           
G15  21078016.469   110765725.5440       1791.156          37.000    21078011.314    86310951.3050       1395.819          32.000  
G05  21424304.477   112585450.9290      -2442.118          39.000    21424297.594    87728943.1120      -1902.879          29.000  
G18  23330864.577   122604499.4770       1811.539          29.000                                                                  
E07  25329588.242   133107898.5780       1762.952          42.000    25329592.069   101991780.4590       1350.733          42.000  
S33  38770358.698   203739609.9041       -608.936          28.000  
C22  21960644.358   114354825.2280      -1446.861          32.000  
C31  21671816.507   112850856.8150       -426.422          28.000  
C35  23992106.640   124933264.2750      -2818.951          39.000  
C21  23305784.447   121359342.6750       1566.858          29.000  
C14  25041842.955   130399447.5491       2366.791          22.000  
C34  23955939.816   124744875.7100       1927.281          31.000  
R21  20177125.303   107971871.3070       -550.483          44.000    20177122.932    83978076.5720       -428.230          41.000  
R06  20003240.856   106741095.4260      -2246.423          34.000    20003244.085    83020873.3740      -1747.668          35.000  
R20  22253043.712   118997028.7370      -2996.298          30.000    22253054.174    92553281.9580      -2329.964          30.000  
R07  20731232.768   110975911.5651       2379.111          25.000    20731228.407    86314580.1340       1850.567          28.000  
G29  20774681.875   109171701.0620       -241.551          27.000    20774685.353    85068830.4880       -188.277          28.000  
G11  24402883.826   128238023.5850      -2971.139          27.000                                                                  
G20  21171739.286   111258256.5940       -121.130          43.000    21171738.178    86694746.6680        -94.238          37.000  
G21  23498192.526   123483831.1880      -3506.881          33.000                                                                  
C19  25872293.626   134723870.2000      -3643.143          28.000  
R22  22263645.988   118844931.9940       2455.606          30.000    22263648.099    92434850.6800       1910.452          29.000  
R05  23547607.911   125875465.9750      -4753.707          27.000                                                                  
E08  25225432.590   132560522.8240       -682.686          39.000    25225431.313   101572338.9570       -524.252          30.000  
E13  24478885.480   128637381.1060      -1032.895          40.000    24478890.405    98566400.3710       -791.696          41.000  
E21  26919268.098   141461707.9551      -3095.264          23.000                                                                  
E03  28402489.175   149256087.7621      -2850.327          18.000                                                                  
E23  26678193.236   140194844.7990      -1309.601          34.000    26678186.800   107422002.9021      -1003.253          25.000  
G23  24011371.526   126180577.0440       1844.958          31.000                                                                  
E26  25053268.108   131655849.2580        606.114          31.000    25053257.743   100879088.0860        464.426          29.000  
E32  26507213.062   139296364.1420      -1825.887          27.000    26507212.101   106733550.6280      -1398.758          35.000  
E15  27781645.097   145993529.8211      -2261.813          22.000    27781657.073   111865217.2430      -1732.637          26.000  
> 2026  6 16 17 46 32.0010000  0 31                           
G15  21076313.213   110756775.4580       1789.514          36.000    21076308.010    86303977.2810       1394.250          31.000  
G05  21426628.377   112597662.9250      -2442.404          39.000    21426621.598    87738458.9020      -1902.836          31.000  
G18  23329140.996   122595442.2940       1812.419          30.000                                                                  
E07  25327911.261   133099087.0350       1762.295          41.000    25327915.360   101985028.7610       1350.528          42.000  
S33  39370535.074   206893557.2781       -578.369          27.000  
C22  21962034.395   114362067.7900      -1448.971          30.000  
C31  21672227.157   112852991.6960       -426.678          31.000  
C35  23994813.981   124947362.0740      -2819.739          40.000  
C21  23304281.226   121351514.5710       1564.714          25.000  
C14  25039571.825   130387620.6451       2370.366          14.000  
C34  23954090.002   124735240.5450       1927.222          32.000  
R21  20177640.269   107974628.3040       -551.736          43.000    20177638.311    83980220.8670       -429.073          40.000  
R06  20005348.217   106752335.4690      -2249.752          36.000    20005350.822    83029615.6140      -1748.940          36.000  
R20  22255845.240   119012010.3760      -2996.471          31.000    22255856.595    92564934.4450      -2330.505          34.000  
R07  20729015.126   110964032.5250       2377.301          32.000    20729007.049    86305330.9761       1849.489          25.000  
G29  20774911.638   109172915.0250       -244.072          28.000    20774916.785    85069776.3720       -189.188          25.000  
G11  24405710.383   128252873.4730      -2970.019          27.000                                                                  
G20  21171855.780   111258869.8700       -123.663          42.000    21171854.793    86695224.5610        -96.118          36.000  
G21  23501529.574   123501367.4470      -3507.027          35.000                                                                  
C19  25875791.619   134742086.2930      -3642.761          27.000  
R22  22261346.993   118832657.6460       2455.536          29.000    22261348.725    92425303.9260       1911.046          32.000  
R05  23552051.957   125899215.4181      -4754.761          24.000                                                                  
E08  25226083.792   132563942.9080       -684.036          39.000    25226083.031   101574959.5440       -524.491          33.000  
E13  24479868.893   128642547.0700      -1032.506          39.000    24479873.484    98570358.6880       -791.065          40.000  
E21  26922213.389   141477185.7191      -3097.237          24.000                                                                  
E03  28405202.915   149270348.5301      -2848.424          24.000                                                                  
E23  26679439.264   140201395.5330      -1310.279          33.000    26679431.315   107427014.2821      -1004.339          24.000  
G23  24009617.281   126171351.1620       1845.856          32.000                                                                  
E26  25052691.053   131652820.7930        606.643          31.000    25052685.213   100876777.5610        464.635          27.000  
E32  26508948.964   139305466.3741      -1827.169          23.000    26508949.399   106740546.4000      -1399.233          34.000  
E15  27783794.414   146004824.9651      -2261.583          25.000    27783808.195   111873883.3880      -1732.188          30.000  
> 2026  6 16 17 46 37.0010000  0 32                           
G15  21074611.305   110747832.7570       1787.646          36.000    21074606.476    86297008.8880       1393.524          32.000  
G05  21428952.236   112609875.1740      -2442.899          39.000    21428945.528    87747974.9900      -1903.051          31.000  
G18  23327415.833   122586379.8420       1812.825          29.000                                                                  
E07  25326234.505   133090276.3000       1761.695          41.000    25326238.622   101978277.6930       1349.933          42.000  
S35  38502377.572   202331359.0881       -720.947          26.000  
C22  21963425.733   114369316.5640      -1450.626          28.000  
C31  21672638.840   112855130.5560       -428.517          32.000  
C35  23997521.298   124961461.4300      -2820.636          39.000  
C21  23302771.614   121343646.6750       1564.074          26.000  
C14  25037303.880   130375810.6061       2364.669          14.000  
C34  23952239.457   124725602.7740       1927.629          33.000  
R21  20178156.337   107977391.3250       -553.617          44.000    20178154.695    83982369.8990       -430.507          40.000  
R06  20007457.591   106763588.8260      -2253.021          35.000    20007460.077    83038368.2170      -1751.433          36.000  
R20  22258647.643   119026995.5620      -2998.078          31.000    22258658.492    92576589.5690      -2331.397          33.000  
R07  20726796.557   110952153.6760       2374.202          31.000    20726782.618    86296069.2671       1850.232          23.000  
S31  38067534.159   200046242.0871       -695.605          27.000  
G29  20775144.016   109174139.3410       -246.179          29.000    20775150.054    85070730.4480       -191.619          25.000  
G11  24408537.365   128267725.9890      -2970.372          27.000                                                                  
G20  21171974.293   111259493.4100       -126.196          42.000    21171973.413    86695710.4280        -97.760          36.000  
G21  23504865.482   123518898.6500      -3506.189          35.000                                                                  
C19  25879289.153   134760299.5310      -3642.789          27.000  
R22  22259046.609   118820378.0310       2455.711          31.000    22259048.229    92415753.1450       1910.711          31.000  
R05  23556495.675   125922968.7471      -4749.908          22.000                                                                  
E08  25226735.780   132567369.1320       -686.326          39.000    25226735.550   101577584.8230       -525.836          34.000  
E13  24480851.276   128647709.1890      -1032.337          40.000    24480855.642    98574314.0670       -790.943          41.000  
E21  26925158.714   141492663.4161      -3094.111          23.000                                                                  
E03  28407912.920   149284589.0371      -2840.942          23.000                                                                  
E23  26680687.331   140207950.8520      -1312.672          33.000    26680678.241   107432035.1251      -1007.791          24.000  
G23  24007862.058   126162124.7660       1845.526          32.000                                                                  
E26  25052114.553   131649787.1050        606.760          31.000    25052108.837   100874453.0430        464.971          26.000  
E32  26510687.673   139314603.2011      -1834.229          22.000    26510687.612   106747545.6230      -1400.441          33.000  
E15  27785943.159   146016116.5391      -2260.840          24.000    27785958.292   111882546.1600      -1732.663          30.000  
