     3.05           N: NAVIGATION       G: GPS              RINEX VERSION / TYPE
PYRINEXCONV 0.1.2 ALDELTUNES            20260721 160921 UTC PGM / RUN BY / DATE
GPSA   1.1176e-08  2.2352e-08  1.5199e-05  1.5140e-05 Q 20  IONOSPHERIC CORR
GPSB   1.0650e+05  1.4746e+05  1.6712e+07  1.6450e+07 Q 20  IONOSPHERIC CORR
GPUT  1.2805685401e-09 2.224886941e-13 471600 2428   G20  0 TIME SYSTEM CORR
                                                            END OF HEADER
G18 2026 07 21 16 09 36-2.988978230860e-04 9.027445457832e-12 0.000000000000e+00
    -9.903907775879e-04-2.129296875000e+01 4.321430004906e-09-1.171842071446e+00
    -1.173466444016e-06 6.296380946878e-03 4.843808710575e-06 5.153604380750e+03
     1.683000000000e+05 1.210719347000e-07 5.764196494149e-01-7.636845111847e-08
     9.708442773667e-01 2.912695312500e+02-2.859241788360e+00-8.248679968395e-09
     1.142904749427e-11 4.321430004906e-09-2.000000000000e+00 3.000000000000e+00
     3.100000000000e+01 4.000000000000e+00-8.381903171539e-09 7.000000000000e+00
    -8.731149137020e-11 5.209585651755e-09-8.440110832453e-10-9.313225746155e-10
     2.309760000000e+05 2.428000000000e+03 0.000000000000e+00                   
G20 2026 07 21 16 09 36 2.373503521085e-04 1.182343112305e-11 0.000000000000e+00
     6.151199340820e-04-2.327734375000e+01 4.766984278315e-09-2.875869991117e+00
    -1.140870153904e-06 1.908211677801e-03 6.844289600849e-06 5.153609506294e+03
     1.737000000000e+05 1.266598701477e-07 2.629416314315e+00 1.024454832077e-08
     9.620876834995e-01 2.453750000000e+02-1.761959932772e+00-8.225286136805e-09
     2.287595287526e-10 4.766984278315e-09-3.000000000000e+00 2.000000000000e+00
     3.000000000000e+01 4.000000000000e+00-6.984919309616e-09 7.000000000000e+00
    -1.455191522837e-10 4.220055416226e-09 2.095475792885e-09 2.066371962428e-09
     2.309760000000e+05 2.428000000000e+03 0.000000000000e+00                   
G15 2026 07 21 16 09 36 4.301778972149e-04 3.101519041593e-12 0.000000000000e+00
    -4.768371582031e-07-2.023046875000e+01 5.231467911637e-09-2.795318440347e-01
    -9.303912520409e-07 1.702993165236e-02 7.171183824539e-06 5.153470715359e+03
     2.286000000000e+05-1.555308699608e-07 2.477128117095e+00 3.352761268616e-08
     9.447326701249e-01 2.350000000000e+02 1.537956477695e+00-7.686513694770e-09
     2.810831368123e-10 5.231467911637e-09-2.000000000000e+00 2.000000000000e+00
     2.800000000000e+01 4.000000000000e+00-1.071020960808e-08 7.000000000000e+00
    -2.037268131971e-10 6.199115887284e-09 0.000000000000e+00 0.000000000000e+00
     2.309760000000e+05 2.428000000000e+03 0.000000000000e+00                   
G05 2026 07 21 16 09 36-2.352912561037e-04-3.375077994860e-13 0.000000000000e+00
     1.489162445068e-03-5.639453125000e+01 4.079455639988e-09 1.068110716104e+00
    -2.820976078510e-06 5.605635116808e-03 8.237548172474e-06 5.153444998971e+03
     1.701000000000e+05-1.033768057823e-07 1.559744837976e+00-2.142041921616e-08
     9.811644329569e-01 2.322890625000e+02 1.482437930519e+00-8.453331350089e-09
     1.698285026102e-10 4.079455639988e-09-2.000000000000e+00 3.000000000000e+00
     3.000000000000e+01 4.000000000000e+00-1.071020960808e-08 7.000000000000e+00
    -3.783497959375e-10 5.733454599977e-09 0.000000000000e+00 0.000000000000e+00
     2.309760000000e+05 2.428000000000e+03 0.000000000000e+00                   
END OF FILE                                                 COMMENT
