     3.05           N: NAVIGATION       M: MIXED            RINEX VERSION / TYPE
PYRINEXCONV 0.1.2 ALDELTUNES            20260723 175448 UTC PGM / RUN BY / DATE
GPSA   1.3039e-08  2.2352e-08  1.5199e-05  1.5140e-05 R 20  IONOSPHERIC CORR
GPSB   1.1059e+05  1.4746e+05  1.6712e+07  1.6384e+07 R 20  IONOSPHERIC CORR
GAL    1.1250e+02  1.5625e-02  2.2583e-02             R 32  IONOSPHERIC CORR
GPUT -6.6938810050e-10 3.930189507e-13 202800 2428   G20  0 TIME SYSTEM CORR
GAUT  3.7252902985e-09-1.776356839e-15 409200 1404   E32  0 TIME SYSTEM CORR
                                                            END OF HEADER
G18 2026 07 23 17 53 54-2.973238006234e-04 8.981260180008e-12 0.000000000000e+00
     6.700000000000e+01 2.871875000000e+01 4.335894893140e-09-8.379798440126e-01
     1.499429345131e-06 6.303326925263e-03 2.820044755936e-06 5.153618345261e+03
     4.104000000000e+05 1.639127731323e-07 5.749976323308e-01 1.862645149231e-09
     9.708314197797e-01 3.266562500000e+02-2.858204566276e+00-8.160339910912e-09
     1.367914121971e-10 1.000000000000e+00 3.800000000000e+02 0.000000000000e+00
     2.000000000000e+00 0.000000000000e+00-8.381903171539e-09 3.230000000000e+02
     1.640136000000e+06 4.000000000000e+00                                      
G23 2026 07 23 17 53 54 6.720083765686e-04 3.865352482535e-12 0.000000000000e+00
     2.000000000000e+01-7.856250000000e+01 3.901591088358e-09-2.057723519987e+00
    -4.166737198830e-06 6.458236486651e-03 5.416572093964e-06 5.153729879379e+03
     4.104000000000e+05 6.332993507385e-08 1.584729936854e+00-1.043081283569e-07
     9.892069772412e-01 2.904062500000e+02-2.742736676346e+00-7.745679781510e-09
     9.143237995420e-11 1.000000000000e+00 3.800000000000e+02 0.000000000000e+00
     2.000000000000e+00 0.000000000000e+00-8.381903171539e-09 5.320000000000e+02
     1.640136000000e+06 4.000000000000e+00                                      
G24 2026 07 23 17 53 54 1.261089928448e-04 1.853095454862e-11 0.000000000000e+00
     5.800000000000e+01-2.343750000000e+00 5.500943422088e-09-6.471120152015e-01
     3.352761268616e-08 1.844817656092e-02 6.696209311485e-06 5.153622369766e+03
     4.104000000000e+05-1.452863216400e-07-2.698867932465e+00 2.514570951462e-07
     9.355007968489e-01 2.369375000000e+02 1.163265935838e+00-8.657860634647e-09
     4.821629411647e-11 1.000000000000e+00 3.800000000000e+02 0.000000000000e+00
     2.000000000000e+00 0.000000000000e+00 2.328306436539e-09 5.800000000000e+01
     1.640136000000e+06 4.000000000000e+00                                      
G15 2026 07 23 17 53 54 4.307194612920e-04 3.069544618484e-12 0.000000000000e+00
     1.500000000000e+01-5.625000000000e+01 5.046995941925e-09 9.416727604503e-02
    -2.725049853325e-06 1.703003002331e-02 8.344650268555e-06 5.153756223679e+03
     4.103840000000e+05-1.769512891769e-07 2.475701874372e+00 1.117587089539e-08
     9.447837420580e-01 2.140312500000e+02 1.538650300972e+00-8.458566618966e-09
     2.078658013021e-10 1.000000000000e+00 3.800000000000e+02 0.000000000000e+00
     2.000000000000e+00 0.000000000000e+00-1.071020960808e-08 1.500000000000e+01
     1.640136000000e+06 4.000000000000e+00                                      
G10 2026 07 23 17 53 54-5.622678436339e-04 5.229594535194e-12 0.000000000000e+00
     4.700000000000e+01-7.668750000000e+01 3.729083902741e-09-3.068874717533e+00
    -4.051253199577e-06 1.114234176930e-02 5.930662155151e-06 5.153653192520e+03
     4.104000000000e+05 2.048909664154e-08 1.617521425540e+00-1.918524503708e-07
     9.942807253146e-01 2.847500000000e+02-2.265599389457e+00-7.532456614195e-09
     3.392998474863e-11 1.000000000000e+00 3.800000000000e+02 0.000000000000e+00
     2.000000000000e+00 0.000000000000e+00 2.328306436539e-09 4.700000000000e+01
     1.640136000000e+06 4.000000000000e+00                                      
G29 2026 07 23 17 53 54-2.763238735497e-04 7.389644451905e-12 0.000000000000e+00
     0.000000000000e+00 8.415625000000e+01 4.293393122771e-09 9.635671523024e-01
     4.434958100319e-06 3.657777095214e-03 7.010996341705e-06 5.153688468933e+03
     4.103840000000e+05 9.126961231232e-08-4.195713712317e-01 7.636845111847e-08
     9.601413404836e-01 2.422187500000e+02 2.871877099586e+00-7.941759377584e-09
     2.392956819114e-11 1.000000000000e+00 3.800000000000e+02 0.000000000000e+00
     2.000000000000e+00 0.000000000000e+00-9.778887033463e-09 0.000000000000e+00
     1.640136000000e+06 4.000000000000e+00                                      
G20 2026 07 23 17 53 54 2.394039183855e-04 1.170974428533e-11 0.000000000000e+00
     9.800000000000e+01-5.331250000000e+01 4.539117643898e-09-2.542842167537e+00
    -2.605840563774e-06 1.910811406560e-03 8.517876267433e-06 5.153617937088e+03
     4.104000000000e+05 9.126961231232e-08 2.628026342452e+00 1.173466444016e-07
     9.621395402881e-01 2.145937500000e+02-1.759973601622e+00-7.891042979328e-09
     3.185846989029e-10 1.000000000000e+00 3.800000000000e+02 0.000000000000e+00
     2.000000000000e+00 0.000000000000e+00-6.984919309616e-09 9.800000000000e+01
     1.640136000000e+06 4.000000000000e+00                                      
G05 2026 07 23 17 53 54-2.353526651859e-04-3.410605131648e-13 0.000000000000e+00
     3.600000000000e+01-9.096875000000e+01 4.122314568091e-09 1.398769642290e+00
    -4.714354872704e-06 5.609214655124e-03 5.347654223442e-06 5.153778293610e+03
     4.104000000000e+05-7.264316082001e-08 1.558380005628e+00-1.136213541031e-07
     9.811692166991e-01 2.896562500000e+02 1.484300619490e+00-7.927473068216e-09
     1.750072897561e-11 1.000000000000e+00 3.800000000000e+02 0.000000000000e+00
     2.000000000000e+00 0.000000000000e+00-1.071020960808e-08 3.600000000000e+01
     1.640136000000e+06 4.000000000000e+00                                      
E15 2026 07 23 17 54 04-2.763356897049e-04-3.097966327914e-12 0.000000000000e+00
     4.700000000000e+01 8.750000000000e-01 2.698326681851e-09-2.202405859090e+00
     3.911554813385e-08 7.609697058797e-05 6.482005119324e-07 5.440602851868e+03
     4.092000000000e+05-2.980232238770e-08 7.687500020490e-01 4.470348358154e-08
     9.975794344219e-01 3.473437500000e+02-8.379550694950e-01-5.654521247792e-09
     7.143154683922e-11 5.160000000000e+02 1.404000000000e+03                   
     1.070000000000e+02 0.000000000000e+00 4.423782229424e-09 4.889443516731e-09
     4.100440000000e+05                                                         
G23 2026 07 23 17 54 24 6.720013916492e-04 3.851141627820e-12 0.000000000000e+00
    -7.669925689697e-03-6.837500000000e+01 3.895162249142e-09-2.320502909780e+00
    -3.531575202942e-06 6.455913069658e-03 5.198642611504e-06 5.153492014674e+03
     3.942000000000e+05 2.328306436539e-08 1.584744013052e+00-1.313164830208e-07
     9.892068426527e-01 2.943125000000e+02-2.742497789138e+00-8.601730388648e-09
     6.357407668690e-11 3.895162249142e-09-2.000000000000e+00 3.000000000000e+00
     2.800000000000e+01 4.000000000000e+00-8.381903171539e-09 7.000000000000e+00
    -2.037268131971e-10 5.617039278150e-09-5.238689482212e-10-4.947651177645e-10
     4.100640000000e+05 2.428000000000e+03 0.000000000000e+00                   
G24 2026 07 23 17 54 24 1.260757562704e-04 1.853805997598e-11 0.000000000000e+00
    -1.371383666992e-03-3.566406250000e+00 5.453262864573e-09-9.096465776083e-01
    -9.778887033463e-08 1.844786328729e-02 6.542541086674e-06 5.153600127998e+03
     3.708000000000e+05-6.053596735001e-08-2.698852217799e+00 3.278255462646e-07
     9.355010682202e-01 2.386054687500e+02 1.163244793015e+00-7.764552659692e-09
     2.982267080537e-11 5.453262864573e-09-2.000000000000e+00 3.000000000000e+00
     2.900000000000e+01 4.000000000000e+00 2.328306436539e-09 7.000000000000e+00
     2.910383045673e-11-1.426087692380e-09 1.484295353293e-09 2.764863893390e-09
     4.100640000000e+05 2.428000000000e+03 0.000000000000e+00                   
G10 2026 07 23 17 54 24-5.622773314826e-04 5.282885240376e-12 0.000000000000e+00
    -5.117893218994e-03-7.308984375000e+01 3.703189967012e-09 2.951588352405e+00
    -3.827735781670e-06 1.114207092905e-02 5.533918738365e-06 5.153568383935e+03
     3.852000000000e+05-1.490116119385e-08 1.617535130157e+00-1.452863216400e-07
     9.942807750538e-01 2.923007812500e+02-2.265427514138e+00-8.834418652476e-09
     1.017899542459e-11 3.703189967012e-09-2.000000000000e+00 3.000000000000e+00
     2.800000000000e+01 4.000000000000e+00 2.328306436539e-09 7.000000000000e+00
    -8.149072527885e-10-4.656612873077e-10 1.059379428625e-08 1.103035174310e-08
     4.100640000000e+05 2.428000000000e+03 0.000000000000e+00                   
G15 2026 07 23 17 54 24 4.307129711378e-04 3.090860900556e-12 0.000000000000e+00
    -1.566886901855e-03-5.504687500000e+01 5.033423948025e-09-2.097593582107e-01
    -2.812594175339e-06 1.702968397876e-02 8.164905011654e-06 5.153466915772e+03
     4.023000000000e+05-1.592561602592e-07 2.475719404519e+00 4.284083843231e-08
     9.447832878219e-01 2.167656250000e+02 1.538620338216e+00-7.872950032020e-09
     2.303667385565e-10 5.033423948025e-09-2.000000000000e+00 2.000000000000e+00
     2.800000000000e+01 4.000000000000e+00-1.071020960808e-08 7.000000000000e+00
    -2.037268131971e-10 6.199115887284e-09 0.000000000000e+00 0.000000000000e+00
     4.100640000000e+05 2.428000000000e+03 0.000000000000e+00                   
G20 2026 07 23 17 54 24 2.393828472123e-04 1.168842800325e-11 0.000000000000e+00
     3.786087036133e-03-5.767187500000e+01 4.540724853702e-09-2.804761128165e+00
    -2.902001142502e-06 1.911459083203e-03 8.294358849525e-06 5.153605161074e+03
     3.474000000000e+05 1.341104507446e-07 2.628040771213e+00 5.029141902924e-08
     9.621389602411e-01 2.176562500000e+02-1.760606181297e+00-8.434401990177e-09
     2.714398779890e-10 4.540724853702e-09-3.000000000000e+00 2.000000000000e+00
     3.000000000000e+01 4.000000000000e+00-6.984919309616e-09 7.000000000000e+00
    -1.455191522837e-10 4.220055416226e-09 2.095475792885e-09 2.066371962428e-09
     4.100640000000e+05 2.428000000000e+03 0.000000000000e+00                   
E26 2026 07 23 17 54 35 3.698540385813e-04 1.081446043827e-11 0.000000000000e+00
     4.200000000000e+01 7.375000000000e+00 2.749757395576e-09-2.442122706705e+00
     1.154839992523e-07 1.004600198939e-04 1.002103090286e-06 5.440598712921e+03
     4.062000000000e+05 4.470348358154e-08 7.653799932403e-01-1.862645149231e-09
     9.909044800861e-01 3.295312500000e+02-2.553080033986e+00-5.624519998120e-09
     9.678974596714e-11 1.000000000000e+00 1.404000000000e+03                   
     1.070000000000e+02 0.000000000000e+00-5.587935447693e-09-6.053596735001e-09
     4.100750000000e+05                                                         
E07 2026 07 23 17 54 54-7.907272083685e-05-2.600586412882e-12 0.000000000000e+00
     4.700000000000e+01-6.303125000000e+01 3.102272079227e-09 2.011487109026e-01
    -2.816319465637e-06 4.106035921723e-04 8.331611752510e-06 5.440619991302e+03
     4.092000000000e+05 6.332993507385e-08 2.851170022287e+00-7.823109626770e-08
     9.694188831362e-01 1.624687500000e+02 1.786975017082e-01-5.372723795512e-09
     3.060841782060e-10 5.160000000000e+02 1.404000000000e+03                   
     1.070000000000e+02 0.000000000000e+00 3.492459654808e-09 4.190951585770e-09
     4.100940000000e+05                                                         
E13 2026 07 23 17 54 54-6.012758240104e-05-1.008970684779e-12 0.000000000000e+00
     4.600000000000e+01 4.343750000000e+00 2.663682381634e-09 2.278448434477e+00
     2.831220626831e-07 4.967185668647e-05 7.990747690201e-07 5.440602060318e+03
     4.086000000000e+05 2.793967723846e-08 7.688455876534e-01 7.636845111847e-08
     9.976244601146e-01 3.398750000000e+02 8.694493872569e-02-5.615233897031e-09
     7.714607058635e-11 5.160000000000e+02 1.404000000000e+03                   
     1.070000000000e+02 0.000000000000e+00 3.958120942116e-09 4.190951585770e-09
     4.100940000000e+05                                                         
E08 2026 07 23 17 54 54-1.882650540210e-04-7.034373084025e-12 0.000000000000e+00
     4.700000000000e+01-6.143750000000e+01 3.046912630427e-09 6.515521207897e-01
    -2.667307853699e-06 4.641483537853e-04 8.663162589073e-06 5.440622833252e+03
     4.092000000000e+05 1.061707735062e-07 2.854332641977e+00 8.754432201385e-08
     9.751256914534e-01 1.605937500000e+02 5.091469950789e-01-5.355937382004e-09
     3.825159333240e-10 5.160000000000e+02 1.404000000000e+03                   
     1.070000000000e+02 0.000000000000e+00-5.355104804039e-09-6.053596735001e-09
     4.100940000000e+05                                                         
E29 2026 07 23 17 54 54-2.279976033606e-04-3.680611371237e-12 0.000000000000e+00
     4.700000000000e+01-5.406250000000e+01 3.128701751558e-09-1.871744715120e+00
    -2.516433596611e-06 1.962302485481e-04 8.400529623032e-06 5.440618041992e+03
     4.092000000000e+05-4.097819328308e-08 2.850889791552e+00-6.891787052155e-08
     9.628053186947e-01 1.610625000000e+02 1.460580064074e+00-5.385224316209e-09
     3.307280618656e-10 5.160000000000e+02 1.404000000000e+03                   
     1.070000000000e+02 0.000000000000e+00-4.423782229424e-09-4.190951585770e-09
     4.100940000000e+05                                                         
E32 2026 07 23 17 54 54 3.699678927660e-06-2.387423592154e-12 0.000000000000e+00
     4.700000000000e+01-5.706250000000e+01 3.443000557650e-09 8.637742394128e-01
    -2.536922693253e-06 1.680382993072e-04 8.527189493179e-06 5.440615898132e+03
     4.092000000000e+05 1.117587089539e-08 2.868859441911e+00 1.061707735062e-07
     9.491494114485e-01 1.518750000000e+02 6.629278463829e-01-5.543802350192e-09
     4.253748614275e-10 5.160000000000e+02 1.404000000000e+03                   
     1.070000000000e+02 0.000000000000e+00-2.095475792885e-09-1.396983861923e-09
     4.100940000000e+05                                                         
END OF FILE                                                 COMMENT
