     3.05           N: NAVIGATION       M: MIXED            RINEX VERSION / TYPE
PYRINEXCONV 0.1.2 ALDELTUNES            20260723 175304 UTC PGM / RUN BY / DATE
GAL    1.1250e+02  1.5625e-02  2.2583e-02             R 08  IONOSPHERIC CORR
GPSA   1.3039e-08  2.2352e-08  1.5199e-05  1.5140e-05 R 20  IONOSPHERIC CORR
GPSB   1.1059e+05  1.4746e+05  1.6712e+07  1.6384e+07 R 20  IONOSPHERIC CORR
GAUT  3.7252902985e-09-1.776356839e-15 409200 1404   E08  0 TIME SYSTEM CORR
GPUT -6.6938810050e-10 3.930189507e-13 202800 2428   G20  0 TIME SYSTEM CORR
                                                            END OF HEADER
E32 2026 07 23 17 52 24 3.709457814693e-06-2.401634446869e-12 0.000000000000e+00
     4.000000000000e+01-5.534375000000e+01 3.450858027803e-09 3.453157575931e-01
    -2.386048436165e-06 1.678948756307e-04 8.331611752510e-06 5.440615085602e+03
     4.050000000000e+05 1.247972249985e-07 2.868883489358e+00 4.470348358154e-08
     9.491480860447e-01 1.544062500000e+02 6.606874341579e-01-5.578803808143e-09
     3.489431063096e-10 5.160000000000e+02 1.404000000000e+03                   
     1.070000000000e+02 0.000000000000e+00-2.095475792885e-09-1.396983861923e-09
     4.099440000000e+05                                                         
E08 2026 07 23 17 52 24-1.882354263216e-04-7.020162229310e-12 0.000000000000e+00
     4.000000000000e+01-6.131250000000e+01 3.036555056135e-09 1.321591693256e-01
    -2.663582563400e-06 4.638194805011e-04 8.288770914078e-06 5.440621448517e+03
     4.050000000000e+05 1.098960638046e-07 2.854355691715e+00-5.587935447693e-08
     9.751247815184e-01 1.658437500000e+02 5.078444874299e-01-5.356651697473e-09
     2.903692379014e-10 5.160000000000e+02 1.404000000000e+03                   
     1.070000000000e+02 0.000000000000e+00-5.355104804039e-09-6.053596735001e-09
     4.099440000000e+05                                                         
G20 2026 07 23 17 52 48 2.393828472123e-04 1.168842800325e-11 0.000000000000e+00
     3.786087036133e-03-5.767187500000e+01 4.540724853702e-09-2.804761128165e+00
    -2.902001142502e-06 1.911459083203e-03 8.294358849525e-06 5.153605161074e+03
     3.474000000000e+05 1.341104507446e-07 2.628040771213e+00 5.029141902924e-08
     9.621389602411e-01 2.176562500000e+02-1.760606181297e+00-8.434401990177e-09
     2.714398779890e-10 4.540724853702e-09-3.000000000000e+00 2.000000000000e+00
     3.000000000000e+01 4.000000000000e+00-6.984919309616e-09 7.000000000000e+00
    -1.455191522837e-10 4.220055416226e-09 2.095475792885e-09 2.066371962428e-09
     4.099680000000e+05 2.428000000000e+03 0.000000000000e+00                   
G15 2026 07 23 17 52 48 4.307129711378e-04 3.090860900556e-12 0.000000000000e+00
    -1.566886901855e-03-5.504687500000e+01 5.033423948025e-09-2.097593582107e-01
    -2.812594175339e-06 1.702968397876e-02 8.164905011654e-06 5.153466915772e+03
     4.023000000000e+05-1.592561602592e-07 2.475719404519e+00 4.284083843231e-08
     9.447832878219e-01 2.167656250000e+02 1.538620338216e+00-7.872950032020e-09
     2.303667385565e-10 5.033423948025e-09-2.000000000000e+00 2.000000000000e+00
     2.800000000000e+01 4.000000000000e+00-1.071020960808e-08 7.000000000000e+00
    -2.037268131971e-10 6.199115887284e-09 0.000000000000e+00 0.000000000000e+00
     4.099680000000e+05 2.428000000000e+03 0.000000000000e+00                   
G29 2026 07 23 17 52 48-2.763394149952e-04 7.396749879263e-12 0.000000000000e+00
     2.827644348145e-03 8.214453125000e+01 4.334466262204e-09 6.595215491598e-01
     4.328787326813e-06 3.656614688225e-03 7.349997758865e-06 5.153535599356e+03
     4.041000000000e+05 8.568167686462e-08-4.195549360786e-01 1.024454832077e-08
     9.601411151942e-01 2.361835937500e+02 2.871958553402e+00-8.351719974710e-09
     4.285892810353e-11 4.334466262204e-09-2.000000000000e+00 2.000000000000e+00
     2.600000000000e+01 4.000000000000e+00-9.778887033463e-09 7.000000000000e+00
    -9.604264050722e-10 5.355104804039e-09 0.000000000000e+00 0.000000000000e+00
     4.099680000000e+05 2.428000000000e+03 0.000000000000e+00                   
G32 2026 07 23 17 52 48 1.793206320144e-04 2.010835942201e-11 0.000000000000e+00
     3.890991210938e-03-4.647265625000e+01 4.300000540854e-09 1.513247174716e+00
    -2.401880919933e-06 9.467955271248e-03 8.175149559975e-06 5.153643817500e+03
     3.546000000000e+05-2.207234501839e-07 2.640637837371e+00-1.117587089539e-07
     9.697378746178e-01 2.285898437500e+02-1.973145389608e+00-8.455117138760e-09
     2.242950570751e-10 4.300000540854e-09-2.000000000000e+00 3.000000000000e+00
     3.000000000000e+01 4.000000000000e+00 9.313225746155e-10 7.000000000000e+00
    -2.910383045673e-10-1.891748979688e-09 8.614733815193e-09 9.051291272044e-09
     4.099680000000e+05 2.428000000000e+03 0.000000000000e+00                   
E13 2026 07 23 17 53 05-6.012758240104e-05-1.008970684779e-12 0.000000000000e+00
     4.600000000000e+01 4.343750000000e+00 2.663682381634e-09 2.278448434477e+00
     2.831220626831e-07 4.967185668647e-05 7.990747690201e-07 5.440602060318e+03
     4.086000000000e+05 2.793967723846e-08 7.688455876534e-01 7.636845111847e-08
     9.976244601146e-01 3.398750000000e+02 8.694493872569e-02-5.615233897031e-09
     7.714607058635e-11 1.000000000000e+00 1.404000000000e+03                   
     1.070000000000e+02 0.000000000000e+00 3.958120942116e-09 4.190951585770e-09
     4.099850000000e+05                                                         
E26 2026 07 23 17 53 05 3.698540385813e-04 1.081446043827e-11 0.000000000000e+00
     4.200000000000e+01 7.375000000000e+00 2.749757395576e-09-2.442122706705e+00
     1.154839992523e-07 1.004600198939e-04 1.002103090286e-06 5.440598712921e+03
     4.062000000000e+05 4.470348358154e-08 7.653799932403e-01-1.862645149231e-09
     9.909044800861e-01 3.295312500000e+02-2.553080033986e+00-5.624519998120e-09
     9.678974596714e-11 1.000000000000e+00 1.404000000000e+03                   
     1.070000000000e+02 0.000000000000e+00-5.587935447693e-09-6.053596735001e-09
     4.099850000000e+05                                                         
E15 2026 07 23 17 53 05-2.763356897049e-04-3.097966327914e-12 0.000000000000e+00
     4.700000000000e+01 8.750000000000e-01 2.698326681851e-09-2.202405859090e+00
     3.911554813385e-08 7.609697058797e-05 6.482005119324e-07 5.440602851868e+03
     4.092000000000e+05-2.980232238770e-08 7.687500020490e-01 4.470348358154e-08
     9.975794344219e-01 3.473437500000e+02-8.379550694950e-01-5.654521247792e-09
     7.143154683922e-11 1.000000000000e+00 1.404000000000e+03                   
     1.070000000000e+02 0.000000000000e+00 4.423782229424e-09 4.889443516731e-09
     4.099850000000e+05                                                         
E07 2026 07 23 17 53 05-7.907272083685e-05-2.600586412882e-12 0.000000000000e+00
     4.700000000000e+01-6.303125000000e+01 3.102272079227e-09 2.011487109026e-01
    -2.816319465637e-06 4.106035921723e-04 8.331611752510e-06 5.440619991302e+03
     4.092000000000e+05 6.332993507385e-08 2.851170022287e+00-7.823109626770e-08
     9.694188831362e-01 1.624687500000e+02 1.786975017082e-01-5.372723795512e-09
     3.060841782060e-10 1.000000000000e+00 1.404000000000e+03                   
     1.070000000000e+02 0.000000000000e+00 3.492459654808e-09 4.190951585770e-09
     4.099850000000e+05                                                         
E29 2026 07 23 17 53 05-2.279976033606e-04-3.680611371237e-12 0.000000000000e+00
     4.700000000000e+01-5.406250000000e+01 3.128701751558e-09-1.871744715120e+00
    -2.516433596611e-06 1.962302485481e-04 8.400529623032e-06 5.440618041992e+03
     4.092000000000e+05-4.097819328308e-08 2.850889791552e+00-6.891787052155e-08
     9.628053186947e-01 1.610625000000e+02 1.460580064074e+00-5.385224316209e-09
     3.307280618656e-10 1.000000000000e+00 1.404000000000e+03                   
     1.070000000000e+02 0.000000000000e+00-4.423782229424e-09-4.190951585770e-09
     4.099850000000e+05                                                         
E32 2026 07 23 17 53 05 3.699678927660e-06-2.387423592154e-12 0.000000000000e+00
     4.700000000000e+01-5.706250000000e+01 3.443000557650e-09 8.637742394128e-01
    -2.536922693253e-06 1.680382993072e-04 8.527189493179e-06 5.440615898132e+03
     4.092000000000e+05 1.117587089539e-08 2.868859441911e+00 1.061707735062e-07
     9.491494114485e-01 1.518750000000e+02 6.629278463829e-01-5.543802350192e-09
     4.253748614275e-10 1.000000000000e+00 1.404000000000e+03                   
     1.070000000000e+02 0.000000000000e+00-2.095475792885e-09-1.396983861923e-09
     4.099850000000e+05                                                         
E08 2026 07 23 17 53 05-1.882650540210e-04-7.034373084025e-12 0.000000000000e+00
     4.700000000000e+01-6.143750000000e+01 3.046912630427e-09 6.515521207897e-01
    -2.667307853699e-06 4.641483537853e-04 8.663162589073e-06 5.440622833252e+03
     4.092000000000e+05 1.061707735062e-07 2.854332641977e+00 8.754432201385e-08
     9.751256914534e-01 1.605937500000e+02 5.091469950789e-01-5.355937382004e-09
     3.825159333240e-10 1.000000000000e+00 1.404000000000e+03                   
     1.070000000000e+02 0.000000000000e+00-5.355104804039e-09-6.053596735001e-09
     4.099850000000e+05                                                         
END OF FILE                                                 COMMENT
