     3.05           N: NAVIGATION       M: MIXED            RINEX VERSION / TYPE
PYRINEXCONV 0.1.2 ALDELTUNES            20260723 174856 UTC PGM / RUN BY / DATE
GAL    1.1250e+02  1.5625e-02  2.2583e-02             R 08  IONOSPHERIC CORR
GPSA   1.3039e-08  2.2352e-08  1.5199e-05  1.5140e-05 R 20  IONOSPHERIC CORR
GPSB   1.1059e+05  1.4746e+05  1.6712e+07  1.6384e+07 R 20  IONOSPHERIC CORR
GAUT  3.7252902985e-09-1.776356839e-15 405000 1404   E08  0 TIME SYSTEM CORR
GPUT -6.6938810050e-10 3.930189507e-13 202800 2428   G20  0 TIME SYSTEM CORR
                                                            END OF HEADER
G20 2026 07 23 17 48 48 2.393828472123e-04 1.168842800325e-11 0.000000000000e+00
     3.786087036133e-03-5.767187500000e+01 4.540724853702e-09-2.804761128165e+00
    -2.902001142502e-06 1.911459083203e-03 8.294358849525e-06 5.153605161074e+03
     3.474000000000e+05 1.341104507446e-07 2.628040771213e+00 5.029141902924e-08
     9.621389602411e-01 2.176562500000e+02-1.760606181297e+00-8.434401990177e-09
     2.714398779890e-10 4.540724853702e-09-3.000000000000e+00 2.000000000000e+00
     3.000000000000e+01 4.000000000000e+00-6.984919309616e-09 7.000000000000e+00
    -1.455191522837e-10 4.220055416226e-09 2.095475792885e-09 2.066371962428e-09
     4.097280000000e+05 2.428000000000e+03 0.000000000000e+00                   
E15 2026 07 23 17 48 54-2.763338852674e-04-3.112177182629e-12 0.000000000000e+00
     4.600000000000e+01 1.562500000000e+00 2.699040997320e-09-2.275649847322e+00
     8.381903171539e-08 7.609569001943e-05 6.426125764847e-07 5.440603023529e+03
     4.086000000000e+05-2.980232238770e-08 7.687533945560e-01 4.284083843231e-08
     9.975793905344e-01 3.474375000000e+02-8.390965581397e-01-5.654521247792e-09
     7.143154683922e-11 5.160000000000e+02 1.404000000000e+03                   
     1.070000000000e+02 0.000000000000e+00 4.423782229424e-09 4.889443516731e-09
     4.097340000000e+05                                                         
E07 2026 07 23 17 49 05-7.907114923000e-05-2.600586412882e-12 0.000000000000e+00
     4.600000000000e+01-6.284375000000e+01 3.092271662670e-09 1.267136776761e-01
    -2.821907401085e-06 4.106198903173e-04 8.331611752510e-06 5.440620040894e+03
     4.086000000000e+05 3.166496753693e-08 2.851173286057e+00-7.823109626770e-08
     9.694188304712e-01 1.623750000000e+02 1.787474749898e-01-5.361294748017e-09
     2.903692379014e-10 1.000000000000e+00 1.404000000000e+03                   
     1.070000000000e+02 0.000000000000e+00 3.492459654808e-09 4.190951585770e-09
     4.097450000000e+05                                                         
E08 2026 07 23 17 49 05-1.882354263216e-04-7.020162229310e-12 0.000000000000e+00
     4.000000000000e+01-6.131250000000e+01 3.036555056135e-09 1.321591693256e-01
    -2.663582563400e-06 4.638194805011e-04 8.288770914078e-06 5.440621448517e+03
     4.050000000000e+05 1.098960638046e-07 2.854355691715e+00-5.587935447693e-08
     9.751247815184e-01 1.658437500000e+02 5.078444874299e-01-5.356651697473e-09
     2.903692379014e-10 1.000000000000e+00 1.404000000000e+03                   
     1.070000000000e+02 0.000000000000e+00-5.355104804039e-09-6.053596735001e-09
     4.097450000000e+05                                                         
E32 2026 07 23 17 49 05 3.709457814693e-06-2.401634446869e-12 0.000000000000e+00
     4.000000000000e+01-5.534375000000e+01 3.450858027803e-09 3.453157575931e-01
    -2.386048436165e-06 1.678948756307e-04 8.331611752510e-06 5.440615085602e+03
     4.050000000000e+05 1.247972249985e-07 2.868883489358e+00 4.470348358154e-08
     9.491480860447e-01 1.544062500000e+02 6.606874341579e-01-5.578803808143e-09
     3.489431063096e-10 1.000000000000e+00 1.404000000000e+03                   
     1.070000000000e+02 0.000000000000e+00-2.095475792885e-09-1.396983861923e-09
     4.097450000000e+05                                                         
E13 2026 07 23 17 49 05-6.012758240104e-05-1.008970684779e-12 0.000000000000e+00
     4.600000000000e+01 4.343750000000e+00 2.663682381634e-09 2.278448434477e+00
     2.831220626831e-07 4.967185668647e-05 7.990747690201e-07 5.440602060318e+03
     4.086000000000e+05 2.793967723846e-08 7.688455876534e-01 7.636845111847e-08
     9.976244601146e-01 3.398750000000e+02 8.694493872569e-02-5.615233897031e-09
     7.714607058635e-11 1.000000000000e+00 1.404000000000e+03                   
     1.070000000000e+02 0.000000000000e+00 3.958120942116e-09 4.190951585770e-09
     4.097450000000e+05                                                         
E26 2026 07 23 17 49 05 3.698540385813e-04 1.081446043827e-11 0.000000000000e+00
     4.200000000000e+01 7.375000000000e+00 2.749757395576e-09-2.442122706705e+00
     1.154839992523e-07 1.004600198939e-04 1.002103090286e-06 5.440598712921e+03
     4.062000000000e+05 4.470348358154e-08 7.653799932403e-01-1.862645149231e-09
     9.909044800861e-01 3.295312500000e+02-2.553080033986e+00-5.624519998120e-09
     9.678974596714e-11 1.000000000000e+00 1.404000000000e+03                   
     1.070000000000e+02 0.000000000000e+00-5.587935447693e-09-6.053596735001e-09
     4.097450000000e+05                                                         
E29 2026 07 23 17 49 05-2.279953332618e-04-3.680611371237e-12 0.000000000000e+00
     4.600000000000e+01-5.362500000000e+01 3.120487123671e-09-1.945526764622e+00
    -2.499669790268e-06 1.962706446648e-04 8.367002010345e-06 5.440618288040e+03
     4.086000000000e+05-3.539025783539e-08 2.850892999731e+00-6.332993507385e-08
     9.628051577737e-01 1.620000000000e+02 1.459977077037e+00-5.379152634727e-09
     3.292994309288e-10 1.000000000000e+00 1.404000000000e+03                   
     1.070000000000e+02 0.000000000000e+00-4.423782229424e-09-4.190951585770e-09
     4.097450000000e+05                                                         
END OF FILE                                                 COMMENT
