     3.02           N: GNSS NAV DATA    G: GPS              RINEX VERSION / TYPE
GNSS-SDR            UNKNOWN USER        20260720 210906 UTC PGM / RUN BY / DATE 
GPS NAVIGATION MESSAGE FILE GENERATED BY GNSS-SDR           COMMENT             
GNSS-SDR VERSION 0.0.21                                     COMMENT             
See https://gnss-sdr.org                                    COMMENT             
GPSA    .9313D-08   .2235D-07  -.5960D-07  -.1192D-06       IONOSPHERIC CORR    
GPSB    .1004D+06   .1311D+06  -.6554D+05  -.4588D+06       IONOSPHERIC CORR    
GPUT  -.3725290298D-08 -.444089210D-14 319488 2428          TIME SYSTEM CORR    
    18    18   137     7                                    LEAP SECONDS        
                                                            END OF HEADER       
G10 2026 07 20 22 00 00 -.563546083868D-03  .522959453519D-11  .000000000000D+00
      .710000000000D+02 -.173437500000D+02  .369051086745D-08 -.107671140606D+01
     -.698491930962D-06  .111322787125D-01  .893697142601D-05  .515365129089D+04
      .165600000000D+06  .203028321266D-06  .161939421962D+01  .216066837311D-06
      .994262068720D+00  .221687500000D+03 -.226502128081D+01 -.768067707389D-08
      .332156692802D-09  .100000000000D+01  .242800000000D+04  .100000000000D+01
      .000000000000D+00  .000000000000D+00  .232830643654D-08  .710000000000D+02
      .162588000000D+06  .000000000000D+00                                      
G12 2026 07 20 22 00 00 -.605490058661D-03  .568434188608D-12  .000000000000D+00
      .710000000000D+02  .611875000000D+02  .460554898246D-08 -.402832175417D+00
      .314600765705D-05  .870699854568D-02  .913254916668D-05  .515370575523D+04
      .165600000000D+06 -.111758708954D-06 -.146702834218D+01  .763684511185D-07
      .958308317297D+00  .203312500000D+03  .158719498015D+01 -.817641200895D-08
     -.307155651409D-10  .100000000000D+01  .242800000000D+04  .100000000000D+01
      .000000000000D+00  .000000000000D+00 -.125728547573D-07  .710000000000D+02
      .162588000000D+06  .000000000000D+00                                      
G13 2026 07 20 22 00 00  .418208073825D-03  .545696821064D-11  .000000000000D+00
      .350000000000D+02  .546250000000D+02  .454233206351D-08 -.539361604770D+00
      .279583036900D-05  .227065465879D-02  .943616032600D-05  .515359252357D+04
      .165600000000D+06 -.167638063431D-07 -.157554665879D+01  .931322574615D-08
      .958825802623D+00  .195312500000D+03  .181999134896D+01 -.803104881113D-08
     -.853606984729D-10  .100000000000D+01  .242800000000D+04  .100000000000D+01
      .200000000000D+01  .630000000000D+02 -.838190317154D-08  .350000000000D+02
      .162588000000D+06  .000000000000D+00                                      
G25 2026 07 20 21 59 44  .404889229685D-03 -.318323145621D-11  .000000000000D+00
      .000000000000D+00  .628437500000D+02  .489591822036D-08 -.471792024146D+00
      .328198075294D-05  .129019101150D-01  .939331948757D-05  .515367124367D+04
      .165584000000D+06 -.838190317154D-07 -.156246062836D+01  .147148966789D-06
      .946723572894D+00  .190781250000D+03  .116168555860D+01 -.841177895579D-08
     -.105004373854D-09  .100000000000D+01  .242800000000D+04  .100000000000D+01
      .000000000000D+00  .000000000000D+00  .558793544769D-08  .000000000000D+00
      .162588000000D+06  .000000000000D+00                                      
G28 2026 07 20 22 00 00 -.466048717499D-03  .109139364213D-10  .000000000000D+00
      .930000000000D+02 -.356250000000D+02  .468626663039D-08  .104473853122D+01
     -.180490314960D-05  .517169828527D-03  .830180943012D-05  .515361983109D+04
      .165600000000D+06  .931322574615D-08 -.260999491599D+01 -.484287738800D-07
      .962245265378D+00  .216406250000D+03 -.313326455647D+00 -.803247744207D-08
     -.321799118511D-09  .100000000000D+01  .242800000000D+04  .100000000000D+01
      .000000000000D+00  .000000000000D+00 -.931322574615D-08  .349000000000D+03
      .162588000000D+06  .000000000000D+00                                      
G32 2026 07 20 22 00 00  .174423214048D-03  .202362571144D-10  .000000000000D+00
      .820000000000D+02 -.209062500000D+02  .461376361035D-08 -.251677716448D+01
     -.104494392872D-05  .945777492598D-02  .611692667007D-05  .515357055092D+04
      .165600000000D+06  .188127160072D-06  .264256127767D+01 -.558793544769D-08
      .969672314676D+00  .263718750000D+03 -.197282750921D+01 -.796283168390D-08
      .308584282345D-09  .100000000000D+01  .242800000000D+04  .100000000000D+01
      .000000000000D+00  .000000000000D+00  .931322574615D-09  .820000000000D+02
      .162588000000D+06  .000000000000D+00                                      
G23 2026 07 20 22 00 00  .671061687171D-03  .386535248253D-11  .000000000000D+00
      .223000000000D+03 -.182500000000D+02  .382658796418D-08 -.637469200922D-01
     -.853091478348D-06  .644467282109D-02  .900775194168D-05  .515373084450D+04
      .165600000000D+06  .502914190292D-07  .158661604202D+01  .875443220139D-07
      .989190822237D+00  .221593750000D+03 -.274236184894D+01 -.780925385820D-08
      .318227541169D-09  .100000000000D+01  .242800000000D+04  .100000000000D+01
      .000000000000D+00  .000000000000D+00 -.838190317154D-08  .479000000000D+03
      .162768000000D+06  .000000000000D+00                                      

G01 2026 07 20 22 00 00  .217360444367D-03 -.966338120634D-11  .000000000000D+00
      .213000000000D+03 -.336250000000D+02  .448482966830D-08  .197364065175D+01
     -.184774398804D-05  .182579655666D-02  .607594847679D-05  .515360219002D+04
      .165600000000D+06  .279396772385D-07  .629546324800D+00 -.298023223877D-07
      .957120110363D+00  .258562500000D+03  .195078112895D+00 -.817534053575D-08
     -.145720355552D-09  .100000000000D+01  .242800000000D+04  .100000000000D+01
      .000000000000D+00  .000000000000D+00 -.884756445885D-08  .725000000000D+03
      .164412000000D+06  .000000000000D+00                                      
G02 2026 07 20 22 00 00  .141722150147D-03  .727595761418D-11  .000000000000D+00
      .830000000000D+02 -.279375000000D+02  .428517849488D-08 -.290744554179D+01
     -.126287341118D-05  .168955067638D-01  .541470944881D-05  .515373133469D+04
      .165600000000D+06  .223517417908D-07  .467671163855D+00  .210478901863D-06
      .962103539337D+00  .271781250000D+03 -.736046206525D+00 -.788890003292D-08
     -.156435087578D-09  .100000000000D+01  .242800000000D+04  .100000000000D+01
      .100000000000D+01  .000000000000D+00 -.172294676304D-07  .830000000000D+02
      .164556000000D+06  .000000000000D+00                                      
G28 2026 07 21 00 00 00 -.465970486403D-03  .109139364213D-10  .000000000000D+00
      .940000000000D+02 -.304062500000D+02  .473626871317D-08  .209337228664D+01
     -.140443444252D-05  .517320935614D-03  .864453613758D-05  .515362137794D+04
      .172800000000D+06  .106170773506D-06 -.261005354536D+01  .763684511185D-07
      .962243228996D+00  .213031250000D+03 -.311745270882D+00 -.806890753096D-08
     -.196793911542D-09  .100000000000D+01  .242800000000D+04  .100000000000D+01
      .000000000000D+00  .000000000000D+00 -.931322574615D-08  .350000000000D+03
      .165618000000D+06  .000000000000D+00                                      
G32 2026 07 21 00 00 00  .174568500370D-03  .202362571144D-10  .000000000000D+00
      .830000000000D+02 -.210625000000D+02  .461876381862D-08 -.146652960854D+01
     -.867992639542D-06  .945779099129D-02  .610947608948D-05  .515357058716D+04
      .172800000000D+06  .162050127983D-06  .264250410830D+01  .173225998878D-06
      .969674253042D+00  .264093750000D+03 -.197283062962D+01 -.805247827518D-08
      .282154610015D-09  .100000000000D+01  .242800000000D+04  .100000000000D+01
      .000000000000D+00  .000000000000D+00  .931322574615D-09  .830000000000D+02
      .165618000000D+06  .000000000000D+00                                      
G10 2026 07 21 00 00 00 -.563508830965D-03  .522959453519D-11  .000000000000D+00
      .720000000000D+02 -.102812500000D+02  .364622330841D-08 -.264683676109D-01
     -.495463609695D-06  .111334850080D-01  .888668000698D-05  .515365386772D+04
      .172800000000D+06 -.223517417908D-07  .161933809184D+01  .216066837311D-06
      .994263819833D+00  .228406250000D+03 -.226507634358D+01 -.782532595624D-08
      .327156484524D-09  .100000000000D+01  .242800000000D+04  .100000000000D+01
      .000000000000D+00  .000000000000D+00  .232830643654D-08  .720000000000D+02
      .165618000000D+06  .000000000000D+00                                      
G01 2026 07 21 00 00 00  .217291060835D-03 -.966338120634D-11  .000000000000D+00
      .214000000000D+03 -.389687500000D+02  .444089926699D-08  .302357491208D+01
     -.196322798729D-05  .182540586684D-02  .613741576672D-05  .515360336876D+04
      .172800000000D+06  .298023223877D-07  .629487446736D+00  .745058059692D-08
      .957118865420D+00  .259250000000D+03  .195367388853D+00 -.820819904729D-08
     -.160720980388D-09  .100000000000D+01  .242800000000D+04  .100000000000D+01
      .000000000000D+00  .000000000000D+00 -.884756445885D-08  .726000000000D+03
      .165618000000D+06  .000000000000D+00                                      
G25 2026 07 20 23 59 44  .404865946621D-03 -.318323145621D-11  .000000000000D+00
      .130000000000D+02  .527500000000D+02  .496984987134D-08  .578388740807D+00
      .285170972347D-05  .129001273308D-01  .908412039280D-05  .515366783142D+04
      .172784000000D+06 -.143423676491D-06 -.156252083182D+01  .726431608200D-07
      .946722680514D+00  .198625000000D+03  .116169127422D+01 -.839392106908D-08
     -.168578450541D-09  .100000000000D+01  .242800000000D+04  .100000000000D+01
      .000000000000D+00  .000000000000D+00  .558793544769D-08  .130000000000D+02
      .165618000000D+06  .000000000000D+00                                      
G02 2026 07 21 00 00 00  .141774304211D-03  .727595761418D-11  .000000000000D+00
      .960000000000D+02 -.308437500000D+02  .440018328530D-08 -.185734343941D+01
     -.139139592648D-05  .168959983857D-01  .615417957306D-05  .515372976685D+04
      .172800000000D+06 -.335276126862D-06  .467613150376D+00  .126659870148D-06
      .962100911936D+00  .265562500000D+03 -.736003695588D+00 -.822498546080D-08
     -.134291308058D-09  .100000000000D+01  .242800000000D+04  .100000000000D+01
      .100000000000D+01  .000000000000D+00 -.172294676304D-07  .960000000000D+02
      .165618000000D+06  .000000000000D+00                                      
G12 2026 07 21 00 00 00 -.605486333370D-03  .568434188608D-12  .000000000000D+00
      .720000000000D+02  .536875000000D+02  .461947813409D-08  .647270456544D+00
      .273622572422D-05  .870680494700D-02  .903010368347D-05  .515370550346D+04
      .172800000000D+06 -.134110450745D-06 -.146708690572D+01 -.260770320892D-07
      .958307793572D+00  .206312500000D+03  .158725493638D+01 -.816926885427D-08
     -.928610108910D-10  .100000000000D+01  .242800000000D+04  .100000000000D+01
      .000000000000D+00  .000000000000D+00 -.125728547573D-07  .720000000000D+02
      .165618000000D+06  .000000000000D+00                                      
G13 2026 07 20 23 59 44  .418224837631D-03  .511590769747D-11  .000000000000D+00
      .360000000000D+02  .492812500000D+02  .456126142342D-08  .508321790786D+00
      .250712037086D-05  .227032857947D-02  .922754406929D-05  .515359186745D+04
      .172784000000D+06 -.502914190292D-07 -.157560444991D+01  .111758708954D-07
      .958825258418D+00  .200625000000D+03  .182020590492D+01 -.801854829044D-08
     -.653598653579D-10  .100000000000D+01  .242800000000D+04  .100000000000D+01
      .000000000000D+00  .630000000000D+02 -.838190317154D-08  .360000000000D+02
      .165618000000D+06  .000000000000D+00                                      
