     3.05           N: NAVIGATION       M: MIXED            RINEX VERSION / TYPE
PYRINEXCONV 0.1.2 ALDELTUNES            20260721 000954 UTC PGM / RUN BY / DATE
GAL    1.0300e+02  3.0469e-01  2.1057e-02             A 29  IONOSPHERIC CORR
GPSA   9.3132e-09  2.2352e-08  1.5199e-05  1.5140e-05 A 01  IONOSPHERIC CORR
GPSB   1.0035e+05  1.3107e+05  1.6712e+07  1.6318e+07 A 01  IONOSPHERIC CORR
BDSA   1.9558e-08  2.9802e-08 -5.9605e-07  1.0133e-06 A 32  IONOSPHERIC CORR
BDSB   1.4131e+05 -7.8643e+05  6.0293e+06 -4.9807e+06 A 32  IONOSPHERIC CORR
GAUT  7.4505805969e-09-2.664535259e-15 172200 1404   E29  0 TIME SYSTEM CORR
GPUT -3.6088749766e-09 1.702193941e-12 356400 2428   G01  0 TIME SYSTEM CORR
BDUT  0.0000000000e+00 0.000000000e+00 172800 1072   C32  0 TIME SYSTEM CORR
                                                            END OF HEADER
E26 2026 07 21 00 00 35 3.673072787933e-04 1.082867129298e-11 0.000000000000e+00
     3.200000000000e+01-6.150000000000e+01 2.457245211269e-09-7.377925825368e-02
    -2.739951014519e-06 9.243143722415e-05 7.240101695061e-06 5.440603546143e+03
     1.716000000000e+05-9.313225746155e-09 7.666908907245e-01 1.024454832077e-07
     9.909373635587e-01 1.981562500000e+02-2.590269345538e+00-5.437726503135e-09
    -2.046513816944e-10 1.000000000000e+00 1.404000000000e+03                   
     1.070000000000e+02 0.000000000000e+00-4.889443516731e-09-5.355104804039e-09
     1.728350000000e+05                                                         
E29 2026 07 21 00 00 54-2.271349658258e-04-3.623767952377e-12 0.000000000000e+00
     3.200000000000e+01-4.306250000000e+01 3.447286450461e-09 1.319675841110e-01
    -2.006068825722e-06 2.007303992286e-04 5.561858415604e-06 5.440610660553e+03
     1.716000000000e+05-1.862645149231e-09 2.852215182165e+00 1.862645149231e-08
     9.627373895566e-01 2.193437500000e+02 1.416171420035e+00-5.754882571101e-09
     2.071514858337e-10 5.160000000000e+02 1.404000000000e+03                   
     1.070000000000e+02 0.000000000000e+00-3.259629011154e-09-3.026798367500e-09
     1.728540000000e+05                                                         
E33 2026 07 21 00 00 54-2.513150684536e-05-1.989519660128e-12 0.000000000000e+00
     3.200000000000e+01-7.068750000000e+01 2.435458589483e-09-4.081560897966e-01
    -3.231689333916e-06 1.662130234763e-04 6.962567567825e-06 5.440604824066e+03
     1.716000000000e+05 8.568167686462e-08 7.701293889688e-01 2.793967723846e-08
     9.976739784286e-01 2.073750000000e+02-3.026246292654e+00-5.471299330150e-09
    -1.857220217820e-10 5.160000000000e+02 1.404000000000e+03                   
     1.070000000000e+02 0.000000000000e+00-4.190951585770e-09-4.656612873077e-09
     1.728540000000e+05                                                         
E27 2026 07 21 00 00 54-1.049694197718e-03-1.061550847226e-11 0.000000000000e+00
     3.200000000000e+01 1.145312500000e+02 3.205847822144e-09 1.123782995490e+00
     5.332753062248e-06 2.439803211018e-04 8.607283234596e-06 5.440617864609e+03
     1.716000000000e+05 2.235174179077e-08-1.328990576992e+00-2.048909664154e-08
     9.605921503931e-01 1.508125000000e+02-8.743359417958e-01-5.620234105310e-09
    -5.321650239522e-11 5.160000000000e+02 1.404000000000e+03                   
     1.070000000000e+02 0.000000000000e+00 6.984919309616e-10 9.313225746155e-10
     1.728540000000e+05                                                         
E26 2026 07 21 00 02 35 3.673137980513e-04 1.084288214770e-11 0.000000000000e+00
     3.300000000000e+01-6.012500000000e+01 2.450102056585e-09-9.763690811199e-04
    -2.671033143997e-06 9.262852836400e-05 7.312744855881e-06 5.440604034424e+03
     1.722000000000e+05-2.421438694000e-08 7.666876620643e-01 9.499490261078e-08
     9.909372977274e-01 1.966875000000e+02-2.588686693466e+00-5.433440610325e-09
    -2.132231673151e-10 1.000000000000e+00 1.404000000000e+03                   
     1.070000000000e+02 0.000000000000e+00-4.889443516731e-09-5.355104804039e-09
     1.729550000000e+05                                                         
G31 2026 07 21 00 03 54-1.340978778899e-04 2.728484105319e-12 0.000000000000e+00
     4.600000000000e+01-3.046875000000e+01 4.896989693563e-09 1.387305427708e+00
    -1.519918441772e-06 1.091507845558e-02 9.141862392426e-06 5.153633649826e+03
     1.800000000000e+05-2.589076757431e-07-2.561142719726e+00 8.940696716309e-08
     9.550181209095e-01 2.048125000000e+02 9.765602962162e-01-8.211770624636e-09
    -1.703642392115e-10 1.000000000000e+00 3.800000000000e+02 0.000000000000e+00
     2.000000000000e+00 0.000000000000e+00-1.350417733192e-08 4.600000000000e+01
     6.921360000000e+05 4.000000000000e+00                                      
G03 2026 07 21 00 03 54 3.641797229648e-04-1.887201506179e-11 0.000000000000e+00
     4.500000000000e+01-2.587500000000e+01 3.495145586843e-09 1.974522007224e+00
    -1.396983861923e-06 6.975173600949e-03 9.100884199142e-06 5.153767433167e+03
     1.800000000000e+05 2.980232238770e-08 1.621788453290e+00-1.285225152969e-07
     9.947606238871e-01 2.198125000000e+02 1.276449432374e+00-7.577458488704e-09
     3.042983895351e-10 1.000000000000e+00 3.800000000000e+02 0.000000000000e+00
     2.000000000000e+00 0.000000000000e+00 1.396983861923e-09 4.500000000000e+01
     6.921360000000e+05 4.000000000000e+00                                      
G16 2026 07 21 00 03 54 3.019548021257e-04 6.480149750132e-12 0.000000000000e+00
     8.700000000000e+01 6.278125000000e+01 4.749840707074e-09 4.905484698842e-03
     3.473833203316e-06 1.503468246665e-02 8.979812264442e-06 5.153715620041e+03
     1.800000000000e+05-4.656612873077e-08-1.450390116970e+00 1.844018697739e-07
     9.573753442173e-01 2.042187500000e+02 9.375411286941e-01-8.338561620276e-09
    -8.571785620706e-11 1.000000000000e+00 3.800000000000e+02 0.000000000000e+00
     2.000000000000e+00 0.000000000000e+00-1.024454832077e-08 8.700000000000e+01
     6.921360000000e+05 4.000000000000e+00                                      
G01 2026 07 21 00 03 54 2.172216773033e-04-9.663381206337e-12 0.000000000000e+00
     2.150000000000e+02-4.000000000000e+01 4.430184534968e-09-2.209331980368e+00
    -1.957640051842e-06 1.825835206546e-03 6.368383765221e-06 5.153602705002e+03
     1.800000000000e+05-1.303851604462e-08 6.294288129794e-01 7.636845111847e-08
     9.571178106557e-01 2.546562500000e+02 1.953126493844e-01-8.148196547949e-09
    -2.014369620866e-10 1.000000000000e+00 3.800000000000e+02 0.000000000000e+00
     2.800000000000e+00 0.000000000000e+00-8.847564458847e-09 7.270000000000e+02
     6.921360000000e+05 4.000000000000e+00                                      
G26 2026 07 21 00 03 54-3.841067664325e-04-2.501110429876e-12 0.000000000000e+00
     8.200000000000e+01 4.721875000000e+01 5.441655238212e-09 7.605690042719e-01
     2.747401595116e-06 1.116497931071e-02 9.160488843918e-06 5.153580068588e+03
     1.800000000000e+05-3.352761268616e-08-1.639771574199e+00 1.136213541031e-07
     9.274887924425e-01 1.850000000000e+02 7.147935705013e-01-8.549641841186e-09
    -1.971510692762e-10 1.000000000000e+00 3.800000000000e+02 0.000000000000e+00
     2.000000000000e+00 0.000000000000e+00 6.519258022308e-09 8.200000000000e+01
     6.921360000000e+05 4.000000000000e+00                                      
G04 2026 07 21 00 04 48 6.273412145674e-05 6.998845947237e-13 0.000000000000e+00
    -5.631446838379e-04-2.111328125000e+01 4.452149735621e-09-1.581149703060e+00
    -1.121312379837e-06 3.821527818218e-03 6.383284926414e-06 5.153549399026e+03
     1.233000000000e+05 2.700835466385e-08 2.690162137697e+00-4.377216100693e-08
     9.724406055288e-01 2.625976562500e+02-2.902052367753e+00-8.337076507608e-09
     3.330495871378e-10 4.452149735621e-09-2.000000000000e+00 3.000000000000e+00
     3.000000000000e+01 4.000000000000e+00-4.656612873077e-09 7.000000000000e+00
    -2.037268131971e-10 3.317836672068e-09-1.426087692380e-09-1.396983861923e-09
     1.730880000000e+05 2.428000000000e+03 0.000000000000e+00                   
C23 2026 07 21 00 04 54-4.541792441159e-04 3.552713678801e-15 0.000000000000e+00
     1.000000000000e+00 2.312500000000e+01 4.183745698373e-09 1.632283515366e+00
     1.185573637486e-06 3.784552682191e-04 1.036701723933e-05 5.282653682709e+03
     1.728000000000e+05 2.374872565269e-08-2.018286977548e+00 1.897569745779e-05
     9.436858907966e-01 1.384843750000e+02-8.755830209416e-01 4.225365289139e-07
    -2.728685089258e-10                    1.072000000000e+03                   
     0.000000000000e+00 0.000000000000e+00 1.024454832077e-07 1.024454832077e-07
     1.730940000000e+05 1.000000000000e+00                                      
C32 2026 07 21 00 04 54-9.033411042765e-04 1.862510146111e-12 0.000000000000e+00
     1.000000000000e+00-1.528125000000e+01 3.335138921923e-09 2.071525875573e+00
    -8.088536560535e-07 5.075715016574e-04 7.343944162130e-06 5.282631332397e+03
     1.728000000000e+05 3.213062882423e-08 2.177669544060e+00-3.067776560783e-06
     9.887592087384e-01 2.231875000000e+02-4.909819910278e-02-5.694133612092e-07
     4.546617956316e-10                    1.072000000000e+03                   
     0.000000000000e+00 0.000000000000e+00-3.818422555923e-08-3.818422555923e-08
     1.730940000000e+05 1.000000000000e+00                                      
E30 2026 07 21 00 09 05-1.275924907532e-03-3.971933892899e-11 0.000000000000e+00
     2.500000000000e+01 1.072812500000e+02 3.258350009071e-09-4.525046708073e-02
     5.045905709267e-06 2.124481834471e-04 8.385628461838e-06 5.440624414444e+03
     1.674000000000e+05 2.980232238770e-08-1.327277429701e+00 1.676380634308e-08
     9.583802767739e-01 1.559687500000e+02 5.253313294728e-01-5.640592096159e-09
    -4.107313943255e-11 1.000000000000e+00 1.404000000000e+03                   
     1.070000000000e+02 0.000000000000e+00 6.984919309616e-10 9.313225746155e-10
     1.733450000000e+05                                                         
G03 2026 07 21 00 09 36 3.642138326541e-04-1.891820033961e-11 0.000000000000e+00
    -5.082130432129e-03-3.272656250000e+01 3.515146419958e-09 1.711937466416e+00
    -1.699663698673e-06 6.976966746151e-03 9.193085134029e-06 5.153455060496e+03
     1.620000000000e+05-4.470348358154e-08 1.621802147666e+00-1.080334186554e-07
     9.947598273283e-01 2.185000000000e+02 1.276501542979e+00-8.703163185159e-09
     2.996553389905e-10 3.515146419958e-09-2.000000000000e+00 2.000000000000e+00
     2.800000000000e+01 4.000000000000e+00 1.396983861923e-09 7.000000000000e+00
     5.529727786779e-10-2.008164301515e-09 1.862645149231e-09 5.005858838558e-09
     1.733760000000e+05 2.428000000000e+03 0.000000000000e+00                   
G01 2026 07 21 00 09 36 2.172392269131e-04-9.634959496907e-12 0.000000000000e+00
     2.215385437012e-03-4.364062500000e+01 4.446435211874e-09-2.471690958958e+00
    -2.182088792324e-06 1.826642197557e-03 6.537884473801e-06 5.153620753897e+03
     8.550000000000e+04 2.328306436539e-08 6.294433697457e-01 5.960464477539e-08
     9.571181171371e-01 2.524375000000e+02 1.951171391606e-01-8.169748109137e-09
    -1.823290233071e-10 4.446435211874e-09-2.000000000000e+00 3.000000000000e+00
     0.000000000000e+00 4.000000000000e+00-8.847564458847e-09 3.000000000000e+00
    -2.910383045673e-10 5.646143108606e-09-5.529727786779e-10-6.693881005049e-10
     1.733760000000e+05 2.428000000000e+03 0.000000000000e+00                   
E21 2026 07 21 00 09 54-7.585140410811e-04-2.827960088325e-12 0.000000000000e+00
     3.000000000000e+01 1.150937500000e+02 3.159774474433e-09 8.572248956120e-01
     5.146488547325e-06 1.701257424429e-04 9.587034583092e-06 5.440615518570e+03
     1.704000000000e+05 1.303851604462e-08-1.328944024013e+00 7.450580596924e-09
     9.606212609999e-01 1.338125000000e+02-1.556055263490e+00-5.563446025572e-09
    -5.143071372424e-11 5.160000000000e+02 1.404000000000e+03                   
     1.070000000000e+02 0.000000000000e+00 1.164153218269e-09 1.164153218269e-09
     1.733940000000e+05                                                         
E29 2026 07 21 00 10 05-2.271370613016e-04-3.623767952377e-12 0.000000000000e+00
     3.300000000000e+01-4.368750000000e+01 3.441571926713e-09 2.060656005108e-01
    -2.020969986916e-06 2.007823204622e-04 5.563721060753e-06 5.440610813141e+03
     1.722000000000e+05-5.587935447693e-09 2.852211707735e+00 1.676380634308e-08
     9.627375109788e-01 2.192187500000e+02 1.416459161392e+00-5.753453940165e-09
     2.089372745047e-10 1.000000000000e+00 1.404000000000e+03                   
     1.070000000000e+02 0.000000000000e+00-3.259629011154e-09-3.026798367500e-09
     1.734050000000e+05                                                         
E33 2026 07 21 00 10 05-2.513261279091e-05-1.989519660128e-12 0.000000000000e+00
     3.300000000000e+01-7.140625000000e+01 2.436530062686e-09-3.335489193885e-01
    -3.261491656303e-06 1.661018468440e-04 6.983056664467e-06 5.440604593277e+03
     1.722000000000e+05 8.940696716309e-08 7.701260959403e-01 3.725290298462e-08
     9.976739067456e-01 2.067812500000e+02-3.026468262677e+00-5.465227648668e-09
    -1.878649681871e-10 1.000000000000e+00 1.404000000000e+03                   
     1.070000000000e+02 0.000000000000e+00-4.190951585770e-09-4.656612873077e-09
     1.734050000000e+05                                                         
E19 2026 07 21 00 10 05 3.107951488346e-03 2.410160959698e-11 0.000000000000e+00
     2.700000000000e+01-4.056250000000e+01 3.285493996870e-09 6.700663307008e-01
    -1.993030309677e-06 2.444363199174e-04 5.826354026794e-06 5.440615125656e+03
     1.686000000000e+05-4.284083843231e-08 2.860647537064e+00-4.097819328308e-08
     9.747192006471e-01 2.257500000000e+02-2.419013792948e-01-5.610948004220e-09
     1.692927660089e-10 1.000000000000e+00 1.404000000000e+03                   
     1.070000000000e+02 0.000000000000e+00-4.190951585770e-09-4.423782229424e-09
     1.734050000000e+05                                                         
E07 2026 07 21 00 10 05-7.846520747989e-05-2.543742994021e-12 0.000000000000e+00
     3.300000000000e+01-4.975000000000e+01 3.372997641748e-09 2.230973318114e+00
    -2.186745405197e-06 4.222381394356e-04 5.589798092842e-06 5.440616621017e+03
     1.722000000000e+05-3.911554813385e-08 2.852477768646e+00 1.862645149231e-09
     9.693516839942e-01 2.241875000000e+02 1.826612694665e-01-5.695237229491e-09
     1.946509651369e-10 1.000000000000e+00 1.404000000000e+03                   
     1.070000000000e+02 0.000000000000e+00 4.423782229424e-09 4.889443516731e-09
     1.734050000000e+05                                                         
E27 2026 07 21 00 10 05-1.049700542353e-03-1.061550847226e-11 0.000000000000e+00
     3.300000000000e+01 1.118750000000e+02 3.221919920183e-09 1.199517866540e+00
     5.239620804787e-06 2.440663520247e-04 8.577480912209e-06 5.440617195129e+03
     1.722000000000e+05 2.793967723846e-08-1.328993957796e+00-2.048909664154e-08
     9.605920977280e-01 1.517187500000e+02-8.756858860264e-01-5.622377051715e-09
    -5.071639825584e-11 1.000000000000e+00 1.404000000000e+03                   
     1.070000000000e+02 0.000000000000e+00 6.984919309616e-10 9.313225746155e-10
     1.734050000000e+05                                                         
END OF FILE                                                 COMMENT
