     3.05           N: NAVIGATION       M: MIXED            RINEX VERSION / TYPE
PYRINEXCONV 0.1.2 ALDELTUNES            20260721 084246 UTC PGM / RUN BY / DATE
GAL    1.0175e+02  3.3203e-01  2.2858e-02             I 33  IONOSPHERIC CORR
GPSA   1.1176e-08  2.2352e-08  1.5199e-05  1.5140e-05 I 06  IONOSPHERIC CORR
GPSB   1.0650e+05  1.4746e+05  1.6712e+07  1.6450e+07 I 06  IONOSPHERIC CORR
BDSA   2.0489e-08  5.2154e-08 -6.5565e-07  1.1325e-06 I 35  IONOSPHERIC CORR
BDSB   1.3926e+05 -6.0621e+05  5.0463e+06 -4.3254e+06 I 35  IONOSPHERIC CORR
GAUT  6.5192580223e-09-2.664535259e-15 203400 1404   E33  0 TIME SYSTEM CORR
GPUT  1.1641532183e-09-1.367350677e-12 414300 2428   G06  0 TIME SYSTEM CORR
BDUT  0.0000000000e+00 0.000000000e+00 201600 1072   C35  0 TIME SYSTEM CORR
                                                            END OF HEADER
E10 2026 07 21 08 35 05-8.074095821939e-04-2.643218977028e-12 0.000000000000e+00
     7.700000000000e+01-4.359375000000e+01 2.585107680111e-09 2.680052084938e+00
    -2.076849341393e-06 2.881503896788e-04 6.729736924171e-06 5.440600463867e+03
     1.986000000000e+05-6.332993507385e-08 7.680531746690e-01 3.352761268616e-08
     9.974665746809e-01 2.153125000000e+02 2.334862575712e+00-5.408439568931e-09
    -2.471531520637e-10 1.000000000000e+00 1.404000000000e+03                   
     1.070000000000e+02 0.000000000000e+00-1.164153218269e-09-2.328306436539e-10
     2.037050000000e+05                                                         
E33 2026 07 21 08 35 55-2.518517430872e-05-1.918465386552e-12 0.000000000000e+00
     7.800000000000e+01-4.137500000000e+01 2.569749897541e-09 3.016262805716e+00
    -2.013519406319e-06 1.653057988733e-04 5.841255187988e-06 5.440609649658e+03
     1.992000000000e+05-6.146728992462e-08 7.699806233665e-01-5.587935447693e-08
     9.976668979051e-01 2.278750000000e+02-3.028942813478e+00-5.452727127972e-09
    -2.860833450911e-10 1.000000000000e+00 1.404000000000e+03                   
     1.070000000000e+02 0.000000000000e+00-4.423782229424e-09-4.889443516731e-09
     2.037550000000e+05                                                         
G22 2026 07 21 08 36 24 4.060100764036e-05 8.071765478235e-12 0.000000000000e+00
     9.200000000000e+01 5.381250000000e+01 4.444113686602e-09-2.529953664691e+00
     2.978369593620e-06 1.184459077194e-02 8.782371878624e-06 5.153724548340e+03
     2.088000000000e+05 1.490116119385e-08-1.447237888387e+00 1.899898052216e-07
     9.568470245193e-01 2.051562500000e+02-9.877956796893e-01-7.783895659069e-09
     9.107522222000e-11 1.000000000000e+00 3.800000000000e+02 0.000000000000e+00
     2.000000000000e+00 0.000000000000e+00-1.117587089539e-08 9.200000000000e+01
     8.151360000000e+05 4.000000000000e+00                                      
G17 2026 07 21 08 36 24-1.762625761330e-04-6.025402399246e-12 0.000000000000e+00
     6.600000000000e+01 5.268750000000e+01 4.767698593784e-09 3.140405416571e+00
     2.849847078323e-06 1.261520700064e-02 4.867091774940e-06 5.153678655624e+03
     2.088000000000e+05 1.322478055954e-07-4.350422214605e-01 2.756714820862e-07
     9.574385934805e-01 2.811875000000e+02-1.098618294159e+00-8.097122991959e-09
     4.500187450871e-11 1.000000000000e+00 3.800000000000e+02 0.000000000000e+00
     2.000000000000e+00 0.000000000000e+00-1.071020960808e-08 6.600000000000e+01
     8.151360000000e+05 4.000000000000e+00                                      
G19 2026 07 21 08 36 24 7.038190960884e-04 4.547473508865e-13 0.000000000000e+00
     5.000000000000e+01 4.206250000000e+01 4.855916554130e-09-1.509985941181e+00
     2.097338438034e-06 1.176493673120e-02 4.887580871582e-06 5.153760034561e+03
     2.088000000000e+05 5.774199962616e-08-3.912794762350e-01-1.620501279831e-07
     9.566052816954e-01 2.842500000000e+02 3.029474768527e+00-8.343918986289e-09
     1.535778257043e-10 1.000000000000e+00 3.800000000000e+02 0.000000000000e+00
     2.000000000000e+00 0.000000000000e+00-1.536682248116e-08 5.000000000000e+01
     8.151360000000e+05 4.000000000000e+00                                      
G30 2026 07 21 08 36 24 3.027403727174e-04 1.330136001343e-11 0.000000000000e+00
     1.600000000000e+01-3.006250000000e+01 5.080925926673e-09 9.449358577428e-02
    -1.473352313042e-06 8.217709721066e-03 7.897615432739e-06 5.153681278229e+03
     2.087840000000e+05-4.656612873077e-08-2.597270394554e+00 1.881271600723e-07
     9.366260412513e-01 2.157187500000e+02-2.258931051900e+00-8.386777914392e-09
    -7.750322832055e-11 1.000000000000e+00 3.800000000000e+02 0.000000000000e+00
     2.000000000000e+00 0.000000000000e+00 4.190951585770e-09 1.600000000000e+01
     8.151360000000e+05 4.000000000000e+00                                      
G06 2026 07 21 08 36 24-5.693081766367e-04 7.958078640513e-12 0.000000000000e+00
     1.400000000000e+01-2.406250000000e+01 4.019095982909e-09 1.195134823534e+00
    -1.270323991776e-06 3.694361192174e-03 5.714595317841e-06 5.153724903107e+03
     2.088000000000e+05 1.303851604462e-08 5.836642618564e-01-3.911554813385e-08
     9.858733950927e-01 2.786875000000e+02-5.462298515458e-01-7.903543500025e-09
    -2.785830326729e-10 1.000000000000e+00 3.800000000000e+02 0.000000000000e+00
     2.000000000000e+00 0.000000000000e+00 3.725290298462e-09 1.400000000000e+01
     8.151360000000e+05 4.000000000000e+00                                      
E06 2026 07 21 08 36 55-3.006961196661e-04-5.044853423897e-12 0.000000000000e+00
     8.400000000000e+01-4.178125000000e+01 3.225848655259e-09 2.064879750964e+00
    -1.832842826843e-06 5.053208442405e-04 5.491077899933e-06 5.440612119675e+03
     2.028000000000e+05-5.587935447693e-09 2.852005864921e+00 7.078051567078e-08
     9.626628904534e-01 2.239687500000e+02 1.386840807852e+00-5.656307036463e-09
     1.460775132862e-10 1.000000000000e+00 1.404000000000e+03                   
     1.070000000000e+02 0.000000000000e+00 2.328306436539e-09 3.725290298462e-09
     2.038150000000e+05                                                         
E26 2026 07 21 08 37 35 3.676462220028e-04 1.082867129298e-11 0.000000000000e+00
     8.400000000000e+01-5.365625000000e+01 2.812617156794e-09-2.508536248501e+00
    -2.430751919746e-06 9.290839079767e-05 5.125999450684e-06 5.440598913193e+03
     2.028000000000e+05 5.215406417847e-08 7.665204988041e-01 9.313225746155e-09
     9.909284777943e-01 2.445000000000e+02-2.570656368579e+00-5.544516665660e-09
    -1.960795960737e-10 1.000000000000e+00 1.404000000000e+03                   
     1.070000000000e+02 0.000000000000e+00-5.122274160385e-09-5.587935447693e-09
     2.038550000000e+05                                                         
E23 2026 07 21 08 40 25-4.271202487871e-05-1.321609488514e-12 0.000000000000e+00
     8.400000000000e+01 8.215625000000e+01 3.107986602974e-09-1.001456154166e+00
     4.000961780548e-06 1.741696614772e-04 8.881092071533e-06 5.440619960785e+03
     2.028000000000e+05-5.587935447693e-09-1.332318437668e+00-1.490116119385e-08
     9.625515316663e-01 1.517187500000e+02-2.755810251496e+00-5.500943422088e-09
     1.103617398666e-10 1.000000000000e+00 1.404000000000e+03                   
     1.070000000000e+02 0.000000000000e+00 4.656612873077e-10 1.862645149231e-09
     2.040250000000e+05                                                         
E10 2026 07 21 08 40 35-8.074202341959e-04-2.586375558167e-12 0.000000000000e+00
     8.400000000000e+01-4.553125000000e+01 2.585821995580e-09-3.081247415946e+00
    -2.244487404823e-06 2.876479411498e-04 6.441026926041e-06 5.440601676941e+03
     2.028000000000e+05-5.960464477539e-08 7.680303648504e-01 7.450580596924e-09
     9.974655989145e-01 2.196875000000e+02 2.333676157928e+00-5.392367470892e-09
    -2.400099973798e-10 1.000000000000e+00 1.404000000000e+03                   
     1.070000000000e+02 0.000000000000e+00-1.164153218269e-09-2.328306436539e-10
     2.040350000000e+05                                                         
C11 2026 07 21 08 40 54-7.890666602179e-04-2.155786660296e-11 0.000000000000e+00
     1.000000000000e+00 4.703125000000e+00 4.238390831705e-09 1.209906606655e+00
     2.686865627766e-07 1.699145650491e-04 3.708992153406e-06 5.282640985489e+03
     2.016000000000e+05-1.629814505577e-08 7.440371653916e-02 5.046837031841e-05
     9.504523535841e-01 2.779218750000e+02-6.662516928116e-01 7.528356443407e-07
    -2.492960984689e-10                    1.072000000000e+03                   
     0.000000000000e+00 0.000000000000e+00 1.350417733192e-08 1.350417733192e-08
     2.040540000000e+05 1.000000000000e+00                                      
C29 2026 07 21 08 40 54 6.338179809973e-04 5.240252676231e-12 0.000000000000e+00
     1.000000000000e+00 5.515625000000e+00 4.330537527128e-09-1.892395480313e+00
     2.798624336720e-07 2.190576633438e-04 3.743451088667e-06 5.282656152725e+03
     2.016000000000e+05-2.700835466385e-08 3.425795141547e-02 4.335166886449e-05
     9.455638621417e-01 2.762343750000e+02 2.117102114029e+00-2.497539746841e-06
    -2.225092684042e-10                    1.072000000000e+03                   
     0.000000000000e+00 0.000000000000e+00 9.313225746155e-10 9.313225746155e-10
     2.040540000000e+05 1.000000000000e+00                                      
C30 2026 07 21 08 40 54 4.927918780595e-04 7.474021401777e-12 0.000000000000e+00
     1.000000000000e+00 1.251562500000e+01 4.366253300547e-09 1.314716285496e-02
     7.352791726589e-07 4.701827419922e-04 3.719702363014e-06 5.282649618149e+03
     2.016000000000e+05 7.031485438347e-08 3.472310669963e-02 1.446064561605e-05
     9.455191568281e-01 2.751093750000e+02 9.821292742436e-01-2.044309439408e-06
    -2.150089559860e-10                    1.072000000000e+03                   
     0.000000000000e+00 0.000000000000e+00-4.516914486885e-08-4.516914486885e-08
     2.040540000000e+05 1.000000000000e+00                                      
C39 2026 07 21 08 40 54-9.576437296346e-04 8.848921595472e-12 0.000000000000e+00
     1.000000000000e+00 1.939062500000e+01 4.016238721035e-09 1.470108519121e+00
     7.110647857189e-07 5.727914394811e-04 9.650364518166e-06 5.282661041260e+03
     2.016000000000e+05 5.494803190231e-08-2.011473458538e+00 5.104346200824e-05
     9.490809205499e-01 1.586875000000e+02 5.823257035172e-02 1.083409771223e-06
    -8.464638300447e-11                    1.072000000000e+03                   
     0.000000000000e+00 0.000000000000e+00 8.987262845039e-08 8.987262845039e-08
     2.040540000000e+05 1.000000000000e+00                                      
C35 2026 07 21 08 40 54-4.781039897352e-04-1.612310285282e-11 0.000000000000e+00
     1.000000000000e+00 7.453125000000e+00 4.393397288346e-09-1.482564570217e+00
     4.409812390804e-07 8.111655479297e-04 3.528315573931e-06 5.282619890213e+03
     2.016000000000e+05-5.960464477539e-08 3.485632148284e-02 2.142228186131e-05
     9.437485534297e-01 2.817656250000e+02 8.862583745044e-01-1.912509663704e-06
    -1.425059359442e-10                    1.072000000000e+03                   
     0.000000000000e+00 0.000000000000e+00-1.257285475731e-08-1.257285475731e-08
     2.040540000000e+05 1.000000000000e+00                                      
E10 2026 07 21 08 41 25-8.074219222181e-04-2.600586412882e-12 0.000000000000e+00
     8.500000000000e+01-4.571875000000e+01 2.582964733706e-09-3.006293978680e+00
    -2.253800630569e-06 2.874764613807e-04 6.338581442833e-06 5.440602146149e+03
     2.034000000000e+05-5.960464477539e-08 7.680271274126e-01 7.450580596924e-09
     9.974654570114e-01 2.215937500000e+02 2.333108419902e+00-5.392010313158e-09
    -2.400099973798e-10 1.000000000000e+00 1.404000000000e+03                   
     1.070000000000e+02 0.000000000000e+00-1.164153218269e-09-2.328306436539e-10
     2.040850000000e+05                                                         
G14 2026 07 21 08 42 24 7.499796629418e-04 2.557953848736e-13 0.000000000000e+00
    -2.422332763672e-04 4.229296875000e+01 4.912883212734e-09-6.744416370642e-01
     2.199783921242e-06 7.365882338490e-03 8.623115718365e-06 5.153562711095e+03
     2.016000000000e+05 1.080334186554e-07-1.524266816540e+00 7.264316082001e-08
     9.416386459321e-01 2.037539062500e+02-2.680705784030e+00-8.091173407614e-09
     6.785996949726e-11 4.912883212734e-09-3.000000000000e+00 2.000000000000e+00
     2.700000000000e+01 4.000000000000e+00-7.916241884232e-09 7.000000000000e+00
    -2.619344741106e-10 5.005858838558e-09-1.455191522837e-09-1.076841726899e-09
     2.041440000000e+05 2.428000000000e+03 0.000000000000e+00                   
G06 2026 07 21 08 42 24-5.693228158634e-04 7.972289495228e-12 0.000000000000e+00
     5.177974700928e-03-2.061328125000e+01 4.004452515806e-09 9.323627841724e-01
    -1.042149960995e-06 3.692717407830e-03 6.204470992088e-06 5.153498310652e+03
     1.845000000000e+05 1.676380634308e-08 5.836785092156e-01-2.700835466385e-08
     9.858739305207e-01 2.723945312500e+02-5.459911281849e-01-8.441009408259e-09
    -2.816188734136e-10 4.004452515806e-09-2.000000000000e+00 3.000000000000e+00
     2.800000000000e+01 4.000000000000e+00 3.725290298462e-09 7.000000000000e+00
     3.201421350241e-10-3.929017111659e-09 1.775333657861e-09 2.211891114712e-09
     2.041440000000e+05 2.428000000000e+03 0.000000000000e+00                   
E09 2026 07 21 08 42 35-3.007745253853e-04 1.801936377888e-11 5.204170427930e-18
     8.400000000000e+01-3.828125000000e+01 3.040840948945e-09 2.677347624858e+00
    -1.784414052963e-06 4.990355810151e-04 5.668029189110e-06 5.440616653442e+03
     2.028000000000e+05 6.332993507385e-08 2.855512306932e+00 1.117587089539e-08
     9.750934560535e-01 2.261250000000e+02 3.878074610745e-01-5.604162007271e-09
     1.707213969457e-10 1.000000000000e+00 1.404000000000e+03                   
     1.070000000000e+02 0.000000000000e+00 6.984919309616e-10 9.313225746155e-10
     2.041550000000e+05                                                         
E12 2026 07 21 08 42 35-5.898519884795e-05-2.557953848736e-12 0.000000000000e+00
     8.000000000000e+01-4.656250000000e+01 2.602251251353e-09-1.541989154015e+00
    -2.337619662285e-06 3.188102273270e-04 6.387010216713e-06 5.440606094360e+03
     2.004000000000e+05-3.166496753693e-08 7.695124734890e-01 1.490116119385e-08
     9.945614680715e-01 2.191875000000e+02 8.649107058597e-01-5.409153884400e-09
    -2.667968274445e-10 1.000000000000e+00 1.404000000000e+03                   
     1.070000000000e+02 0.000000000000e+00-1.187436282635e-08-1.164153218269e-08
     2.041550000000e+05                                                         
E26 2026 07 21 08 42 35 3.676526830532e-04 1.082867129298e-11 0.000000000000e+00
     8.500000000000e+01-5.334375000000e+01 2.815117260934e-09-2.434691454443e+00
    -2.425163984299e-06 9.291665628552e-05 5.122274160385e-06 5.440598814011e+03
     2.034000000000e+05 4.284083843231e-08 7.665171253150e-01 1.676380634308e-08
     9.909283373542e-01 2.447812500000e+02-2.570115426824e+00-5.542016561521e-09
    -1.903650723265e-10 1.000000000000e+00 1.404000000000e+03                   
     1.070000000000e+02 0.000000000000e+00-5.122274160385e-09-5.587935447693e-09
     2.041550000000e+05                                                         
E05 2026 07 21 08 42 35 5.041219992563e-05 2.742694960034e-12 0.000000000000e+00
     8.500000000000e+01-3.946875000000e+01 3.214419607765e-09 1.993607002420e+00
    -1.883134245872e-06 2.910444745794e-04 5.831941962242e-06 5.440614141464e+03
     2.028000000000e+05 1.676380634308e-08 2.852226154051e+00 1.862645149231e-08
     9.693321247795e-01 2.194062500000e+02 2.843621332814e-01-5.683093866528e-09
     1.221479450951e-10 1.000000000000e+00 1.404000000000e+03                   
     1.070000000000e+02 0.000000000000e+00 2.328306436539e-09 2.561137080193e-09
     2.041550000000e+05                                                         
E31 2026 07 21 08 42 54-1.581155811436e-04-2.941646926047e-12 0.000000000000e+00
     8.400000000000e+01 8.581250000000e+01 3.111915338050e-09-3.118831762193e+00
     4.041939973831e-06 3.419846761972e-04 8.542090654373e-06 5.440615993500e+03
     2.028000000000e+05-1.490116119385e-08-1.329205419678e+00 2.421438694000e-08
     9.605975412462e-01 1.544687500000e+02-1.404535496907e+00-5.539873615115e-09
     9.643258823294e-11 5.160000000000e+02 1.404000000000e+03                   
     1.070000000000e+02 0.000000000000e+00 3.492459654808e-09 4.190951585770e-09
     2.041740000000e+05                                                         
E16 2026 07 21 08 42 54-4.646781599149e-05-2.501110429876e-12 0.000000000000e+00
     8.100000000000e+01 1.001562500000e+02 3.139416483584e-09-3.101724718553e+00
     4.405155777931e-06 4.923009546474e-04 8.720904588699e-06 5.440617143631e+03
     2.010000000000e+05 1.862645149231e-09-1.332432891990e+00 9.313225746155e-09
     9.625723314356e-01 1.570937500000e+02-2.472761177891e+00-5.512015311848e-09
     8.500354073867e-11 5.160000000000e+02 1.404000000000e+03                   
     1.070000000000e+02 0.000000000000e+00-3.725290298462e-09-2.328306436539e-09
     2.041740000000e+05                                                         
E33 2026 07 21 08 42 55-2.519378904253e-05-1.932676241267e-12 0.000000000000e+00
     8.500000000000e+01-5.012500000000e+01 2.659396488824e-09-2.751592231501e+00
    -2.261251211166e-06 1.660605194047e-04 5.720183253288e-06 5.440607337952e+03
     2.034000000000e+05 4.097819328308e-08 7.699574873170e-01-9.685754776001e-08
     9.976653179536e-01 2.314687500000e+02-3.023577494128e+00-5.502729210759e-09
    -2.303667385565e-10 1.000000000000e+00 1.404000000000e+03                   
     1.070000000000e+02 0.000000000000e+00-4.423782229424e-09-4.889443516731e-09
     2.041750000000e+05                                                         
END OF FILE                                                 COMMENT
