     3.05           N: NAVIGATION       M: MIXED            RINEX VERSION / TYPE
PYRINEXCONV 0.1.2 ALDELTUNES            20260721 025043 UTC PGM / RUN BY / DATE
GAL    1.0175e+02  3.3203e-01  2.2858e-02             C 27  IONOSPHERIC CORR
GPSA   9.3132e-09  2.2352e-08  1.5199e-05  1.5140e-05 C 04  IONOSPHERIC CORR
GPSB   1.0035e+05  1.3107e+05  1.6712e+07  1.6318e+07 C 04  IONOSPHERIC CORR
GAUT  6.5192580223e-09-2.664535259e-15 181800 1404   E27  0 TIME SYSTEM CORR
GPUT -3.2014213502e-09 1.588507104e-12 370800 2428   G04  0 TIME SYSTEM CORR
                                                            END OF HEADER
G04 2026 07 21 02 46 24 6.274040788412e-05 6.821210263297e-13 0.000000000000e+00
     5.000000000000e+00-2.315625000000e+01 4.401611916233e-09-2.683905027874e-01
    -1.115724444389e-06 3.822015016340e-03 6.172806024551e-06 5.153673837662e+03
     1.872000000000e+05 6.891787052155e-08 2.690090186997e+00 2.793967723846e-08
     9.724430142234e-01 2.653750000000e+02-2.902086066802e+00-8.078550789781e-09
     2.771544017362e-10 1.000000000000e+00 3.800000000000e+02 0.000000000000e+00
     2.000000000000e+00 0.000000000000e+00-4.656612873077e-09 5.170000000000e+02
     7.311360000000e+05 4.000000000000e+00                                      
G16 2026 07 21 02 46 24 3.020018339157e-04 6.480149750132e-12 0.000000000000e+00
     8.800000000000e+01 5.556250000000e+01 4.796985527988e-09 1.055045791189e+00
     3.138557076454e-06 1.503419992514e-02 9.190291166306e-06 5.153715074539e+03
     1.872000000000e+05-1.788139343262e-07-1.450449842064e+00 1.583248376846e-07
     9.573745001136e-01 2.048437500000e+02 9.375586091022e-01-8.299274269514e-09
    -1.175048945505e-10 1.000000000000e+00 3.800000000000e+02 0.000000000000e+00
     2.000000000000e+00 0.000000000000e+00-1.024454832077e-08 8.800000000000e+01
     7.311360000000e+05 4.000000000000e+00                                      
G09 2026 07 21 02 46 24 7.171649485826e-04-6.934897101019e-12 0.000000000000e+00
     7.100000000000e+01-1.996875000000e+01 4.513402287036e-09 5.993508851872e-01
    -1.080334186554e-06 3.669901983812e-03 6.292015314102e-06 5.153694850922e+03
     1.872000000000e+05 7.450580596924e-09 2.624916329296e+00-4.842877388000e-08
     9.667053836852e-01 2.590312500000e+02 2.038022418306e+00-8.145339286076e-09
     2.985838657879e-10 1.000000000000e+00 3.800000000000e+02 0.000000000000e+00
     2.000000000000e+00 0.000000000000e+00 4.656612873077e-10 7.100000000000e+01
     7.311360000000e+05 4.000000000000e+00                                      
G27 2026 07 21 02 46 24 5.350448191166e-07 0.000000000000e+00 0.000000000000e+00
     9.100000000000e+01 4.712500000000e+01 5.086283292686e-09 1.286910908776e-01
     2.648681402206e-06 1.432913157623e-02 4.682689905167e-06 5.153673446655e+03
     1.872000000000e+05-2.793967723846e-08-5.084284536059e-01 1.974403858185e-07
     9.508937086540e-01 2.822500000000e+02 9.005730337617e-01-8.652860426369e-09
    -1.710785546799e-10 1.000000000000e+00 3.800000000000e+02 0.000000000000e+00
     2.800000000000e+00 0.000000000000e+00 2.328306436539e-09 9.100000000000e+01
     7.311360000000e+05 4.000000000000e+00                                      
G08 2026 07 21 02 46 24 3.940509632230e-04-9.208633855451e-12 0.000000000000e+00
     8.100000000000e+01 5.003125000000e+01 5.274505418608e-09-1.925180004046e-02
     2.689659595490e-06 1.168377755675e-02 4.528090357780e-06 5.153748132706e+03
     1.872000000000e+05 1.080334186554e-07-5.416434614643e-01 1.136213541031e-07
     9.417700488913e-01 2.788125000000e+02 5.447862220414e-01-8.702148193688e-09
    -1.428630936784e-10 1.000000000000e+00 3.800000000000e+02 0.000000000000e+00
     2.000000000000e+00 0.000000000000e+00 4.656612873077e-09 8.100000000000e+01
     7.311360000000e+05 4.000000000000e+00                                      
G26 2026 07 21 02 46 24-3.841249272227e-04-2.501110429876e-12 0.000000000000e+00
     8.300000000000e+01 3.815625000000e+01 5.388081578082e-09 1.810700460108e+00
     2.034008502960e-06 1.116508990526e-02 9.493902325630e-06 5.153582418442e+03
     1.872000000000e+05-3.166496753693e-07-1.639833913527e+00 2.235174179077e-08
     9.274883155312e-01 1.821875000000e+02 7.149070944072e-01-8.391420964937e-09
    -1.285767843106e-11 1.000000000000e+00 3.800000000000e+02 0.000000000000e+00
     2.000000000000e+00 0.000000000000e+00 6.519258022308e-09 8.300000000000e+01
     7.311360000000e+05 4.000000000000e+00                                      
G07 2026 07 21 02 46 24-2.078828401864e-04-3.751665644813e-12 0.000000000000e+00
     9.600000000000e+01-3.100000000000e+01 4.775913221670e-09-2.745939998806e+00
    -1.866370439529e-06 2.093705639709e-02 8.448958396912e-06 5.153588115692e+03
     1.872000000000e+05 4.041939973831e-07-2.586027851560e+00-8.754432201385e-08
     9.513213634962e-01 2.061250000000e+02-1.955233648861e+00-7.812111120071e-09
    -2.071514858337e-11 1.000000000000e+00 3.800000000000e+02 0.000000000000e+00
     2.000000000000e+00 0.000000000000e+00-1.071020960808e-08 9.600000000000e+01
     7.311360000000e+05 4.000000000000e+00                                      
G03 2026 07 21 02 46 24 3.640432842076e-04-1.898570189951e-11 0.000000000000e+00
     4.000000000000e+01-1.746875000000e+01 3.421571093598e-09 3.022192017080e+00
    -8.456408977509e-07 6.974218646064e-03 8.897855877876e-06 5.153769727707e+03
     1.871840000000e+05 3.725290298462e-09 1.621735043614e+00 2.607703208923e-08
     9.947630684233e-01 2.232187500000e+02 1.276560694608e+00-7.450310335330e-09
     2.339383158984e-10 1.000000000000e+00 3.800000000000e+02 0.000000000000e+00
     2.000000000000e+00 0.000000000000e+00 1.396983861923e-09 4.000000000000e+01
     7.311360000000e+05 4.000000000000e+00                                      
G03 2026 07 21 02 47 12 3.640828654170e-04-1.893241119433e-11 0.000000000000e+00
     4.499912261963e-03-1.825390625000e+01 3.420499620396e-09 2.718458534824e+00
    -9.397044777870e-07 6.973543670028e-03 9.281560778618e-06 5.153452977927e+03
     1.737000000000e+05 4.190951585770e-08 1.621750464965e+00 1.396983861923e-08
     9.947625227548e-01 2.169296875000e+02 1.276347371894e+00-8.868884373826e-09
     2.535819912792e-10 3.420499620396e-09-2.000000000000e+00 2.000000000000e+00
     2.800000000000e+01 4.000000000000e+00 1.396983861923e-09 7.000000000000e+00
     5.529727786779e-10-2.008164301515e-09 1.862645149231e-09 5.005858838558e-09
     1.828320000000e+05 2.428000000000e+03 0.000000000000e+00                   
E29 2026 07 21 02 49 35-2.271717530675e-04-3.595346242946e-12 0.000000000000e+00
     4.900000000000e+01-4.559375000000e+01 3.319423981618e-09 1.389176846643e+00
    -2.050772309303e-06 2.007358707488e-04 5.343928933144e-06 5.440613790512e+03
     1.818000000000e+05 3.539025783539e-08 2.852156349452e+00 2.048909664154e-08
     9.627397975198e-01 2.285625000000e+02 1.423519012401e+00-5.704523330580e-09
     2.110802209099e-10 1.000000000000e+00 1.404000000000e+03                   
     1.070000000000e+02 0.000000000000e+00-3.259629011154e-09-2.793967723846e-09
     1.829750000000e+05                                                         
G09 2026 07 21 02 49 36 7.171775796451e-04-6.988187806201e-12 0.000000000000e+00
     1.067161560059e-03-1.843359375000e+01 4.531081594879e-09 3.367306725841e-01
    -1.054257154465e-06 3.669601399451e-03 6.325542926788e-06 5.153528200759e+03
     1.395000000000e+05 1.117587089539e-08 2.624931008947e+00-4.284083843231e-08
     9.667048365538e-01 2.602773437500e+02 2.038101396132e+00-8.187427416980e-09
     2.962623405157e-10 4.531081594879e-09-2.000000000000e+00 3.000000000000e+00
     3.000000000000e+01 4.000000000000e+00 4.656612873077e-10 7.000000000000e+00
    -5.820766091347e-10-7.275957614183e-10 5.064066499472e-09 5.617039278150e-09
     1.829760000000e+05 2.428000000000e+03 0.000000000000e+00                   
E21 2026 07 21 02 50 05-7.585358689539e-04-2.799538378895e-12 0.000000000000e+00
     4.300000000000e+01 1.138125000000e+02 3.210490872689e-09 1.815999025043e+00
     5.297362804413e-06 1.703940797597e-04 8.758157491684e-06 5.440617902756e+03
     1.782000000000e+05 1.117587089539e-08-1.328987503401e+00-3.725290298462e-08
     9.606206260935e-01 1.490625000000e+02-1.547821414872e+00-5.602733376334e-09
    -3.321566928024e-11 1.000000000000e+00 1.404000000000e+03                   
     1.070000000000e+02 0.000000000000e+00 6.984919309616e-10 9.313225746155e-10
     1.830050000000e+05                                                         
G04 2026 07 21 02 50 24 6.273915641941e-05 6.998845947237e-13 0.000000000000e+00
     2.199172973633e-03-2.011328125000e+01 4.413219542594e-09-5.311305949440e-01
    -1.107342541218e-06 3.822266007774e-03 6.177462637424e-06 5.153549172013e+03
     1.233000000000e+05 8.102506399155e-08 2.690104707190e+00 1.955777406693e-08
     9.724425592559e-01 2.658359375000e+02-2.901889416965e+00-8.267966486041e-09
     2.787616115400e-10 4.413219542594e-09-2.000000000000e+00 3.000000000000e+00
     3.000000000000e+01 4.000000000000e+00-4.656612873077e-09 7.000000000000e+00
    -2.037268131971e-10 3.317836672068e-09-1.426087692380e-09-1.396983861923e-09
     1.830240000000e+05 2.428000000000e+03 0.000000000000e+00                   
E19 2026 07 21 02 50 35 3.108187054750e-03 2.442845925543e-11 0.000000000000e+00
     4.300000000000e+01-4.293750000000e+01 3.184418358092e-09 1.857914075476e+00
    -2.041459083557e-06 2.441270044073e-04 5.668029189110e-06 5.440616420746e+03
     1.782000000000e+05 9.313225746155e-09 2.860593357893e+00 3.725290298462e-09
     9.747208976321e-01 2.213437500000e+02-2.395825224766e-01-5.625948629057e-09
     2.128660095809e-10 1.000000000000e+00 1.404000000000e+03                   
     1.070000000000e+02 0.000000000000e+00-4.423782229424e-09-4.423782229424e-09
     1.830350000000e+05                                                         
E04 2026 07 21 02 50 35-1.227791071869e-04 3.326761088829e-11 0.000000000000e+00
     3.700000000000e+01-3.965625000000e+01 3.340496287936e-09 4.185966625626e-01
    -1.952052116394e-06 2.935096854344e-04 5.800276994705e-06 5.440607788086e+03
     1.746000000000e+05 2.235174179077e-08 2.852515250070e+00 9.313225746155e-09
     9.693503337209e-01 2.247187500000e+02-6.995501191847e-02-5.659878613805e-09
     2.450102056585e-10 1.000000000000e+00 1.404000000000e+03                   
     1.070000000000e+02 0.000000000000e+00-4.190951585770e-09-4.656612873077e-09
     1.830350000000e+05                                                         
E28 2026 07 21 02 50 54-6.029085488990e-05-2.870592652471e-12 0.000000000000e+00
     4.900000000000e+01-4.128125000000e+01 3.568362922353e-09-3.517144281463e-01
    -1.994892954826e-06 2.849977463484e-04 5.381181836128e-06 5.440608898163e+03
     1.818000000000e+05 1.303851604462e-08 2.870170484224e+00-1.303851604462e-08
     9.490515144336e-01 2.150937500000e+02 1.958824071148e+00-5.849172212929e-09
     2.096515899731e-10 5.160000000000e+02 1.404000000000e+03                   
     1.070000000000e+02 0.000000000000e+00 9.313225746155e-10 1.862645149231e-09
     1.830540000000e+05                                                         
E23 2026 07 21 02 50 54-4.268385237083e-05-1.350031197944e-12 0.000000000000e+00
     4.900000000000e+01 1.226250000000e+02 3.120487123671e-09 2.679197037116e+00
     5.608424544334e-06 1.713223755360e-04 9.028241038322e-06 5.440623495102e+03
     1.818000000000e+05-1.303851604462e-08-1.332200881960e+00-1.490116119385e-08
     9.625506085650e-01 1.468750000000e+02-2.756757520210e+00-5.547016769799e-09
    -7.143154683922e-13 5.160000000000e+02 1.404000000000e+03                   
     1.070000000000e+02 0.000000000000e+00 4.656612873077e-10 1.862645149231e-09
     1.830540000000e+05                                                         
E27 2026 07 21 02 50 54-1.049801649060e-03-1.057287590811e-11 0.000000000000e+00
     4.900000000000e+01 9.515625000000e+01 3.301566094909e-09 2.396218430813e+00
     4.537403583527e-06 2.442201366648e-04 8.417293429375e-06 5.440614898682e+03
     1.818000000000e+05-1.303851604462e-08-1.329048688487e+00 8.195638656616e-08
     9.605915257271e-01 1.602500000000e+02-8.822203168402e-01-5.609162215549e-09
     5.143071372424e-11 5.160000000000e+02 1.404000000000e+03                   
     1.070000000000e+02 0.000000000000e+00 2.328306436539e-10 2.328306436539e-10
     1.830540000000e+05                                                         
END OF FILE                                                 COMMENT
