     3.05           N: NAVIGATION       M: MIXED            RINEX VERSION / TYPE
PYRINEXCONV 0.1.2 ALDELTUNES            20260721 043114 UTC PGM / RUN BY / DATE
GAL    1.0175e+02  3.3203e-01  2.2858e-02             E 31  IONOSPHERIC CORR
GPSA   9.3132e-09  2.2352e-08  1.5199e-05  1.5140e-05 E 14  IONOSPHERIC CORR
GPSB   1.0035e+05  1.3107e+05  1.6712e+07  1.6318e+07 E 14  IONOSPHERIC CORR
BDSA   2.0489e-08  2.2352e-08 -5.3644e-07  9.5367e-07 E 30  IONOSPHERIC CORR
BDSB   1.3722e+05 -4.4237e+05  4.3254e+06 -3.8666e+06 E 30  IONOSPHERIC CORR
GAUT  6.5192580223e-09-2.664535259e-15 187800 1404   E31  0 TIME SYSTEM CORR
GPUT -3.2887328416e-09 5.373479439e-14 385200 2428   G14  0 TIME SYSTEM CORR
BDUT  0.0000000000e+00 0.000000000e+00 187200 1072   C30  0 TIME SYSTEM CORR
                                                            END OF HEADER
G07 2026 07 21 04 23 12-2.079032128677e-04-3.755218358492e-12 0.000000000000e+00
    -5.875587463379e-03-2.107812500000e+01 4.738947396181e-09-1.958368274151e+00
    -1.118518412113e-06 2.093622175744e-02 8.556991815567e-06 5.153637853118e+03
     1.161000000000e+05 3.129243850708e-07-2.586070385172e+00 6.239861249924e-08
     9.513216685146e-01 2.053984375000e+02-1.955131948259e+00-8.543692256841e-09
     7.393165097859e-11 4.738947396181e-09-2.000000000000e+00 3.000000000000e+00
     3.100000000000e+01 4.000000000000e+00-1.071020960808e-08 7.000000000000e+00
    -9.313225746155e-10 6.984919309616e-09 0.000000000000e+00 0.000000000000e+00
     1.885920000000e+05 2.428000000000e+03 0.000000000000e+00                   
E23 2026 07 21 04 23 24-4.268635530025e-05-1.350031197944e-12 0.000000000000e+00
     5.200000000000e+01 1.184062500000e+02 3.143702376394e-09 2.901419929980e+00
     5.444511771202e-06 1.718186540529e-04 9.061768651009e-06 5.440622465134e+03
     1.836000000000e+05-7.450580596924e-09-1.332210876616e+00-2.607703208923e-08
     9.625505500483e-01 1.461250000000e+02-2.755825969088e+00-5.554517082217e-09
     4.643050544549e-12 5.160000000000e+02 1.404000000000e+03                   
     1.070000000000e+02 0.000000000000e+00 4.656612873077e-10 1.862645149231e-09
     1.886040000000e+05                                                         
E04 2026 07 21 04 23 24-1.224564621225e-04 3.342393029016e-11 0.000000000000e+00
     5.300000000000e+01-4.006250000000e+01 3.221562762449e-09 1.606854570068e+00
    -1.966953277588e-06 2.934384392574e-04 5.589798092842e-06 5.440608936310e+03
     1.842000000000e+05 1.676380634308e-08 2.852461152822e+00-1.862645149231e-08
     9.693526890190e-01 2.203750000000e+02-6.804140827777e-02-5.659164298337e-09
     2.132231673151e-10 5.160000000000e+02 1.404000000000e+03                   
     1.070000000000e+02 0.000000000000e+00-4.190951585770e-09-4.656612873077e-09
     1.886040000000e+05                                                         
E28 2026 07 21 04 24 24-6.029597716406e-05-2.856381797756e-12 0.000000000000e+00
     5.200000000000e+01-4.278125000000e+01 3.551219351112e-09-1.288110472343e-01
    -1.991167664528e-06 2.851557219401e-04 5.381181836128e-06 5.440609237671e+03
     1.836000000000e+05 1.490116119385e-08 2.870159980472e+00-9.313225746155e-09
     9.490518918664e-01 2.151875000000e+02 1.959078299978e+00-5.851672317069e-09
     2.078658013021e-10 5.160000000000e+02 1.404000000000e+03                   
     1.070000000000e+02 0.000000000000e+00 9.313225746155e-10 1.862645149231e-09
     1.886640000000e+05                                                         
E29 2026 07 21 04 25 35-2.271932316944e-04-3.566924533516e-12 0.000000000000e+00
     5.900000000000e+01-4.359375000000e+01 3.290494205149e-09 2.131965582615e+00
    -2.017244696617e-06 2.005618298426e-04 5.321577191353e-06 5.440614341736e+03
     1.878000000000e+05-3.725290298462e-08 2.852122194703e+00 1.862645149231e-08
     9.627412443458e-01 2.296250000000e+02 1.424584932549e+00-5.689522705744e-09
     1.828647599084e-10 1.000000000000e+00 1.404000000000e+03                   
     1.070000000000e+02 0.000000000000e+00-3.259629011154e-09-2.793967723846e-09
     1.887350000000e+05                                                         
G08 2026 07 21 04 26 24 3.939843736589e-04-9.208633855451e-12 0.000000000000e+00
     8.200000000000e+01 5.553125000000e+01 5.257361847366e-09 1.030811823210e+00
     3.173947334290e-06 1.168476371095e-02 5.075708031654e-06 5.153750621796e+03
     1.944000000000e+05 5.587935447693e-09-5.417054526179e-01 1.657754182816e-07
     9.417689063523e-01 2.702812500000e+02 5.448627546008e-01-8.641074221140e-09
    -2.032227507576e-10 1.000000000000e+00 3.800000000000e+02 0.000000000000e+00
     2.000000000000e+00 0.000000000000e+00 4.656612873077e-09 8.200000000000e+01
     7.551360000000e+05 4.000000000000e+00                                      
G09 2026 07 21 04 26 24 7.171146571636e-04-7.048583938740e-12 0.000000000000e+00
     7.400000000000e+01-1.984375000000e+01 4.403754862638e-09 1.649337004501e+00
    -1.048669219017e-06 3.670229576528e-03 6.090849637985e-06 5.153696254730e+03
     1.944000000000e+05 1.378357410431e-07 2.624858163673e+00 3.166496753693e-08
     9.667080432703e-01 2.642812500000e+02 2.038203357865e+00-8.018548290436e-09
     2.792973481413e-10 1.000000000000e+00 3.800000000000e+02 0.000000000000e+00
     2.000000000000e+00 0.000000000000e+00 4.656612873077e-10 7.400000000000e+01
     7.551360000000e+05 4.000000000000e+00                                      
G07 2026 07 21 04 26 24-2.079098485410e-04-3.751665644813e-12 0.000000000000e+00
     9.700000000000e+01-2.071875000000e+01 4.741626079187e-09-1.695767174572e+00
    -9.015202522278e-07 2.093818434514e-02 7.875263690948e-06 5.153584897995e+03
     1.944000000000e+05 4.228204488754e-07-2.586084121241e+00 1.657754182816e-07
     9.513214629746e-01 2.134062500000e+02-1.955170504928e+00-7.871042146213e-09
     1.142904749427e-11 1.000000000000e+00 3.800000000000e+02 0.000000000000e+00
     2.000000000000e+00 0.000000000000e+00-1.071020960808e-08 9.700000000000e+01
     7.551360000000e+05 4.000000000000e+00                                      
G27 2026 07 21 04 26 24 5.345791578293e-07 0.000000000000e+00 0.000000000000e+00
     9.200000000000e+01 4.981250000000e+01 5.066996775040e-09 1.178820661012e+00
     2.728775143623e-06 1.433041493874e-02 5.435198545456e-06 5.153676309586e+03
     1.944000000000e+05-1.974403858185e-07-5.084907592869e-01 2.197921276093e-07
     9.508924168974e-01 2.717500000000e+02 9.006274967388e-01-8.603929816784e-09
    -1.414344627416e-10 1.000000000000e+00 3.800000000000e+02 0.000000000000e+00
     2.800000000000e+00 0.000000000000e+00 2.328306436539e-09 9.200000000000e+01
     7.551360000000e+05 4.000000000000e+00                                      
G04 2026 07 21 04 26 24 6.274553015828e-05 6.821210263297e-13 0.000000000000e+00
     6.000000000000e+00-2.050000000000e+01 4.324823003380e-09 7.817716787169e-01
    -9.983777999878e-07 3.822581376880e-03 6.087124347687e-06 5.153674917221e+03
     1.944000000000e+05 7.450580596924e-09 2.690032590449e+00 1.415610313416e-07
     9.724451661759e-01 2.685000000000e+02-2.902069181801e+00-7.997118826385e-09
     2.214377952016e-10 1.000000000000e+00 3.800000000000e+02 0.000000000000e+00
     2.000000000000e+00 0.000000000000e+00-4.656612873077e-09 5.180000000000e+02
     7.551360000000e+05 4.000000000000e+00                                      
G14 2026 07 21 04 26 24 7.499763742089e-04 2.273736754432e-13 0.000000000000e+00
     2.270000000000e+02 6.125000000000e+01 4.906990110120e-09-2.599717998404e+00
     3.017485141754e-06 7.363637676463e-03 9.743496775627e-06 5.153661857605e+03
     1.944000000000e+05-2.048909664154e-08-1.524159444936e+00-1.657754182816e-07
     9.416377923194e-01 1.834687500000e+02-2.680783462054e+00-8.087836890870e-09
     4.500187450871e-11 1.000000000000e+00 3.800000000000e+02 0.000000000000e+00
     2.000000000000e+00 0.000000000000e+00-7.916241884232e-09 9.950000000000e+02
     7.551360000000e+05 4.000000000000e+00                                      
C37 2026 07 21 04 28 54-9.072970133275e-04 6.910916283687e-12 0.000000000000e+00
     1.000000000000e+00 2.026562500000e+01 4.228033257413e-09 2.295978763223e+00
     1.037959009409e-06 7.145488634706e-04 9.840819984674e-06 5.282669256210e+03
     1.872000000000e+05 1.862645149231e-08-2.018614065550e+00 3.083236515522e-05
     9.451550262778e-01 1.539531250000e+02-3.743148959465e-01 1.002831057653e-07
    -6.500270762369e-11                    1.072000000000e+03                   
     0.000000000000e+00 0.000000000000e+00-7.823109626770e-08-7.823109626770e-08
     1.889340000000e+05 1.000000000000e+00                                      
C28 2026 07 21 04 28 54 5.406786222011e-04 3.956834859764e-12 0.000000000000e+00
     1.000000000000e+00-6.562500000000e-01 4.248391248262e-09 2.687206855923e+00
    -6.472691893578e-08 1.229300396517e-04 3.729481250048e-06 5.282632028580e+03
     1.872000000000e+05-5.587935447693e-09 7.538509172594e-02 4.095863550901e-05
     9.477871114118e-01 2.748125000000e+02-2.180534098581e+00 1.712418471960e-06
    -3.192990143713e-10                    1.072000000000e+03                   
     0.000000000000e+00 0.000000000000e+00-2.002343535423e-08-2.002343535423e-08
     1.889340000000e+05 1.000000000000e+00                                      
C12 2026 07 21 04 28 54 6.157784955576e-04-4.963141009284e-12 0.000000000000e+00
     1.000000000000e+00-1.239062500000e+01 3.542647565491e-09 2.118773301904e+00
    -5.620531737804e-07 1.763218315318e-04 7.363036274910e-06 5.282643545151e+03
     1.872000000000e+05 3.911554813385e-08 2.170681746156e+00-5.932617932558e-05
     9.735978636990e-01 2.170000000000e+02 7.068955990963e-01-1.400076533093e-06
     4.185888644778e-10                    1.072000000000e+03                   
     0.000000000000e+00 0.000000000000e+00 3.725290298462e-09 3.725290298462e-09
     1.889340000000e+05 1.000000000000e+00                                      
C19 2026 07 21 04 28 54-9.326311992481e-04 8.615330671091e-13 0.000000000000e+00
     1.000000000000e+00-1.514062500000e+01 3.240849280095e-09 2.720649106161e+00
    -7.529743015766e-07 7.844039937481e-04 7.436610758305e-06 5.282631511688e+03
     1.872000000000e+05 5.355104804039e-08 2.185028522317e+00 4.794448614120e-06
     9.899464984224e-01 2.225468750000e+02-3.182850749938e-01 6.245567295804e-07
     4.035882396416e-10                    1.072000000000e+03                   
     0.000000000000e+00 0.000000000000e+00 4.330649971962e-08 4.330649971962e-08
     1.889340000000e+05 1.000000000000e+00                                      
C20 2026 07 21 04 28 54-8.893072372302e-04 3.047340157991e-12 0.000000000000e+00
     1.000000000000e+00-1.387500000000e+01 3.215133923233e-09 2.844340348272e+00
    -6.393529474735e-07 8.085493464023e-04 7.359310984612e-06 5.282636501312e+03
     1.872000000000e+05 3.026798367500e-08 2.185655931308e+00-2.343673259020e-06
     9.899317068577e-01 2.263125000000e+02 2.745776207572e-01 1.235644683847e-06
     4.285892810353e-10                    1.072000000000e+03                   
     0.000000000000e+00 0.000000000000e+00 5.541369318962e-08 5.541369318962e-08
     1.889340000000e+05 1.000000000000e+00                                      
C36 2026 07 21 04 28 54 2.596642589197e-04-4.286349053473e-12 0.000000000000e+00
     1.000000000000e+00 1.617187500000e+01 4.173030966347e-09 1.350311617602e+00
     8.125789463520e-07 8.151222718880e-04 1.054210588336e-05 5.282654645920e+03
     1.872000000000e+05 2.235174179077e-08-2.018477895672e+00 4.573911428452e-05
     9.451413392162e-01 1.424218750000e+02-1.023781818656e+00 2.355115957176e-07
    -1.492919328940e-10                    1.072000000000e+03                   
     0.000000000000e+00 0.000000000000e+00-9.639188647270e-08-9.639188647270e-08
     1.889340000000e+05 1.000000000000e+00                                      
C30 2026 07 21 04 28 54 4.926846595481e-04 7.584155525819e-12 0.000000000000e+00
     1.000000000000e+00-7.343750000000e-01 4.256605876149e-09-1.936813892256e+00
    -8.381903171539e-09 4.687095060945e-04 3.837514668703e-06 5.282647251129e+03
     1.872000000000e+05-3.399327397346e-08 3.482757514259e-02 2.789497375488e-05
     9.455233685693e-01 2.782187500000e+02 9.818395169855e-01-1.941859457669e-06
    -2.957266039144e-10                    1.072000000000e+03                   
     0.000000000000e+00 0.000000000000e+00-4.516914486885e-08-4.516914486885e-08
     1.889340000000e+05 1.000000000000e+00                                      
G09 2026 07 21 04 30 24 7.171272591222e-04-6.991740519879e-12 0.000000000000e+00
     3.526687622070e-03-1.656250000000e+01 4.419469802942e-09 1.386780316189e+00
    -9.629875421524e-07 3.668958088383e-03 6.236135959625e-06 5.153526767805e+03
     1.395000000000e+05 1.192092895508e-07 2.624872550741e+00 7.450580596924e-09
     9.667074427424e-01 2.606484375000e+02 2.038220855097e+00-8.294574737239e-09
     2.851904507556e-10 4.419469802942e-09-2.000000000000e+00 3.000000000000e+00
     3.000000000000e+01 4.000000000000e+00 4.656612873077e-10 7.000000000000e+00
    -5.820766091347e-10-7.275957614183e-10 5.064066499472e-09 5.617039278150e-09
     1.890240000000e+05 2.428000000000e+03 0.000000000000e+00                   
E06 2026 07 21 04 30 35-3.006202750839e-04-5.073275133327e-12 0.000000000000e+00
     5.900000000000e+01-3.921875000000e+01 3.311566511466e-09 2.063342610273e-01
    -1.912936568260e-06 5.051671760157e-04 5.543231964111e-06 5.440611204147e+03
     1.878000000000e+05 2.048909664154e-08 2.852091490979e+00-3.352761268616e-08
     9.626594760026e-01 2.188125000000e+02 1.385748185060e+00-5.719523955416e-09
     2.021512775550e-10 1.000000000000e+00 1.404000000000e+03                   
     1.070000000000e+02 0.000000000000e+00 2.328306436539e-09 3.725290298462e-09
     1.890350000000e+05                                                         
E23 2026 07 21 04 30 54-4.269165219739e-05-1.307398633799e-12 0.000000000000e+00
     5.900000000000e+01 1.015000000000e+02 3.228705917133e-09-2.870481112934e+00
     4.718080163002e-06 1.738001592457e-04 8.579343557358e-06 5.440617355347e+03
     1.878000000000e+05 3.539025783539e-08-1.332234318415e+00-2.235174179077e-08
     9.625504374036e-01 1.573125000000e+02-2.746416561925e+00-5.569517707054e-09
     2.821546100149e-11 5.160000000000e+02 1.404000000000e+03                   
     1.070000000000e+02 0.000000000000e+00 4.656612873077e-10 1.862645149231e-09
     1.890540000000e+05                                                         
E04 2026 07 21 04 30 54-1.223351573572e-04 3.349498456373e-11 0.000000000000e+00
     5.900000000000e+01-4.234375000000e+01 3.191204355042e-09 2.052627675999e+00
    -1.937150955200e-06 2.932238858193e-04 5.593523383141e-06 5.440609460831e+03
     1.878000000000e+05 2.607703208923e-08 2.852440853371e+00-7.450580596924e-09
     9.693534453476e-01 2.207812500000e+02-6.750068596023e-02-5.667021768489e-09
     2.071514858337e-10 5.160000000000e+02 1.404000000000e+03                   
     1.070000000000e+02 0.000000000000e+00-4.190951585770e-09-4.656612873077e-09
     1.890540000000e+05                                                         
E28 2026 07 21 04 30 54-6.030808435753e-05-2.842170943040e-12 0.000000000000e+00
     5.900000000000e+01-4.393750000000e+01 3.534075779870e-09 3.915325917840e-01
    -1.965090632439e-06 2.852822653949e-04 5.422160029411e-06 5.440609550476e+03
     1.878000000000e+05-5.587935447693e-09 2.870135517556e+00 7.450580596924e-09
     9.490526906197e-01 2.159687500000e+02 1.959435247600e+00-5.869530203778e-09
     2.046513816944e-10 5.160000000000e+02 1.404000000000e+03                   
     1.070000000000e+02 0.000000000000e+00 9.313225746155e-10 1.862645149231e-09
     1.890540000000e+05                                                         
E19 2026 07 21 04 31 05 3.108420118224e-03 2.441424840072e-11 0.000000000000e+00
     5.900000000000e+01-4.403125000000e+01 3.094771766809e-09 3.048866073898e+00
    -1.968815922737e-06 2.429059240967e-04 5.505979061127e-06 5.440619012833e+03
     1.878000000000e+05-1.676380634308e-08 2.860539399622e+00-2.235174179077e-08
     9.747228433132e-01 2.296250000000e+02-2.403696938254e-01-5.641306411627e-09
     2.182233755938e-10 1.000000000000e+00 1.404000000000e+03                   
     1.070000000000e+02 0.000000000000e+00-4.423782229424e-09-4.423782229424e-09
     1.890650000000e+05                                                         
E06 2026 07 21 04 31 05-3.006232436746e-04-5.073275133327e-12 0.000000000000e+00
     6.000000000000e+01-3.921875000000e+01 3.311566511466e-09 2.063342610273e-01
    -1.912936568260e-06 5.051671760157e-04 5.543231964111e-06 5.440611204147e+03
     1.878000000000e+05 2.421438694000e-08 2.852088089694e+00-2.980232238770e-08
     9.626596003507e-01 2.188125000000e+02 1.385800756484e+00-5.719523955416e-09
     2.000083311498e-10 1.000000000000e+00 1.404000000000e+03                   
     1.070000000000e+02 0.000000000000e+00 2.328306436539e-09 3.725290298462e-09
     1.890650000000e+05                                                         
G14 2026 07 21 04 31 12 7.499761122745e-04 2.593480985524e-13 0.000000000000e+00
    -2.451896667480e-03 6.748828125000e+01 4.874488756308e-09-2.862347758742e+00
     3.377906978130e-06 7.362615899183e-03 9.466893970966e-06 5.153559374317e+03
     1.152000000000e+05-6.146728992462e-08-1.524144717008e+00-1.182779669762e-07
     9.416378201149e-01 1.868945312500e+02-2.680703005217e+00-8.281895637675e-09
     1.892935991239e-11 4.874488756308e-09-2.000000000000e+00 3.000000000000e+00
     3.100000000000e+01 4.000000000000e+00-7.916241884232e-09 7.000000000000e+00
    -2.619344741106e-10 5.005858838558e-09-1.455191522837e-09-1.076841726899e-09
     1.890720000000e+05 2.428000000000e+03 0.000000000000e+00                   
E31 2026 07 21 04 31 24-1.580716343597e-04-2.984279490192e-12 0.000000000000e+00
     5.900000000000e+01 1.233125000000e+02 3.150488373344e-09 1.295640980670e+00
     5.668029189110e-06 3.408213378862e-04 9.192153811455e-06 5.440619762421e+03
     1.878000000000e+05 0.000000000000e+00-1.329121822687e+00-3.725290298462e-09
     9.605967498075e-01 1.453125000000e+02-1.395455464287e+00-5.546659612065e-09
     4.893060958486e-11 5.160000000000e+02 1.404000000000e+03                   
     1.070000000000e+02 0.000000000000e+00 3.492459654808e-09 4.190951585770e-09
     1.890840000000e+05                                                         
E21 2026 07 21 04 31 24-7.585562416352e-04-2.813749233610e-12 0.000000000000e+00
     5.500000000000e+01 1.006875000000e+02 3.320138297087e-09 2.714061811340e+00
     4.794448614120e-06 1.726628979668e-04 8.253380656242e-06 5.440613023758e+03
     1.854000000000e+05 5.029141902924e-08-1.329028293946e+00 4.842877388000e-08
     9.606201886810e-01 1.634687500000e+02-1.553261353284e+00-5.615233897031e-09
     3.821587755898e-11 5.160000000000e+02 1.404000000000e+03                   
     1.070000000000e+02 0.000000000000e+00 6.984919309616e-10 9.313225746155e-10
     1.890840000000e+05                                                         
E23 2026 07 21 04 31 24-4.269258351997e-05-1.307398633799e-12 0.000000000000e+00
     6.000000000000e+01 1.006875000000e+02 3.236920545019e-09-2.797461490986e+00
     4.680827260017e-06 1.739555737004e-04 8.482486009598e-06 5.440616792679e+03
     1.884000000000e+05 3.911554813385e-08-1.332237681664e+00-1.490116119385e-08
     9.625504315519e-01 1.594687500000e+02-2.745051145873e+00-5.570589180256e-09
     3.285851154604e-11 5.160000000000e+02 1.404000000000e+03                   
     1.070000000000e+02 0.000000000000e+00 4.656612873077e-10 1.862645149231e-09
     1.890840000000e+05                                                         
E04 2026 07 21 04 31 24-1.223150757141e-04 3.350919541845e-11 0.000000000000e+00
     6.000000000000e+01-4.256250000000e+01 3.185846989029e-09 2.126974202682e+00
    -1.929700374603e-06 2.931922208518e-04 5.597248673439e-06 5.440609525681e+03
     1.884000000000e+05 2.607703208923e-08 2.852437443309e+00-9.313225746155e-09
     9.693535711586e-01 2.209687500000e+02-6.746159532623e-02-5.665950295287e-09
     2.078658013021e-10 5.160000000000e+02 1.404000000000e+03                   
     1.070000000000e+02 0.000000000000e+00-4.190951585770e-09-4.656612873077e-09
     1.890840000000e+05                                                         
E28 2026 07 21 04 31 24-6.030977237970e-05-2.842170943040e-12 0.000000000000e+00
     6.000000000000e+01-4.406250000000e+01 3.525146836515e-09 4.658230711493e-01
    -1.965090632439e-06 2.852999605238e-04 5.427747964859e-06 5.440609611511e+03
     1.884000000000e+05 5.587935447693e-09 2.870131948036e+00 0.000000000000e+00
     9.490528500778e-01 2.162500000000e+02 1.959530604989e+00-5.860958418158e-09
     2.060800126311e-10 5.160000000000e+02 1.404000000000e+03                   
     1.070000000000e+02 0.000000000000e+00 9.313225746155e-10 1.862645149231e-09
     1.890840000000e+05                                                         
END OF FILE                                                 COMMENT
