     3.05           N: NAVIGATION       M: MIXED            RINEX VERSION / TYPE
PYRINEXCONV 0.1.2 ALDELTUNES            20260721 092300 UTC PGM / RUN BY / DATE
GAL    1.0175e+02  3.3203e-01  2.2858e-02             J 16  IONOSPHERIC CORR
GPSA   1.1176e-08  2.2352e-08  1.5199e-05  1.5140e-05 J 24  IONOSPHERIC CORR
GPSB   1.0650e+05  1.4746e+05  1.6712e+07  1.6450e+07 J 24  IONOSPHERIC CORR
BDSA   2.0489e-08  5.2154e-08 -6.5565e-07  1.1325e-06 J 35  IONOSPHERIC CORR
BDSB   1.3926e+05 -6.0621e+05  5.0463e+06 -4.3254e+06 J 35  IONOSPHERIC CORR
GAUT  6.5192580223e-09-2.664535259e-15 205800 1404   E16  0 TIME SYSTEM CORR
GPUT  1.0186340660e-09 1.190603172e-12 413400 2428   G24  0 TIME SYSTEM CORR
BDUT  0.0000000000e+00 0.000000000e+00 205200 1072   C35  0 TIME SYSTEM CORR
                                                            END OF HEADER
G19 2026 07 21 09 13 54 7.038190960884e-04 4.547473508865e-13 0.000000000000e+00
     5.000000000000e+01 4.206250000000e+01 4.855916554130e-09-1.509985941181e+00
     2.097338438034e-06 1.176493673120e-02 4.887580871582e-06 5.153760034561e+03
     2.088000000000e+05 5.774199962616e-08-3.912794762350e-01-1.620501279831e-07
     9.566052816954e-01 2.842500000000e+02 3.029474768527e+00-8.343918986289e-09
     1.535778257043e-10 1.000000000000e+00 3.800000000000e+02 0.000000000000e+00
     2.000000000000e+00 0.000000000000e+00-1.536682248116e-08 5.000000000000e+01
     8.241360000000e+05 4.000000000000e+00                                      
G06 2026 07 21 09 13 54-5.693081766367e-04 7.958078640513e-12 0.000000000000e+00
     1.400000000000e+01-2.406250000000e+01 4.019095982909e-09 1.195134823534e+00
    -1.270323991776e-06 3.694361192174e-03 5.714595317841e-06 5.153724903107e+03
     2.088000000000e+05 1.303851604462e-08 5.836642618564e-01-3.911554813385e-08
     9.858733950927e-01 2.786875000000e+02-5.462298515458e-01-7.903543500025e-09
    -2.785830326729e-10 1.000000000000e+00 3.800000000000e+02 0.000000000000e+00
     2.000000000000e+00 0.000000000000e+00 3.725290298462e-09 1.400000000000e+01
     8.241360000000e+05 4.000000000000e+00                                      
G17 2026 07 21 09 13 54-1.762625761330e-04-6.025402399246e-12 0.000000000000e+00
     6.600000000000e+01 5.268750000000e+01 4.767698593784e-09 3.140405416571e+00
     2.849847078323e-06 1.261520700064e-02 4.867091774940e-06 5.153678655624e+03
     2.088000000000e+05 1.322478055954e-07-4.350422214605e-01 2.756714820862e-07
     9.574385934805e-01 2.811875000000e+02-1.098618294159e+00-8.097122991959e-09
     4.500187450871e-11 1.000000000000e+00 3.800000000000e+02 0.000000000000e+00
     2.000000000000e+00 0.000000000000e+00-1.071020960808e-08 6.600000000000e+01
     8.241360000000e+05 4.000000000000e+00                                      
G30 2026 07 21 09 13 54 3.027403727174e-04 1.330136001343e-11 0.000000000000e+00
     1.600000000000e+01-3.006250000000e+01 5.080925926673e-09 9.449358577428e-02
    -1.473352313042e-06 8.217709721066e-03 7.897615432739e-06 5.153681278229e+03
     2.087840000000e+05-4.656612873077e-08-2.597270394554e+00 1.881271600723e-07
     9.366260412513e-01 2.157187500000e+02-2.258931051900e+00-8.386777914392e-09
    -7.750322832055e-11 1.000000000000e+00 3.800000000000e+02 0.000000000000e+00
     2.000000000000e+00 0.000000000000e+00 4.190951585770e-09 1.600000000000e+01
     8.241360000000e+05 4.000000000000e+00                                      
G24 2026 07 21 09 14 18 1.223646104336e-04 1.864464138635e-11 0.000000000000e+00
     2.600000000000e+01-3.465625000000e+01 5.181287249983e-09 1.361581783415e+00
    -1.974403858185e-06 1.843425631523e-02 8.089467883110e-06 5.153629722595e+03
     2.087840000000e+05-3.930181264877e-07-2.697193767552e+00-1.229345798492e-07
     9.355017521344e-01 2.145000000000e+02 1.162130573895e+00-8.524640799792e-09
    -1.575065607805e-10 1.000000000000e+00 3.800000000000e+02 0.000000000000e+00
     2.000000000000e+00 0.000000000000e+00 2.328306436539e-09 2.600000000000e+01
     8.242320000000e+05 4.000000000000e+00                                      
C29 2026 07 21 09 16 54 6.338361417875e-04 5.180744722111e-12 0.000000000000e+00
     1.000000000000e+00 1.185937500000e+01 4.339466470482e-09-1.400845564006e+00
     6.342306733131e-07 2.191975945607e-04 3.683846443892e-06 5.282657890320e+03
     2.052000000000e+05 3.259629011154e-09 3.423188806697e-02 3.114668652415e-05
     9.455629156337e-01 2.772656250000e+02 2.113112502360e+00-2.523826556078e-06
    -1.964367538078e-10                    1.072000000000e+03                   
     0.000000000000e+00 0.000000000000e+00 9.313225746155e-10 9.313225746155e-10
     2.062140000000e+05 1.000000000000e+00                                      
C36 2026 07 21 09 16 54 2.595866099000e-04-4.286349053473e-12 0.000000000000e+00
     1.000000000000e+00 8.703125000000e+00 3.998023676591e-09-2.493542670907e+00
     4.926696419716e-07 8.150421781465e-04 9.346287697554e-06 5.282655700684e+03
     2.052000000000e+05 9.778887033463e-09-2.018601316219e+00 4.700943827629e-05
     9.451396232133e-01 1.630781250000e+02-1.025312382068e+00 1.153237322678e-07
    -3.750156209059e-11                    1.072000000000e+03                   
     0.000000000000e+00 0.000000000000e+00-9.639188647270e-08-9.639188647270e-08
     2.062140000000e+05 1.000000000000e+00                                      
C39 2026 07 21 09 16 54-9.576120646670e-04 8.826717134980e-12 0.000000000000e+00
     1.000000000000e+00 2.017187500000e+01 3.978380001210e-09 1.958106534700e+00
     8.679926395416e-07 5.728323012590e-04 9.465031325817e-06 5.282660549164e+03
     2.052000000000e+05 2.142041921616e-08-2.011498066283e+00 5.534803494811e-05
     9.490806601504e-01 1.603906250000e+02 5.779242072630e-02 1.060414527664e-06
    -6.071681481333e-11                    1.072000000000e+03                   
     0.000000000000e+00 0.000000000000e+00 8.987262845039e-08 8.987262845039e-08
     2.062140000000e+05 1.000000000000e+00                                      
C30 2026 07 21 09 16 54 4.928193520755e-04 7.526423928539e-12 0.000000000000e+00
     1.000000000000e+00 1.306250000000e+01 4.395897392485e-09 5.009480165756e-01
     7.757917046547e-07 4.700825084001e-04 3.736000508070e-06 5.282649347305e+03
     2.052000000000e+05 1.075677573681e-07 3.469643331429e-02 1.052115112543e-05
     9.455183639265e-01 2.763906250000e+02 9.818907790979e-01-2.070276235315e-06
    -1.292910997790e-10                    1.072000000000e+03                   
     0.000000000000e+00 0.000000000000e+00-4.516914486885e-08-4.516914486885e-08
     2.062140000000e+05 1.000000000000e+00                                      
C35 2026 07 21 09 16 54-4.781602183357e-04-1.595878984517e-11 0.000000000000e+00
     1.000000000000e+00 8.984375000000e+00 4.395183077017e-09-9.957836922392e-01
     5.164183676243e-07 8.107782341540e-04 3.786757588387e-06 5.282618425369e+03
     2.052000000000e+05-2.607703208923e-08 3.483019376595e-02 3.119511529803e-05
     9.437481818485e-01 2.765312500000e+02 8.870480050185e-01-1.938659324371e-06
    -1.417916204758e-10                    1.072000000000e+03                   
     0.000000000000e+00 0.000000000000e+00-1.257285475731e-08-1.257285475731e-08
     2.062140000000e+05 1.000000000000e+00                                      
E26 2026 07 21 09 20 35 3.676721826196e-04 1.082867129298e-11 0.000000000000e+00
     8.800000000000e+01-5.443750000000e+01 2.812259999060e-09-2.209734535925e+00
    -2.501532435417e-06 9.289989247918e-05 5.180016160011e-06 5.440599153519e+03
     2.052000000000e+05 1.303851604462e-08 7.665070033848e-01 2.048909664154e-08
     9.909279555326e-01 2.440000000000e+02-2.571914851171e+00-5.532016144963e-09
    -1.742929742877e-10 1.000000000000e+00 1.404000000000e+03                   
     1.070000000000e+02 0.000000000000e+00-5.122274160385e-09-5.587935447693e-09
     2.064350000000e+05                                                         
E12 2026 07 21 09 20 35-5.899876123294e-05-2.600586412882e-12 0.000000000000e+00
     8.800000000000e+01-4.084375000000e+01 2.626537977278e-09-9.440232323911e-01
    -1.987442374229e-06 3.200989449397e-04 5.759298801422e-06 5.440609273911e+03
     2.052000000000e+05-7.450580596924e-08 7.694865432660e-01-4.656612873077e-08
     9.945598471583e-01 2.299687500000e+02 8.620281340405e-01-5.464870490934e-09
    -2.514390448740e-10 1.000000000000e+00 1.404000000000e+03                   
     1.070000000000e+02 0.000000000000e+00-1.187436282635e-08-1.164153218269e-08
     2.064350000000e+05                                                         
E23 2026 07 21 09 20 35-4.271557554603e-05-1.350031197944e-12 0.000000000000e+00
     8.800000000000e+01 7.893750000000e+01 3.112629653519e-09-7.049815185443e-01
     3.829598426819e-06 1.731670927256e-04 9.279698133469e-06 5.440617933273e+03
     2.052000000000e+05 1.303851604462e-08-1.332331680002e+00-1.862645149231e-09
     9.625518871554e-01 1.442187500000e+02-2.754745166673e+00-5.485585639518e-09
     1.078616357272e-10 1.000000000000e+00 1.404000000000e+03                   
     1.070000000000e+02 0.000000000000e+00 4.656612873077e-10 1.862645149231e-09
     2.064350000000e+05                                                         
E16 2026 07 21 09 20 54-4.647823516279e-05-2.486899575160e-12 0.000000000000e+00
     8.800000000000e+01 9.878125000000e+01 3.101557763759e-09-2.581634715883e+00
     4.382804036140e-06 4.926414694637e-04 8.333474397659e-06 5.440616245270e+03
     2.052000000000e+05 3.725290298462e-09-1.332456022187e+00 3.725290298462e-09
     9.625727000909e-01 1.605000000000e+02-2.472154590613e+00-5.512372469582e-09
     8.143196339671e-11 5.160000000000e+02 1.404000000000e+03                   
     1.070000000000e+02 0.000000000000e+00-3.725290298462e-09-2.328306436539e-09
     2.064540000000e+05                                                         
E23 2026 07 21 09 21 05-4.271650686860e-05-1.364242052659e-12 0.000000000000e+00
     8.900000000000e+01 7.893750000000e+01 3.112629653519e-09-7.049815185443e-01
     3.829598426819e-06 1.731670927256e-04 9.279698133469e-06 5.440617933273e+03
     2.052000000000e+05 1.490116119385e-08-1.332334978883e+00 1.862645149231e-09
     9.625519749305e-01 1.442187500000e+02-2.754764844385e+00-5.485585639518e-09
     1.064330047904e-10 1.000000000000e+00 1.404000000000e+03                   
     1.070000000000e+02 0.000000000000e+00 4.656612873077e-10 1.862645149231e-09
     2.064650000000e+05                                                         
E33 2026 07 21 09 22 05-2.519506961107e-05-1.946887095983e-12 0.000000000000e+00
     8.600000000000e+01-5.178125000000e+01 2.673325640458e-09-2.678856425900e+00
    -2.324581146240e-06 1.662023132667e-04 5.647540092468e-06 5.440606731415e+03
     2.040000000000e+05 5.587935447693e-08 7.699541489380e-01-8.754432201385e-08
     9.976651175338e-01 2.334062500000e+02-3.021928220766e+00-5.507015103569e-09
    -2.207234797332e-10 1.000000000000e+00 1.404000000000e+03                   
     1.070000000000e+02 0.000000000000e+00-4.423782229424e-09-4.889443516731e-09
     2.065250000000e+05                                                         
G14 2026 07 21 09 22 24 7.499796629418e-04 2.557953848736e-13 0.000000000000e+00
    -2.422332763672e-04 4.229296875000e+01 4.912883212734e-09-6.744416370642e-01
     2.199783921242e-06 7.365882338490e-03 8.623115718365e-06 5.153562711095e+03
     2.016000000000e+05 1.080334186554e-07-1.524266816540e+00 7.264316082001e-08
     9.416386459321e-01 2.037539062500e+02-2.680705784030e+00-8.091173407614e-09
     6.785996949726e-11 4.912883212734e-09-3.000000000000e+00 2.000000000000e+00
     2.700000000000e+01 4.000000000000e+00-7.916241884232e-09 7.000000000000e+00
    -2.619344741106e-10 5.005858838558e-09-1.455191522837e-09-1.076841726899e-09
     2.065440000000e+05 2.428000000000e+03 0.000000000000e+00                   
E31 2026 07 21 09 22 34-1.581155811436e-04-2.941646926047e-12 0.000000000000e+00
     8.400000000000e+01 8.581250000000e+01 3.111915338050e-09-3.118831762193e+00
     4.041939973831e-06 3.419846761972e-04 8.542090654373e-06 5.440615993500e+03
     2.028000000000e+05-1.490116119385e-08-1.329205419678e+00 2.421438694000e-08
     9.605975412462e-01 1.544687500000e+02-1.404535496907e+00-5.539873615115e-09
     9.643258823294e-11 5.160000000000e+02 1.404000000000e+03                   
     1.070000000000e+02 0.000000000000e+00 3.492459654808e-09 4.190951585770e-09
     2.065540000000e+05                                                         
E10 2026 07 21 09 23 05-8.074251818471e-04-2.600586412882e-12 0.000000000000e+00
     8.700000000000e+01-4.515625000000e+01 2.576893052225e-09-2.856180244606e+00
    -2.223998308182e-06 2.871559699997e-04 6.128102540970e-06 5.440603137970e+03
     2.046000000000e+05-6.146728992462e-08 7.680206642406e-01 7.450580596924e-09
     9.974651600391e-01 2.255937500000e+02 2.331766037495e+00-5.393796101829e-09
    -2.400099973798e-10 1.000000000000e+00 1.404000000000e+03                   
     1.070000000000e+02 0.000000000000e+00-1.164153218269e-09-2.328306436539e-10
     2.065850000000e+05                                                         
E12 2026 07 21 09 23 05-5.900033283979e-05-2.600586412882e-12 0.000000000000e+00
     8.900000000000e+01-4.065625000000e+01 2.634038289696e-09-8.696284016164e-01
    -1.961365342140e-06 3.201253712177e-04 5.755573511124e-06 5.440609327316e+03
     2.058000000000e+05-7.078051567078e-08 7.694832648666e-01-6.146728992462e-08
     9.945596321093e-01 2.300000000000e+02 8.620185431495e-01-5.473442276555e-09
    -2.464388365953e-10 1.000000000000e+00 1.404000000000e+03                   
     1.070000000000e+02 0.000000000000e+00-1.187436282635e-08-1.164153218269e-08
     2.065850000000e+05                                                         
E26 2026 07 21 09 23 05 3.676788182929e-04 1.082867129298e-11 0.000000000000e+00
     8.900000000000e+01-5.556250000000e+01 2.809045579452e-09-2.133767198414e+00
    -2.562999725342e-06 9.290711022913e-05 5.200505256653e-06 5.440599447250e+03
     2.058000000000e+05 9.313225746155e-09 7.665036620799e-01 1.676380634308e-08
     9.909278458137e-01 2.436250000000e+02-2.573496308040e+00-5.529873198558e-09
    -1.725071856167e-10 1.000000000000e+00 1.404000000000e+03                   
     1.070000000000e+02 0.000000000000e+00-5.122274160385e-09-5.587935447693e-09
     2.065850000000e+05                                                         
E16 2026 07 21 09 23 05-4.647969035432e-05-2.486899575160e-12 0.000000000000e+00
     8.900000000000e+01 9.781250000000e+01 3.090485873999e-09-2.506894661311e+00
     4.362314939499e-06 4.925836110488e-04 8.363276720047e-06 5.440616605759e+03
     2.058000000000e+05 5.587935447693e-09-1.332459325456e+00 3.725290298462e-09
     9.625727512931e-01 1.593437500000e+02-2.472509234140e+00-5.512729627317e-09
     8.107480566251e-11 1.000000000000e+00 1.404000000000e+03                   
     1.070000000000e+02 0.000000000000e+00-3.725290298462e-09-2.328306436539e-09
     2.065850000000e+05                                                         
G11 2026 07 21 09 23 12-2.678986347746e-04 1.224265133715e-11 0.000000000000e+00
     1.009941101074e-03-2.707031250000e+01 4.508402078757e-09 2.166119576878e+00
    -1.373700797558e-06 2.487270801794e-03 6.095506250858e-06 5.153573621315e+03
     1.872000000000e+05-7.916241884232e-08 5.993640390152e-01-3.259629011154e-08
     9.627647863549e-01 2.627109375000e+02-2.355922015117e+00-8.224750400204e-09
    -2.292952653539e-10 4.508402078757e-09-2.000000000000e+00 3.000000000000e+00
     2.800000000000e+01 4.000000000000e+00-8.847564458847e-09 7.000000000000e+00
    -2.037268131971e-10 5.675246939063e-09 3.783497959375e-10 2.328306436539e-10
     2.065920000000e+05 2.428000000000e+03 0.000000000000e+00                   
G06 2026 07 21 09 23 12-5.693228158634e-04 7.972289495228e-12 0.000000000000e+00
     5.177974700928e-03-2.061328125000e+01 4.004452515806e-09 9.323627841724e-01
    -1.042149960995e-06 3.692717407830e-03 6.204470992088e-06 5.153498310652e+03
     1.845000000000e+05 1.676380634308e-08 5.836785092156e-01-2.700835466385e-08
     9.858739305207e-01 2.723945312500e+02-5.459911281849e-01-8.441009408259e-09
    -2.816188734136e-10 4.004452515806e-09-2.000000000000e+00 3.000000000000e+00
     2.800000000000e+01 4.000000000000e+00 3.725290298462e-09 7.000000000000e+00
     3.201421350241e-10-3.929017111659e-09 1.775333657861e-09 2.211891114712e-09
     2.065920000000e+05 2.428000000000e+03 0.000000000000e+00                   
G24 2026 07 21 09 23 12 1.223256404046e-04 1.861266696324e-11 0.000000000000e+00
     5.737304687500e-03-3.158593750000e+01 5.240754012726e-09 1.057586258153e+00
    -1.759268343449e-06 1.843219791772e-02 7.580965757370e-06 5.153594282187e+03
     1.980000000000e+05-2.672895789146e-07-2.697175393301e+00 1.583248376846e-08
     9.355018413724e-01 2.222226562500e+02 1.162151067182e+00-7.711157578430e-09
    -2.384027875759e-10 5.240754012726e-09-2.000000000000e+00 2.000000000000e+00
     2.700000000000e+01 4.000000000000e+00 2.328306436539e-09 7.000000000000e+00
     2.910383045673e-11-1.426087692380e-09 1.484295353293e-09 2.764863893390e-09
     2.065920000000e+05 2.428000000000e+03 0.000000000000e+00                   
END OF FILE                                                 COMMENT
