     3.05           N: NAVIGATION       M: MIXED            RINEX VERSION / TYPE
PYRINEXCONV 0.1.2 ALDELTUNES            20260721 091256 UTC PGM / RUN BY / DATE
GAL    1.0175e+02  3.3203e-01  2.2858e-02             J 16  IONOSPHERIC CORR
GPSA   1.1176e-08  2.2352e-08  1.5199e-05  1.5140e-05 J 11  IONOSPHERIC CORR
GPSB   1.0650e+05  1.4746e+05  1.6712e+07  1.6450e+07 J 11  IONOSPHERIC CORR
BDSA   2.0489e-08  5.2154e-08 -6.5565e-07  1.1325e-06 J 35  IONOSPHERIC CORR
BDSB   1.3926e+05 -6.0621e+05  5.0463e+06 -4.3254e+06 J 35  IONOSPHERIC CORR
GAUT  6.5192580223e-09-2.664535259e-15 205200 1404   E16  0 TIME SYSTEM CORR
GPUT  1.1350493878e-09-8.557599074e-13 414300 2428   G11  0 TIME SYSTEM CORR
BDUT  0.0000000000e+00 0.000000000e+00 205200 1072   C35  0 TIME SYSTEM CORR
                                                            END OF HEADER
C29 2026 07 21 09 04 54 6.338361417875e-04 5.180744722111e-12 0.000000000000e+00
     1.000000000000e+00 1.185937500000e+01 4.339466470482e-09-1.400845564006e+00
     6.342306733131e-07 2.191975945607e-04 3.683846443892e-06 5.282657890320e+03
     2.052000000000e+05 3.259629011154e-09 3.423188806697e-02 3.114668652415e-05
     9.455629156337e-01 2.772656250000e+02 2.113112502360e+00-2.523826556078e-06
    -1.964367538078e-10                    1.072000000000e+03                   
     0.000000000000e+00 0.000000000000e+00 9.313225746155e-10 9.313225746155e-10
     2.054940000000e+05 1.000000000000e+00                                      
C36 2026 07 21 09 04 54 2.595866099000e-04-4.286349053473e-12 0.000000000000e+00
     1.000000000000e+00 8.703125000000e+00 3.998023676591e-09-2.493542670907e+00
     4.926696419716e-07 8.150421781465e-04 9.346287697554e-06 5.282655700684e+03
     2.052000000000e+05 9.778887033463e-09-2.018601316219e+00 4.700943827629e-05
     9.451396232133e-01 1.630781250000e+02-1.025312382068e+00 1.153237322678e-07
    -3.750156209059e-11                    1.072000000000e+03                   
     0.000000000000e+00 0.000000000000e+00-9.639188647270e-08-9.639188647270e-08
     2.054940000000e+05 1.000000000000e+00                                      
C30 2026 07 21 09 04 54 4.928193520755e-04 7.526423928539e-12 0.000000000000e+00
     1.000000000000e+00 1.306250000000e+01 4.395897392485e-09 5.009480165756e-01
     7.757917046547e-07 4.700825084001e-04 3.736000508070e-06 5.282649347305e+03
     2.052000000000e+05 1.075677573681e-07 3.469643331429e-02 1.052115112543e-05
     9.455183639265e-01 2.763906250000e+02 9.818907790979e-01-2.070276235315e-06
    -1.292910997790e-10                    1.072000000000e+03                   
     0.000000000000e+00 0.000000000000e+00-4.516914486885e-08-4.516914486885e-08
     2.054940000000e+05 1.000000000000e+00                                      
C39 2026 07 21 09 04 54-9.576120646670e-04 8.826717134980e-12 0.000000000000e+00
     1.000000000000e+00 2.017187500000e+01 3.978380001210e-09 1.958106534700e+00
     8.679926395416e-07 5.728323012590e-04 9.465031325817e-06 5.282660549164e+03
     2.052000000000e+05 2.142041921616e-08-2.011498066283e+00 5.534803494811e-05
     9.490806601504e-01 1.603906250000e+02 5.779242072630e-02 1.060414527664e-06
    -6.071681481333e-11                    1.072000000000e+03                   
     0.000000000000e+00 0.000000000000e+00 8.987262845039e-08 8.987262845039e-08
     2.054940000000e+05 1.000000000000e+00                                      
C35 2026 07 21 09 04 54-4.781602183357e-04-1.595878984517e-11 0.000000000000e+00
     1.000000000000e+00 8.984375000000e+00 4.395183077017e-09-9.957836922392e-01
     5.164183676243e-07 8.107782341540e-04 3.786757588387e-06 5.282618425369e+03
     2.052000000000e+05-2.607703208923e-08 3.483019376595e-02 3.119511529803e-05
     9.437481818485e-01 2.765312500000e+02 8.870480050185e-01-1.938659324371e-06
    -1.417916204758e-10                    1.072000000000e+03                   
     0.000000000000e+00 0.000000000000e+00-1.257285475731e-08-1.257285475731e-08
     2.054940000000e+05 1.000000000000e+00                                      
E31 2026 07 21 09 06 24-1.581155811436e-04-2.941646926047e-12 0.000000000000e+00
     8.400000000000e+01 8.581250000000e+01 3.111915338050e-09-3.118831762193e+00
     4.041939973831e-06 3.419846761972e-04 8.542090654373e-06 5.440615993500e+03
     2.028000000000e+05-1.490116119385e-08-1.329205419678e+00 2.421438694000e-08
     9.605975412462e-01 1.544687500000e+02-1.404535496907e+00-5.539873615115e-09
     9.643258823294e-11 5.160000000000e+02 1.404000000000e+03                   
     1.070000000000e+02 0.000000000000e+00 3.492459654808e-09 4.190951585770e-09
     2.055840000000e+05                                                         
G24 2026 07 21 09 06 24 1.223256404046e-04 1.861266696324e-11 0.000000000000e+00
     5.737304687500e-03-3.158593750000e+01 5.240754012726e-09 1.057586258153e+00
    -1.759268343449e-06 1.843219791772e-02 7.580965757370e-06 5.153594282187e+03
     1.980000000000e+05-2.672895789146e-07-2.697175393301e+00 1.583248376846e-08
     9.355018413724e-01 2.222226562500e+02 1.162151067182e+00-7.711157578430e-09
    -2.384027875759e-10 5.240754012726e-09-2.000000000000e+00 2.000000000000e+00
     2.700000000000e+01 4.000000000000e+00 2.328306436539e-09 7.000000000000e+00
     2.910383045673e-11-1.426087692380e-09 1.484295353293e-09 2.764863893390e-09
     2.055840000000e+05 2.428000000000e+03 0.000000000000e+00                   
E16 2026 07 21 09 10 24-4.646781599149e-05-2.501110429876e-12 0.000000000000e+00
     8.100000000000e+01 1.001562500000e+02 3.139416483584e-09-3.101724718553e+00
     4.405155777931e-06 4.923009546474e-04 8.720904588699e-06 5.440617143631e+03
     2.010000000000e+05 1.862645149231e-09-1.332432891990e+00 9.313225746155e-09
     9.625723314356e-01 1.570937500000e+02-2.472761177891e+00-5.512015311848e-09
     8.500354073867e-11 5.160000000000e+02 1.404000000000e+03                   
     1.070000000000e+02 0.000000000000e+00-3.725290298462e-09-2.328306436539e-09
     2.058240000000e+05                                                         
E23 2026 07 21 09 10 35-4.271470243111e-05-1.335820343229e-12 0.000000000000e+00
     8.700000000000e+01 8.012500000000e+01 3.111915338050e-09-7.792739991814e-01
     3.892928361893e-06 1.734121469781e-04 9.194016456604e-06 5.440618419647e+03
     2.046000000000e+05 9.313225746155e-09-1.332328376733e+00-7.450580596924e-09
     9.625517979174e-01 1.458125000000e+02-2.754837653817e+00-5.489514374594e-09
     1.089331089298e-10 1.000000000000e+00 1.404000000000e+03                   
     1.070000000000e+02 0.000000000000e+00 4.656612873077e-10 1.862645149231e-09
     2.058350000000e+05                                                         
E26 2026 07 21 09 10 35 3.676656633615e-04 1.082867129298e-11 0.000000000000e+00
     8.700000000000e+01-5.368750000000e+01 2.814402945465e-09-2.285263830411e+00
    -2.458691596985e-06 9.290385060012e-05 5.155801773071e-06 5.440598941803e+03
     2.046000000000e+05 2.048909664154e-08 7.665103680964e-01 2.048909664154e-08
     9.909280725660e-01 2.444375000000e+02-2.570771422697e+00-5.535230564571e-09
    -1.782217093638e-10 1.000000000000e+00 1.404000000000e+03                   
     1.070000000000e+02 0.000000000000e+00-5.122274160385e-09-5.587935447693e-09
     2.058350000000e+05                                                         
G06 2026 07 21 09 10 48-5.693228158634e-04 7.972289495228e-12 0.000000000000e+00
     5.177974700928e-03-2.061328125000e+01 4.004452515806e-09 9.323627841724e-01
    -1.042149960995e-06 3.692717407830e-03 6.204470992088e-06 5.153498310652e+03
     1.845000000000e+05 1.676380634308e-08 5.836785092156e-01-2.700835466385e-08
     9.858739305207e-01 2.723945312500e+02-5.459911281849e-01-8.441009408259e-09
    -2.816188734136e-10 4.004452515806e-09-2.000000000000e+00 3.000000000000e+00
     2.800000000000e+01 4.000000000000e+00 3.725290298462e-09 7.000000000000e+00
     3.201421350241e-10-3.929017111659e-09 1.775333657861e-09 2.211891114712e-09
     2.058480000000e+05 2.428000000000e+03 0.000000000000e+00                   
E12 2026 07 21 09 10 54-5.899707321078e-05-2.586375558167e-12 0.000000000000e+00
     8.700000000000e+01-4.143750000000e+01 2.620109138062e-09-1.018474100243e+00
    -2.032145857811e-06 3.200228093192e-04 5.777925252914e-06 5.440609117508e+03
     2.046000000000e+05-7.636845111847e-08 7.694898128879e-01-3.166496753693e-08
     9.945600592814e-01 2.297500000000e+02 8.620937210467e-01-5.456655863048e-09
    -2.557249376844e-10 5.160000000000e+02 1.404000000000e+03                   
     1.070000000000e+02 0.000000000000e+00-1.187436282635e-08-1.164153218269e-08
     2.058540000000e+05                                                         
E16 2026 07 21 09 10 54-4.647672176361e-05-2.486899575160e-12 0.000000000000e+00
     8.700000000000e+01 9.937500000000e+01 3.111915338050e-09-2.656269765121e+00
     4.390254616737e-06 4.926940891892e-04 8.318573236465e-06 5.440615983963e+03
     2.046000000000e+05 3.725290298462e-09-1.332452718918e+00 5.587935447693e-09
     9.625726474259e-01 1.615000000000e+02-2.471904927551e+00-5.512015311848e-09
     8.214627886510e-11 5.160000000000e+02 1.404000000000e+03                   
     1.070000000000e+02 0.000000000000e+00-3.725290298462e-09-2.328306436539e-09
     2.058540000000e+05                                                         
G11 2026 07 21 09 12 00-2.678986347746e-04 1.224265133715e-11 0.000000000000e+00
     1.009941101074e-03-2.707031250000e+01 4.508402078757e-09 2.166119576878e+00
    -1.373700797558e-06 2.487270801794e-03 6.095506250858e-06 5.153573621315e+03
     1.872000000000e+05-7.916241884232e-08 5.993640390152e-01-3.259629011154e-08
     9.627647863549e-01 2.627109375000e+02-2.355922015117e+00-8.224750400204e-09
    -2.292952653539e-10 4.508402078757e-09-2.000000000000e+00 3.000000000000e+00
     2.800000000000e+01 4.000000000000e+00-8.847564458847e-09 7.000000000000e+00
    -2.037268131971e-10 5.675246939063e-09 3.783497959375e-10 2.328306436539e-10
     2.059200000000e+05 2.428000000000e+03 0.000000000000e+00                   
E10 2026 07 21 09 12 54-8.074251818471e-04-2.600586412882e-12 0.000000000000e+00
     8.700000000000e+01-4.515625000000e+01 2.576893052225e-09-2.856180244606e+00
    -2.223998308182e-06 2.871559699997e-04 6.128102540970e-06 5.440603137970e+03
     2.046000000000e+05-6.146728992462e-08 7.680206642406e-01 7.450580596924e-09
     9.974651600391e-01 2.255937500000e+02 2.331766037495e+00-5.393796101829e-09
    -2.400099973798e-10 5.160000000000e+02 1.404000000000e+03                   
     1.070000000000e+02 0.000000000000e+00-1.164153218269e-09-2.328306436539e-10
     2.059740000000e+05                                                         
E33 2026 07 21 09 12 54-2.519506961107e-05-1.946887095983e-12 0.000000000000e+00
     8.600000000000e+01-5.178125000000e+01 2.673325640458e-09-2.678856425900e+00
    -2.324581146240e-06 1.662023132667e-04 5.647540092468e-06 5.440606731415e+03
     2.040000000000e+05 5.587935447693e-08 7.699541489380e-01-8.754432201385e-08
     9.976651175338e-01 2.334062500000e+02-3.021928220766e+00-5.507015103569e-09
    -2.207234797332e-10 5.160000000000e+02 1.404000000000e+03                   
     1.070000000000e+02 0.000000000000e+00-4.423782229424e-09-4.889443516731e-09
     2.059740000000e+05                                                         
E26 2026 07 21 09 12 54 3.676721826196e-04 1.082867129298e-11 0.000000000000e+00
     8.800000000000e+01-5.443750000000e+01 2.812259999060e-09-2.209734535925e+00
    -2.501532435417e-06 9.289989247918e-05 5.180016160011e-06 5.440599153519e+03
     2.052000000000e+05 1.303851604462e-08 7.665070033848e-01 2.048909664154e-08
     9.909279555326e-01 2.440000000000e+02-2.571914851171e+00-5.532016144963e-09
    -1.742929742877e-10 5.160000000000e+02 1.404000000000e+03                   
     1.070000000000e+02 0.000000000000e+00-5.122274160385e-09-5.587935447693e-09
     2.059740000000e+05                                                         
E12 2026 07 21 09 12 54-5.899876123294e-05-2.600586412882e-12 0.000000000000e+00
     8.800000000000e+01-4.084375000000e+01 2.626537977278e-09-9.440232323911e-01
    -1.987442374229e-06 3.200989449397e-04 5.759298801422e-06 5.440609273911e+03
     2.052000000000e+05-7.450580596924e-08 7.694865432660e-01-4.656612873077e-08
     9.945598471583e-01 2.299687500000e+02 8.620281340405e-01-5.464870490934e-09
    -2.514390448740e-10 5.160000000000e+02 1.404000000000e+03                   
     1.070000000000e+02 0.000000000000e+00-1.187436282635e-08-1.164153218269e-08
     2.059740000000e+05                                                         
E16 2026 07 21 09 13 05-4.647823516279e-05-2.486899575160e-12 0.000000000000e+00
     8.800000000000e+01 9.878125000000e+01 3.101557763759e-09-2.581634715883e+00
     4.382804036140e-06 4.926414694637e-04 8.333474397659e-06 5.440616245270e+03
     2.052000000000e+05 3.725290298462e-09-1.332456022187e+00 3.725290298462e-09
     9.625727000909e-01 1.605000000000e+02-2.472154590613e+00-5.512372469582e-09
     8.143196339671e-11 1.000000000000e+00 1.404000000000e+03                   
     1.070000000000e+02 0.000000000000e+00-3.725290298462e-09-2.328306436539e-09
     2.059850000000e+05                                                         
END OF FILE                                                 COMMENT
