     3.05           N: NAVIGATION       M: MIXED            RINEX VERSION / TYPE
PYRINEXCONV 0.1.2 ALDELTUNES            20260721 070211 UTC PGM / RUN BY / DATE
GAL    1.0175e+02  3.3203e-01  2.2858e-02             H 04  IONOSPHERIC CORR
BDSA   2.0489e-08  3.7253e-08 -5.9605e-07  1.0133e-06 G 29  IONOSPHERIC CORR
BDSB   1.3722e+05 -4.9152e+05  4.5875e+06 -4.0632e+06 G 29  IONOSPHERIC CORR
GPSA   1.1176e-08  2.2352e-08  1.5199e-05  1.5140e-05 H 20  IONOSPHERIC CORR
GPSB   1.0650e+05  1.4746e+05  1.6712e+07  1.6450e+07 H 20  IONOSPHERIC CORR
GAUT  6.5192580223e-09-2.664535259e-15 197400 1404   E04  0 TIME SYSTEM CORR
BDUT  0.0000000000e+00 0.000000000e+00 194400 1072   C29  0 TIME SYSTEM CORR
GPUT  1.2805685401e-09 2.224886941e-13 399600 2428   G20  0 TIME SYSTEM CORR
                                                            END OF HEADER
C30 2026 07 21 06 52 54 4.927382105961e-04 7.498890397528e-12 0.000000000000e+00
     1.000000000000e+00 1.187500000000e+00 4.315536902291e-09-9.627765328557e-01
    -9.778887033463e-09 4.685263847932e-04 3.783963620663e-06 5.282646198273e+03
     1.944000000000e+05-2.095475792885e-08 3.477552012857e-02 3.978936001658e-05
     9.455214389803e-01 2.746406250000e+02 9.829272360762e-01-1.991644388554e-06
    -2.853690296227e-10                    1.072000000000e+03                   
     0.000000000000e+00 0.000000000000e+00-4.516914486885e-08-4.516914486885e-08
     1.975740000000e+05 1.000000000000e+00                                      
C36 2026 07 21 06 52 54 2.596328267828e-04-4.331646152878e-12 0.000000000000e+00
     1.000000000000e+00 1.807812500000e+01 4.129100565041e-09 2.325468025946e+00
     6.891787052155e-07 8.157768752426e-04 1.003360375762e-05 5.282653972626e+03
     1.944000000000e+05 7.776543498039e-08-2.018527266231e+00 3.838166594505e-05
     9.451402230097e-01 1.503750000000e+02-1.023818697358e+00 1.856809486425e-07
    -1.010756387775e-10                    1.072000000000e+03                   
     0.000000000000e+00 0.000000000000e+00-9.639188647270e-08-9.639188647270e-08
     1.975740000000e+05 1.000000000000e+00                                      
C11 2026 07 21 06 52 54-7.889120606706e-04-2.166089529965e-11 0.000000000000e+00
     1.000000000000e+00-1.812500000000e+00 4.195531903601e-09 2.386004172937e-01
    -1.294538378716e-07 1.699194544926e-04 3.919005393982e-06 5.282639928818e+03
     1.944000000000e+05-6.472691893578e-08 7.445530488230e-02 4.931772127748e-05
     9.504542363597e-01 2.778593750000e+02-6.700743752873e-01 8.059121409041e-07
    -2.664396697103e-10                    1.072000000000e+03                   
     0.000000000000e+00 0.000000000000e+00 1.350417733192e-08 1.350417733192e-08
     1.975740000000e+05 1.000000000000e+00                                      
C29 2026 07 21 06 52 54 6.337803788483e-04 5.257128066205e-12 0.000000000000e+00
     1.000000000000e+00 2.828125000000e+00 4.306965116671e-09-2.865666466671e+00
     1.587904989719e-07 2.185921184719e-04 3.681052476168e-06 5.282657318115e+03
     1.944000000000e+05-6.845220923424e-08 3.430995376443e-02 2.717040479183e-05
     9.455652650801e-01 2.803593750000e+02 2.115253074815e+00-2.448074829286e-06
    -2.314382117591e-10                    1.072000000000e+03                   
     0.000000000000e+00 0.000000000000e+00 9.313225746155e-10 9.313225746155e-10
     1.975740000000e+05 1.000000000000e+00                                      
E33 2026 07 21 06 56 05-2.518040128052e-05-1.918465386552e-12 0.000000000000e+00
     7.400000000000e+01-4.415625000000e+01 2.540105805603e-09 2.717757385252e+00
    -2.238899469376e-06 1.657063839957e-04 5.982816219330e-06 5.440608785629e+03
     1.968000000000e+05-5.960464477539e-08 7.699936287082e-01-3.725290298462e-09
     9.976678400244e-01 2.260312500000e+02-3.027978384734e+00-5.420225774160e-09
    -3.014411276615e-10 1.000000000000e+00 1.404000000000e+03                   
     1.070000000000e+02 0.000000000000e+00-4.423782229424e-09-4.889443516731e-09
     1.977650000000e+05                                                         
E31 2026 07 21 06 56 24-1.580872922204e-04-2.941646926047e-12 0.000000000000e+00
     6.800000000000e+01 1.033750000000e+02 3.208705084018e-09 1.970774208599e+00
     4.686415195465e-06 3.427705960348e-04 8.840113878250e-06 5.440614240646e+03
     1.932000000000e+05 1.490116119385e-08-1.329151806656e+00-7.450580596924e-09
     9.605969633936e-01 1.527187500000e+02-1.401123990964e+00-5.553088451281e-09
     5.678807973718e-11 5.160000000000e+02 1.404000000000e+03                   
     1.070000000000e+02 0.000000000000e+00 3.492459654808e-09 4.190951585770e-09
     1.977840000000e+05                                                         
G30 2026 07 21 06 56 24 3.026449121535e-04 1.330136001343e-11 0.000000000000e+00
     1.020000000000e+02-2.750000000000e+01 5.095569393776e-09-9.533816129710e-01
    -1.257285475731e-06 8.217833121307e-03 7.877126336098e-06 5.153681320190e+03
     2.016000000000e+05 9.499490261078e-08-2.597210167680e+00 1.918524503708e-07
     9.366267083419e-01 2.126875000000e+02-2.258902210470e+00-8.338204462542e-09
    -6.071681481333e-11 1.000000000000e+00 3.800000000000e+02 0.000000000000e+00
     2.000000000000e+00 0.000000000000e+00 4.190951585770e-09 1.020000000000e+02
     7.911360000000e+05 4.000000000000e+00                                      
G14 2026 07 21 06 56 24 7.499782368541e-04 2.273736754432e-13 0.000000000000e+00
     2.280000000000e+02 5.315625000000e+01 4.949491880489e-09-1.549798718355e+00
     2.620741724968e-06 7.365241763182e-03 8.642673492432e-06 5.153657085419e+03
     2.016000000000e+05 8.381903171539e-08-1.524218289353e+00-7.264316082001e-08
     9.416385018347e-01 2.009375000000e+02-2.680509337539e+00-8.118552456011e-09
     1.325055193867e-10 1.000000000000e+00 3.800000000000e+02 0.000000000000e+00
     2.000000000000e+00 0.000000000000e+00-7.916241884232e-09 9.960000000000e+02
     7.911360000000e+05 4.000000000000e+00                                      
G17 2026 07 21 06 56 24-1.762192696333e-04-6.025402399246e-12 0.000000000000e+00
     9.000000000000e+00 4.903125000000e+01 4.773770275265e-09 2.090283509201e+00
     2.602115273476e-06 1.261610374786e-02 4.317611455917e-06 5.153676527023e+03
     2.016000000000e+05 2.011656761169e-07-4.349826660654e-01-9.313225746155e-09
     9.574391947398e-01 2.891562500000e+02-1.098677207333e+00-8.113552247732e-09
    -1.753644474903e-10 1.000000000000e+00 3.800000000000e+02 0.000000000000e+00
     2.000000000000e+00 0.000000000000e+00-1.071020960808e-08 9.000000000000e+00
     7.911360000000e+05 4.000000000000e+00                                      
G22 2026 07 21 06 56 24 4.054326564074e-05 8.071765478235e-12 0.000000000000e+00
     9.100000000000e+01 6.240625000000e+01 4.572333313178e-09 2.703063429373e+00
     3.157183527946e-06 1.184571452904e-02 8.780509233475e-06 5.153722455978e+03
     2.016000000000e+05 1.806765794754e-07-1.447181204700e+00 1.471489667892e-07
     9.568464320374e-01 2.054375000000e+02-9.877782870562e-01-7.838897950136e-09
    -5.714523747137e-12 1.000000000000e+00 3.800000000000e+02 0.000000000000e+00
     2.000000000000e+00 0.000000000000e+00-1.117587089539e-08 9.100000000000e+01
     7.911360000000e+05 4.000000000000e+00                                      
G02 2026 07 21 06 56 24 1.419833861291e-04 7.275957614183e-12 0.000000000000e+00
     2.500000000000e+01-2.075000000000e+01 4.609477717535e-09 2.343121696241e+00
    -9.033828973770e-07 1.689693063963e-02 4.844740033150e-06 5.153731908798e+03
     2.016000000000e+05 2.887099981308e-07 4.673759923375e-01 1.937150955200e-07
     9.620936456221e-01 2.829062500000e+02-7.358837523978e-01-8.076765001110e-09
    -3.868018261344e-10 1.000000000000e+00 3.800000000000e+02 0.000000000000e+00
     2.000000000000e+00 0.000000000000e+00-1.722946763039e-08 2.500000000000e+01
     7.911360000000e+05 4.000000000000e+00                                      
G19 2026 07 21 06 56 24 7.038158364594e-04 4.547473508865e-13 0.000000000000e+00
     4.800000000000e+01 4.734375000000e+01 4.779127641278e-09-2.560077468131e+00
     2.495944499969e-06 1.176446687896e-02 4.906207323074e-06 5.153761194229e+03
     2.016000000000e+05-2.123415470123e-07-3.912187402651e-01-6.705522537231e-08
     9.566053621559e-01 2.855625000000e+02 3.029435360440e+00-8.179626428559e-09
    -3.428714248282e-11 1.000000000000e+00 3.800000000000e+02 0.000000000000e+00
     2.000000000000e+00 0.000000000000e+00-1.536682248116e-08 4.800000000000e+01
     7.911360000000e+05 4.000000000000e+00                                      
G20 2026 07 21 06 56 24 2.369456924498e-04 1.182343112305e-11 0.000000000000e+00
     6.700000000000e+01-1.690625000000e+01 4.573761944115e-09-1.581461343379e+00
    -7.990747690201e-07 1.907509984449e-03 6.332993507385e-06 5.153612205505e+03
     2.016000000000e+05 7.264316082001e-08 2.629693153275e+00 5.215406417847e-08
     9.620825347593e-01 2.575000000000e+02-1.761722403152e+00-8.131052976708e-09
     2.421529437849e-10 1.000000000000e+00 3.800000000000e+02 0.000000000000e+00
     2.000000000000e+00 0.000000000000e+00-6.984919309616e-09 6.700000000000e+01
     7.911360000000e+05 4.000000000000e+00                                      
E26 2026 07 21 06 56 35 3.675618208945e-04 1.091393642128e-11 0.000000000000e+00
     7.100000000000e+01-4.368750000000e+01 2.673325640458e-09 2.832396220489e+00
    -2.060085535049e-06 9.068509098142e-05 5.930662155151e-06 5.440605382919e+03
     1.950000000000e+05-1.303851604462e-08 7.665640615787e-01-6.146728992462e-08
     9.909307497061e-01 2.230000000000e+02-2.595413566764e+00-5.522730043874e-09
    -2.710827202548e-10 1.000000000000e+00 1.404000000000e+03                   
     1.070000000000e+02 0.000000000000e+00-5.122274160385e-09-5.587935447693e-09
     1.977950000000e+05                                                         
E06 2026 07 21 07 00 54-3.006655606441e-04-5.016431714466e-12 0.000000000000e+00
     7.400000000000e+01-4.031250000000e+01 3.236206229551e-09 1.321083923168e+00
    -1.840293407440e-06 5.051605403423e-04 5.546957254410e-06 5.440612300873e+03
     1.968000000000e+05 7.078051567078e-08 2.852039949449e+00 1.303851604462e-08
     9.626614070545e-01 2.222187500000e+02 1.386782248704e+00-5.702380384175e-09
     1.885792836555e-10 5.160000000000e+02 1.404000000000e+03                   
     1.070000000000e+02 0.000000000000e+00 2.328306436539e-09 3.725290298462e-09
     1.980540000000e+05                                                         
E04 2026 07 21 07 00 54-1.220334088430e-04 3.358024969202e-11 0.000000000000e+00
     7.400000000000e+01-3.971875000000e+01 3.116558388595e-09-3.113997893186e+00
    -1.823529601097e-06 2.924618311226e-04 5.526468157768e-06 5.440611038208e+03
     1.968000000000e+05 5.774199962616e-08 2.852389847269e+00 1.117587089539e-08
     9.693553734736e-01 2.265625000000e+02-6.827666305993e-02-5.652378301387e-09
     2.046513816944e-10 5.160000000000e+02 1.404000000000e+03                   
     1.070000000000e+02 0.000000000000e+00-4.190951585770e-09-4.656612873077e-09
     1.980540000000e+05                                                         
E31 2026 07 21 07 00 54-1.580978860147e-04-2.927436071332e-12 0.000000000000e+00
     7.400000000000e+01 1.003750000000e+02 3.219062658309e-09 2.418225805291e+00
     4.533678293228e-06 3.439259016886e-04 8.318573236465e-06 5.440611803055e+03
     1.968000000000e+05 2.235174179077e-08-1.329171882281e+00 1.676380634308e-08
     9.605971096854e-01 1.618750000000e+02-1.402263820660e+00-5.554874239952e-09
     7.250302004181e-11 5.160000000000e+02 1.404000000000e+03                   
     1.070000000000e+02 0.000000000000e+00 3.492459654808e-09 4.190951585770e-09
     1.980540000000e+05                                                         
E23 2026 07 21 07 00 54-4.270131466910e-05-1.293187779083e-12 0.000000000000e+00
     7.100000000000e+01 9.150000000000e+01 3.186918462232e-09-1.973245510259e+00
     4.315748810768e-06 1.742112217471e-04 8.603557944298e-06 5.440618791580e+03
     1.950000000000e+05-1.490116119385e-08-1.332274857338e+00 4.284083843231e-08
     9.625505924729e-01 1.557812500000e+02-2.751027767486e+00-5.553445609015e-09
     8.857511808063e-11 5.160000000000e+02 1.404000000000e+03                   
     1.070000000000e+02 0.000000000000e+00 4.656612873077e-10 1.862645149231e-09
     1.980540000000e+05                                                         
G30 2026 07 21 07 01 36 3.026208723895e-04 1.329070187239e-11 0.000000000000e+00
     3.701686859131e-03-2.192968750000e+01 5.097712340181e-09-1.216021699316e+00
    -1.246109604836e-06 8.218937087804e-03 7.903203368187e-06 5.153542055023e+03
     1.107000000000e+05 1.452863216400e-07-2.597195307358e+00 1.229345798492e-07
     9.366270645625e-01 2.134453125000e+02-2.258804522652e+00-8.059743527005e-09
    -4.518045337580e-11 5.097712340181e-09-2.000000000000e+00 3.000000000000e+00
     3.100000000000e+01 4.000000000000e+00 4.190951585770e-09 7.000000000000e+00
    -1.513399183750e-09-3.259629011154e-09 2.328306436539e-09 3.230525180697e-09
     1.980960000000e+05 2.428000000000e+03 0.000000000000e+00                   
G17 2026 07 21 07 01 36-1.762084430084e-04-6.036060540282e-12 0.000000000000e+00
     3.508567810059e-03 4.568359375000e+01 4.778770483544e-09 1.827803561184e+00
     2.356246113777e-06 1.261504000286e-02 4.746951162815e-06 5.153547111464e+03
     1.728000000000e+05 2.263113856316e-07-4.349681466035e-01-3.166496753693e-08
     9.574394507505e-01 2.844765625000e+02-1.098740390765e+00-8.205106724823e-09
    -1.607209803882e-10 4.778770483544e-09-2.000000000000e+00 3.000000000000e+00
     2.800000000000e+01 4.000000000000e+00-1.071020960808e-08 7.000000000000e+00
    -8.440110832453e-10 6.722984835505e-09 0.000000000000e+00 0.000000000000e+00
     1.980960000000e+05 2.428000000000e+03 0.000000000000e+00                   
E28 2026 07 21 07 01 54-6.033404497430e-05-2.856381797756e-12 0.000000000000e+00
     7.400000000000e+01-4.303125000000e+01 3.441571926713e-09 1.504901012025e+00
    -1.903623342514e-06 2.855501370504e-04 5.263835191727e-06 5.440610921860e+03
     1.968000000000e+05-1.862645149231e-08 2.870082962224e+00 6.146728992462e-08
     9.490551497850e-01 2.227500000000e+02 1.961852776780e+00-5.773454773280e-09
     1.607209803882e-10 5.160000000000e+02 1.404000000000e+03                   
     1.070000000000e+02 0.000000000000e+00 9.313225746155e-10 1.862645149231e-09
     1.981140000000e+05                                                         
E09 2026 07 21 07 02 24-3.009144566022e-04 1.787725523172e-11 3.469446951954e-18
     7.100000000000e+01-4.087500000000e+01 3.085485665720e-09 1.710436765551e+00
    -1.883134245872e-06 4.996038042009e-04 5.736947059631e-06 5.440615543365e+03
     1.950000000000e+05 3.725290298462e-08 2.855556087682e+00-1.490116119385e-08
     9.750920531151e-01 2.220312500000e+02 3.877097410727e-01-5.612733792891e-09
     1.753644474903e-10 5.160000000000e+02 1.404000000000e+03                   
     1.070000000000e+02 0.000000000000e+00 6.984919309616e-10 9.313225746155e-10
     1.981440000000e+05                                                         
G14 2026 07 21 07 02 24 7.499779458158e-04 2.557953848736e-13 0.000000000000e+00
    -3.282070159912e-03 5.808593750000e+01 4.971457081142e-09-1.812418756870e+00
     2.956017851830e-06 7.364144199528e-03 8.785165846348e-06 5.153566057914e+03
     1.152000000000e+05 6.984919309616e-08-1.524203728198e+00-6.146728992462e-08
     9.416382626476e-01 2.006640625000e+02-2.680439830644e+00-8.221535980596e-09
     1.428630936784e-10 4.971457081142e-09-2.000000000000e+00 3.000000000000e+00
     3.100000000000e+01 4.000000000000e+00-7.916241884232e-09 7.000000000000e+00
    -2.619344741106e-10 5.005858838558e-09-1.455191522837e-09-1.076841726899e-09
     1.981440000000e+05 2.428000000000e+03 0.000000000000e+00                   
G20 2026 07 21 07 02 24 2.369242138229e-04 1.185185283248e-11 0.000000000000e+00
     1.869201660156e-04-1.651953125000e+01 4.574119101849e-09-1.844025056622e+00
    -8.940696716309e-07 1.907585363369e-03 6.382353603840e-06 5.153610573317e+03
     1.737000000000e+05 8.195638656616e-08 2.629707711504e+00 1.769512891769e-08
     9.620821917050e-01 2.575312500000e+02-1.761713138492e+00-8.229572029615e-09
     2.514390448740e-10 4.574119101849e-09-3.000000000000e+00 2.000000000000e+00
     2.800000000000e+01 4.000000000000e+00-6.984919309616e-09 7.000000000000e+00
    -1.455191522837e-10 4.220055416226e-09 2.095475792885e-09 2.066371962428e-09
     1.981440000000e+05 2.428000000000e+03 0.000000000000e+00                   
E06 2026 07 21 07 02 24-3.006685874425e-04-5.016431714466e-12 0.000000000000e+00
     7.500000000000e+01-3.968750000000e+01 3.226562970727e-09 1.395213537136e+00
    -1.821666955948e-06 5.050955805928e-04 5.517154932022e-06 5.440612585068e+03
     1.974000000000e+05 7.264316082001e-08 2.852036518906e+00 1.862645149231e-08
     9.626615431059e-01 2.232500000000e+02 1.387038254979e+00-5.699165964567e-09
     1.871506527187e-10 5.160000000000e+02 1.404000000000e+03                   
     1.070000000000e+02 0.000000000000e+00 2.328306436539e-09 3.725290298462e-09
     1.981440000000e+05                                                         
E04 2026 07 21 07 02 24-1.220133272000e-04 3.358024969202e-11 0.000000000000e+00
     7.500000000000e+01-4.040625000000e+01 3.119058492734e-09-3.039798124982e+00
    -1.840293407440e-06 2.925270237029e-04 5.532056093216e-06 5.440610872269e+03
     1.974000000000e+05 5.774199962616e-08 2.852386457688e+00 2.048909664154e-08
     9.693555241542e-01 2.263125000000e+02-6.809105386570e-02-5.647735250843e-09
     2.025084352892e-10 5.160000000000e+02 1.404000000000e+03                   
     1.070000000000e+02 0.000000000000e+00-4.190951585770e-09-4.656612873077e-09
     1.981440000000e+05                                                         
E31 2026 07 21 07 02 24-1.580996904522e-04-2.941646926047e-12 0.000000000000e+00
     7.500000000000e+01 1.003437500000e+02 3.213348134562e-09 2.492595178366e+00
     4.539266228676e-06 3.438881831244e-04 8.312985301018e-06 5.440611875534e+03
     1.974000000000e+05 2.048909664154e-08-1.329175236752e+00 2.235174179077e-08
     9.605971389437e-01 1.615312500000e+02-1.402247648100e+00-5.554159924483e-09
     7.571743964957e-11 5.160000000000e+02 1.404000000000e+03                   
     1.070000000000e+02 0.000000000000e+00 3.492459654808e-09 4.190951585770e-09
     1.981440000000e+05                                                         
END OF FILE                                                 COMMENT
