     3.05           N: NAVIGATION       M: MIXED            RINEX VERSION / TYPE
PYRINEXCONV 0.1.2 ALDELTUNES            20260721 024040 UTC PGM / RUN BY / DATE
GAL    1.0175e+02  3.3203e-01  2.2858e-02             C 29  IONOSPHERIC CORR
GPSA   9.3132e-09  2.2352e-08  1.5199e-05  1.5140e-05 C 07  IONOSPHERIC CORR
GPSB   1.0035e+05  1.3107e+05  1.6712e+07  1.6318e+07 C 07  IONOSPHERIC CORR
GAUT  6.5192580223e-09-2.664535259e-15 181200 1404   E29  0 TIME SYSTEM CORR
GPUT -3.2887328416e-09 2.242650510e-13 371100 2428   G07  0 TIME SYSTEM CORR
                                                            END OF HEADER
G04 2026 07 21 02 33 54 6.274040788412e-05 6.821210263297e-13 0.000000000000e+00
     5.000000000000e+00-2.315625000000e+01 4.401611916233e-09-2.683905027874e-01
    -1.115724444389e-06 3.822015016340e-03 6.172806024551e-06 5.153673837662e+03
     1.872000000000e+05 6.891787052155e-08 2.690090186997e+00 2.793967723846e-08
     9.724430142234e-01 2.653750000000e+02-2.902086066802e+00-8.078550789781e-09
     2.771544017362e-10 1.000000000000e+00 3.800000000000e+02 0.000000000000e+00
     2.000000000000e+00 0.000000000000e+00-4.656612873077e-09 5.170000000000e+02
     7.281360000000e+05 4.000000000000e+00                                      
G16 2026 07 21 02 33 54 3.020018339157e-04 6.480149750132e-12 0.000000000000e+00
     8.800000000000e+01 5.556250000000e+01 4.796985527988e-09 1.055045791189e+00
     3.138557076454e-06 1.503419992514e-02 9.190291166306e-06 5.153715074539e+03
     1.872000000000e+05-1.788139343262e-07-1.450449842064e+00 1.583248376846e-07
     9.573745001136e-01 2.048437500000e+02 9.375586091022e-01-8.299274269514e-09
    -1.175048945505e-10 1.000000000000e+00 3.800000000000e+02 0.000000000000e+00
     2.000000000000e+00 0.000000000000e+00-1.024454832077e-08 8.800000000000e+01
     7.281360000000e+05 4.000000000000e+00                                      
G09 2026 07 21 02 33 54 7.171649485826e-04-6.934897101019e-12 0.000000000000e+00
     7.100000000000e+01-1.996875000000e+01 4.513402287036e-09 5.993508851872e-01
    -1.080334186554e-06 3.669901983812e-03 6.292015314102e-06 5.153694850922e+03
     1.872000000000e+05 7.450580596924e-09 2.624916329296e+00-4.842877388000e-08
     9.667053836852e-01 2.590312500000e+02 2.038022418306e+00-8.145339286076e-09
     2.985838657879e-10 1.000000000000e+00 3.800000000000e+02 0.000000000000e+00
     2.000000000000e+00 0.000000000000e+00 4.656612873077e-10 7.100000000000e+01
     7.281360000000e+05 4.000000000000e+00                                      
G08 2026 07 21 02 33 54 3.940509632230e-04-9.208633855451e-12 0.000000000000e+00
     8.100000000000e+01 5.003125000000e+01 5.274505418608e-09-1.925180004046e-02
     2.689659595490e-06 1.168377755675e-02 4.528090357780e-06 5.153748132706e+03
     1.872000000000e+05 1.080334186554e-07-5.416434614643e-01 1.136213541031e-07
     9.417700488913e-01 2.788125000000e+02 5.447862220414e-01-8.702148193688e-09
    -1.428630936784e-10 1.000000000000e+00 3.800000000000e+02 0.000000000000e+00
     2.000000000000e+00 0.000000000000e+00 4.656612873077e-09 8.100000000000e+01
     7.281360000000e+05 4.000000000000e+00                                      
G03 2026 07 21 02 33 54 3.640432842076e-04-1.898570189951e-11 0.000000000000e+00
     4.000000000000e+01-1.746875000000e+01 3.421571093598e-09 3.022192017080e+00
    -8.456408977509e-07 6.974218646064e-03 8.897855877876e-06 5.153769727707e+03
     1.871840000000e+05 3.725290298462e-09 1.621735043614e+00 2.607703208923e-08
     9.947630684233e-01 2.232187500000e+02 1.276560694608e+00-7.450310335330e-09
     2.339383158984e-10 1.000000000000e+00 3.800000000000e+02 0.000000000000e+00
     2.000000000000e+00 0.000000000000e+00 1.396983861923e-09 4.000000000000e+01
     7.281360000000e+05 4.000000000000e+00                                      
G07 2026 07 21 02 33 54-2.078828401864e-04-3.751665644813e-12 0.000000000000e+00
     9.600000000000e+01-3.100000000000e+01 4.775913221670e-09-2.745939998806e+00
    -1.866370439529e-06 2.093705639709e-02 8.448958396912e-06 5.153588115692e+03
     1.872000000000e+05 4.041939973831e-07-2.586027851560e+00-8.754432201385e-08
     9.513213634962e-01 2.061250000000e+02-1.955233648861e+00-7.812111120071e-09
    -2.071514858337e-11 1.000000000000e+00 3.800000000000e+02 0.000000000000e+00
     2.000000000000e+00 0.000000000000e+00-1.071020960808e-08 9.600000000000e+01
     7.281360000000e+05 4.000000000000e+00                                      
E27 2026 07 21 02 38 05-1.049795362633e-03-1.058708676283e-11 0.000000000000e+00
     4.800000000000e+01 9.703125000000e+01 3.310137880529e-09 2.321950751026e+00
     4.628673195839e-06 2.444711280987e-04 8.376315236092e-06 5.440614398956e+03
     1.812000000000e+05 1.862645149231e-09-1.329045237463e+00 8.381903171539e-08
     9.605915169495e-01 1.610937500000e+02-8.823383172754e-01-5.615233897031e-09
     4.393040130612e-11 1.000000000000e+00 1.404000000000e+03                   
     1.070000000000e+02 0.000000000000e+00 2.328306436539e-10 2.328306436539e-10
     1.822850000000e+05                                                         
E19 2026 07 21 02 40 35 3.108187054750e-03 2.442845925543e-11 0.000000000000e+00
     4.300000000000e+01-4.293750000000e+01 3.184418358092e-09 1.857914075476e+00
    -2.041459083557e-06 2.441270044073e-04 5.668029189110e-06 5.440616420746e+03
     1.782000000000e+05 9.313225746155e-09 2.860593357893e+00 3.725290298462e-09
     9.747208976321e-01 2.213437500000e+02-2.395825224766e-01-5.625948629057e-09
     2.128660095809e-10 1.000000000000e+00 1.404000000000e+03                   
     1.070000000000e+02 0.000000000000e+00-4.423782229424e-09-4.423782229424e-09
     1.824350000000e+05                                                         
E04 2026 07 21 02 40 35-1.227791071869e-04 3.326761088829e-11 0.000000000000e+00
     3.700000000000e+01-3.965625000000e+01 3.340496287936e-09 4.185966625626e-01
    -1.952052116394e-06 2.935096854344e-04 5.800276994705e-06 5.440607788086e+03
     1.746000000000e+05 2.235174179077e-08 2.852515250070e+00 9.313225746155e-09
     9.693503337209e-01 2.247187500000e+02-6.995501191847e-02-5.659878613805e-09
     2.450102056585e-10 1.000000000000e+00 1.404000000000e+03                   
     1.070000000000e+02 0.000000000000e+00-4.190951585770e-09-4.656612873077e-09
     1.824350000000e+05                                                         
E21 2026 07 21 02 40 35-7.585358689539e-04-2.799538378895e-12 0.000000000000e+00
     4.300000000000e+01 1.138125000000e+02 3.210490872689e-09 1.815999025043e+00
     5.297362804413e-06 1.703940797597e-04 8.758157491684e-06 5.440617902756e+03
     1.782000000000e+05 1.117587089539e-08-1.328987503401e+00-3.725290298462e-08
     9.606206260935e-01 1.490625000000e+02-1.547821414872e+00-5.602733376334e-09
    -3.321566928024e-11 1.000000000000e+00 1.404000000000e+03                   
     1.070000000000e+02 0.000000000000e+00 6.984919309616e-10 9.313225746155e-10
     1.824350000000e+05                                                         
G04 2026 07 21 02 40 36 6.273915641941e-05 6.998845947237e-13 0.000000000000e+00
     2.199172973633e-03-2.011328125000e+01 4.413219542594e-09-5.311305949440e-01
    -1.107342541218e-06 3.822266007774e-03 6.177462637424e-06 5.153549172013e+03
     1.233000000000e+05 8.102506399155e-08 2.690104707190e+00 1.955777406693e-08
     9.724425592559e-01 2.658359375000e+02-2.901889416965e+00-8.267966486041e-09
     2.787616115400e-10 4.413219542594e-09-2.000000000000e+00 3.000000000000e+00
     3.000000000000e+01 4.000000000000e+00-4.656612873077e-09 7.000000000000e+00
    -2.037268131971e-10 3.317836672068e-09-1.426087692380e-09-1.396983861923e-09
     1.824360000000e+05 2.428000000000e+03 0.000000000000e+00                   
G09 2026 07 21 02 40 48 7.171775796451e-04-6.988187806201e-12 0.000000000000e+00
     1.067161560059e-03-1.843359375000e+01 4.531081594879e-09 3.367306725841e-01
    -1.054257154465e-06 3.669601399451e-03 6.325542926788e-06 5.153528200759e+03
     1.395000000000e+05 1.117587089539e-08 2.624931008947e+00-4.284083843231e-08
     9.667048365538e-01 2.602773437500e+02 2.038101396132e+00-8.187427416980e-09
     2.962623405157e-10 4.531081594879e-09-2.000000000000e+00 3.000000000000e+00
     3.000000000000e+01 4.000000000000e+00 4.656612873077e-10 7.000000000000e+00
    -5.820766091347e-10-7.275957614183e-10 5.064066499472e-09 5.617039278150e-09
     1.824480000000e+05 2.428000000000e+03 0.000000000000e+00                   
G07 2026 07 21 02 40 48-2.078761754092e-04-3.755218358492e-12 0.000000000000e+00
     4.545211791992e-03-3.667578125000e+01 4.786092217095e-09-3.008415293281e+00
    -1.901760697365e-06 2.093720907578e-02 8.634291589260e-06 5.153634460868e+03
     1.161000000000e+05 3.129243850708e-07-2.586013350385e+00-2.095475792885e-07
     9.513214732150e-01 2.023242187500e+02-1.955314085949e+00-8.547620991917e-09
    -1.098260032653e-10 4.786092217095e-09-2.000000000000e+00 3.000000000000e+00
     3.100000000000e+01 4.000000000000e+00-1.071020960808e-08 7.000000000000e+00
    -9.313225746155e-10 6.984919309616e-09 0.000000000000e+00 0.000000000000e+00
     1.824480000000e+05 2.428000000000e+03 0.000000000000e+00                   
E23 2026 07 21 02 40 54-4.268309567124e-05-1.350031197944e-12 0.000000000000e+00
     4.800000000000e+01 1.225937500000e+02 3.117272704063e-09 2.604779191714e+00
     5.599111318588e-06 1.713184174150e-04 9.026378393173e-06 5.440623500824e+03
     1.812000000000e+05-1.490116119385e-08-1.332197558210e+00-9.313225746155e-09
     9.625506290459e-01 1.470000000000e+02-2.756724614794e+00-5.544159507926e-09
    -2.142946405177e-12 5.160000000000e+02 1.404000000000e+03                   
     1.070000000000e+02 0.000000000000e+00 4.656612873077e-10 1.862645149231e-09
     1.824540000000e+05                                                         
E28 2026 07 21 02 40 54-6.028910866007e-05-2.870592652471e-12 0.000000000000e+00
     4.800000000000e+01-4.084375000000e+01 3.574077446100e-09-4.260496113622e-01
    -1.998618245125e-06 2.849465236068e-04 5.381181836128e-06 5.440608795166e+03
     1.812000000000e+05 1.117587089539e-08 2.870173982061e+00-1.490116119385e-08
     9.490513871597e-01 2.152187500000e+02 1.958773373722e+00-5.848100739727e-09
     2.107230631757e-10 5.160000000000e+02 1.404000000000e+03                   
     1.070000000000e+02 0.000000000000e+00 9.313225746155e-10 1.862645149231e-09
     1.824540000000e+05                                                         
E29 2026 07 21 02 40 54-2.271696575917e-04-3.595346242946e-12 0.000000000000e+00
     4.800000000000e+01-4.656250000000e+01 3.329781555910e-09 1.315672855444e+00
    -2.076849341393e-06 2.008248120546e-04 5.379319190979e-06 5.440613403320e+03
     1.812000000000e+05 3.911554813385e-08 2.852159768291e+00 1.862645149231e-08
     9.627396731717e-01 2.272187500000e+02 1.422637324841e+00-5.703451857377e-09
     2.117945363783e-10 5.160000000000e+02 1.404000000000e+03                   
     1.070000000000e+02 0.000000000000e+00-3.259629011154e-09-2.793967723846e-09
     1.824540000000e+05                                                         
END OF FILE                                                 COMMENT
