     3.05           N: NAVIGATION       M: MIXED            RINEX VERSION / TYPE
PYRINEXCONV 0.1.2 ALDELTUNES            20260721 133556 UTC PGM / RUN BY / DATE
GAL    9.2500e+01  2.3047e-01  2.8290e-02             N 36  IONOSPHERIC CORR
GPSA   9.3132e-09  2.2352e-08  1.5199e-05  1.5140e-05 N 13  IONOSPHERIC CORR
GPSB   1.0035e+05  1.3107e+05  1.6712e+07  1.6318e+07 N 13  IONOSPHERIC CORR
BDSA   2.1420e-08  7.4506e-08 -8.3447e-07  1.3113e-06 N 24  IONOSPHERIC CORR
BDSB   1.4131e+05 -7.2090e+05  5.6361e+06 -4.7186e+06 N 24  IONOSPHERIC CORR
GAUT  6.5192580223e-09-2.664535259e-15 220800 1404   E36  0 TIME SYSTEM CORR
GPUT  5.8207660913e-10-1.483257961e-12 442800 2428   G13  0 TIME SYSTEM CORR
BDUT  0.0000000000e+00 0.000000000e+00 219600 1072   C24  0 TIME SYSTEM CORR
                                                            END OF HEADER
C19 2026 07 21 13 28 54-9.326043073088e-04 8.046896482483e-13 0.000000000000e+00
     1.000000000000e+00-3.279687500000e+01 3.377640692292e-09 8.272560634727e-01
    -1.588836312294e-06 7.838822202757e-04 7.328577339649e-06 5.282631092072e+03
     2.196000000000e+05 1.536682248116e-08 2.184817781653e+00 1.570535823703e-05
     9.899555524223e-01 2.231250000000e+02-3.200130884582e-01 4.195653337231e-07
     1.471489864888e-10                    1.072000000000e+03                   
     0.000000000000e+00 0.000000000000e+00 4.330649971962e-08 4.330649971962e-08
     2.213340000000e+05 1.000000000000e+00                                      
C31 2026 07 21 13 28 54 7.556617492810e-04-9.059419880941e-12 0.000000000000e+00
     1.000000000000e+00 2.003125000000e+01 4.359467303597e-09 4.305959072479e-02
     8.363276720047e-07 7.341586751863e-04 3.856141120195e-06 5.282667808533e+03
     2.196000000000e+05 4.330649971962e-08 3.189692598357e-02 2.191215753555e-05
     9.410539490286e-01 2.747812500000e+02 1.055218690551e+00 1.188922380532e-06
    -5.357366012941e-11                    1.072000000000e+03                   
     0.000000000000e+00 0.000000000000e+00-6.519258022308e-09-6.519258022308e-09
     2.213340000000e+05 1.000000000000e+00                                      
C22 2026 07 21 13 28 54 4.575514467433e-04 2.486899575160e-13 0.000000000000e+00
     1.000000000000e+00-2.610937500000e+01 3.290851362883e-09-1.066053442205e+00
    -1.383479684591e-06 8.555479580536e-04 7.184688001871e-06 5.282634832382e+03
     2.196000000000e+05-6.519258022308e-09 2.185914071981e+00 1.570722088218e-05
     9.892411612479e-01 2.304375000000e+02 7.758289894887e-01 1.490512800127e-06
     1.639353999960e-10                    1.072000000000e+03                   
     0.000000000000e+00 0.000000000000e+00 6.239861249924e-08 6.239861249924e-08
     2.213340000000e+05 1.000000000000e+00                                      
C12 2026 07 21 13 28 54 6.156149320304e-04-5.055511564933e-12 0.000000000000e+00
     1.000000000000e+00-3.260937500000e+01 3.715154751108e-09 2.247687653098e-01
    -1.512933522463e-06 1.743893371895e-04 7.234048098326e-06 5.282643112183e+03
     2.196000000000e+05 7.497146725655e-08 2.170465797504e+00-4.938803613186e-05
     9.736065358773e-01 2.178906250000e+02 7.057580720337e-01-1.613982585996e-06
     1.953652806053e-10                    1.072000000000e+03                   
     0.000000000000e+00 0.000000000000e+00 3.725290298462e-09 3.725290298462e-09
     2.213340000000e+05 1.000000000000e+00                                      
C26 2026 07 21 13 28 54-6.725278217345e-04-5.570655048359e-12 0.000000000000e+00
     1.000000000000e+00 8.000000000000e+00 3.945878647398e-09 2.399327405297e+00
     4.242174327374e-07 9.374478831887e-04 9.180977940559e-06 5.282661136627e+03
     2.196000000000e+05 1.909211277962e-08-2.040617011775e+00 4.198215901852e-05
     9.453564832635e-01 1.675781250000e+02 7.303139800058e-01 2.581437884392e-06
    -1.067901625246e-10                    1.072000000000e+03                   
     0.000000000000e+00 0.000000000000e+00-2.328306436539e-08-2.328306436539e-08
     2.213340000000e+05 1.000000000000e+00                                      
C24 2026 07 21 13 28 54-5.305053200573e-04-3.573052964612e-11 0.000000000000e+00
     1.000000000000e+00 1.393750000000e+01 4.035882396416e-09 1.863937396360e+00
     6.551854312420e-07 6.251466693357e-04 9.253621101379e-06 5.282657627106e+03
     2.196000000000e+05 3.213062882423e-08-2.018797743692e+00 3.601144999266e-05
     9.436740645669e-01 1.642968750000e+02 5.448827819493e-01-7.787288657544e-08
    -1.360770967287e-10                    1.072000000000e+03                   
     0.000000000000e+00 0.000000000000e+00 1.909211277962e-08 1.909211277962e-08
     2.213340000000e+05 1.000000000000e+00                                      
E36 2026 07 21 13 30 54-5.969580379315e-04-5.300648808770e-12 0.000000000000e+00
     1.130000000000e+02-4.062500000000e+01 2.607965775100e-09-3.595258460032e-01
    -1.991167664528e-06 8.891033940017e-05 5.805864930153e-06 5.440605974197e+03
     2.202000000000e+05-3.911554813385e-08 7.698899151309e-01-6.519258022308e-08
     9.976488323298e-01 2.363437500000e+02 5.848774963925e-01-5.450941339301e-09
    -1.053615315878e-10 5.160000000000e+02 1.404000000000e+03                   
     1.070000000000e+02 0.000000000000e+00 4.423782229424e-09 5.122274160385e-09
     2.214540000000e+05                                                         
E11 2026 07 21 13 31 24 5.518692370970e-03 6.734524049534e-11-3.469446951954e-18
     1.130000000000e+02-5.325000000000e+01 2.745114345031e-09-3.676697441778e-01
    -2.533197402954e-06 4.142874386162e-04 4.936009645462e-06 5.440605550766e+03
     2.202000000000e+05 4.656612873077e-08 7.693944803684e-01-2.235174179077e-08
     9.945439130546e-01 2.504375000000e+02 1.348498930439e+00-5.516301204659e-09
    -8.893227581482e-11 5.160000000000e+02 1.404000000000e+03                   
     1.070000000000e+02 0.000000000000e+00-1.490116119385e-08-1.583248376846e-08
     2.214840000000e+05                                                         
G21 2026 07 21 13 32 48 3.956493164878e-04-5.307754236128e-12 0.000000000000e+00
     6.476402282715e-03-4.913671875000e+01 4.515723812308e-09 1.637773421208e+00
    -2.432614564896e-06 7.900263299234e-04 7.647089660168e-06 5.153630009934e+03
     2.196000000000e+05 8.661299943924e-08 1.623483878791e+00 1.862645149231e-08
     9.641825244037e-01 2.328750000000e+02-8.739795910438e-02-8.285110057283e-09
     1.066115836575e-10 4.515723812308e-09-3.000000000000e+00 2.000000000000e+00
     2.700000000000e+01 4.000000000000e+00-9.778887033463e-09 7.000000000000e+00
    -8.731149137020e-11 6.199115887284e-09 1.746229827404e-10 1.455191522837e-10
     2.215680000000e+05 2.428000000000e+03 0.000000000000e+00                   
E12 2026 07 21 13 33 54-5.904043791816e-05-2.657429831743e-12 0.000000000000e+00
     1.140000000000e+02-6.262500000000e+01 2.753328972918e-09 9.907482141027e-01
    -2.823770046234e-06 3.172256983817e-04 4.963949322701e-06 5.440604837418e+03
     2.208000000000e+05 3.725290298462e-08 7.693997644285e-01-3.725290298462e-09
     9.945563785795e-01 2.501875000000e+02 8.612770104560e-01-5.516301204659e-09
    -1.025042697143e-10 5.160000000000e+02 1.404000000000e+03                   
     1.070000000000e+02 0.000000000000e+00-1.187436282635e-08-1.164153218269e-08
     2.216340000000e+05                                                         
G05 2026 07 21 13 35 12-2.352863957640e-04-3.375077994860e-13 0.000000000000e+00
    -5.671977996826e-03-3.324218750000e+01 4.024810506656e-09-1.031420181351e+00
    -1.653097569942e-06 5.603698780760e-03 7.516704499722e-06 5.153446300058e+03
     1.701000000000e+05-7.916241884232e-08 1.559859682165e+00 5.401670932770e-08
     9.811629890568e-01 2.459609375000e+02 1.481731062401e+00-8.459403031570e-09
     4.375182243902e-11 4.024810506656e-09-2.000000000000e+00 3.000000000000e+00
     3.000000000000e+01 4.000000000000e+00-1.071020960808e-08 7.000000000000e+00
    -3.783497959375e-10 5.733454599977e-09 0.000000000000e+00 0.000000000000e+00
     2.217120000000e+05 2.428000000000e+03 0.000000000000e+00                   
G25 2026 07 21 13 35 12 4.047089896630e-04-3.229416734030e-12 0.000000000000e+00
     4.336357116699e-03 4.065625000000e+01 4.696624204679e-09 1.386186788381e+00
     2.051703631878e-06 1.289950474165e-02 8.748844265938e-06 5.153552874520e+03
     1.593000000000e+05-2.169981598854e-07-1.562916745733e+00-7.729977369308e-08
     9.467228845911e-01 2.032539062500e+02 1.161801535092e+00-8.100816666438e-09
    -5.768097407267e-11 4.696624204679e-09-2.000000000000e+00 3.000000000000e+00
     3.000000000000e+01 4.000000000000e+00 5.587935447693e-09 7.000000000000e+00
    -1.891748979688e-09-4.773028194904e-09-1.047737896442e-09 6.402842700481e-10
     2.217120000000e+05 2.428000000000e+03 0.000000000000e+00                   
G12 2026 07 21 13 35 12-6.054585392121e-04 5.542233338929e-13 0.000000000000e+00
    -4.949092864990e-03 3.772265625000e+01 4.390361447605e-09 1.452541715439e+00
     1.955777406693e-06 8.707613684237e-03 8.841045200825e-06 5.153516838877e+03
     2.025000000000e+05-1.117587089539e-08-1.467476728765e+00-1.946464180946e-07
     9.583097143833e-01 2.068085937500e+02 1.587387384599e+00-8.343683925691e-09
     4.589476884420e-11 4.390361447605e-09-2.000000000000e+00 3.000000000000e+00
     2.800000000000e+01 4.000000000000e+00-1.257285475731e-08 7.000000000000e+00
    -6.984919309616e-10 7.072230800986e-09 0.000000000000e+00 0.000000000000e+00
     2.217120000000e+05 2.428000000000e+03 0.000000000000e+00                   
G29 2026 07 21 13 35 12-2.777229237836e-04 7.350564601438e-12 0.000000000000e+00
     4.547595977783e-03 4.461718750000e+01 4.664837166335e-09-1.466105003878e+00
     2.350658178329e-06 3.658789850306e-03 5.080364644527e-06 5.153534745687e+03
     1.764000000000e+05 1.769512891769e-08-4.180384547167e-01-2.328306436539e-08
     9.601395652325e-01 2.818437500000e+02 2.869630026695e+00-8.103316770577e-09
     1.114332130692e-10 4.664837166335e-09-2.000000000000e+00 3.000000000000e+00
     3.000000000000e+01 4.000000000000e+00-9.778887033463e-09 7.000000000000e+00
    -9.604264050722e-10 5.355104804039e-09 0.000000000000e+00 0.000000000000e+00
     2.217120000000e+05 2.428000000000e+03 0.000000000000e+00                   
G13 2026 07 21 13 36 00 4.184774297755e-04 5.240252676231e-12 8.673617379884e-19
    -4.507541656494e-03 3.406250000000e+01 4.347502519502e-09 1.316556556711e+00
     1.756474375725e-06 2.271318458952e-03 8.977949619293e-06 5.153630947532e+03
     1.647000000000e+05 2.980232238770e-08-1.575992203658e+00-4.470348358154e-08
     9.588257221628e-01 2.048125000000e+02 1.820178237478e+00-8.384757065123e-09
     2.160804291886e-11 4.347502519502e-09-3.000000000000e+00 1.000000000000e+00
     3.000000000000e+01 7.000000000000e+00-8.381903171539e-09 7.000000000000e+00
    -1.164153218269e-10 5.267793312669e-09 1.658918336034e-09 1.949956640601e-09
     2.217600000000e+05 2.428000000000e+03 0.000000000000e+00                   
E25 2026 07 21 13 36 05 2.174300607294e-05-1.421085471520e-14 0.000000000000e+00
     1.090000000000e+02 8.281250000000e+01 2.972623821714e-09-2.912257244667e+00
     3.930181264877e-06 2.965595340356e-04 8.381903171539e-06 5.440616222382e+03
     2.178000000000e+05 1.862645149231e-08-1.329207279047e+00-1.862645149231e-09
     9.606292353664e-01 1.576250000000e+02-1.312002698270e+00-5.524872990279e-09
     4.357324357192e-11 1.000000000000e+00 1.404000000000e+03                   
     1.070000000000e+02 0.000000000000e+00 2.328306436539e-09 2.561137080193e-09
     2.217650000000e+05                                                         
E16 2026 07 21 13 36 05-4.651554627344e-05-2.501110429876e-12 0.000000000000e+00
     1.130000000000e+02 7.490625000000e+01 2.970838033043e-09-7.198503297071e-01
     3.607943654060e-06 4.904707893729e-04 9.393319487572e-06 5.440615587234e+03
     2.202000000000e+05 5.215406417847e-08-1.332538720946e+00 5.215406417847e-08
     9.625742580987e-01 1.400000000000e+02-2.474311816927e+00-5.453441443440e-09
     6.535986535788e-11 1.000000000000e+00 1.404000000000e+03                   
     1.070000000000e+02 0.000000000000e+00-3.958120942116e-09-2.561137080193e-09
     2.217650000000e+05                                                         
E10 2026 07 21 13 36 05-8.074668003246e-04-2.671640686458e-12 0.000000000000e+00
     1.130000000000e+02-5.234375000000e+01 2.727256458321e-09-9.289669936269e-01
    -2.417713403702e-06 2.849890151992e-04 4.870817065239e-06 5.440598266602e+03
     2.202000000000e+05 2.793967723846e-08 7.679348597065e-01-5.587935447693e-09
     9.974612540478e-01 2.529062500000e+02 2.338574724487e+00-5.493800267404e-09
    -8.750364487804e-11 1.000000000000e+00 1.404000000000e+03                   
     1.070000000000e+02 0.000000000000e+00-1.396983861923e-09-6.984919309616e-10
     2.217650000000e+05                                                         
E36 2026 07 21 13 36 05-5.969612393528e-04-5.314859663486e-12 0.000000000000e+00
     1.140000000000e+02-4.218750000000e+01 2.612251667910e-09-2.844031915402e-01
    -2.078711986542e-06 8.872256148607e-05 5.783513188362e-06 5.440605581284e+03
     2.208000000000e+05-2.793967723846e-08 7.698866294169e-01-7.078051567078e-08
     9.976487240738e-01 2.367812500000e+02 5.841400627954e-01-5.455941547579e-09
    -9.964700784071e-11 1.000000000000e+00 1.404000000000e+03                   
     1.070000000000e+02 0.000000000000e+00 4.423782229424e-09 5.122274160385e-09
     2.217650000000e+05                                                         
E11 2026 07 21 13 36 05 5.518732825294e-03 6.734524049534e-11-3.469446951954e-18
     1.140000000000e+02-5.281250000000e+01 2.748328764639e-09-2.931123173731e-01
    -2.512708306313e-06 4.140962846577e-04 4.857778549194e-06 5.440605150223e+03
     2.208000000000e+05 4.284083843231e-08 7.693911258972e-01-9.313225746155e-09
     9.945438282053e-01 2.520312500000e+02 1.348326818127e+00-5.515229731456e-09
    -8.143196339671e-11 1.000000000000e+00 1.404000000000e+03                   
     1.070000000000e+02 0.000000000000e+00-1.490116119385e-08-1.583248376846e-08
     2.217650000000e+05                                                         
END OF FILE                                                 COMMENT
