     3.05           N: NAVIGATION       M: MIXED            RINEX VERSION / TYPE
PYRINEXCONV 0.1.2 ALDELTUNES            20260721 014021 UTC PGM / RUN BY / DATE
GAL    1.0175e+02  3.3203e-01  2.2858e-02             B 28  IONOSPHERIC CORR
GPSA   9.3132e-09  2.2352e-08  1.5199e-05  1.5140e-05 B 04  IONOSPHERIC CORR
GPSB   1.0035e+05  1.3107e+05  1.6712e+07  1.6318e+07 B 04  IONOSPHERIC CORR
GAUT  6.5192580223e-09-2.664535259e-15 174600 1404   E28  0 TIME SYSTEM CORR
GPUT -3.2014213502e-09 1.588507104e-12 356400 2428   G04  0 TIME SYSTEM CORR
                                                            END OF HEADER
G04 2026 07 21 01 31 24 6.273528560996e-05 6.821210263297e-13 0.000000000000e+00
     4.000000000000e+00-2.156250000000e+01 4.435899058715e-09-1.318618189375e+00
    -1.283362507820e-06 3.821728983894e-03 6.174668669701e-06 5.153673210144e+03
     1.800000000000e+05 4.470348358154e-08 2.690147796711e+00-5.960464477539e-08
     9.724411767983e-01 2.633125000000e+02-2.902038596573e+00-8.003904823334e-09
     3.196561721055e-10 1.000000000000e+00 3.800000000000e+02 0.000000000000e+00
     2.000000000000e+00 0.000000000000e+00-4.656612873077e-09 5.160000000000e+02
     7.131360000000e+05 4.000000000000e+00                                      
G26 2026 07 21 01 31 24-3.841067664325e-04-2.501110429876e-12 0.000000000000e+00
     8.200000000000e+01 4.721875000000e+01 5.441655238212e-09 7.605690042719e-01
     2.747401595116e-06 1.116497931071e-02 9.160488843918e-06 5.153580068588e+03
     1.800000000000e+05-3.352761268616e-08-1.639771574199e+00 1.136213541031e-07
     9.274887924425e-01 1.850000000000e+02 7.147935705013e-01-8.549641841186e-09
    -1.971510692762e-10 1.000000000000e+00 3.800000000000e+02 0.000000000000e+00
     2.000000000000e+00 0.000000000000e+00 6.519258022308e-09 8.200000000000e+01
     7.131360000000e+05 4.000000000000e+00                                      
G03 2026 07 21 01 31 24 3.641797229648e-04-1.898570189951e-11 0.000000000000e+00
     3.900000000000e+01-2.587500000000e+01 3.495145586843e-09 1.972188565113e+00
    -1.396983861923e-06 6.975172669627e-03 9.100884199142e-06 5.153767438889e+03
     1.799840000000e+05 2.980232238770e-08 1.621788574712e+00-1.285225152969e-07
     9.947606312017e-01 2.198125000000e+02 1.276449267064e+00-7.577458488704e-09
     3.042983895351e-10 1.000000000000e+00 3.800000000000e+02 0.000000000000e+00
     2.000000000000e+00 0.000000000000e+00 1.396983861923e-09 3.900000000000e+01
     7.131360000000e+05 4.000000000000e+00                                      
G09 2026 07 21 01 31 24 7.172152400017e-04-6.934897101019e-12 0.000000000000e+00
     6.700000000000e+01-1.775000000000e+01 4.581619414267e-09-4.508002746923e-01
    -1.188367605209e-06 3.669588360935e-03 6.427988409996e-06 5.153694242477e+03
     1.800000000000e+05-4.097819328308e-08 2.624974743614e+00-1.303851604462e-08
     9.667031907710e-01 2.595312500000e+02 2.038005290461e+00-8.129624345771e-09
     3.371569010811e-10 1.000000000000e+00 3.800000000000e+02 0.000000000000e+00
     2.000000000000e+00 0.000000000000e+00 4.656612873077e-10 6.700000000000e+01
     7.131360000000e+05 4.000000000000e+00                                      
E29 2026 07 21 01 36 24-2.271460252814e-04-3.623767952377e-12 0.000000000000e+00
     3.700000000000e+01-4.634375000000e+01 3.417642358522e-09 5.022229145717e-01
    -2.084299921989e-06 2.009533345699e-04 5.552545189857e-06 5.440611452103e+03
     1.746000000000e+05-1.117587089539e-08 2.852197831957e+00 5.587935447693e-09
     9.627380215372e-01 2.196875000000e+02 1.417844790584e+00-5.746310785481e-09
     2.139374827835e-10 5.160000000000e+02 1.404000000000e+03                   
     1.070000000000e+02 0.000000000000e+00-3.259629011154e-09-2.793967723846e-09
     1.785840000000e+05                                                         
G03 2026 07 21 01 39 12 3.642191586550e-04-1.892885848065e-11 0.000000000000e+00
    -5.082130432129e-03-3.272656250000e+01 3.511932000350e-09 1.668182751148e+00
    -1.699663698673e-06 6.976965523791e-03 9.193085134029e-06 5.153454907572e+03
     1.737000000000e+05-4.470348358154e-08 1.621804437133e+00-1.080334186554e-07
     9.947597490621e-01 2.185000000000e+02 1.276501399613e+00-8.703163185159e-09
     2.996553389905e-10 3.511932000350e-09-2.000000000000e+00 2.000000000000e+00
     2.700000000000e+01 4.000000000000e+00 1.396983861923e-09 7.000000000000e+00
     5.529727786779e-10-2.008164301515e-09 1.862645149231e-09 5.005858838558e-09
     1.787520000000e+05 2.428000000000e+03 0.000000000000e+00                   
G04 2026 07 21 01 40 00 6.273412145674e-05 6.998845947237e-13 0.000000000000e+00
    -5.631446838379e-04-2.111328125000e+01 4.452149735621e-09-1.581149703060e+00
    -1.121312379837e-06 3.821527818218e-03 6.383284926414e-06 5.153549399026e+03
     1.233000000000e+05 2.700835466385e-08 2.690162137697e+00-4.377216100693e-08
     9.724406055288e-01 2.625976562500e+02-2.902052367753e+00-8.337076507608e-09
     3.330495871378e-10 4.452149735621e-09-2.000000000000e+00 3.000000000000e+00
     3.000000000000e+01 4.000000000000e+00-4.656612873077e-09 7.000000000000e+00
    -2.037268131971e-10 3.317836672068e-09-1.426087692380e-09-1.396983861923e-09
     1.788000000000e+05 2.428000000000e+03 0.000000000000e+00                   
E19 2026 07 21 01 40 35 3.108172270004e-03 2.441424840072e-11 0.000000000000e+00
     4.200000000000e+01-4.243750000000e+01 3.190490039574e-09 1.783681548147e+00
    -2.039596438408e-06 2.441761316732e-04 5.666166543961e-06 5.440616302490e+03
     1.776000000000e+05 9.313225746155e-09 2.860596731382e+00 3.725290298462e-09
     9.747207703582e-01 2.214687500000e+02-2.397353506025e-01-5.625948629057e-09
     2.128660095809e-10 1.000000000000e+00 1.404000000000e+03                   
     1.070000000000e+02 0.000000000000e+00-4.423782229424e-09-4.423782229424e-09
     1.788350000000e+05                                                         
E28 2026 07 21 01 40 35-6.027094786987e-05-2.927436071332e-12 0.000000000000e+00
     3.700000000000e+01-3.906250000000e+01 3.651580674421e-09-1.244498328682e+00
    -2.037733793259e-06 2.845055423677e-04 5.515292286873e-06 5.440607912064e+03
     1.746000000000e+05-1.862645149231e-09 2.870212497768e+00-1.117587089539e-08
     9.490499403337e-01 2.184687500000e+02 1.958976890496e+00-5.843814846916e-09
     2.167947446570e-10 1.000000000000e+00 1.404000000000e+03                   
     1.070000000000e+02 0.000000000000e+00 9.313225746155e-10 1.862645149231e-09
     1.788350000000e+05                                                         
E23 2026 07 21 01 40 35-4.267256008461e-05-1.364242052659e-12 0.000000000000e+00
     3.500000000000e+01 1.190312500000e+02 3.168346260053e-09 1.642696728638e+00
     5.446374416351e-06 1.740632578731e-04 1.006387174129e-05 5.440617679596e+03
     1.734000000000e+05-3.725290298462e-09-1.332154426996e+00 5.587935447693e-09
     9.625507490051e-01 1.256562500000e+02-2.761650789543e+00-5.532016144963e-09
    -5.714523747137e-12 1.000000000000e+00 1.404000000000e+03                   
     1.070000000000e+02 0.000000000000e+00 4.656612873077e-10 1.862645149231e-09
     1.788350000000e+05                                                         
E21 2026 07 21 01 40 35-7.585341809317e-04-2.799538378895e-12 0.000000000000e+00
     4.200000000000e+01 1.164375000000e+02 3.195490247852e-09 1.740378555650e+00
     5.394220352173e-06 1.701455330476e-04 8.776783943176e-06 5.440618543625e+03
     1.776000000000e+05 5.587935447693e-09-1.328984135764e+00-3.352761268616e-08
     9.606206758327e-01 1.485000000000e+02-1.546585854743e+00-5.599518956726e-09
    -3.643008888800e-11 1.000000000000e+00 1.404000000000e+03                   
     1.070000000000e+02 0.000000000000e+00 6.984919309616e-10 9.313225746155e-10
     1.788350000000e+05                                                         
E27 2026 07 21 01 40 35-1.049726095516e-03-1.062971932697e-11 0.000000000000e+00
     3.700000000000e+01 1.031875000000e+02 3.284065365933e-09 1.502247616563e+00
     4.922971129417e-06 2.446804428473e-04 8.303672075272e-06 5.440614410400e+03
     1.746000000000e+05 5.401670932770e-08-1.329007517583e+00-1.303851604462e-08
     9.605918841420e-01 1.592500000000e+02-8.808755747463e-01-5.630948837335e-09
    -3.500145795122e-11 1.000000000000e+00 1.404000000000e+03                   
     1.070000000000e+02 0.000000000000e+00 2.328306436539e-10 2.328306436539e-10
     1.788350000000e+05                                                         
END OF FILE                                                 COMMENT
