     3.05           N: NAVIGATION       M: MIXED            RINEX VERSION / TYPE
PYRINEXCONV 0.1.2 ALDELTUNES            20260721 075229 UTC PGM / RUN BY / DATE
GAL    1.0175e+02  3.3203e-01  2.2858e-02             H 16  IONOSPHERIC CORR
GPSA   1.1176e-08  2.2352e-08  1.5199e-05  1.5140e-05 H 20  IONOSPHERIC CORR
GPSB   1.0650e+05  1.4746e+05  1.6712e+07  1.6450e+07 H 20  IONOSPHERIC CORR
GAUT  6.5192580223e-09-2.664535259e-15 200400 1404   E16  0 TIME SYSTEM CORR
GPUT  1.2805685401e-09 2.224886941e-13 399600 2428   G20  0 TIME SYSTEM CORR
                                                            END OF HEADER
G17 2026 07 21 07 46 24-1.762192696333e-04-6.025402399246e-12 0.000000000000e+00
     9.000000000000e+00 4.903125000000e+01 4.773770275265e-09 2.090283509201e+00
     2.602115273476e-06 1.261610374786e-02 4.317611455917e-06 5.153676527023e+03
     2.016000000000e+05 2.011656761169e-07-4.349826660654e-01-9.313225746155e-09
     9.574391947398e-01 2.891562500000e+02-1.098677207333e+00-8.113552247732e-09
    -1.753644474903e-10 1.000000000000e+00 3.800000000000e+02 0.000000000000e+00
     2.000000000000e+00 0.000000000000e+00-1.071020960808e-08 9.000000000000e+00
     8.031360000000e+05 4.000000000000e+00                                      
G30 2026 07 21 07 46 24 3.026444464922e-04 1.330136001343e-11 0.000000000000e+00
     1.500000000000e+01-2.750000000000e+01 5.095569393776e-09-9.557148868469e-01
    -1.257285475731e-06 8.217835798860e-03 7.877126336098e-06 5.153681312561e+03
     2.015840000000e+05 9.499490261078e-08-2.597210036017e+00 1.918524503708e-07
     9.366267039532e-01 2.126875000000e+02-2.258902621550e+00-8.338204462542e-09
    -6.071681481333e-11 1.000000000000e+00 3.800000000000e+02 0.000000000000e+00
     2.000000000000e+00 0.000000000000e+00 4.190951585770e-09 1.500000000000e+01
     8.031360000000e+05 4.000000000000e+00                                      
G22 2026 07 21 07 46 24 4.054326564074e-05 8.071765478235e-12 0.000000000000e+00
     9.100000000000e+01 6.240625000000e+01 4.572333313178e-09 2.703063429373e+00
     3.157183527946e-06 1.184571452904e-02 8.780509233475e-06 5.153722455978e+03
     2.016000000000e+05 1.806765794754e-07-1.447181204700e+00 1.471489667892e-07
     9.568464320374e-01 2.054375000000e+02-9.877782870562e-01-7.838897950136e-09
    -5.714523747137e-12 1.000000000000e+00 3.800000000000e+02 0.000000000000e+00
     2.000000000000e+00 0.000000000000e+00-1.117587089539e-08 9.100000000000e+01
     8.031360000000e+05 4.000000000000e+00                                      
G01 2026 07 21 07 46 24 2.170139923692e-04-9.663381206337e-12 0.000000000000e+00
     2.190000000000e+02-2.893750000000e+01 4.679480633437e-09 9.412020885020e-01
    -1.451000571251e-06 1.826636958867e-03 5.677342414856e-06 5.153604387283e+03
     2.016000000000e+05 3.539025783539e-08 6.292521861022e-01-4.656612873077e-08
     9.571109817541e-01 2.643437500000e+02 1.954505645234e-01-8.287130906552e-09
    -2.814402945465e-10 1.000000000000e+00 3.800000000000e+02 0.000000000000e+00
     2.000000000000e+00 0.000000000000e+00-8.847564458847e-09 7.310000000000e+02
     8.031360000000e+05 4.000000000000e+00                                      
G19 2026 07 21 07 46 24 7.038158364594e-04 4.547473508865e-13 0.000000000000e+00
     4.800000000000e+01 4.734375000000e+01 4.779127641278e-09-2.560077468131e+00
     2.495944499969e-06 1.176446687896e-02 4.906207323074e-06 5.153761194229e+03
     2.016000000000e+05-2.123415470123e-07-3.912187402651e-01-6.705522537231e-08
     9.566053621559e-01 2.855625000000e+02 3.029435360440e+00-8.179626428559e-09
    -3.428714248282e-11 1.000000000000e+00 3.800000000000e+02 0.000000000000e+00
     2.000000000000e+00 0.000000000000e+00-1.536682248116e-08 4.800000000000e+01
     8.031360000000e+05 4.000000000000e+00                                      
G07 2026 07 21 07 46 24-2.079373225570e-04-3.751665644813e-12 0.000000000000e+00
     9.800000000000e+01-2.146875000000e+01 4.875917387245e-09-6.454876172988e-01
    -8.624047040939e-07 2.093848225195e-02 8.288770914078e-06 5.153586673737e+03
     2.016000000000e+05-1.657754182816e-07-2.586142907141e+00 3.278255462646e-07
     9.513186556348e-01 2.203437500000e+02-1.955213505942e+00-8.485710606765e-09
    -2.071514858337e-11 1.000000000000e+00 3.800000000000e+02 0.000000000000e+00
     2.000000000000e+00 0.000000000000e+00-1.071020960808e-08 9.800000000000e+01
     8.031360000000e+05 4.000000000000e+00                                      
G20 2026 07 21 07 46 24 2.369456924498e-04 1.182343112305e-11 0.000000000000e+00
     6.700000000000e+01-1.690625000000e+01 4.573761944115e-09-1.581461343379e+00
    -7.990747690201e-07 1.907509984449e-03 6.332993507385e-06 5.153612205505e+03
     2.016000000000e+05 7.264316082001e-08 2.629693153275e+00 5.215406417847e-08
     9.620825347593e-01 2.575000000000e+02-1.761722403152e+00-8.131052976708e-09
     2.421529437849e-10 1.000000000000e+00 3.800000000000e+02 0.000000000000e+00
     2.000000000000e+00 0.000000000000e+00-6.984919309616e-09 6.700000000000e+01
     8.031360000000e+05 4.000000000000e+00                                      
G14 2026 07 21 07 48 00 7.499779458158e-04 2.557953848736e-13 0.000000000000e+00
    -3.282070159912e-03 5.808593750000e+01 4.971457081142e-09-1.812418756870e+00
     2.956017851830e-06 7.364144199528e-03 8.785165846348e-06 5.153566057914e+03
     1.152000000000e+05 6.984919309616e-08-1.524203728198e+00-6.146728992462e-08
     9.416382626476e-01 2.006640625000e+02-2.680439830644e+00-8.221535980596e-09
     1.428630936784e-10 4.971457081142e-09-2.000000000000e+00 3.000000000000e+00
     3.100000000000e+01 4.000000000000e+00-7.916241884232e-09 7.000000000000e+00
    -2.619344741106e-10 5.005858838558e-09-1.455191522837e-09-1.076841726899e-09
     2.008800000000e+05 2.428000000000e+03 0.000000000000e+00                   
E33 2026 07 21 07 49 35-2.518517430872e-05-1.918465386552e-12 0.000000000000e+00
     7.800000000000e+01-4.137500000000e+01 2.569749897541e-09 3.016262805716e+00
    -2.013519406319e-06 1.653057988733e-04 5.841255187988e-06 5.440609649658e+03
     1.992000000000e+05-6.146728992462e-08 7.699806233665e-01-5.587935447693e-08
     9.976668979051e-01 2.278750000000e+02-3.028942813478e+00-5.452727127972e-09
    -2.860833450911e-10 1.000000000000e+00 1.404000000000e+03                   
     1.070000000000e+02 0.000000000000e+00-4.423782229424e-09-4.889443516731e-09
     2.009750000000e+05                                                         
E12 2026 07 21 07 50 05-5.898356903344e-05-2.557953848736e-12 0.000000000000e+00
     7.900000000000e+01-4.634375000000e+01 2.602251251353e-09-1.617008268988e+00
    -2.326443791389e-06 3.186549292877e-04 6.502494215965e-06 5.440605588913e+03
     1.998000000000e+05-2.607703208923e-08 7.695156962975e-01 1.303851604462e-08
     9.945616480104e-01 2.171250000000e+02 8.655442751990e-01-5.405225149324e-09
    -2.664396697103e-10 1.000000000000e+00 1.404000000000e+03                   
     1.070000000000e+02 0.000000000000e+00-1.187436282635e-08-1.164153218269e-08
     2.010050000000e+05                                                         
E06 2026 07 21 07 50 54-3.006808110513e-04-5.030642569182e-12 0.000000000000e+00
     7.900000000000e+01-3.856250000000e+01 3.223705708854e-09 1.692517490776e+00
    -1.784414052963e-06 5.049944156781e-04 5.492940545082e-06 5.440612894058e+03
     1.998000000000e+05 6.891787052155e-08 2.852022843548e+00 1.117587089539e-08
     9.626619497971e-01 2.238750000000e+02 1.387276260047e+00-5.705594803782e-09
     1.896507568581e-10 5.160000000000e+02 1.404000000000e+03                   
     1.070000000000e+02 0.000000000000e+00 2.328306436539e-09 3.725290298462e-09
     2.010540000000e+05                                                         
E16 2026 07 21 07 50 54-4.646496381611e-05-2.515321284591e-12 0.000000000000e+00
     7.900000000000e+01 1.029375000000e+02 3.134416275305e-09 3.033535559938e+00
     4.565343260765e-06 4.917442565784e-04 8.996576070786e-06 5.440618522644e+03
     1.998000000000e+05 3.725290298462e-09-1.332426281063e+00 9.313225746155e-09
     9.625722246425e-01 1.522500000000e+02-2.473605983824e+00-5.512372469582e-09
     8.571785620706e-11 5.160000000000e+02 1.404000000000e+03                   
     1.070000000000e+02 0.000000000000e+00-3.725290298462e-09-2.328306436539e-09
     2.010540000000e+05                                                         
E26 2026 07 21 07 50 55 3.676136257127e-04 1.087130385713e-11 0.000000000000e+00
     7.900000000000e+01-5.521875000000e+01 2.774758436969e-09-2.871000083123e+00
    -2.488493919373e-06 9.246636182070e-05 5.410984158516e-06 5.440600854874e+03
     1.998000000000e+05 6.332993507385e-08 7.665372828632e-01-2.421438694000e-08
     9.909292092533e-01 2.366875000000e+02-2.580120295772e+00-5.547373927534e-09
    -2.182233755938e-10 1.000000000000e+00 1.404000000000e+03                   
     1.070000000000e+02 0.000000000000e+00-5.122274160385e-09-5.587935447693e-09
     2.010550000000e+05                                                         
E23 2026 07 21 07 50 55-4.270783392712e-05-1.321609488514e-12 0.000000000000e+00
     7.900000000000e+01 8.090625000000e+01 3.114415442190e-09-1.371325686796e+00
     3.920868039131e-06 1.748383510858e-04 8.547678589821e-06 5.440621475220e+03
     1.998000000000e+05-2.980232238770e-08-1.332301779420e+00-5.587935447693e-09
     9.625511103459e-01 1.575937500000e+02-2.757865455366e+00-5.520944255203e-09
     1.082187934614e-10 1.000000000000e+00 1.404000000000e+03                   
     1.070000000000e+02 0.000000000000e+00 4.656612873077e-10 1.862645149231e-09
     2.010550000000e+05                                                         
G17 2026 07 21 07 51 12-1.762084430084e-04-6.036060540282e-12 0.000000000000e+00
     3.508567810059e-03 4.568359375000e+01 4.778770483544e-09 1.827803561184e+00
     2.356246113777e-06 1.261504000286e-02 4.746951162815e-06 5.153547111464e+03
     1.728000000000e+05 2.263113856316e-07-4.349681466035e-01-3.166496753693e-08
     9.574394507505e-01 2.844765625000e+02-1.098740390765e+00-8.205106724823e-09
    -1.607209803882e-10 4.778770483544e-09-2.000000000000e+00 3.000000000000e+00
     2.800000000000e+01 4.000000000000e+00-1.071020960808e-08 7.000000000000e+00
    -8.440110832453e-10 6.722984835505e-09 0.000000000000e+00 0.000000000000e+00
     2.010720000000e+05 2.428000000000e+03 0.000000000000e+00                   
G01 2026 07 21 07 51 12 2.170315419789e-04-9.634959496907e-12 0.000000000000e+00
    -1.117229461670e-03-2.564843750000e+01 4.646443543024e-09 6.786723551877e-01
    -1.356936991215e-06 1.827183994465e-03 5.745328962803e-06 5.153617600205e+03
     1.746000000000e+05-9.313225746155e-10 6.292672102708e-01-3.259629011154e-08
     9.571115413203e-01 2.650117187500e+02 1.954233154798e-01-8.066708102822e-09
    -3.005482333260e-10 4.646443543024e-09-2.000000000000e+00 3.000000000000e+00
     2.900000000000e+01 4.000000000000e+00-8.847564458847e-09 7.000000000000e+00
    -2.910383045673e-10 5.646143108606e-09-5.529727786779e-10-6.693881005049e-10
     2.010720000000e+05 2.428000000000e+03 0.000000000000e+00                   
E26 2026 07 21 07 51 35 3.676201449707e-04 1.087130385713e-11 0.000000000000e+00
     8.000000000000e+01-5.531250000000e+01 2.784758853527e-09-2.799113344935e+00
    -2.492219209671e-06 9.262026287615e-05 5.323439836502e-06 5.440600307465e+03
     2.004000000000e+05 6.519258022308e-08 7.665339254662e-01-1.490116119385e-08
     9.909290497953e-01 2.389687500000e+02-2.577621596583e+00-5.547731085268e-09
    -2.128660095809e-10 1.000000000000e+00 1.404000000000e+03                   
     1.070000000000e+02 0.000000000000e+00-5.122274160385e-09-5.587935447693e-09
     2.010950000000e+05                                                         
E23 2026 07 21 07 51 35-4.270864883438e-05-1.321609488514e-12 0.000000000000e+00
     8.000000000000e+01 8.118750000000e+01 3.110843864848e-09-1.297161820065e+00
     3.943219780922e-06 1.747946953401e-04 8.575618267059e-06 5.440621358871e+03
     2.004000000000e+05-2.607703208923e-08-1.332305122188e+00-9.313225746155e-09
     9.625511908064e-01 1.572187500000e+02-2.757644308966e+00-5.517015520127e-09
     1.092902666640e-10 1.000000000000e+00 1.404000000000e+03                   
     1.070000000000e+02 0.000000000000e+00 4.656612873077e-10 1.862645149231e-09
     2.010950000000e+05                                                         
G20 2026 07 21 07 52 00 2.369242138229e-04 1.185185283248e-11 0.000000000000e+00
     1.869201660156e-04-1.651953125000e+01 4.574119101849e-09-1.844025056622e+00
    -8.940696716309e-07 1.907585363369e-03 6.382353603840e-06 5.153610573317e+03
     1.737000000000e+05 8.195638656616e-08 2.629707711504e+00 1.769512891769e-08
     9.620821917050e-01 2.575312500000e+02-1.761713138492e+00-8.229572029615e-09
     2.514390448740e-10 4.574119101849e-09-3.000000000000e+00 2.000000000000e+00
     2.800000000000e+01 4.000000000000e+00-6.984919309616e-09 7.000000000000e+00
    -1.455191522837e-10 4.220055416226e-09 2.095475792885e-09 2.066371962428e-09
     2.011200000000e+05 2.428000000000e+03 0.000000000000e+00                   
E12 2026 07 21 07 52 05-5.898519884795e-05-2.557953848736e-12 0.000000000000e+00
     8.000000000000e+01-4.656250000000e+01 2.602251251353e-09-1.541989154015e+00
    -2.337619662285e-06 3.188102273270e-04 6.387010216713e-06 5.440606094360e+03
     2.004000000000e+05-3.166496753693e-08 7.695124734890e-01 1.490116119385e-08
     9.945614680715e-01 2.191875000000e+02 8.649107058597e-01-5.409153884400e-09
    -2.667968274445e-10 1.000000000000e+00 1.404000000000e+03                   
     1.070000000000e+02 0.000000000000e+00-1.187436282635e-08-1.164153218269e-08
     2.011250000000e+05                                                         
E04 2026 07 21 07 52 24-1.219931873493e-04 3.358024969202e-11 0.000000000000e+00
     7.600000000000e+01-4.125000000000e+01 3.120129965937e-09-2.965667034930e+00
    -1.860782504082e-06 2.925973385572e-04 5.532056093216e-06 5.440610670090e+03
     1.980000000000e+05 5.029141902924e-08 2.852383076884e+00 3.539025783539e-08
     9.693557114077e-01 2.262500000000e+02-6.783678846310e-02-5.638806307488e-09
     1.964367538078e-10 5.160000000000e+02 1.404000000000e+03                   
     1.070000000000e+02 0.000000000000e+00-4.190951585770e-09-4.656612873077e-09
     2.011440000000e+05                                                         
E31 2026 07 21 07 52 35-1.581068499945e-04-2.955857780762e-12 0.000000000000e+00
     7.900000000000e+01 9.656250000000e+01 3.174060783801e-09 2.790505833392e+00
     4.427507519722e-06 3.431774675846e-04 8.452683687210e-06 5.440613298416e+03
     1.998000000000e+05 3.725290298462e-09-1.329188659026e+00 3.166496753693e-08
     9.605972852355e-01 1.569687500000e+02-1.402615765102e+00-5.549516873939e-09
     8.678932940965e-11 1.000000000000e+00 1.404000000000e+03                   
     1.070000000000e+02 0.000000000000e+00 3.492459654808e-09 4.190951585770e-09
     2.011550000000e+05                                                         
E09 2026 07 21 07 52 35-3.008393687196e-04 1.796252036002e-11 3.469446951954e-18
     7.800000000000e+01-4.043750000000e+01 3.062627570731e-09 2.231102926804e+00
    -1.855194568634e-06 4.994859918952e-04 5.761161446571e-06 5.440615755081e+03
     1.992000000000e+05 5.774199962616e-08 2.855532483498e+00 1.117587089539e-08
     9.750928474796e-01 2.231875000000e+02 3.877405252578e-01-5.604876322739e-09
     1.696499237431e-10 1.000000000000e+00 1.404000000000e+03                   
     1.070000000000e+02 0.000000000000e+00 6.984919309616e-10 9.313225746155e-10
     2.011550000000e+05                                                         
E16 2026 07 21 07 52 35-4.646636079997e-05-2.501110429876e-12 0.000000000000e+00
     8.000000000000e+01 1.012500000000e+02 3.137630694913e-09 3.107491443606e+00
     4.470348358154e-06 4.920490318909e-04 8.858740329742e-06 5.440617788315e+03
     2.004000000000e+05 1.862645149231e-09-1.332429587258e+00 9.313225746155e-09
     9.625722773076e-01 1.547500000000e+02-2.473176984560e+00-5.512015311848e-09
     8.536069847286e-11 1.000000000000e+00 1.404000000000e+03                   
     1.070000000000e+02 0.000000000000e+00-3.725290298462e-09-2.328306436539e-09
     2.011550000000e+05                                                         
E06 2026 07 21 07 52 35-3.006838960573e-04-5.030642569182e-12 0.000000000000e+00
     8.000000000000e+01-3.921875000000e+01 3.226562970727e-09 1.767021809265e+00
    -1.797452569008e-06 5.050536710769e-04 5.498528480530e-06 5.440612730026e+03
     2.004000000000e+05 7.078051567078e-08 2.852019420319e+00 1.862645149231e-08
     9.626620902372e-01 2.236250000000e+02 1.387157305790e+00-5.700951753238e-09
     1.878649681871e-10 1.000000000000e+00 1.404000000000e+03                   
     1.070000000000e+02 0.000000000000e+00 2.328306436539e-09 3.725290298462e-09
     2.011550000000e+05                                                         
END OF FILE                                                 COMMENT
