     3.05           N: NAVIGATION       M: MIXED            RINEX VERSION / TYPE
PYRINEXCONV 0.1.2 ALDELTUNES            20260721 103323 UTC PGM / RUN BY / DATE
GAL    1.0175e+02  3.3203e-01  2.2858e-02             K 11  IONOSPHERIC CORR
GPSA   1.1176e-08  2.2352e-08  1.5199e-05  1.5140e-05 K 24  IONOSPHERIC CORR
GPSB   1.0650e+05  1.4746e+05  1.6712e+07  1.6450e+07 K 24  IONOSPHERIC CORR
BDSA   2.1420e-08  5.9605e-08 -7.7486e-07  1.2517e-06 K 30  IONOSPHERIC CORR
BDSB   1.4131e+05 -7.0451e+05  5.6361e+06 -4.6531e+06 K 30  IONOSPHERIC CORR
GAUT  6.5192580223e-09-2.664535259e-15 207600 1404   E11  0 TIME SYSTEM CORR
GPUT  1.0186340660e-09 1.190603172e-12 428400 2428   G24  0 TIME SYSTEM CORR
BDUT  0.0000000000e+00 0.000000000e+00 208800 1072   C30  0 TIME SYSTEM CORR
                                                            END OF HEADER
E16 2026 07 21 10 26 24-4.647969035432e-05-2.486899575160e-12 0.000000000000e+00
     8.900000000000e+01 9.781250000000e+01 3.090485873999e-09-2.506894661311e+00
     4.362314939499e-06 4.925836110488e-04 8.363276720047e-06 5.440616605759e+03
     2.058000000000e+05 5.587935447693e-09-1.332459325456e+00 3.725290298462e-09
     9.625727512931e-01 1.593437500000e+02-2.472509234140e+00-5.512729627317e-09
     8.107480566251e-11 5.160000000000e+02 1.404000000000e+03                   
     1.070000000000e+02 0.000000000000e+00-3.725290298462e-09-2.328306436539e-09
     2.103840000000e+05                                                         
E33 2026 07 21 10 27 24-2.520554699004e-05-1.975308805413e-12 0.000000000000e+00
     9.500000000000e+01-5.321875000000e+01 2.756900550260e-09-2.021585566696e+00
    -2.386048436165e-06 1.665487652645e-04 5.053356289864e-06 5.440602613449e+03
     2.094000000000e+05 6.146728992462e-08 7.699240055109e-01 1.117587089539e-08
     9.976637599458e-01 2.494687500000e+02-3.009731387050e+00-5.508443734506e-09
    -1.535778257043e-10 5.160000000000e+02 1.404000000000e+03                   
     1.070000000000e+02 0.000000000000e+00-4.423782229424e-09-4.889443516731e-09
     2.104440000000e+05                                                         
G19 2026 07 21 10 28 54 7.038223557174e-04 4.547473508865e-13 0.000000000000e+00
     5.300000000000e+01 4.746875000000e+01 4.857345185067e-09-4.598883036224e-01
     2.514570951462e-06 1.176441437565e-02 4.749745130539e-06 5.153758861542e+03
     2.160000000000e+05 1.527369022369e-07-3.913393739529e-01-8.195638656616e-08
     9.566062033338e-01 2.841562500000e+02 3.029507515948e+00-8.400707066026e-09
     1.114332130692e-10 1.000000000000e+00 3.800000000000e+02 0.000000000000e+00
     2.000000000000e+00 0.000000000000e+00-1.536682248116e-08 5.300000000000e+01
     8.421360000000e+05 4.000000000000e+00                                      
G06 2026 07 21 10 28 54-5.692509002984e-04 7.958078640513e-12 0.000000000000e+00
     1.800000000000e+01-2.809375000000e+01 4.137315192927e-09 2.245621032615e+00
    -1.301988959312e-06 3.694797749631e-03 5.392357707024e-06 5.153722442627e+03
     2.160000000000e+05 1.192092895508e-07 5.836067018817e-01 2.235174179077e-08
     9.858715825372e-01 2.878437500000e+02-5.465688886624e-01-7.944973797192e-09
    -1.864363372504e-10 1.000000000000e+00 3.800000000000e+02 0.000000000000e+00
     2.000000000000e+00 0.000000000000e+00 3.725290298462e-09 1.800000000000e+01
     8.421360000000e+05 4.000000000000e+00                                      
G11 2026 07 21 10 28 54-2.677883021533e-04 1.227817847393e-11 0.000000000000e+00
     6.800000000000e+01-2.675000000000e+01 4.559118477013e-09-2.804708465308e+00
    -1.342967152596e-06 2.486749202944e-03 5.591660737991e-06 5.153651065826e+03
     2.160000000000e+05 3.166496753693e-08 5.992905602973e-01-1.396983861923e-07
     9.627627141315e-01 2.712500000000e+02-2.355535992729e+00-8.172126116141e-09
    -1.628639267934e-10 1.000000000000e+00 3.800000000000e+02 0.000000000000e+00
     2.000000000000e+00 0.000000000000e+00-8.847564458847e-09 8.360000000000e+02
     8.421360000000e+05 4.000000000000e+00                                      
G22 2026 07 21 10 28 54 4.065874963999e-05 8.071765478235e-12 0.000000000000e+00
     9.400000000000e+01 4.831250000000e+01 4.525188492264e-09-1.479895405961e+00
     2.605840563774e-06 1.184484281112e-02 9.551644325256e-06 5.153722507477e+03
     2.160000000000e+05-2.440065145493e-07-1.447295157241e+00 5.960464477539e-08
     9.568465549226e-01 1.985000000000e+02-9.877039313190e-01-8.056764167995e-09
     1.267909956396e-10 1.000000000000e+00 3.800000000000e+02 0.000000000000e+00
     2.800000000000e+00 0.000000000000e+00-1.117587089539e-08 9.400000000000e+01
     8.421360000000e+05 4.000000000000e+00                                      
G13 2026 07 21 10 28 54 4.184492863715e-04 5.229594535194e-12 0.000000000000e+00
     4.200000000000e+01 4.490625000000e+01 4.425184326689e-09 5.289023622435e-01
     2.237036824226e-06 2.269272110425e-03 8.974224328995e-06 5.153590568542e+03
     2.160000000000e+05 0.000000000000e+00-1.575949081222e+00-2.048909664154e-08
     9.588254793184e-01 2.026875000000e+02 1.820162606930e+00-7.985689778890e-09
     1.535778257043e-11 1.000000000000e+00 3.800000000000e+02 0.000000000000e+00
     2.000000000000e+00 6.300000000000e+01-8.381903171539e-09 4.200000000000e+01
     8.421360000000e+05 4.000000000000e+00                                      
G24 2026 07 21 10 28 54 1.224987208843e-04 1.864464138635e-11 0.000000000000e+00
     2.700000000000e+01-3.740625000000e+01 4.935919886590e-09 2.414083567379e+00
    -2.119690179825e-06 1.843414816540e-02 7.398426532745e-06 5.153631191254e+03
     2.160000000000e+05 1.490116119385e-07-2.697253539459e+00-2.309679985046e-07
     9.355032179783e-01 2.198750000000e+02 1.162173684627e+00-7.982118201548e-09
    -1.228622605635e-10 1.000000000000e+00 3.800000000000e+02 0.000000000000e+00
     2.000000000000e+00 0.000000000000e+00 2.328306436539e-09 2.700000000000e+01
     8.421360000000e+05 4.000000000000e+00                                      
G12 2026 07 21 10 28 54-6.054616533220e-04 5.684341886081e-13 0.000000000000e+00
     1.000000000000e+01 4.975000000000e+01 4.497330188997e-09 6.626313143511e-01
     2.460554242134e-06 8.705397252925e-03 8.864328265190e-06 5.153704523087e+03
     2.159840000000e+05-9.313225746155e-08-1.467432603498e+00-5.587935447693e-08
     9.583090209601e-01 2.066250000000e+02 1.587346449225e+00-8.132481607645e-09
     3.571577341961e-12 1.000000000000e+00 3.800000000000e+02 0.000000000000e+00
     2.000000000000e+00 0.000000000000e+00-1.257285475731e-08 1.000000000000e+01
     8.421360000000e+05 4.000000000000e+00                                      
C39 2026 07 21 10 28 54-9.575803996995e-04 8.823164421301e-12 0.000000000000e+00
     1.000000000000e+00 1.242187500000e+01 3.910162873979e-09 2.444445175468e+00
     6.249174475670e-07 5.720010958612e-04 9.388197213411e-06 5.282662654877e+03
     2.088000000000e+05 1.350417733192e-08-2.011522527736e+00 5.819834768772e-05
     9.490804787486e-01 1.627031250000e+02 5.901150839762e-02 1.033624840338e-06
    -5.464513333200e-11                    1.072000000000e+03                   
     0.000000000000e+00 0.000000000000e+00 8.987262845039e-08 8.987262845039e-08
     2.105340000000e+05 1.000000000000e+00                                      
C11 2026 07 21 10 28 54-7.892216090113e-04-2.153743849931e-11 0.000000000000e+00
     1.000000000000e+00 1.068750000000e+01 4.286249968087e-09 2.181656967204e+00
     6.291083991528e-07 1.700917491689e-04 3.776513040066e-06 5.282641948700e+03
     2.088000000000e+05 1.024454832077e-07 7.435111731962e-02 3.341073170304e-05
     9.504506200262e-01 2.783906250000e+02-6.628739129820e-01 7.034621591654e-07
    -1.071473202588e-10                    1.072000000000e+03                   
     0.000000000000e+00 0.000000000000e+00 1.350417733192e-08 1.350417733192e-08
     2.105340000000e+05 1.000000000000e+00                                      
C35 2026 07 21 10 28 54-4.782178439200e-04-1.597300069989e-11 0.000000000000e+00
     1.000000000000e+00 1.009375000000e+01 4.378396663510e-09-5.081559909653e-01
     5.466863512993e-07 8.109206100926e-04 3.785360604525e-06 5.282618713379e+03
     2.088000000000e+05-1.071020960808e-08 3.480422404420e-02 3.429735079408e-05
     9.437477107888e-01 2.770156250000e+02 8.869912028353e-01-1.965403295508e-06
    -1.414344627416e-10                    1.072000000000e+03                   
     0.000000000000e+00 0.000000000000e+00-1.257285475731e-08-1.257285475731e-08
     2.105340000000e+05 1.000000000000e+00                                      
C36 2026 07 21 10 28 54 2.595708938316e-04-4.316547119743e-12 0.000000000000e+00
     1.000000000000e+00 7.937500000000e+00 3.982665894021e-09-2.005987403096e+00
     4.461035132408e-07 8.149804780260e-04 9.412411600351e-06 5.282655750275e+03
     2.088000000000e+05-4.656612873077e-10-2.018625833263e+00 4.414888098836e-05
     9.451394505890e-01 1.634375000000e+02-1.025308603350e+00 9.214562394939e-08
    -3.714440435639e-11                    1.072000000000e+03                   
     0.000000000000e+00 0.000000000000e+00-9.639188647270e-08-9.639188647270e-08
     2.105340000000e+05 1.000000000000e+00                                      
C26 2026 07 21 10 28 54-6.724677514285e-04-5.570655048359e-12 0.000000000000e+00
     1.000000000000e+00 1.592187500000e+01 4.055883229531e-09 9.379059658339e-01
     5.918554961681e-07 9.379084222019e-04 9.368173778057e-06 5.282658725739e+03
     2.088000000000e+05 3.539025783539e-08-2.040543279241e+00 4.078308120370e-05
     9.453576448205e-01 1.619687500000e+02 7.290609804305e-01 2.654492355976e-06
    -1.142904749427e-10                    1.072000000000e+03                   
     0.000000000000e+00 0.000000000000e+00-2.328306436539e-08-2.328306436539e-08
     2.105340000000e+05 1.000000000000e+00                                      
C30 2026 07 21 10 28 54 4.928457783535e-04 7.467804152839e-12 0.000000000000e+00
     1.000000000000e+00 1.957812500000e+01 4.425184326689e-09 9.906994872274e-01
     1.045409590006e-06 4.694041563198e-04 3.477092832327e-06 5.282646955490e+03
     2.088000000000e+05 9.778887033463e-09 3.466977163229e-02 2.225162461400e-05
     9.455180172149e-01 2.827500000000e+02 9.797018908476e-01-2.096608760742e-06
    -5.607376426879e-11                    1.072000000000e+03                   
     0.000000000000e+00 0.000000000000e+00-4.516914486885e-08-4.516914486885e-08
     2.105340000000e+05 1.000000000000e+00                                      
E10 2026 07 21 10 30 54-8.074383367784e-04-2.629008122312e-12 0.000000000000e+00
     9.500000000000e+01-4.025000000000e+01 2.601894093618e-09-2.257878758833e+00
    -1.927837729454e-06 2.867397852242e-04 5.789101123810e-06 5.440605157852e+03
     2.094000000000e+05-7.078051567078e-08 7.679947413322e-01-7.823109626770e-08
     9.974636283638e-01 2.318125000000e+02 2.328548502786e+00-5.452369970237e-09
    -2.139374827835e-10 5.160000000000e+02 1.404000000000e+03                   
     1.070000000000e+02 0.000000000000e+00-1.164153218269e-09-2.328306436539e-10
     2.106540000000e+05                                                         
E31 2026 07 21 10 30 54-1.581353717484e-04-2.955857780762e-12 0.000000000000e+00
     9.500000000000e+01 8.231250000000e+01 3.059413151124e-09-2.301814366848e+00
     3.995373845100e-06 3.417887492105e-04 8.905306458473e-06 5.440615400314e+03
     2.094000000000e+05 9.313225746155e-09-1.329242127219e+00-3.725290298462e-09
     9.605983356107e-01 1.496562500000e+02-1.403315572446e+00-5.507729419038e-09
     1.039329006511e-10 5.160000000000e+02 1.404000000000e+03                   
     1.070000000000e+02 0.000000000000e+00 3.492459654808e-09 4.190951585770e-09
     2.106540000000e+05                                                         
E16 2026 07 21 10 30 54-4.648818867281e-05-2.472688720445e-12 0.000000000000e+00
     9.500000000000e+01 8.615625000000e+01 3.015125592083e-09-2.057519426823e+00
     4.004687070847e-06 4.925248213112e-04 8.478760719299e-06 5.440619600296e+03
     2.094000000000e+05 9.313225746155e-09-1.332479143608e+00 3.725290298462e-09
     9.625730468025e-01 1.555312500000e+02-2.475572210091e+00-5.514515415988e-09
     7.857470152314e-11 5.160000000000e+02 1.404000000000e+03                   
     1.070000000000e+02 0.000000000000e+00-3.725290298462e-09-2.328306436539e-09
     2.106540000000e+05                                                         
G13 2026 07 21 10 32 00 4.184397403151e-04 5.229594535194e-12 8.673617379884e-19
     4.562377929688e-03 4.561328125000e+01 4.458221417103e-09 2.657256497513e-01
     2.283602952957e-06 2.268318727147e-03 8.784234523773e-06 5.153633150734e+03
     1.647000000000e+05-3.725290298462e-09-1.575934714635e+00-1.955777406693e-08
     9.588254551803e-01 2.099062500000e+02 1.820784640429e+00-8.351541395843e-09
     1.660783464012e-11 4.458221417103e-09-2.000000000000e+00 2.000000000000e+00
     3.000000000000e+01 7.000000000000e+00-8.381903171539e-09 7.000000000000e+00
    -1.164153218269e-10 5.267793312669e-09 1.658918336034e-09 1.949956640601e-09
     2.107200000000e+05 2.428000000000e+03 0.000000000000e+00                   
E31 2026 07 21 10 33 05-1.581373508088e-04-2.970068635477e-12 0.000000000000e+00
     9.600000000000e+01 8.171875000000e+01 3.060841782060e-09-2.228184288202e+00
     3.965571522713e-06 3.417965490371e-04 9.013339877129e-06 5.440614883423e+03
     2.100000000000e+05 1.490116119385e-08-1.329245445117e+00-1.862645149231e-09
     9.605984204600e-01 1.476250000000e+02-1.402560594073e+00-5.503800683962e-09
     1.035757429169e-10 1.000000000000e+00 1.404000000000e+03                   
     1.070000000000e+02 0.000000000000e+00 3.492459654808e-09 4.190951585770e-09
     2.107850000000e+05                                                         
E12 2026 07 21 10 33 35-5.901011172682e-05-2.600586412882e-12 0.000000000000e+00
     9.500000000000e+01-4.771875000000e+01 2.700826785991e-09-4.231112028856e-01
    -2.194195985794e-06 3.192125586793e-04 5.677342414856e-06 5.440607519150e+03
     2.094000000000e+05 1.303851604462e-08 7.694633838099e-01-1.043081283569e-07
     9.945584091098e-01 2.321562500000e+02 8.618121883140e-01-5.518086993329e-09
    -2.003654888840e-10 1.000000000000e+00 1.404000000000e+03                   
     1.070000000000e+02 0.000000000000e+00-1.187436282635e-08-1.164153218269e-08
     2.108150000000e+05                                                         
E11 2026 07 21 10 33 35 5.517843528651e-03 6.752998160664e-11-3.469446951954e-18
     9.200000000000e+01-4.434375000000e+01 2.638681340241e-09-1.931308183972e+00
    -2.140179276466e-06 4.167810548097e-04 6.133690476418e-06 5.440609558105e+03
     2.076000000000e+05-5.029141902924e-08 7.694637115036e-01 1.117587089539e-08
     9.945469295916e-01 2.250312500000e+02 1.350049069157e+00-5.415225565881e-09
    -2.003654888840e-10 1.000000000000e+00 1.404000000000e+03                   
     1.070000000000e+02 0.000000000000e+00-1.466833055019e-08-1.583248376846e-08
     2.108150000000e+05                                                         
E16 2026 07 21 10 33 35-4.648976027966e-05-2.472688720445e-12 0.000000000000e+00
     9.600000000000e+01 8.443750000000e+01 3.004053702323e-09-1.982710376646e+00
     3.952533006668e-06 4.925740649924e-04 8.465722203255e-06 5.440620019913e+03
     2.100000000000e+05 9.313225746155e-09-1.332482449802e+00 3.725290298462e-09
     9.625730936159e-01 1.559062500000e+02-2.475996013070e+00-5.514515415988e-09
     7.857470152314e-11 1.000000000000e+00 1.404000000000e+03                   
     1.070000000000e+02 0.000000000000e+00-3.725290298462e-09-2.328306436539e-09
     2.108150000000e+05                                                         
E10 2026 07 21 10 33 35-8.074400830083e-04-2.643218977028e-12 0.000000000000e+00
     9.600000000000e+01-4.093750000000e+01 2.610823036973e-09-2.183788171131e+00
    -1.950189471245e-06 2.867415314540e-04 5.792826414108e-06 5.440604991913e+03
     2.100000000000e+05-5.960464477539e-08 7.679914600070e-01-9.126961231232e-08
     9.974634308699e-01 2.317500000000e+02 2.328843229577e+00-5.460941755858e-09
    -2.067943280995e-10 1.000000000000e+00 1.404000000000e+03                   
     1.070000000000e+02 0.000000000000e+00-1.164153218269e-09-2.328306436539e-10
     2.108150000000e+05                                                         
G11 2026 07 21 10 33 36-2.678104792722e-04 1.223909862347e-11 0.000000000000e+00
    -9.360313415527e-04-2.354687500000e+01 4.523759861328e-09-3.067374537467e+00
    -1.215375959873e-06 2.486338082235e-03 5.622394382954e-06 5.153570937345e+03
     1.872000000000e+05-3.073364496231e-08 5.993054630438e-01-1.108273863792e-07
     9.627631054621e-01 2.717890625000e+02-2.355419437657e+00-8.195820623734e-09
    -1.960795960737e-10 4.523759861328e-09-2.000000000000e+00 3.000000000000e+00
     2.800000000000e+01 4.000000000000e+00-8.847564458847e-09 7.000000000000e+00
    -2.037268131971e-10 5.675246939063e-09 3.783497959375e-10 2.328306436539e-10
     2.108160000000e+05 2.428000000000e+03 0.000000000000e+00                   
G24 2026 07 21 10 33 36 1.224652514793e-04 1.861266696324e-11 0.000000000000e+00
     3.237724304199e-04-3.702734375000e+01 4.960206612515e-09 2.151533203994e+00
    -1.907348632812e-06 1.843404141255e-02 7.623806595802e-06 5.153591472595e+03
     1.980000000000e+05 5.774199962616e-08-2.697239305266e+00-3.175809979439e-07
     9.355030438911e-01 2.200507812500e+02 1.162171590460e+00-8.262251962294e-09
    -1.050043738536e-10 4.960206612515e-09-2.000000000000e+00 2.000000000000e+00
     2.800000000000e+01 4.000000000000e+00 2.328306436539e-09 7.000000000000e+00
     2.910383045673e-11-1.426087692380e-09 1.484295353293e-09 2.764863893390e-09
     2.108160000000e+05 2.428000000000e+03 0.000000000000e+00                   
G06 2026 07 21 10 33 36-5.692653940059e-04 7.975842208907e-12 0.000000000000e+00
    -7.128715515137e-03-1.784765625000e+01 4.109635468527e-09 1.982657061328e+00
    -8.838251233101e-07 3.696886647958e-03 5.481764674187e-06 5.153499173991e+03
     1.845000000000e+05 1.052394509315e-07 5.836211130877e-01-1.303851604462e-08
     9.858719241286e-01 2.858281250000e+02-5.461467665764e-01-8.395114639415e-09
    -2.101873265744e-10 4.109635468527e-09-2.000000000000e+00 3.000000000000e+00
     2.900000000000e+01 4.000000000000e+00 3.725290298462e-09 7.000000000000e+00
     3.201421350241e-10-3.929017111659e-09 1.775333657861e-09 2.211891114712e-09
     2.108160000000e+05 2.428000000000e+03 0.000000000000e+00                   
END OF FILE                                                 COMMENT
