     3.05           N: NAVIGATION       M: MIXED            RINEX VERSION / TYPE
PYRINEXCONV 0.1.2 ALDELTUNES            20260721 101317 UTC PGM / RUN BY / DATE
GPSA   1.1176e-08  2.2352e-08  1.5199e-05  1.5140e-05 K 11  IONOSPHERIC CORR
GPSB   1.0650e+05  1.4746e+05  1.6712e+07  1.6450e+07 K 11  IONOSPHERIC CORR
GAL    1.0175e+02  3.3203e-01  2.2858e-02             K 11  IONOSPHERIC CORR
BDSA   2.1420e-08  5.9605e-08 -7.7486e-07  1.2517e-06 K 26  IONOSPHERIC CORR
BDSB   1.4131e+05 -7.0451e+05  5.6361e+06 -4.6531e+06 K 26  IONOSPHERIC CORR
GPUT  1.1350493878e-09-8.557599074e-13 428700 2428   G11  0 TIME SYSTEM CORR
GAUT  6.5192580223e-09-2.664535259e-15 207600 1404   E11  0 TIME SYSTEM CORR
BDUT  0.0000000000e+00 0.000000000e+00 208800 1072   C26  0 TIME SYSTEM CORR
                                                            END OF HEADER
G06 2026 07 21 10 03 54-5.692509002984e-04 7.958078640513e-12 0.000000000000e+00
     1.800000000000e+01-2.809375000000e+01 4.137315192927e-09 2.245621032615e+00
    -1.301988959312e-06 3.694797749631e-03 5.392357707024e-06 5.153722442627e+03
     2.160000000000e+05 1.192092895508e-07 5.836067018817e-01 2.235174179077e-08
     9.858715825372e-01 2.878437500000e+02-5.465688886624e-01-7.944973797192e-09
    -1.864363372504e-10 1.000000000000e+00 3.800000000000e+02 0.000000000000e+00
     2.000000000000e+00 0.000000000000e+00 3.725290298462e-09 1.800000000000e+01
     8.361360000000e+05 4.000000000000e+00                                      
G14 2026 07 21 10 03 54 7.499819621444e-04 2.273736754432e-13 0.000000000000e+00
     2.310000000000e+02 3.900000000000e+01 4.873060125371e-09 5.507265106212e-01
     2.102926373482e-06 7.364687393419e-03 9.117648005486e-06 5.153657560349e+03
     2.160000000000e+05-7.450580596924e-09-1.524335562718e+00 2.086162567139e-07
     9.416392830329e-01 1.950000000000e+02-2.680648863351e+00-8.170697485204e-09
    -3.214419607765e-12 1.000000000000e+00 3.800000000000e+02 0.000000000000e+00
     2.000000000000e+00 0.000000000000e+00-7.916241884232e-09 9.990000000000e+02
     8.361360000000e+05 4.000000000000e+00                                      
G11 2026 07 21 10 03 54-2.677883021533e-04 1.227817847393e-11 0.000000000000e+00
     6.800000000000e+01-2.675000000000e+01 4.559118477013e-09-2.804708465308e+00
    -1.342967152596e-06 2.486749202944e-03 5.591660737991e-06 5.153651065826e+03
     2.160000000000e+05 3.166496753693e-08 5.992905602973e-01-1.396983861923e-07
     9.627627141315e-01 2.712500000000e+02-2.355535992729e+00-8.172126116141e-09
    -1.628639267934e-10 1.000000000000e+00 3.800000000000e+02 0.000000000000e+00
     2.000000000000e+00 0.000000000000e+00-8.847564458847e-09 8.360000000000e+02
     8.361360000000e+05 4.000000000000e+00                                      
C29 2026 07 21 10 04 54 6.338543025777e-04 5.135447622706e-12 0.000000000000e+00
     1.000000000000e+00 1.521875000000e+01 4.349109729306e-09-9.110447593682e-01
     8.149072527885e-07 2.195158740506e-04 3.830529749393e-06 5.282659032822e+03
     2.088000000000e+05 9.220093488693e-08 3.420547946980e-02 2.021994441748e-05
     9.455621198063e-01 2.746562500000e+02 2.110871622002e+00-2.550433378645e-06
    -1.310768884500e-10                    1.072000000000e+03                   
     0.000000000000e+00 0.000000000000e+00 9.313225746155e-10 9.313225746155e-10
     2.090940000000e+05 1.000000000000e+00                                      
C39 2026 07 21 10 04 54-9.575803996995e-04 8.823164421301e-12 0.000000000000e+00
     1.000000000000e+00 1.242187500000e+01 3.910162873979e-09 2.444445175468e+00
     6.249174475670e-07 5.720010958612e-04 9.388197213411e-06 5.282662654877e+03
     2.088000000000e+05 1.350417733192e-08-2.011522527736e+00 5.819834768772e-05
     9.490804787486e-01 1.627031250000e+02 5.901150839762e-02 1.033624840338e-06
    -5.464513333200e-11                    1.072000000000e+03                   
     0.000000000000e+00 0.000000000000e+00 8.987262845039e-08 8.987262845039e-08
     2.090940000000e+05 1.000000000000e+00                                      
C11 2026 07 21 10 04 54-7.892216090113e-04-2.153743849931e-11 0.000000000000e+00
     1.000000000000e+00 1.068750000000e+01 4.286249968087e-09 2.181656967204e+00
     6.291083991528e-07 1.700917491689e-04 3.776513040066e-06 5.282641948700e+03
     2.088000000000e+05 1.024454832077e-07 7.435111731962e-02 3.341073170304e-05
     9.504506200262e-01 2.783906250000e+02-6.628739129820e-01 7.034621591654e-07
    -1.071473202588e-10                    1.072000000000e+03                   
     0.000000000000e+00 0.000000000000e+00 1.350417733192e-08 1.350417733192e-08
     2.090940000000e+05 1.000000000000e+00                                      
C35 2026 07 21 10 04 54-4.782178439200e-04-1.597300069989e-11 0.000000000000e+00
     1.000000000000e+00 1.009375000000e+01 4.378396663510e-09-5.081559909653e-01
     5.466863512993e-07 8.109206100926e-04 3.785360604525e-06 5.282618713379e+03
     2.088000000000e+05-1.071020960808e-08 3.480422404420e-02 3.429735079408e-05
     9.437477107888e-01 2.770156250000e+02 8.869912028353e-01-1.965403295508e-06
    -1.414344627416e-10                    1.072000000000e+03                   
     0.000000000000e+00 0.000000000000e+00-1.257285475731e-08-1.257285475731e-08
     2.090940000000e+05 1.000000000000e+00                                      
C30 2026 07 21 10 04 54 4.928457783535e-04 7.467804152839e-12 0.000000000000e+00
     1.000000000000e+00 1.957812500000e+01 4.425184326689e-09 9.906994872274e-01
     1.045409590006e-06 4.694041563198e-04 3.477092832327e-06 5.282646955490e+03
     2.088000000000e+05 9.778887033463e-09 3.466977163229e-02 2.225162461400e-05
     9.455180172149e-01 2.827500000000e+02 9.797018908476e-01-2.096608760742e-06
    -5.607376426879e-11                    1.072000000000e+03                   
     0.000000000000e+00 0.000000000000e+00-4.516914486885e-08-4.516914486885e-08
     2.090940000000e+05 1.000000000000e+00                                      
C26 2026 07 21 10 04 54-6.724677514285e-04-5.570655048359e-12 0.000000000000e+00
     1.000000000000e+00 1.592187500000e+01 4.055883229531e-09 9.379059658339e-01
     5.918554961681e-07 9.379084222019e-04 9.368173778057e-06 5.282658725739e+03
     2.088000000000e+05 3.539025783539e-08-2.040543279241e+00 4.078308120370e-05
     9.453576448205e-01 1.619687500000e+02 7.290609804305e-01 2.654492355976e-06
    -1.142904749427e-10                    1.072000000000e+03                   
     0.000000000000e+00 0.000000000000e+00-2.328306436539e-08-2.328306436539e-08
     2.090940000000e+05 1.000000000000e+00                                      
E31 2026 07 21 10 08 05-1.581317046657e-04-2.955857780762e-12 0.000000000000e+00
     9.300000000000e+01 8.250000000000e+01 3.058698835655e-09-2.449247106047e+00
     4.006549715996e-06 3.417236730456e-04 8.702278137207e-06 5.440616317749e+03
     2.082000000000e+05 0.000000000000e+00-1.329235476793e+00-5.587935447693e-09
     9.605981703010e-01 1.533750000000e+02-1.404652937044e+00-5.514872573722e-09
     1.042900583853e-10 1.000000000000e+00 1.404000000000e+03                   
     1.070000000000e+02 0.000000000000e+00 3.492459654808e-09 4.190951585770e-09
     2.092850000000e+05                                                         
E12 2026 07 21 10 10 54-5.900685209781e-05-2.600586412882e-12 0.000000000000e+00
     9.300000000000e+01-4.415625000000e+01 2.675825744597e-09-5.721360592377e-01
    -2.056360244751e-06 3.196983598173e-04 5.748122930527e-06 5.440608488083e+03
     2.082000000000e+05-2.048909664154e-08 7.694700488647e-01-1.043081283569e-07
     9.945587953202e-01 2.302812500000e+02 8.620668267607e-01-5.505586472633e-09
    -2.178662178596e-10 5.160000000000e+02 1.404000000000e+03                   
     1.070000000000e+02 0.000000000000e+00-1.187436282635e-08-1.164153218269e-08
     2.094540000000e+05                                                         
G06 2026 07 21 10 11 12-5.692653940059e-04 7.975842208907e-12 0.000000000000e+00
    -7.128715515137e-03-1.784765625000e+01 4.109635468527e-09 1.982657061328e+00
    -8.838251233101e-07 3.696886647958e-03 5.481764674187e-06 5.153499173991e+03
     1.845000000000e+05 1.052394509315e-07 5.836211130877e-01-1.303851604462e-08
     9.858719241286e-01 2.858281250000e+02-5.461467665764e-01-8.395114639415e-09
    -2.101873265744e-10 4.109635468527e-09-2.000000000000e+00 3.000000000000e+00
     2.900000000000e+01 4.000000000000e+00 3.725290298462e-09 7.000000000000e+00
     3.201421350241e-10-3.929017111659e-09 1.775333657861e-09 2.211891114712e-09
     2.094720000000e+05 2.428000000000e+03 0.000000000000e+00                   
G24 2026 07 21 10 11 12 1.224652514793e-04 1.861266696324e-11 0.000000000000e+00
     3.237724304199e-04-3.702734375000e+01 4.960206612515e-09 2.151533203994e+00
    -1.907348632812e-06 1.843404141255e-02 7.623806595802e-06 5.153591472595e+03
     1.980000000000e+05 5.774199962616e-08-2.697239305266e+00-3.175809979439e-07
     9.355030438911e-01 2.200507812500e+02 1.162171590460e+00-8.262251962294e-09
    -1.050043738536e-10 4.960206612515e-09-2.000000000000e+00 2.000000000000e+00
     2.800000000000e+01 4.000000000000e+00 2.328306436539e-09 7.000000000000e+00
     2.910383045673e-11-1.426087692380e-09 1.484295353293e-09 2.764863893390e-09
     2.094720000000e+05 2.428000000000e+03 0.000000000000e+00                   
E33 2026 07 21 10 12 05-2.519506961107e-05-1.946887095983e-12 0.000000000000e+00
     8.600000000000e+01-5.178125000000e+01 2.673325640458e-09-2.678856425900e+00
    -2.324581146240e-06 1.662023132667e-04 5.647540092468e-06 5.440606731415e+03
     2.040000000000e+05 5.587935447693e-08 7.699541489380e-01-8.754432201385e-08
     9.976651175338e-01 2.334062500000e+02-3.021928220766e+00-5.507015103569e-09
    -2.207234797332e-10 1.000000000000e+00 1.404000000000e+03                   
     1.070000000000e+02 0.000000000000e+00-4.423782229424e-09-4.889443516731e-09
     2.095250000000e+05                                                         
G11 2026 07 21 10 12 48-2.678104792722e-04 1.223909862347e-11 0.000000000000e+00
    -9.360313415527e-04-2.354687500000e+01 4.523759861328e-09-3.067374537467e+00
    -1.215375959873e-06 2.486338082235e-03 5.622394382954e-06 5.153570937345e+03
     1.872000000000e+05-3.073364496231e-08 5.993054630438e-01-1.108273863792e-07
     9.627631054621e-01 2.717890625000e+02-2.355419437657e+00-8.195820623734e-09
    -1.960795960737e-10 4.523759861328e-09-2.000000000000e+00 3.000000000000e+00
     2.800000000000e+01 4.000000000000e+00-8.847564458847e-09 7.000000000000e+00
    -2.037268131971e-10 5.675246939063e-09 3.783497959375e-10 2.328306436539e-10
     2.095680000000e+05 2.428000000000e+03 0.000000000000e+00                   
E16 2026 07 21 10 13 24-4.647969035432e-05-2.486899575160e-12 0.000000000000e+00
     8.900000000000e+01 9.781250000000e+01 3.090485873999e-09-2.506894661311e+00
     4.362314939499e-06 4.925836110488e-04 8.363276720047e-06 5.440616605759e+03
     2.058000000000e+05 5.587935447693e-09-1.332459325456e+00 3.725290298462e-09
     9.625727512931e-01 1.593437500000e+02-2.472509234140e+00-5.512729627317e-09
     8.107480566251e-11 5.160000000000e+02 1.404000000000e+03                   
     1.070000000000e+02 0.000000000000e+00-3.725290298462e-09-2.328306436539e-09
     2.096040000000e+05                                                         
E10 2026 07 21 10 13 24-8.074251818471e-04-2.600586412882e-12 0.000000000000e+00
     8.700000000000e+01-4.515625000000e+01 2.576893052225e-09-2.856180244606e+00
    -2.223998308182e-06 2.871559699997e-04 6.128102540970e-06 5.440603137970e+03
     2.046000000000e+05-6.146728992462e-08 7.680206642406e-01 7.450580596924e-09
     9.974651600391e-01 2.255937500000e+02 2.331766037495e+00-5.393796101829e-09
    -2.400099973798e-10 5.160000000000e+02 1.404000000000e+03                   
     1.070000000000e+02 0.000000000000e+00-1.164153218269e-09-2.328306436539e-10
     2.096040000000e+05                                                         
E11 2026 07 21 10 13 24 5.517843528651e-03 6.752998160664e-11-3.469446951954e-18
     9.200000000000e+01-4.434375000000e+01 2.638681340241e-09-1.931308183972e+00
    -2.140179276466e-06 4.167810548097e-04 6.133690476418e-06 5.440609558105e+03
     2.076000000000e+05-5.029141902924e-08 7.694637115036e-01 1.117587089539e-08
     9.945469295916e-01 2.250312500000e+02 1.350049069157e+00-5.415225565881e-09
    -2.003654888840e-10 5.160000000000e+02 1.404000000000e+03                   
     1.070000000000e+02 0.000000000000e+00-1.466833055019e-08-1.583248376846e-08
     2.096040000000e+05                                                         
E12 2026 07 21 10 13 24-5.900842370465e-05-2.600586412882e-12 0.000000000000e+00
     9.400000000000e+01-4.587500000000e+01 2.687969107560e-09-4.976628233685e-01
    -2.121552824974e-06 3.194720484316e-04 5.722045898438e-06 5.440608039856e+03
     2.088000000000e+05-3.725290298462e-09 7.694667207261e-01-1.061707735062e-07
     9.945585992892e-01 2.310000000000e+02 8.619787005756e-01-5.512015311848e-09
    -2.092944322389e-10 5.160000000000e+02 1.404000000000e+03                   
     1.070000000000e+02 0.000000000000e+00-1.187436282635e-08-1.164153218269e-08
     2.096040000000e+05                                                         
E31 2026 07 21 10 13 24-1.581335673109e-04-2.955857780762e-12 0.000000000000e+00
     9.400000000000e+01 8.253125000000e+01 3.058698835655e-09-2.375489408280e+00
     4.008412361145e-06 3.417626721784e-04 8.800998330116e-06 5.440615884781e+03
     2.088000000000e+05 5.587935447693e-09-1.329238803469e+00-5.587935447693e-09
     9.605982522244e-01 1.515937500000e+02-1.404025580718e+00-5.511300996380e-09
     1.042900583853e-10 5.160000000000e+02 1.404000000000e+03                   
     1.070000000000e+02 0.000000000000e+00 3.492459654808e-09 4.190951585770e-09
     2.096040000000e+05                                                         
END OF FILE                                                 COMMENT
