     3.05           N: NAVIGATION       M: MIXED            RINEX VERSION / TYPE
PYRINEXCONV 0.1.2 ALDELTUNES            20260720 235951 UTC PGM / RUN BY / DATE
GAL    1.0300e+02  3.0469e-01  2.1057e-02             A 33  IONOSPHERIC CORR
GPSA   9.3132e-09  2.2352e-08  1.5199e-05  1.5140e-05 X 01  IONOSPHERIC CORR
GPSB   1.0035e+05  1.3107e+05  1.6712e+07  1.6318e+07 X 01  IONOSPHERIC CORR
BDSA   1.9558e-08  2.9802e-08 -5.9605e-07  1.0133e-06 X 37  IONOSPHERIC CORR
BDSB   1.4131e+05 -7.5366e+05  5.9638e+06 -4.9152e+06 X 37  IONOSPHERIC CORR
GAUT  7.4505805969e-09-2.664535259e-15 171600 1404   E33  0 TIME SYSTEM CORR
GPUT -3.6088749766e-09 1.702193941e-12 342000 2428   G01  0 TIME SYSTEM CORR
BDUT  0.0000000000e+00 0.000000000e+00 169200 1072   C37  0 TIME SYSTEM CORR
                                                            END OF HEADER
E29 2026 07 20 23 50 54-2.271328121424e-04-3.623767952377e-12 0.000000000000e+00
     3.100000000000e+01-4.246875000000e+01 3.453000974208e-09 5.784389496183e-02
    -1.991167664528e-06 2.006753347814e-04 5.556270480156e-06 5.440610511780e+03
     1.710000000000e+05 1.862645149231e-09 2.852218658059e+00 2.048909664154e-08
     9.627372695973e-01 2.195625000000e+02 1.415909342650e+00-5.756668359772e-09
     2.053656971627e-10 5.160000000000e+02 1.404000000000e+03                   
     1.070000000000e+02 0.000000000000e+00-3.259629011154e-09-3.026798367500e-09
     1.722540000000e+05                                                         
E26 2026 07 20 23 50 54 3.673008177429e-04 1.082867129298e-11 0.000000000000e+00
     3.100000000000e+01-6.321875000000e+01 2.465459839156e-09-1.466214121475e-01
    -2.823770046234e-06 9.220628999174e-05 7.174909114838e-06 5.440603017807e+03
     1.710000000000e+05 7.450580596924e-09 7.666941266992e-01 1.043081283569e-07
     9.909374220754e-01 1.994687500000e+02-2.591812778240e+00-5.442726711414e-09
    -1.960795960737e-10 5.160000000000e+02 1.404000000000e+03                   
     1.070000000000e+02 0.000000000000e+00-4.889443516731e-09-5.355104804039e-09
     1.722540000000e+05                                                         
E33 2026 07 20 23 50 54-2.513040089980e-05-1.989519660128e-12 0.000000000000e+00
     3.100000000000e+01-6.984375000000e+01 2.432601327610e-09-4.827619582076e-01
    -3.198161721230e-06 1.663656439632e-04 6.921589374542e-06 5.440605134964e+03
     1.710000000000e+05 8.195638656616e-08 7.701326863862e-01 2.235174179077e-08
     9.976740588891e-01 2.083750000000e+02-3.026025580740e+00-5.476299538429e-09
    -1.842933908452e-10 5.160000000000e+02 1.404000000000e+03                   
     1.070000000000e+02 0.000000000000e+00-4.190951585770e-09-4.656612873077e-09
     1.722540000000e+05                                                         
E27 2026 07 20 23 50 54-1.049687853083e-03-1.061550847226e-11 0.000000000000e+00
     3.100000000000e+01 1.170000000000e+02 3.190847197308e-09 1.048181345075e+00
     5.412846803665e-06 2.439275849611e-04 8.620321750641e-06 5.440618457794e+03
     1.710000000000e+05 1.676380634308e-08-1.328987202040e+00-1.676380634308e-08
     9.605922030581e-01 1.503750000000e+02-8.731192138113e-01-5.617734001170e-09
    -5.571660653459e-11 5.160000000000e+02 1.404000000000e+03                   
     1.070000000000e+02 0.000000000000e+00 6.984919309616e-10 9.313225746155e-10
     1.722540000000e+05                                                         
G26 2026 07 20 23 51 24-3.840886056423e-04-2.501110429876e-12 0.000000000000e+00
     8.100000000000e+01 5.143750000000e+01 5.349508542789e-09-2.897121153982e-01
     2.676621079445e-06 1.116570027079e-02 9.324401617050e-06 5.153581596375e+03
     1.728000000000e+05 9.313225746155e-09-1.639710070197e+00 1.341104507446e-07
     9.274900724958e-01 1.798125000000e+02 7.148310607029e-01-8.559999415478e-09
    -1.735786588193e-10 1.000000000000e+00 3.800000000000e+02 0.000000000000e+00
     2.000000000000e+00 0.000000000000e+00 6.519258022308e-09 8.100000000000e+01
     6.891360000000e+05 4.000000000000e+00                                      
G31 2026 07 20 23 51 24-1.341179013252e-04 2.728484105319e-12 0.000000000000e+00
     4.400000000000e+01-2.543750000000e+01 4.918776315348e-09 3.371780548765e-01
    -1.119449734688e-06 1.091442990582e-02 8.637085556984e-06 5.153631544113e+03
     1.728000000000e+05-4.656612873077e-08-2.561082422631e+00 9.685754776001e-08
     9.550197725440e-01 2.106562500000e+02 9.764782499186e-01-8.298917111780e-09
    -2.953694461802e-10 1.000000000000e+00 3.800000000000e+02 0.000000000000e+00
     2.000000000000e+00 0.000000000000e+00-1.350417733192e-08 4.400000000000e+01
     6.891360000000e+05 4.000000000000e+00                                      
G03 2026 07 20 23 51 24 3.643161617219e-04-1.887201506179e-11 0.000000000000e+00
     3.800000000000e+01-2.650000000000e+01 3.571934499695e-09 9.220084394552e-01
    -1.473352313042e-06 6.975050549954e-03 8.925795555115e-06 5.153768224716e+03
     1.727840000000e+05-7.450580596924e-08 1.621844139267e+00 1.303851604462e-08
     9.947579043224e-01 2.238750000000e+02 1.276513170252e+00-7.735322207219e-09
     2.585821995580e-10 1.000000000000e+00 3.800000000000e+02 0.000000000000e+00
     2.000000000000e+00 0.000000000000e+00 1.396983861923e-09 3.800000000000e+01
     6.891360000000e+05 4.000000000000e+00                                      
G28 2026 07 20 23 51 24-4.659704864025e-04 1.091393642128e-11 0.000000000000e+00
     9.400000000000e+01-3.040625000000e+01 4.736268713174e-09 2.093372286638e+00
    -1.404434442520e-06 5.173209356144e-04 8.644536137581e-06 5.153621377945e+03
     1.728000000000e+05 1.061707735062e-07-2.610053545355e+00 7.636845111847e-08
     9.622432289957e-01 2.130312500000e+02-3.117452708818e-01-8.068907530958e-09
    -1.967939115420e-10 1.000000000000e+00 3.800000000000e+02 0.000000000000e+00
     2.000000000000e+00 0.000000000000e+00-9.313225746155e-09 3.500000000000e+02
     6.891360000000e+05 4.000000000000e+00                                      
G01 2026 07 20 23 51 24 2.172910608351e-04-9.663381206337e-12 0.000000000000e+00
     2.140000000000e+02-3.896875000000e+01 4.440899266994e-09 3.023574912077e+00
    -1.963227987289e-06 1.825405866839e-03 6.137415766716e-06 5.153603368759e+03
     1.728000000000e+05 2.980232238770e-08 6.294874467360e-01 7.450580596924e-09
     9.571188654197e-01 2.592500000000e+02 1.953673888531e-01-8.208199047294e-09
    -1.607209803882e-10 1.000000000000e+00 3.800000000000e+02 0.000000000000e+00
     2.000000000000e+00 0.000000000000e+00-8.847564458847e-09 7.260000000000e+02
     6.891360000000e+05 4.000000000000e+00                                      
C32 2026 07 20 23 52 54-9.033475071192e-04 1.912248137614e-12 0.000000000000e+00
     1.000000000000e+00-1.401562500000e+01 3.381926585103e-09 1.584489422882e+00
    -8.521601557732e-07 5.076674278826e-04 7.350929081440e-06 5.282630786896e+03
     1.692000000000e+05 5.774199962616e-08 2.177693411569e+00-5.939975380898e-06
     9.887576039173e-01 2.250312500000e+02-4.962554157157e-02-5.456866586111e-07
     4.364467511876e-10                    1.072000000000e+03                   
     0.000000000000e+00 0.000000000000e+00-3.818422555923e-08-3.818422555923e-08
     1.723740000000e+05 1.000000000000e+00                                      
C25 2026 07 20 23 52 54 8.136995602399e-04-9.107381515605e-12 0.000000000000e+00
     1.000000000000e+00 1.839062500000e+01 4.185531487044e-09 3.842627637551e-01
     1.010484993458e-06 5.762433866039e-04 1.037493348122e-05 5.282667985916e+03
     1.692000000000e+05 7.962808012962e-08-2.040907958386e+00 1.375516876578e-05
     9.453155990920e-01 1.392812500000e+02 6.206429717224e-01 2.297997506534e-06
    -2.632252501025e-10                    1.072000000000e+03                   
     0.000000000000e+00 0.000000000000e+00 1.862645149231e-09 1.862645149231e-09
     1.723740000000e+05 1.000000000000e+00                                      
C37 2026 07 20 23 52 54-9.074212284759e-04 6.928679852081e-12 0.000000000000e+00
     1.000000000000e+00 9.046875000000e+00 4.150887186827e-09-1.422261259805e-01
     4.144385457039e-07 7.128050783649e-04 1.087039709091e-05 5.282669389725e+03
     1.692000000000e+05-1.396983861923e-08-2.018489607794e+00 3.954349085689e-05
     9.451590800237e-01 1.331875000000e+02-3.738885665081e-01 2.237625348935e-07
    -2.567964108870e-10                    1.072000000000e+03                   
     0.000000000000e+00 0.000000000000e+00-7.823109626770e-08-7.823109626770e-08
     1.723740000000e+05 1.000000000000e+00                                      
G28 2026 07 20 23 56 48-4.659901314881e-04 1.087130385713e-11 0.000000000000e+00
     4.796981811523e-04-3.102343750000e+01 4.722696719275e-09 1.830788510936e+00
    -1.540407538414e-06 5.171363591217e-04 8.629634976387e-06 5.153601217573e+03
     1.107000000000e+05 1.061707735062e-07-2.610038813039e+00 1.862645149231e-09
     9.622435991140e-01 2.124648437500e+02-3.117150096899e-01-8.267430749440e-09
    -2.426886803862e-10 4.722696719275e-09-2.000000000000e+00 3.000000000000e+00
     3.000000000000e+01 4.000000000000e+00-9.313225746155e-09 7.000000000000e+00
    -3.492459654808e-10 5.966285243630e-09-7.566995918751e-10-6.693881005049e-10
     1.726080000000e+05 2.428000000000e+03 0.000000000000e+00                   
E19 2026 07 20 23 58 24 3.107951488346e-03 2.410160959698e-11 0.000000000000e+00
     2.700000000000e+01-4.056250000000e+01 3.285493996870e-09 6.700663307008e-01
    -1.993030309677e-06 2.444363199174e-04 5.826354026794e-06 5.440615125656e+03
     1.686000000000e+05-4.284083843231e-08 2.860647537064e+00-4.097819328308e-08
     9.747192006471e-01 2.257500000000e+02-2.419013792948e-01-5.610948004220e-09
     1.692927660089e-10 5.160000000000e+02 1.404000000000e+03                   
     1.070000000000e+02 0.000000000000e+00-4.190951585770e-09-4.423782229424e-09
     1.727040000000e+05                                                         
E07 2026 07 20 23 58 34-7.846363587305e-05-2.557953848736e-12 0.000000000000e+00
     3.200000000000e+01-4.962500000000e+01 3.379069323229e-09 2.156621217713e+00
    -2.184882760048e-06 4.222762072459e-04 5.593523383141e-06 5.440616540909e+03
     1.716000000000e+05-4.470348358154e-08 2.852481218207e+00 7.450580596924e-09
     9.693515464799e-01 2.238437500000e+02 1.826279281005e-01-5.700237437769e-09
     1.935794919343e-10 5.160000000000e+02 1.404000000000e+03                   
     1.070000000000e+02 0.000000000000e+00 4.423782229424e-09 4.889443516731e-09
     1.727140000000e+05                                                         
E21 2026 07 20 23 58 35-7.585140410811e-04-2.827960088325e-12 0.000000000000e+00
     3.000000000000e+01 1.150937500000e+02 3.159774474433e-09 8.572248956120e-01
     5.146488547325e-06 1.701257424429e-04 9.587034583092e-06 5.440615518570e+03
     1.704000000000e+05 1.303851604462e-08-1.328944024013e+00 7.450580596924e-09
     9.606212609999e-01 1.338125000000e+02-1.556055263490e+00-5.563446025572e-09
    -5.143071372424e-11 1.000000000000e+00 1.404000000000e+03                   
     1.070000000000e+02 0.000000000000e+00 1.164153218269e-09 1.164153218269e-09
     1.727150000000e+05                                                         
G03 2026 07 20 23 59 12 3.643557138275e-04-1.891464762593e-11 0.000000000000e+00
     1.033020019531e-02-3.304687500000e+01 3.616579216470e-09 6.177080208528e-01
    -1.737847924232e-06 6.972287141252e-03 8.434988558292e-06 5.153456002673e+03
     1.620000000000e+05-5.308538675308e-08 1.621860325724e+00 8.381903171539e-09
     9.947573608484e-01 2.366328125000e+02 1.276869954759e+00-8.594051497362e-09
     2.469745731966e-10 3.616579216470e-09-2.000000000000e+00 2.000000000000e+00
     2.700000000000e+01 4.000000000000e+00 1.396983861923e-09 7.000000000000e+00
     5.529727786779e-10-2.008164301515e-09 1.862645149231e-09 5.005858838558e-09
     1.727520000000e+05 2.428000000000e+03 0.000000000000e+00                   
G01 2026 07 20 23 59 12 2.173086104449e-04-9.638512210586e-12 0.000000000000e+00
     2.908706665039e-05-3.956640625000e+01 4.438220583988e-09 2.760973339245e+00
    -2.084299921989e-06 1.825133396778e-03 6.031244993210e-06 5.153618823177e+03
     8.550000000000e+04 2.980232238770e-08 6.295022200142e-01 4.656612873077e-09
     9.571191572718e-01 2.614335937500e+02 1.954132462146e-01-8.128853548572e-09
    -1.601852437869e-10 4.438220583988e-09-2.000000000000e+00 3.000000000000e+00
     3.100000000000e+01 4.000000000000e+00-8.847564458847e-09 7.000000000000e+00
    -2.910383045673e-10 5.646143108606e-09-5.529727786779e-10-6.693881005049e-10
     1.727520000000e+05 2.428000000000e+03 0.000000000000e+00                   
G26 2026 07 20 23 59 12-3.840841236524e-04-2.511768570912e-12 0.000000000000e+00
     8.203029632568e-03 6.044531250000e+01 5.322543133857e-09-5.525110636750e-01
     3.195367753506e-06 1.116683072178e-02 9.777024388313e-06 5.153641954247e+03
     1.152000000000e+05 5.401670932770e-08-1.639694619588e+00 1.639127731323e-07
     9.274905596475e-01 1.729140625000e+02 7.150743388593e-01-7.818126319821e-09
    -1.801860769019e-10 5.322543133857e-09-2.000000000000e+00 3.000000000000e+00
     3.000000000000e+01 4.000000000000e+00 6.519258022308e-09 7.000000000000e+00
    -8.440110832453e-10-4.190951585770e-09 5.820766091347e-09 5.878973752260e-09
     1.727520000000e+05 2.428000000000e+03 0.000000000000e+00                   
E27 2026 07 20 23 59 54-1.049694197718e-03-1.061550847226e-11 0.000000000000e+00
     3.200000000000e+01 1.145312500000e+02 3.205847822144e-09 1.123782995490e+00
     5.332753062248e-06 2.439803211018e-04 8.607283234596e-06 5.440617864609e+03
     1.716000000000e+05 2.235174179077e-08-1.328990576992e+00-2.048909664154e-08
     9.605921503931e-01 1.508125000000e+02-8.743359417958e-01-5.620234105310e-09
    -5.321650239522e-11 5.160000000000e+02 1.404000000000e+03                   
     1.070000000000e+02 0.000000000000e+00 6.984919309616e-10 9.313225746155e-10
     1.727940000000e+05                                                         
E30 2026 07 21 00 00 05-1.275924907532e-03-3.971933892899e-11 0.000000000000e+00
     2.500000000000e+01 1.072812500000e+02 3.258350009071e-09-4.525046708073e-02
     5.045905709267e-06 2.124481834471e-04 8.385628461838e-06 5.440624414444e+03
     1.674000000000e+05 2.980232238770e-08-1.327277429701e+00 1.676380634308e-08
     9.583802767739e-01 1.559687500000e+02 5.253313294728e-01-5.640592096159e-09
    -4.107313943255e-11 1.000000000000e+00 1.404000000000e+03                   
     1.070000000000e+02 0.000000000000e+00 6.984919309616e-10 9.313225746155e-10
     1.728050000000e+05                                                         
E29 2026 07 21 00 00 05-2.271349658258e-04-3.623767952377e-12 0.000000000000e+00
     3.200000000000e+01-4.306250000000e+01 3.447286450461e-09 1.319675841110e-01
    -2.006068825722e-06 2.007303992286e-04 5.561858415604e-06 5.440610660553e+03
     1.716000000000e+05-1.862645149231e-09 2.852215182165e+00 1.862645149231e-08
     9.627373895566e-01 2.193437500000e+02 1.416171420035e+00-5.754882571101e-09
     2.071514858337e-10 1.000000000000e+00 1.404000000000e+03                   
     1.070000000000e+02 0.000000000000e+00-3.259629011154e-09-3.026798367500e-09
     1.728050000000e+05                                                         
E26 2026 07 21 00 00 05 3.673072787933e-04 1.082867129298e-11 0.000000000000e+00
     3.200000000000e+01-6.150000000000e+01 2.457245211269e-09-7.377925825368e-02
    -2.739951014519e-06 9.243143722415e-05 7.240101695061e-06 5.440603546143e+03
     1.716000000000e+05-9.313225746155e-09 7.666908907245e-01 1.024454832077e-07
     9.909373635587e-01 1.981562500000e+02-2.590269345538e+00-5.437726503135e-09
    -2.046513816944e-10 1.000000000000e+00 1.404000000000e+03                   
     1.070000000000e+02 0.000000000000e+00-4.889443516731e-09-5.355104804039e-09
     1.728050000000e+05                                                         
E33 2026 07 21 00 00 05-2.513150684536e-05-1.989519660128e-12 0.000000000000e+00
     3.200000000000e+01-7.068750000000e+01 2.435458589483e-09-4.081560897966e-01
    -3.231689333916e-06 1.662130234763e-04 6.962567567825e-06 5.440604824066e+03
     1.716000000000e+05 8.568167686462e-08 7.701293889688e-01 2.793967723846e-08
     9.976739784286e-01 2.073750000000e+02-3.026246292654e+00-5.471299330150e-09
    -1.857220217820e-10 1.000000000000e+00 1.404000000000e+03                   
     1.070000000000e+02 0.000000000000e+00-4.190951585770e-09-4.656612873077e-09
     1.728050000000e+05                                                         
END OF FILE                                                 COMMENT
