     3.05           N: NAVIGATION       M: MIXED            RINEX VERSION / TYPE
PYRINEXCONV 0.1.2 ALDELTUNES            20260721 120359 UTC PGM / RUN BY / DATE
GAL    1.0175e+02  3.3203e-01  2.2858e-02             M 10  IONOSPHERIC CORR
GPSA   9.3132e-09  2.2352e-08  1.5199e-05  1.5140e-05 M 13  IONOSPHERIC CORR
GPSB   1.0035e+05  1.3107e+05  1.6712e+07  1.6318e+07 M 13  IONOSPHERIC CORR
GAUT  6.5192580223e-09-2.664535259e-15 215400 1404   E10  0 TIME SYSTEM CORR
GPUT  5.8207660913e-10-1.483257961e-12 442800 2428   G13  0 TIME SYSTEM CORR
                                                            END OF HEADER
G11 2026 07 21 11 56 24-2.677883021533e-04 1.227817847393e-11 0.000000000000e+00
     6.800000000000e+01-2.675000000000e+01 4.559118477013e-09-2.804708465308e+00
    -1.342967152596e-06 2.486749202944e-03 5.591660737991e-06 5.153651065826e+03
     2.160000000000e+05 3.166496753693e-08 5.992905602973e-01-1.396983861923e-07
     9.627627141315e-01 2.712500000000e+02-2.355535992729e+00-8.172126116141e-09
    -1.628639267934e-10 1.000000000000e+00 3.800000000000e+02 0.000000000000e+00
     2.000000000000e+00 0.000000000000e+00-8.847564458847e-09 8.360000000000e+02
     8.631360000000e+05 4.000000000000e+00                                      
G13 2026 07 21 11 56 24 4.184492863715e-04 5.229594535194e-12 0.000000000000e+00
     4.200000000000e+01 4.490625000000e+01 4.425184326689e-09 5.289023622435e-01
     2.237036824226e-06 2.269272110425e-03 8.974224328995e-06 5.153590568542e+03
     2.160000000000e+05 0.000000000000e+00-1.575949081222e+00-2.048909664154e-08
     9.588254793184e-01 2.026875000000e+02 1.820162606930e+00-7.985689778890e-09
     1.535778257043e-11 1.000000000000e+00 3.800000000000e+02 0.000000000000e+00
     2.000000000000e+00 6.300000000000e+01-8.381903171539e-09 4.200000000000e+01
     8.631360000000e+05 4.000000000000e+00                                      
G12 2026 07 21 11 56 24-6.054616533220e-04 5.684341886081e-13 0.000000000000e+00
     1.000000000000e+01 4.975000000000e+01 4.497330188997e-09 6.626313143511e-01
     2.460554242134e-06 8.705397252925e-03 8.864328265190e-06 5.153704523087e+03
     2.159840000000e+05-9.313225746155e-08-1.467432603498e+00-5.587935447693e-08
     9.583090209601e-01 2.066250000000e+02 1.587346449225e+00-8.132481607645e-09
     3.571577341961e-12 1.000000000000e+00 3.800000000000e+02 0.000000000000e+00
     2.000000000000e+00 0.000000000000e+00-1.257285475731e-08 1.000000000000e+01
     8.631360000000e+05 4.000000000000e+00                                      
G06 2026 07 21 11 56 24-5.692509002984e-04 7.958078640513e-12 0.000000000000e+00
     1.800000000000e+01-2.809375000000e+01 4.137315192927e-09 2.245621032615e+00
    -1.301988959312e-06 3.694797749631e-03 5.392357707024e-06 5.153722442627e+03
     2.160000000000e+05 1.192092895508e-07 5.836067018817e-01 2.235174179077e-08
     9.858715825372e-01 2.878437500000e+02-5.465688886624e-01-7.944973797192e-09
    -1.864363372504e-10 1.000000000000e+00 3.800000000000e+02 0.000000000000e+00
     2.000000000000e+00 0.000000000000e+00 3.725290298462e-09 1.800000000000e+01
     8.631360000000e+05 4.000000000000e+00                                      
G05 2026 07 21 11 56 24-2.352846786380e-04-3.410605131648e-13 0.000000000000e+00
     2.000000000000e+01-2.650000000000e+01 3.956950537158e-09-1.819273063500e+00
    -1.354143023491e-06 5.605535698123e-03 8.007511496544e-06 5.153775583267e+03
     2.160000000000e+05 6.705522537231e-08 1.559901888084e+00 9.313225746155e-08
     9.811634133030e-01 2.361250000000e+02 1.482001926072e+00-7.740322415498e-09
     3.214419607765e-11 1.000000000000e+00 3.800000000000e+02 0.000000000000e+00
     2.000000000000e+00 0.000000000000e+00-1.071020960808e-08 2.000000000000e+01
     8.631360000000e+05 4.000000000000e+00                                      
G19 2026 07 21 11 56 42 7.038223557174e-04 4.547473508865e-13 0.000000000000e+00
     5.300000000000e+01 4.746875000000e+01 4.857345185067e-09-4.598883036224e-01
     2.514570951462e-06 1.176441437565e-02 4.749745130539e-06 5.153758861542e+03
     2.160000000000e+05 1.527369022369e-07-3.913393739529e-01-8.195638656616e-08
     9.566062033338e-01 2.841562500000e+02 3.029507515948e+00-8.400707066026e-09
     1.114332130692e-10 1.000000000000e+00 3.800000000000e+02 0.000000000000e+00
     2.000000000000e+00 0.000000000000e+00-1.536682248116e-08 5.300000000000e+01
     8.632080000000e+05 4.000000000000e+00                                      
E10 2026 07 21 12 01 24-8.074495708570e-04-2.643218977028e-12 0.000000000000e+00
     1.020000000000e+02-5.062500000000e+01 2.676540060065e-09-1.742219497612e+00
    -2.352520823479e-06 2.863210393116e-04 5.545094609261e-06 5.440602169037e+03
     2.136000000000e+05 3.911554813385e-08 7.679715760244e-01-9.499490261078e-08
     9.974623687914e-01 2.376875000000e+02 2.333586160670e+00-5.497729002480e-09
    -1.542921411727e-10 5.160000000000e+02 1.404000000000e+03                   
     1.070000000000e+02 0.000000000000e+00-1.164153218269e-09-2.328306436539e-10
     2.160840000000e+05                                                         
E11 2026 07 21 12 02 24 5.518126708921e-03 6.747313818778e-11-3.469446951954e-18
     9.900000000000e+01-3.928125000000e+01 2.638681340241e-09-1.408247597405e+00
    -1.888722181320e-06 4.173512570560e-04 5.777925252914e-06 5.440611831665e+03
     2.118000000000e+05-7.823109626770e-08 7.694409879970e-01-4.470348358154e-08
     9.945458133851e-01 2.324062500000e+02 1.347685586023e+00-5.458798809453e-09
    -1.860791795162e-10 5.160000000000e+02 1.404000000000e+03                   
     1.070000000000e+02 0.000000000000e+00-1.466833055019e-08-1.583248376846e-08
     2.161440000000e+05                                                         
G12 2026 07 21 12 03 12-6.054585392121e-04 5.542233338929e-13 0.000000000000e+00
    -4.949092864990e-03 3.772265625000e+01 4.390361447605e-09 1.452541715439e+00
     1.955777406693e-06 8.707613684237e-03 8.841045200825e-06 5.153516838877e+03
     2.025000000000e+05-1.117587089539e-08-1.467476728765e+00-1.946464180946e-07
     9.583097143833e-01 2.068085937500e+02 1.587387384599e+00-8.343683925691e-09
     4.589476884420e-11 4.390361447605e-09-2.000000000000e+00 3.000000000000e+00
     2.800000000000e+01 4.000000000000e+00-1.257285475731e-08 7.000000000000e+00
    -6.984919309616e-10 7.072230800986e-09 0.000000000000e+00 0.000000000000e+00
     2.161920000000e+05 2.428000000000e+03 0.000000000000e+00                   
G21 2026 07 21 12 03 12 3.956717555411e-04-5.307754236128e-12 0.000000000000e+00
    -7.040500640869e-03-3.537890625000e+01 4.462507309913e-09 1.026285565645e+00
    -1.767650246620e-06 7.946521509439e-04 7.230788469315e-06 5.153629512523e+03
     1.332000000000e+05 1.955777406693e-08 1.623518024762e+00-4.656612873077e-08
     9.641823159379e-01 2.416328125000e+02-8.855343836615e-02-8.309039625474e-09
     3.571577341961e-11 4.462507309913e-09-2.000000000000e+00 3.000000000000e+00
     3.100000000000e+01 4.000000000000e+00-9.778887033463e-09 7.000000000000e+00
    -8.731149137020e-11 6.199115887284e-09 1.746229827404e-10 1.455191522837e-10
     2.161920000000e+05 2.428000000000e+03 0.000000000000e+00                   
E31 2026 07 21 12 03 24-1.581464312039e-04-2.984279490192e-12 0.000000000000e+00
     1.010000000000e+02 7.603125000000e+01 3.063341886200e-09-1.859423090104e+00
     3.661960363388e-06 3.415956161916e-04 9.361654520035e-06 5.440612691879e+03
     2.130000000000e+05 2.793967723846e-08-1.329261976091e+00 2.793967723846e-08
     9.605988725017e-01 1.409687500000e+02-1.399396088681e+00-5.481299746707e-09
     9.643258823294e-11 5.160000000000e+02 1.404000000000e+03                   
     1.070000000000e+02 0.000000000000e+00 3.492459654808e-09 4.190951585770e-09
     2.162040000000e+05                                                         
E33 2026 07 21 12 03 25-2.521730493754e-05-1.989519660128e-12 0.000000000000e+00
     1.050000000000e+02-6.481250000000e+01 2.723327723245e-09-1.270752203244e+00
    -2.944841980934e-06 1.674942905083e-04 5.049630999565e-06 5.440605630875e+03
     2.154000000000e+05 2.421438694000e-08 7.698908952861e-01 3.166496753693e-08
     9.976628529366e-01 2.501250000000e+02-3.016708115053e+00-5.504157841696e-09
    -1.371485699313e-10 1.000000000000e+00 1.404000000000e+03                   
     1.070000000000e+02 0.000000000000e+00-4.423782229424e-09-4.889443516731e-09
     2.162050000000e+05                                                         
E12 2026 07 21 12 03 54-5.902443081141e-05-2.614797267597e-12 0.000000000000e+00
     1.040000000000e+02-5.346875000000e+01 2.791902008211e-09 2.504139079558e-01
    -2.425163984299e-06 3.171436255798e-04 4.950910806656e-06 5.440602628708e+03
     2.148000000000e+05 6.146728992462e-08 7.694331160349e-01 7.450580596924e-09
     9.945570705398e-01 2.502187500000e+02 8.577544266062e-01-5.530944671761e-09
    -1.182192100189e-10 5.160000000000e+02 1.404000000000e+03                   
     1.070000000000e+02 0.000000000000e+00-1.187436282635e-08-1.164153218269e-08
     2.162340000000e+05                                                         
G11 2026 07 21 12 04 00-2.677223528735e-04 1.223909862347e-11 0.000000000000e+00
    -4.132270812988e-03-2.292187500000e+01 4.625728394441e-09-2.017792766517e+00
    -1.150183379650e-06 2.486625686288e-03 5.193054676056e-06 5.153574809431e+03
     1.872000000000e+05 5.774199962616e-08 5.992458425489e-01 4.656612873077e-09
     9.627621128722e-01 2.799687500000e+02-2.354806973837e+00-8.158319061643e-09
    -5.285934466102e-11 4.625728394441e-09-2.000000000000e+00 3.000000000000e+00
     2.900000000000e+01 4.000000000000e+00-8.847564458847e-09 7.000000000000e+00
    -2.037268131971e-10 5.675246939063e-09 3.783497959375e-10 2.328306436539e-10
     2.162400000000e+05 2.428000000000e+03 0.000000000000e+00                   
G13 2026 07 21 12 04 00 4.184774297755e-04 5.240252676231e-12 8.673617379884e-19
    -4.507541656494e-03 3.406250000000e+01 4.347502519502e-09 1.316556556711e+00
     1.756474375725e-06 2.271318458952e-03 8.977949619293e-06 5.153630947532e+03
     1.647000000000e+05 2.980232238770e-08-1.575992203658e+00-4.470348358154e-08
     9.588257221628e-01 2.048125000000e+02 1.820178237478e+00-8.384757065123e-09
     2.160804291886e-11 4.347502519502e-09-3.000000000000e+00 1.000000000000e+00
     3.000000000000e+01 7.000000000000e+00-8.381903171539e-09 7.000000000000e+00
    -1.164153218269e-10 5.267793312669e-09 1.658918336034e-09 1.949956640601e-09
     2.162400000000e+05 2.428000000000e+03 0.000000000000e+00                   
E25 2026 07 21 12 04 05 2.174236578867e-05-7.105427357601e-14 0.000000000000e+00
     9.900000000000e+01 9.740625000000e+01 3.073342302757e-09 2.624236618057e+00
     4.328787326813e-06 2.982205478474e-04 8.316710591316e-06 5.440612489700e+03
     2.118000000000e+05 1.862645149231e-09-1.329174281467e+00-1.117587089539e-08
     9.606289369311e-01 1.592812500000e+02-1.309165599796e+00-5.515229731456e-09
     5.321650239522e-11 1.000000000000e+00 1.404000000000e+03                   
     1.070000000000e+02 0.000000000000e+00 2.328306436539e-09 2.561137080193e-09
     2.162450000000e+05                                                         
E16 2026 07 21 12 04 05-4.650175105780e-05-2.472688720445e-12 0.000000000000e+00
     1.040000000000e+02 8.293750000000e+01 2.962266247422e-09-1.387599465465e+00
     4.008412361145e-06 4.924213280901e-04 8.672475814819e-06 5.440619869232e+03
     2.148000000000e+05 1.862645149231e-08-1.332508973970e+00-5.587935447693e-09
     9.625735163992e-01 1.542500000000e+02-2.476026860160e+00-5.504157841696e-09
     8.036049019412e-11 1.000000000000e+00 1.404000000000e+03                   
     1.070000000000e+02 0.000000000000e+00-3.725290298462e-09-2.328306436539e-09
     2.162450000000e+05                                                         
E10 2026 07 21 12 04 05-8.074542274699e-04-2.657429831743e-12 0.000000000000e+00
     1.050000000000e+02-5.362500000000e+01 2.707255625206e-09-1.521800853800e+00
    -2.482905983925e-06 2.857750514522e-04 5.232170224190e-06 5.440600280762e+03
     2.154000000000e+05 6.519258022308e-08 7.679615579614e-01-5.774199962616e-08
     9.974619591743e-01 2.448437500000e+02 2.336323545185e+00-5.504157841696e-09
    -1.285767843106e-10 1.000000000000e+00 1.404000000000e+03                   
     1.070000000000e+02 0.000000000000e+00-1.164153218269e-09-2.328306436539e-10
     2.162450000000e+05                                                         
E11 2026 07 21 12 04 05 5.518369202036e-03 6.743050562363e-11-3.469446951954e-18
     1.050000000000e+02-4.525000000000e+01 2.680825952876e-09-9.627461100113e-01
    -2.160668373108e-06 4.166640574113e-04 5.722045898438e-06 5.440610313416e+03
     2.154000000000e+05-1.117587089539e-08 7.694211976413e-01-9.313225746155e-08
     9.945448449334e-01 2.337500000000e+02 1.348494470002e+00-5.499871948885e-09
    -1.478633019572e-10 1.000000000000e+00 1.404000000000e+03                   
     1.070000000000e+02 0.000000000000e+00-1.466833055019e-08-1.583248376846e-08
     2.162450000000e+05                                                         
END OF FILE                                                 COMMENT
