     3.05           N: NAVIGATION       M: MIXED            RINEX VERSION / TYPE
PYRINEXCONV 0.1.2 ALDELTUNES            20260721 013018 UTC PGM / RUN BY / DATE
GAL    1.0175e+02  3.3203e-01  2.2858e-02             B 19  IONOSPHERIC CORR
GPSA   1.1176e-08  2.2352e-08  1.5199e-05  1.5140e-05 B 03  IONOSPHERIC CORR
GPSB   1.0650e+05  1.4746e+05  1.6712e+07  1.6450e+07 B 03  IONOSPHERIC CORR
BDSA   1.9558e-08  2.9802e-08 -5.9605e-07  1.0133e-06 B 12  IONOSPHERIC CORR
BDSB   1.4131e+05 -7.8643e+05  6.0293e+06 -4.9807e+06 B 12  IONOSPHERIC CORR
GAUT  6.5192580223e-09-2.664535259e-15 177000 1404   E19  0 TIME SYSTEM CORR
GPUT  1.2805685401e-09 2.242650510e-13 355800 2428   G03  0 TIME SYSTEM CORR
BDUT  0.0000000000e+00 0.000000000e+00 176400 1072   C12  0 TIME SYSTEM CORR
                                                            END OF HEADER
E07 2026 07 21 01 27 05-7.847708184272e-05-2.529532139306e-12 0.000000000000e+00
     4.100000000000e+01-4.537500000000e+01 3.286565470072e-09 2.826205377930e+00
    -2.084299921989e-06 4.210222978145e-04 5.381181836128e-06 5.440619049072e+03
     1.770000000000e+05 1.862645149231e-09 2.852450415004e+00-2.048909664154e-08
     9.693526904819e-01 2.328437500000e+02 1.825129719979e-01-5.677379342781e-09
     2.007226466182e-10 1.000000000000e+00 1.404000000000e+03                   
     1.070000000000e+02 0.000000000000e+00 4.423782229424e-09 4.889443516731e-09
     1.780250000000e+05                                                         
E27 2026 07 21 01 27 24-1.049726095516e-03-1.062971932697e-11 0.000000000000e+00
     3.700000000000e+01 1.031875000000e+02 3.284065365933e-09 1.502247616563e+00
     4.922971129417e-06 2.446804428473e-04 8.303672075272e-06 5.440614410400e+03
     1.746000000000e+05 5.401670932770e-08-1.329007517583e+00-1.303851604462e-08
     9.605918841420e-01 1.592500000000e+02-8.808755747463e-01-5.630948837335e-09
    -3.500145795122e-11 5.160000000000e+02 1.404000000000e+03                   
     1.070000000000e+02 0.000000000000e+00 2.328306436539e-10 2.328306436539e-10
     1.780440000000e+05                                                         
E23 2026 07 21 01 28 24-4.267256008461e-05-1.364242052659e-12 0.000000000000e+00
     3.500000000000e+01 1.190312500000e+02 3.168346260053e-09 1.642696728638e+00
     5.446374416351e-06 1.740632578731e-04 1.006387174129e-05 5.440617679596e+03
     1.734000000000e+05-3.725290298462e-09-1.332154426996e+00 5.587935447693e-09
     9.625507490051e-01 1.256562500000e+02-2.761650789543e+00-5.532016144963e-09
    -5.714523747137e-12 5.160000000000e+02 1.404000000000e+03                   
     1.070000000000e+02 0.000000000000e+00 4.656612873077e-10 1.862645149231e-09
     1.781040000000e+05                                                         
C32 2026 07 21 01 28 54-9.033344686031e-04 1.854516540334e-12 0.000000000000e+00
     1.000000000000e+00-1.312500000000e+01 3.323709874429e-09 2.559447414184e+00
    -6.132759153843e-07 5.078297108412e-04 7.395632565022e-06 5.282630712509e+03
     1.764000000000e+05 3.306195139885e-08 2.177645836010e+00-4.491303116083e-06
     9.887608252629e-01 2.226406250000e+02-4.945625415436e-02-5.925457533376e-07
     4.518045337580e-10                    1.072000000000e+03                   
     0.000000000000e+00 0.000000000000e+00-3.818422555923e-08-3.818422555923e-08
     1.781340000000e+05 1.000000000000e+00                                      
C37 2026 07 21 01 28 54-9.073717519641e-04 6.894929072132e-12 0.000000000000e+00
     1.000000000000e+00 1.954687500000e+01 4.141601085738e-09 8.311552507124e-01
     9.462237358093e-07 7.138121873140e-04 1.042569056153e-05 5.282672407150e+03
     1.764000000000e+05-5.122274160385e-09-2.018538811581e+00 3.761239349842e-05
     9.451572162661e-01 1.400781250000e+02-3.721579578270e-01 1.764005620772e-07
    -2.492960984689e-10                    1.072000000000e+03                   
     0.000000000000e+00 0.000000000000e+00-7.823109626770e-08-7.823109626770e-08
     1.781340000000e+05 1.000000000000e+00                                      
C23 2026 07 21 01 28 54-4.541795933619e-04-3.108624468950e-14 0.000000000000e+00
     1.000000000000e+00 1.907812500000e+01 4.261606084428e-09 2.122035657497e+00
     1.065898686647e-06 3.790127811953e-04 1.015933230519e-05 5.282651744843e+03
     1.764000000000e+05 1.220032572746e-07-2.018312272865e+00 7.591675966978e-06
     9.436848199406e-01 1.447968750000e+02-8.777745760915e-01 3.959754225372e-07
    -1.946509651369e-10                    1.072000000000e+03                   
     0.000000000000e+00 0.000000000000e+00 1.024454832077e-07 1.024454832077e-07
     1.781340000000e+05 1.000000000000e+00                                      
C20 2026 07 21 01 28 54-8.893401827663e-04 3.032241124856e-12 0.000000000000e+00
     1.000000000000e+00-1.635937500000e+01 3.292994309288e-09 1.381506767154e+00
    -9.723007678986e-07 8.087712340057e-04 7.377937436104e-06 5.282636220932e+03
     1.764000000000e+05 4.423782229424e-08 2.185726955981e+00 2.164393663406e-06
     9.899271118320e-01 2.240156250000e+02 2.747253579282e-01 1.305682244049e-06
     4.300179119721e-10                    1.072000000000e+03                   
     0.000000000000e+00 0.000000000000e+00 5.541369318962e-08 5.541369318962e-08
     1.781340000000e+05 1.000000000000e+00                                      
C12 2026 07 21 01 28 54 6.158314645290e-04-5.119460411152e-12 0.000000000000e+00
     1.000000000000e+00-1.454687500000e+01 3.619436478343e-09 6.559349926339e-01
    -9.150244295597e-07 1.759527949616e-04 7.207971066236e-06 5.282643482208e+03
     1.764000000000e+05 5.215406417847e-08 2.170754432704e+00-5.007488653064e-05
     9.735933813180e-01 2.216250000000e+02 7.070514042605e-01-1.330130762428e-06
     4.214461263514e-10                    1.072000000000e+03                   
     0.000000000000e+00 0.000000000000e+00 3.725290298462e-09 3.725290298462e-09
     1.781340000000e+05 1.000000000000e+00                                      
E29 2026 07 21 01 29 54-2.271460252814e-04-3.623767952377e-12 0.000000000000e+00
     3.700000000000e+01-4.634375000000e+01 3.417642358522e-09 5.022229145717e-01
    -2.084299921989e-06 2.009533345699e-04 5.552545189857e-06 5.440611452103e+03
     1.746000000000e+05-1.117587089539e-08 2.852197831957e+00 5.587935447693e-09
     9.627380215372e-01 2.196875000000e+02 1.417844790584e+00-5.746310785481e-09
     2.139374827835e-10 5.160000000000e+02 1.404000000000e+03                   
     1.070000000000e+02 0.000000000000e+00-3.259629011154e-09-2.793967723846e-09
     1.781940000000e+05                                                         
E21 2026 07 21 01 30 05-7.585325511172e-04-2.813749233610e-12 0.000000000000e+00
     4.100000000000e+01 1.187187500000e+02 3.181561096219e-09 1.664853181783e+00
     5.472451448441e-06 1.699522836134e-04 8.780509233475e-06 5.440619083405e+03
     1.770000000000e+05 0.000000000000e+00-1.328980772515e+00-2.980232238770e-08
     9.606207241090e-01 1.483750000000e+02-1.545445406233e+00-5.596304537118e-09
    -3.964450849577e-11 1.000000000000e+00 1.404000000000e+03                   
     1.070000000000e+02 0.000000000000e+00 6.984919309616e-10 9.313225746155e-10
     1.782050000000e+05                                                         
E28 2026 07 21 01 30 05-6.027094786987e-05-2.927436071332e-12 0.000000000000e+00
     3.700000000000e+01-3.906250000000e+01 3.651580674421e-09-1.244498328682e+00
    -2.037733793259e-06 2.845055423677e-04 5.515292286873e-06 5.440607912064e+03
     1.746000000000e+05-1.862645149231e-09 2.870212497768e+00-1.117587089539e-08
     9.490499403337e-01 2.184687500000e+02 1.958976890496e+00-5.843814846916e-09
     2.167947446570e-10 1.000000000000e+00 1.404000000000e+03                   
     1.070000000000e+02 0.000000000000e+00 9.313225746155e-10 1.862645149231e-09
     1.782050000000e+05                                                         
E19 2026 07 21 01 30 24 3.108157368843e-03 2.441424840072e-11 0.000000000000e+00
     4.100000000000e+01-4.193750000000e+01 3.196561721055e-09 1.709460393544e+00
    -2.039596438408e-06 2.442206023261e-04 5.666166543961e-06 5.440616186142e+03
     1.770000000000e+05 9.313225746155e-09 2.860600104871e+00 3.725290298462e-09
     9.747206416214e-01 2.216562500000e+02-2.398995573052e-01-5.625948629057e-09
     2.128660095809e-10 5.160000000000e+02 1.404000000000e+03                   
     1.070000000000e+02 0.000000000000e+00-4.423782229424e-09-4.423782229424e-09
     1.782240000000e+05                                                         
G04 2026 07 21 01 30 24 6.273412145674e-05 6.998845947237e-13 0.000000000000e+00
    -5.631446838379e-04-2.111328125000e+01 4.452149735621e-09-1.581149703060e+00
    -1.121312379837e-06 3.821527818218e-03 6.383284926414e-06 5.153549399026e+03
     1.233000000000e+05 2.700835466385e-08 2.690162137697e+00-4.377216100693e-08
     9.724406055288e-01 2.625976562500e+02-2.902052367753e+00-8.337076507608e-09
     3.330495871378e-10 4.452149735621e-09-2.000000000000e+00 3.000000000000e+00
     3.000000000000e+01 4.000000000000e+00-4.656612873077e-09 7.000000000000e+00
    -2.037268131971e-10 3.317836672068e-09-1.426087692380e-09-1.396983861923e-09
     1.782240000000e+05 2.428000000000e+03 0.000000000000e+00                   
G03 2026 07 21 01 30 24 3.642191586550e-04-1.892885848065e-11 0.000000000000e+00
    -5.082130432129e-03-3.272656250000e+01 3.511932000350e-09 1.668182751148e+00
    -1.699663698673e-06 6.976965523791e-03 9.193085134029e-06 5.153454907572e+03
     1.737000000000e+05-4.470348358154e-08 1.621804437133e+00-1.080334186554e-07
     9.947597490621e-01 2.185000000000e+02 1.276501399613e+00-8.703163185159e-09
     2.996553389905e-10 3.511932000350e-09-2.000000000000e+00 2.000000000000e+00
     2.700000000000e+01 4.000000000000e+00 1.396983861923e-09 7.000000000000e+00
     5.529727786779e-10-2.008164301515e-09 1.862645149231e-09 5.005858838558e-09
     1.782240000000e+05 2.428000000000e+03 0.000000000000e+00                   
G26 2026 07 21 01 30 24-3.841021971311e-04-2.511768570912e-12 0.000000000000e+00
    -6.264209747314e-03 5.512890625000e+01 5.416118460217e-09 4.981622482401e-01
     3.001652657986e-06 1.116635178914e-02 9.015202522278e-06 5.153641958227e+03
     1.152000000000e+05-2.700835466385e-08-1.639756209171e+00 1.173466444016e-07
     9.274891442743e-01 1.881914062500e+02 7.146350318747e-01-7.784374913940e-09
    -1.928651764659e-10 5.416118460217e-09-2.000000000000e+00 3.000000000000e+00
     3.000000000000e+01 4.000000000000e+00 6.519258022308e-09 7.000000000000e+00
    -8.440110832453e-10-4.190951585770e-09 5.820766091347e-09 5.878973752260e-09
     1.782240000000e+05 2.428000000000e+03 0.000000000000e+00                   
END OF FILE                                                 COMMENT
