     3.05           N: NAVIGATION       M: MIXED            RINEX VERSION / TYPE
PYRINEXCONV 0.1.2 ALDELTUNES            20260721 113347 UTC PGM / RUN BY / DATE
GAL    1.0175e+02  3.3203e-01  2.2858e-02             L 16  IONOSPHERIC CORR
GPSA   1.1176e-08  2.2352e-08  1.5199e-05  1.5140e-05 L 12  IONOSPHERIC CORR
GPSB   1.0650e+05  1.4746e+05  1.6712e+07  1.6450e+07 L 12  IONOSPHERIC CORR
BDSA   2.1420e-08  5.9605e-08 -7.7486e-07  1.2517e-06 L 31  IONOSPHERIC CORR
BDSB   1.4131e+05 -7.0451e+05  5.6361e+06 -4.6531e+06 L 31  IONOSPHERIC CORR
GAUT  6.5192580223e-09-2.664535259e-15 210000 1404   E16  0 TIME SYSTEM CORR
GPUT  9.6042640507e-10-1.594724353e-12 428100 2428   G12  0 TIME SYSTEM CORR
BDUT  0.0000000000e+00 0.000000000e+00 212400 1072   C31  0 TIME SYSTEM CORR
                                                            END OF HEADER
G24 2026 07 21 11 28 48 1.224652514793e-04 1.861266696324e-11 0.000000000000e+00
     3.237724304199e-04-3.702734375000e+01 4.960206612515e-09 2.151533203994e+00
    -1.907348632812e-06 1.843404141255e-02 7.623806595802e-06 5.153591472595e+03
     1.980000000000e+05 5.774199962616e-08-2.697239305266e+00-3.175809979439e-07
     9.355030438911e-01 2.200507812500e+02 1.162171590460e+00-8.262251962294e-09
    -1.050043738536e-10 4.960206612515e-09-2.000000000000e+00 2.000000000000e+00
     2.800000000000e+01 4.000000000000e+00 2.328306436539e-09 7.000000000000e+00
     2.910383045673e-11-1.426087692380e-09 1.484295353293e-09 2.764863893390e-09
     2.141280000000e+05 2.428000000000e+03 0.000000000000e+00                   
C29 2026 07 21 11 28 54 6.338730454445e-04 5.153211191100e-12 0.000000000000e+00
     1.000000000000e+00 1.675000000000e+01 4.365538985079e-09-4.245128246974e-01
     8.842907845974e-07 2.189400838688e-04 3.635883331299e-06 5.282657833099e+03
     2.124000000000e+05 6.426125764847e-08 3.417893335834e-02 2.294359728694e-05
     9.455616853196e-01 2.790156250000e+02 2.111899364377e+00-2.576765904071e-06
    -5.535944880039e-11                    1.072000000000e+03                   
     0.000000000000e+00 0.000000000000e+00 9.313225746155e-10 9.313225746155e-10
     2.141340000000e+05 1.000000000000e+00                                      
C35 2026 07 21 11 28 54-4.782762844115e-04-1.604139043820e-11 0.000000000000e+00
     1.000000000000e+00 1.640625000000e+01 4.353395622116e-09-2.054039094973e-02
     7.916241884232e-07 8.117869729176e-04 3.815162926912e-06 5.282620409012e+03
     2.124000000000e+05 2.421438694000e-08 3.477810364190e-02 2.688728272915e-05
     9.437471197699e-01 2.762343750000e+02 8.869464068208e-01-1.991598672365e-06
    -1.192906832215e-10                    1.072000000000e+03                   
     0.000000000000e+00 0.000000000000e+00-1.257285475731e-08-1.257285475731e-08
     2.141340000000e+05 1.000000000000e+00                                      
C39 2026 07 21 11 28 54-9.575489675626e-04 8.791189998192e-12 0.000000000000e+00
     1.000000000000e+00 1.012500000000e+01 3.866946788141e-09 2.931656340077e+00
     5.550682544708e-07 5.713555729017e-04 9.272247552872e-06 5.282663963318e+03
     2.124000000000e+05 1.117587089539e-08-2.011546913117e+00 5.748448893428e-05
     9.490802724772e-01 1.672031250000e+02 5.935714034886e-02 1.010812461539e-06
    -5.500229106620e-11                    1.072000000000e+03                   
     0.000000000000e+00 0.000000000000e+00 8.987262845039e-08 8.987262845039e-08
     2.141340000000e+05 1.000000000000e+00                                      
C26 2026 07 21 11 28 54-6.724876584485e-04-5.552003301545e-12 0.000000000000e+00
     1.000000000000e+00 1.518750000000e+01 4.022667560250e-09 1.425399953469e+00
     6.621703505516e-07 9.378691902384e-04 9.299721568823e-06 5.282658828735e+03
     2.124000000000e+05 2.048909664154e-08-2.040567908930e+00 4.292931407690e-05
     9.453572571472e-01 1.624062500000e+02 7.291255785041e-01 2.631679977177e-06
    -1.053615315878e-10                    1.072000000000e+03                   
     0.000000000000e+00 0.000000000000e+00-2.328306436539e-08-2.328306436539e-08
     2.141340000000e+05 1.000000000000e+00                                      
C20 2026 07 21 11 28 54-8.892318001017e-04 3.005595772265e-12 0.000000000000e+00
     1.000000000000e+00-2.598437500000e+01 3.324424189897e-09-2.513853704097e-02
    -1.348555088043e-06 8.078168611974e-04 7.292255759239e-06 5.282636833191e+03
     2.124000000000e+05 2.700835466385e-08 2.185492488249e+00 1.142406836152e-05
     9.899391297040e-01 2.253281250000e+02 2.737995970351e-01 1.077558456063e-06
     1.678641350722e-10                    1.072000000000e+03                   
     0.000000000000e+00 0.000000000000e+00 5.541369318962e-08 5.541369318962e-08
     2.141340000000e+05 1.000000000000e+00                                      
C31 2026 07 21 11 28 54 7.557274075225e-04-9.001688283661e-12 0.000000000000e+00
     1.000000000000e+00 1.143750000000e+01 4.450542525817e-09-9.323507889756e-01
     6.780028343201e-07 7.329288637266e-04 3.820285201073e-06 5.282665330887e+03
     2.124000000000e+05 4.656612873077e-09 3.194917849153e-02 2.954434603453e-05
     9.410546029529e-01 2.765156250000e+02 1.055513240329e+00 1.238981608557e-06
    -8.178912113090e-11                    1.072000000000e+03                   
     0.000000000000e+00 0.000000000000e+00-6.519258022308e-09-6.519258022308e-09
     2.141340000000e+05 1.000000000000e+00                                      
E10 2026 07 21 11 30 54-8.074481156655e-04-2.657429831743e-12 0.000000000000e+00
     1.010000000000e+02-4.896875000000e+01 2.665111012571e-09-1.815614043521e+00
    -2.279877662659e-06 2.864605048671e-04 5.630776286125e-06 5.440602790833e+03
     2.130000000000e+05 2.421438694000e-08 7.679749085518e-01-1.024454832077e-07
     9.974625253236e-01 2.357187500000e+02 2.332595428660e+00-5.493800267404e-09
    -1.635782422618e-10 5.160000000000e+02 1.404000000000e+03                   
     1.070000000000e+02 0.000000000000e+00-1.164153218269e-09-2.328306436539e-10
     2.142540000000e+05                                                         
E12 2026 07 21 11 30 54-5.901977419853e-05-2.614797267597e-12 0.000000000000e+00
     1.010000000000e+02-5.450000000000e+01 2.771901175096e-09 2.581576424449e-02
    -2.466142177582e-06 3.175763413310e-04 5.150213837624e-06 5.440603870392e+03
     2.130000000000e+05 7.450580596924e-08 7.694432482055e-01-3.725290298462e-08
     9.945574465097e-01 2.451875000000e+02 8.591963401077e-01-5.534159091368e-09
    -1.457203555520e-10 5.160000000000e+02 1.404000000000e+03                   
     1.070000000000e+02 0.000000000000e+00-1.187436282635e-08-1.164153218269e-08
     2.142540000000e+05                                                         
G11 2026 07 21 11 31 24-2.677883021533e-04 1.227817847393e-11 0.000000000000e+00
     6.800000000000e+01-2.675000000000e+01 4.559118477013e-09-2.804708465308e+00
    -1.342967152596e-06 2.486749202944e-03 5.591660737991e-06 5.153651065826e+03
     2.160000000000e+05 3.166496753693e-08 5.992905602973e-01-1.396983861923e-07
     9.627627141315e-01 2.712500000000e+02-2.355535992729e+00-8.172126116141e-09
    -1.628639267934e-10 1.000000000000e+00 3.800000000000e+02 0.000000000000e+00
     2.000000000000e+00 0.000000000000e+00-8.847564458847e-09 8.360000000000e+02
     8.571360000000e+05 4.000000000000e+00                                      
G13 2026 07 21 11 31 24 4.184492863715e-04 5.229594535194e-12 0.000000000000e+00
     4.200000000000e+01 4.490625000000e+01 4.425184326689e-09 5.289023622435e-01
     2.237036824226e-06 2.269272110425e-03 8.974224328995e-06 5.153590568542e+03
     2.160000000000e+05 0.000000000000e+00-1.575949081222e+00-2.048909664154e-08
     9.588254793184e-01 2.026875000000e+02 1.820162606930e+00-7.985689778890e-09
     1.535778257043e-11 1.000000000000e+00 3.800000000000e+02 0.000000000000e+00
     2.000000000000e+00 6.300000000000e+01-8.381903171539e-09 4.200000000000e+01
     8.571360000000e+05 4.000000000000e+00                                      
G06 2026 07 21 11 31 24-5.692509002984e-04 7.958078640513e-12 0.000000000000e+00
     1.800000000000e+01-2.809375000000e+01 4.137315192927e-09 2.245621032615e+00
    -1.301988959312e-06 3.694797749631e-03 5.392357707024e-06 5.153722442627e+03
     2.160000000000e+05 1.192092895508e-07 5.836067018817e-01 2.235174179077e-08
     9.858715825372e-01 2.878437500000e+02-5.465688886624e-01-7.944973797192e-09
    -1.864363372504e-10 1.000000000000e+00 3.800000000000e+02 0.000000000000e+00
     2.000000000000e+00 0.000000000000e+00 3.725290298462e-09 1.800000000000e+01
     8.571360000000e+05 4.000000000000e+00                                      
G12 2026 07 21 11 31 24-6.054616533220e-04 5.684341886081e-13 0.000000000000e+00
     1.000000000000e+01 4.975000000000e+01 4.497330188997e-09 6.626313143511e-01
     2.460554242134e-06 8.705397252925e-03 8.864328265190e-06 5.153704523087e+03
     2.159840000000e+05-9.313225746155e-08-1.467432603498e+00-5.587935447693e-08
     9.583090209601e-01 2.066250000000e+02 1.587346449225e+00-8.132481607645e-09
     3.571577341961e-12 1.000000000000e+00 3.800000000000e+02 0.000000000000e+00
     2.000000000000e+00 0.000000000000e+00-1.257285475731e-08 1.000000000000e+01
     8.571360000000e+05 4.000000000000e+00                                      
G21 2026 07 21 11 31 24 3.957003355026e-04-5.343281372916e-12 0.000000000000e+00
     2.290000000000e+02-2.828125000000e+01 4.340180785951e-09 2.357513989635e-01
    -1.603737473488e-06 7.935260655358e-04 7.549300789833e-06 5.153595853806e+03
     2.160000000000e+05 1.862645149231e-09 1.623561403209e+00-9.313225746155e-09
     9.641823035031e-01 2.349687500000e+02-8.568574369230e-02-7.997475984119e-09
     1.642925577302e-11 1.000000000000e+00 3.800000000000e+02 0.000000000000e+00
     2.000000000000e+00 0.000000000000e+00-9.778887033463e-09 4.850000000000e+02
     8.571360000000e+05 4.000000000000e+00                                      
G17 2026 07 21 11 31 24-1.763063482940e-04-6.025402399246e-12 0.000000000000e+00
     6.800000000000e+01 6.150000000000e+01 4.742340394656e-09-2.092653234607e+00
     3.531575202942e-06 1.261637313291e-02 5.248934030533e-06 5.153676143646e+03
     2.160000000000e+05-6.332993507385e-08-4.351005245976e-01 2.942979335785e-07
     9.574391420748e-01 2.772187500000e+02-1.098564580196e+00-8.106766250783e-09
     9.357532635937e-11 1.000000000000e+00 3.800000000000e+02 0.000000000000e+00
     2.000000000000e+00 0.000000000000e+00-1.071020960808e-08 6.800000000000e+01
     8.571360000000e+05 4.000000000000e+00                                      
E12 2026 07 21 11 33 35-5.902128759772e-05-2.614797267597e-12 0.000000000000e+00
     1.020000000000e+02-5.437500000000e+01 2.780472960717e-09 1.007443465321e-01
    -2.460554242134e-06 3.173889126629e-04 5.066394805908e-06 5.440603368759e+03
     2.136000000000e+05 7.264316082001e-08 7.694398747164e-01-2.048909664154e-08
     9.945573133842e-01 2.472812500000e+02 8.586531044969e-01-5.533801933634e-09
    -1.360770967287e-10 1.000000000000e+00 1.404000000000e+03                   
     1.070000000000e+02 0.000000000000e+00-1.187436282635e-08-1.164153218269e-08
     2.144150000000e+05                                                         
G11 2026 07 21 11 33 36-2.678104792722e-04 1.223909862347e-11 0.000000000000e+00
    -9.360313415527e-04-2.354687500000e+01 4.523759861328e-09-3.067374537467e+00
    -1.215375959873e-06 2.486338082235e-03 5.622394382954e-06 5.153570937345e+03
     1.872000000000e+05-3.073364496231e-08 5.993054630438e-01-1.108273863792e-07
     9.627631054621e-01 2.717890625000e+02-2.355419437657e+00-8.195820623734e-09
    -1.960795960737e-10 4.523759861328e-09-2.000000000000e+00 3.000000000000e+00
     2.800000000000e+01 4.000000000000e+00-8.847564458847e-09 7.000000000000e+00
    -2.037268131971e-10 5.675246939063e-09 3.783497959375e-10 2.328306436539e-10
     2.144160000000e+05 2.428000000000e+03 0.000000000000e+00                   
G13 2026 07 21 11 33 36 4.184397403151e-04 5.229594535194e-12 8.673617379884e-19
     4.562377929688e-03 4.561328125000e+01 4.458221417103e-09 2.657256497513e-01
     2.283602952957e-06 2.268318727147e-03 8.784234523773e-06 5.153633150734e+03
     1.647000000000e+05-3.725290298462e-09-1.575934714635e+00-1.955777406693e-08
     9.588254551803e-01 2.099062500000e+02 1.820784640429e+00-8.351541395843e-09
     1.660783464012e-11 4.458221417103e-09-2.000000000000e+00 2.000000000000e+00
     3.000000000000e+01 7.000000000000e+00-8.381903171539e-09 7.000000000000e+00
    -1.164153218269e-10 5.267793312669e-09 1.658918336034e-09 1.949956640601e-09
     2.144160000000e+05 2.428000000000e+03 0.000000000000e+00                   
G12 2026 07 21 11 33 36-6.054627010599e-04 5.542233338929e-13 0.000000000000e+00
     5.886554718018e-03 4.863281250000e+01 4.535903224290e-09 3.584829002517e-01
     2.461485564709e-06 8.703983854502e-03 8.565373718739e-06 5.153519584271e+03
     2.025000000000e+05-8.940696716309e-08-1.467415643889e+00-5.122274160385e-08
     9.583090143770e-01 2.155156250000e+02 1.587535177361e+00-8.202070884082e-09
     2.857261873569e-12 4.535903224290e-09-2.000000000000e+00 2.000000000000e+00
     2.700000000000e+01 4.000000000000e+00-1.257285475731e-08 7.000000000000e+00
    -6.984919309616e-10 7.072230800986e-09 0.000000000000e+00 0.000000000000e+00
     2.144160000000e+05 2.428000000000e+03 0.000000000000e+00                   
E16 2026 07 21 11 33 54-4.648976027966e-05-2.472688720445e-12 0.000000000000e+00
     9.600000000000e+01 8.443750000000e+01 3.004053702323e-09-1.982710376646e+00
     3.952533006668e-06 4.925740649924e-04 8.465722203255e-06 5.440620019913e+03
     2.100000000000e+05 9.313225746155e-09-1.332482449802e+00 3.725290298462e-09
     9.625730936159e-01 1.559062500000e+02-2.475996013070e+00-5.514515415988e-09
     7.857470152314e-11 5.160000000000e+02 1.404000000000e+03                   
     1.070000000000e+02 0.000000000000e+00-3.725290298462e-09-2.328306436539e-09
     2.144340000000e+05                                                         
E11 2026 07 21 11 33 54 5.518126708921e-03 6.747313818778e-11-3.469446951954e-18
     9.900000000000e+01-3.928125000000e+01 2.638681340241e-09-1.408247597405e+00
    -1.888722181320e-06 4.173512570560e-04 5.777925252914e-06 5.440611831665e+03
     2.118000000000e+05-7.823109626770e-08 7.694409879970e-01-4.470348358154e-08
     9.945458133851e-01 2.324062500000e+02 1.347685586023e+00-5.458798809453e-09
    -1.860791795162e-10 5.160000000000e+02 1.404000000000e+03                   
     1.070000000000e+02 0.000000000000e+00-1.466833055019e-08-1.583248376846e-08
     2.144340000000e+05                                                         
E25 2026 07 21 11 33 54 2.174236578867e-05-7.105427357601e-14 0.000000000000e+00
     9.900000000000e+01 9.740625000000e+01 3.073342302757e-09 2.624236618057e+00
     4.328787326813e-06 2.982205478474e-04 8.316710591316e-06 5.440612489700e+03
     2.118000000000e+05 1.862645149231e-09-1.329174281467e+00-1.117587089539e-08
     9.606289369311e-01 1.592812500000e+02-1.309165599796e+00-5.515229731456e-09
     5.321650239522e-11 5.160000000000e+02 1.404000000000e+03                   
     1.070000000000e+02 0.000000000000e+00 2.328306436539e-09 2.561137080193e-09
     2.144340000000e+05                                                         
E10 2026 07 21 11 33 54-8.074495708570e-04-2.643218977028e-12 0.000000000000e+00
     1.020000000000e+02-5.062500000000e+01 2.676540060065e-09-1.742219497612e+00
    -2.352520823479e-06 2.863210393116e-04 5.545094609261e-06 5.440602169037e+03
     2.136000000000e+05 3.911554813385e-08 7.679715760244e-01-9.499490261078e-08
     9.974623687914e-01 2.376875000000e+02 2.333586160670e+00-5.497729002480e-09
    -1.542921411727e-10 5.160000000000e+02 1.404000000000e+03                   
     1.070000000000e+02 0.000000000000e+00-1.164153218269e-09-2.328306436539e-10
     2.144340000000e+05                                                         
END OF FILE                                                 COMMENT
