     3.05           N: NAVIGATION       M: MIXED            RINEX VERSION / TYPE
PYRINEXCONV 0.1.2 ALDELTUNES            20260721 042111 UTC PGM / RUN BY / DATE
GAL    1.0175e+02  3.3203e-01  2.2858e-02             E 31  IONOSPHERIC CORR
GPSA   9.3132e-09  2.2352e-08  1.5199e-05  1.5140e-05 E 14  IONOSPHERIC CORR
GPSB   1.0035e+05  1.3107e+05  1.6712e+07  1.6318e+07 E 14  IONOSPHERIC CORR
BDSA   2.0489e-08  2.2352e-08 -5.3644e-07  9.5367e-07 E 20  IONOSPHERIC CORR
BDSB   1.3722e+05 -4.4237e+05  4.3254e+06 -3.8666e+06 E 20  IONOSPHERIC CORR
GAUT  6.5192580223e-09-2.664535259e-15 187800 1404   E31  0 TIME SYSTEM CORR
GPUT -3.2887328416e-09 5.373479439e-14 385200 2428   G14  0 TIME SYSTEM CORR
BDUT  0.0000000000e+00 0.000000000e+00 187200 1072   C20  0 TIME SYSTEM CORR
                                                            END OF HEADER
G09 2026 07 21 04 13 54 7.171146571636e-04-7.048583938740e-12 0.000000000000e+00
     7.400000000000e+01-1.984375000000e+01 4.403754862638e-09 1.649337004501e+00
    -1.048669219017e-06 3.670229576528e-03 6.090849637985e-06 5.153696254730e+03
     1.944000000000e+05 1.378357410431e-07 2.624858163673e+00 3.166496753693e-08
     9.667080432703e-01 2.642812500000e+02 2.038203357865e+00-8.018548290436e-09
     2.792973481413e-10 1.000000000000e+00 3.800000000000e+02 0.000000000000e+00
     2.000000000000e+00 0.000000000000e+00 4.656612873077e-10 7.400000000000e+01
     7.521360000000e+05 4.000000000000e+00                                      
G27 2026 07 21 04 13 54 5.345791578293e-07 0.000000000000e+00 0.000000000000e+00
     9.200000000000e+01 4.981250000000e+01 5.066996775040e-09 1.178820661012e+00
     2.728775143623e-06 1.433041493874e-02 5.435198545456e-06 5.153676309586e+03
     1.944000000000e+05-1.974403858185e-07-5.084907592869e-01 2.197921276093e-07
     9.508924168974e-01 2.717500000000e+02 9.006274967388e-01-8.603929816784e-09
    -1.414344627416e-10 1.000000000000e+00 3.800000000000e+02 0.000000000000e+00
     2.800000000000e+00 0.000000000000e+00 2.328306436539e-09 9.200000000000e+01
     7.521360000000e+05 4.000000000000e+00                                      
G04 2026 07 21 04 13 54 6.274553015828e-05 6.821210263297e-13 0.000000000000e+00
     6.000000000000e+00-2.050000000000e+01 4.324823003380e-09 7.817716787169e-01
    -9.983777999878e-07 3.822581376880e-03 6.087124347687e-06 5.153674917221e+03
     1.944000000000e+05 7.450580596924e-09 2.690032590449e+00 1.415610313416e-07
     9.724451661759e-01 2.685000000000e+02-2.902069181801e+00-7.997118826385e-09
     2.214377952016e-10 1.000000000000e+00 3.800000000000e+02 0.000000000000e+00
     2.000000000000e+00 0.000000000000e+00-4.656612873077e-09 5.180000000000e+02
     7.521360000000e+05 4.000000000000e+00                                      
G07 2026 07 21 04 13 54-2.079098485410e-04-3.751665644813e-12 0.000000000000e+00
     9.700000000000e+01-2.071875000000e+01 4.741626079187e-09-1.695767174572e+00
    -9.015202522278e-07 2.093818434514e-02 7.875263690948e-06 5.153584897995e+03
     1.944000000000e+05 4.228204488754e-07-2.586084121241e+00 1.657754182816e-07
     9.513214629746e-01 2.134062500000e+02-1.955170504928e+00-7.871042146213e-09
     1.142904749427e-11 1.000000000000e+00 3.800000000000e+02 0.000000000000e+00
     2.000000000000e+00 0.000000000000e+00-1.071020960808e-08 9.700000000000e+01
     7.521360000000e+05 4.000000000000e+00                                      
G14 2026 07 21 04 13 54 7.499763742089e-04 2.273736754432e-13 0.000000000000e+00
     2.270000000000e+02 6.125000000000e+01 4.906990110120e-09-2.599717998404e+00
     3.017485141754e-06 7.363637676463e-03 9.743496775627e-06 5.153661857605e+03
     1.944000000000e+05-2.048909664154e-08-1.524159444936e+00-1.657754182816e-07
     9.416377923194e-01 1.834687500000e+02-2.680783462054e+00-8.087836890870e-09
     4.500187450871e-11 1.000000000000e+00 3.800000000000e+02 0.000000000000e+00
     2.000000000000e+00 0.000000000000e+00-7.916241884232e-09 9.950000000000e+02
     7.521360000000e+05 4.000000000000e+00                                      
G08 2026 07 21 04 13 54 3.939843736589e-04-9.208633855451e-12 0.000000000000e+00
     8.200000000000e+01 5.553125000000e+01 5.257361847366e-09 1.030811823210e+00
     3.173947334290e-06 1.168476371095e-02 5.075708031654e-06 5.153750621796e+03
     1.944000000000e+05 5.587935447693e-09-5.417054526179e-01 1.657754182816e-07
     9.417689063523e-01 2.702812500000e+02 5.448627546008e-01-8.641074221140e-09
    -2.032227507576e-10 1.000000000000e+00 3.800000000000e+02 0.000000000000e+00
     2.000000000000e+00 0.000000000000e+00 4.656612873077e-09 8.200000000000e+01
     7.521360000000e+05 4.000000000000e+00                                      
E19 2026 07 21 04 14 25 3.108405508101e-03 2.441424840072e-11 0.000000000000e+00
     5.800000000000e+01-4.503125000000e+01 3.111915338050e-09 2.974029788575e+00
    -2.000480890274e-06 2.430850872770e-04 5.550682544708e-06 5.440618598938e+03
     1.872000000000e+05-3.352761268616e-08 2.860542827239e+00-3.352761268616e-08
     9.747226355788e-01 2.281875000000e+02-2.399187683454e-01-5.654164090058e-09
     2.203663219990e-10 1.000000000000e+00 1.404000000000e+03                   
     1.070000000000e+02 0.000000000000e+00-4.423782229424e-09-4.423782229424e-09
     1.880650000000e+05                                                         
E29 2026 07 21 04 16 35-2.271780977026e-04-3.581135388231e-12 0.000000000000e+00
     5.200000000000e+01-4.337500000000e+01 3.311209353732e-09 1.611081664544e+00
    -1.994892954826e-06 2.005466958508e-04 5.308538675308e-06 5.440614410400e+03
     1.836000000000e+05 2.793967723846e-08 2.852146098785e+00-7.450580596924e-09
     9.627400564563e-01 2.299687500000e+02 1.424770870900e+00-5.723095532758e-09
     2.185805333280e-10 1.000000000000e+00 1.404000000000e+03                   
     1.070000000000e+02 0.000000000000e+00-3.259629011154e-09-2.793967723846e-09
     1.881950000000e+05                                                         
C37 2026 07 21 04 16 54-9.072970133275e-04 6.910916283687e-12 0.000000000000e+00
     1.000000000000e+00 2.026562500000e+01 4.228033257413e-09 2.295978763223e+00
     1.037959009409e-06 7.145488634706e-04 9.840819984674e-06 5.282669256210e+03
     1.872000000000e+05 1.862645149231e-08-2.018614065550e+00 3.083236515522e-05
     9.451550262778e-01 1.539531250000e+02-3.743148959465e-01 1.002831057653e-07
    -6.500270762369e-11                    1.072000000000e+03                   
     0.000000000000e+00 0.000000000000e+00-7.823109626770e-08-7.823109626770e-08
     1.882140000000e+05 1.000000000000e+00                                      
C27 2026 07 21 04 16 54 6.608702242374e-04 4.930278407755e-12 0.000000000000e+00
     1.000000000000e+00-6.140625000000e+00 4.238390831705e-09-1.837001772715e+00
    -4.330649971962e-07 6.344947032630e-04 4.049390554428e-06 5.282656711578e+03
     1.872000000000e+05-1.955777406693e-08 7.570823277464e-02 4.718964919448e-05
     9.479133787971e-01 2.709531250000e+02 1.692672247028e+00 2.028957371361e-06
    -3.285851154604e-10                    1.072000000000e+03                   
     0.000000000000e+00 0.000000000000e+00-2.002343535423e-08-2.002343535423e-08
     1.882140000000e+05 1.000000000000e+00                                      
C28 2026 07 21 04 16 54 5.406786222011e-04 3.956834859764e-12 0.000000000000e+00
     1.000000000000e+00-6.562500000000e-01 4.248391248262e-09 2.687206855923e+00
    -6.472691893578e-08 1.229300396517e-04 3.729481250048e-06 5.282632028580e+03
     1.872000000000e+05-5.587935447693e-09 7.538509172594e-02 4.095863550901e-05
     9.477871114118e-01 2.748125000000e+02-2.180534098581e+00 1.712418471960e-06
    -3.192990143713e-10                    1.072000000000e+03                   
     0.000000000000e+00 0.000000000000e+00-2.002343535423e-08-2.002343535423e-08
     1.882140000000e+05 1.000000000000e+00                                      
C12 2026 07 21 04 16 54 6.157784955576e-04-4.963141009284e-12 0.000000000000e+00
     1.000000000000e+00-1.239062500000e+01 3.542647565491e-09 2.118773301904e+00
    -5.620531737804e-07 1.763218315318e-04 7.363036274910e-06 5.282643545151e+03
     1.872000000000e+05 3.911554813385e-08 2.170681746156e+00-5.932617932558e-05
     9.735978636990e-01 2.170000000000e+02 7.068955990963e-01-1.400076533093e-06
     4.185888644778e-10                    1.072000000000e+03                   
     0.000000000000e+00 0.000000000000e+00 3.725290298462e-09 3.725290298462e-09
     1.882140000000e+05 1.000000000000e+00                                      
C19 2026 07 21 04 16 54-9.326311992481e-04 8.615330671091e-13 0.000000000000e+00
     1.000000000000e+00-1.514062500000e+01 3.240849280095e-09 2.720649106161e+00
    -7.529743015766e-07 7.844039937481e-04 7.436610758305e-06 5.282631511688e+03
     1.872000000000e+05 5.355104804039e-08 2.185028522317e+00 4.794448614120e-06
     9.899464984224e-01 2.225468750000e+02-3.182850749938e-01 6.245567295804e-07
     4.035882396416e-10                    1.072000000000e+03                   
     0.000000000000e+00 0.000000000000e+00 4.330649971962e-08 4.330649971962e-08
     1.882140000000e+05 1.000000000000e+00                                      
C20 2026 07 21 04 16 54-8.893072372302e-04 3.047340157991e-12 0.000000000000e+00
     1.000000000000e+00-1.387500000000e+01 3.215133923233e-09 2.844340348272e+00
    -6.393529474735e-07 8.085493464023e-04 7.359310984612e-06 5.282636501312e+03
     1.872000000000e+05 3.026798367500e-08 2.185655931308e+00-2.343673259020e-06
     9.899317068577e-01 2.263125000000e+02 2.745776207572e-01 1.235644683847e-06
     4.285892810353e-10                    1.072000000000e+03                   
     0.000000000000e+00 0.000000000000e+00 5.541369318962e-08 5.541369318962e-08
     1.882140000000e+05 1.000000000000e+00                                      
G09 2026 07 21 04 20 00 7.171272591222e-04-6.991740519879e-12 0.000000000000e+00
     3.526687622070e-03-1.656250000000e+01 4.419469802942e-09 1.386780316189e+00
    -9.629875421524e-07 3.668958088383e-03 6.236135959625e-06 5.153526767805e+03
     1.395000000000e+05 1.192092895508e-07 2.624872550741e+00 7.450580596924e-09
     9.667074427424e-01 2.606484375000e+02 2.038220855097e+00-8.294574737239e-09
     2.851904507556e-10 4.419469802942e-09-2.000000000000e+00 3.000000000000e+00
     3.000000000000e+01 4.000000000000e+00 4.656612873077e-10 7.000000000000e+00
    -5.820766091347e-10-7.275957614183e-10 5.064066499472e-09 5.617039278150e-09
     1.884000000000e+05 2.428000000000e+03 0.000000000000e+00                   
G07 2026 07 21 04 20 00-2.079032128677e-04-3.755218358492e-12 0.000000000000e+00
    -5.875587463379e-03-2.107812500000e+01 4.738947396181e-09-1.958368274151e+00
    -1.118518412113e-06 2.093622175744e-02 8.556991815567e-06 5.153637853118e+03
     1.161000000000e+05 3.129243850708e-07-2.586070385172e+00 6.239861249924e-08
     9.513216685146e-01 2.053984375000e+02-1.955131948259e+00-8.543692256841e-09
     7.393165097859e-11 4.738947396181e-09-2.000000000000e+00 3.000000000000e+00
     3.100000000000e+01 4.000000000000e+00-1.071020960808e-08 7.000000000000e+00
    -9.313225746155e-10 6.984919309616e-09 0.000000000000e+00 0.000000000000e+00
     1.884000000000e+05 2.428000000000e+03 0.000000000000e+00                   
G14 2026 07 21 04 20 48 7.499761122745e-04 2.593480985524e-13 0.000000000000e+00
    -2.451896667480e-03 6.748828125000e+01 4.874488756308e-09-2.862347758742e+00
     3.377906978130e-06 7.362615899183e-03 9.466893970966e-06 5.153559374317e+03
     1.152000000000e+05-6.146728992462e-08-1.524144717008e+00-1.182779669762e-07
     9.416378201149e-01 1.868945312500e+02-2.680703005217e+00-8.281895637675e-09
     1.892935991239e-11 4.874488756308e-09-2.000000000000e+00 3.000000000000e+00
     3.100000000000e+01 4.000000000000e+00-7.916241884232e-09 7.000000000000e+00
    -2.619344741106e-10 5.005858838558e-09-1.455191522837e-09-1.076841726899e-09
     1.884480000000e+05 2.428000000000e+03 0.000000000000e+00                   
E31 2026 07 21 04 20 54-1.580698881298e-04-2.984279490192e-12 0.000000000000e+00
     5.800000000000e+01 1.232187500000e+02 3.151917004280e-09 1.221266085080e+00
     5.669891834259e-06 3.408289048821e-04 9.184703230858e-06 5.440619752884e+03
     1.872000000000e+05 0.000000000000e+00-1.329118494549e+00-3.725290298462e-09
     9.605967220121e-01 1.453750000000e+02-1.395465707639e+00-5.546302454331e-09
     4.893060958486e-11 5.160000000000e+02 1.404000000000e+03                   
     1.070000000000e+02 0.000000000000e+00 3.492459654808e-09 4.190951585770e-09
     1.884540000000e+05                                                         
E06 2026 07 21 04 20 54-3.006172482856e-04-5.073275133327e-12 0.000000000000e+00
     5.800000000000e+01-3.893750000000e+01 3.315138088808e-09 1.319957994120e-01
    -1.920387148857e-06 5.051459884271e-04 5.545094609261e-06 5.440611143112e+03
     1.872000000000e+05 1.490116119385e-08 2.852094890800e+00-3.539025783539e-08
     9.626593472658e-01 2.188750000000e+02 1.385701049839e+00-5.717023851277e-09
     2.046513816944e-10 5.160000000000e+02 1.404000000000e+03                   
     1.070000000000e+02 0.000000000000e+00 2.328306436539e-09 3.725290298462e-09
     1.884540000000e+05                                                         
E21 2026 07 21 04 21 05-7.585562416352e-04-2.813749233610e-12 0.000000000000e+00
     5.500000000000e+01 1.006875000000e+02 3.320138297087e-09 2.714061811340e+00
     4.794448614120e-06 1.726628979668e-04 8.253380656242e-06 5.440613023758e+03
     1.854000000000e+05 5.029141902924e-08-1.329028293946e+00 4.842877388000e-08
     9.606201886810e-01 1.634687500000e+02-1.553261353284e+00-5.615233897031e-09
     3.821587755898e-11 1.000000000000e+00 1.404000000000e+03                   
     1.070000000000e+02 0.000000000000e+00 6.984919309616e-10 9.313225746155e-10
     1.884650000000e+05                                                         
E28 2026 07 21 04 21 24-6.029597716406e-05-2.856381797756e-12 0.000000000000e+00
     5.200000000000e+01-4.278125000000e+01 3.551219351112e-09-1.288110472343e-01
    -1.991167664528e-06 2.851557219401e-04 5.381181836128e-06 5.440609237671e+03
     1.836000000000e+05 1.490116119385e-08 2.870159980472e+00-9.313225746155e-09
     9.490518918664e-01 2.151875000000e+02 1.959078299978e+00-5.851672317069e-09
     2.078658013021e-10 5.160000000000e+02 1.404000000000e+03                   
     1.070000000000e+02 0.000000000000e+00 9.313225746155e-10 1.862645149231e-09
     1.884840000000e+05                                                         
E23 2026 07 21 04 21 24-4.268635530025e-05-1.350031197944e-12 0.000000000000e+00
     5.200000000000e+01 1.184062500000e+02 3.143702376394e-09 2.901419929980e+00
     5.444511771202e-06 1.718186540529e-04 9.061768651009e-06 5.440622465134e+03
     1.836000000000e+05-7.450580596924e-09-1.332210876616e+00-2.607703208923e-08
     9.625505500483e-01 1.461250000000e+02-2.755825969088e+00-5.554517082217e-09
     4.643050544549e-12 5.160000000000e+02 1.404000000000e+03                   
     1.070000000000e+02 0.000000000000e+00 4.656612873077e-10 1.862645149231e-09
     1.884840000000e+05                                                         
E04 2026 07 21 04 21 24-1.224564621225e-04 3.342393029016e-11 0.000000000000e+00
     5.300000000000e+01-4.006250000000e+01 3.221562762449e-09 1.606854570068e+00
    -1.966953277588e-06 2.934384392574e-04 5.589798092842e-06 5.440608936310e+03
     1.842000000000e+05 1.676380634308e-08 2.852461152822e+00-1.862645149231e-08
     9.693526890190e-01 2.203750000000e+02-6.804140827777e-02-5.659164298337e-09
     2.132231673151e-10 5.160000000000e+02 1.404000000000e+03                   
     1.070000000000e+02 0.000000000000e+00-4.190951585770e-09-4.656612873077e-09
     1.884840000000e+05                                                         
E31 2026 07 21 04 21 24-1.580716343597e-04-2.984279490192e-12 0.000000000000e+00
     5.900000000000e+01 1.233125000000e+02 3.150488373344e-09 1.295640980670e+00
     5.668029189110e-06 3.408213378862e-04 9.192153811455e-06 5.440619762421e+03
     1.878000000000e+05 0.000000000000e+00-1.329121822687e+00-3.725290298462e-09
     9.605967498075e-01 1.453125000000e+02-1.395455464287e+00-5.546659612065e-09
     4.893060958486e-11 5.160000000000e+02 1.404000000000e+03                   
     1.070000000000e+02 0.000000000000e+00 3.492459654808e-09 4.190951585770e-09
     1.884840000000e+05                                                         
E06 2026 07 21 04 21 24-3.006202750839e-04-5.073275133327e-12 0.000000000000e+00
     5.900000000000e+01-3.921875000000e+01 3.311566511466e-09 2.063342610273e-01
    -1.912936568260e-06 5.051671760157e-04 5.543231964111e-06 5.440611204147e+03
     1.878000000000e+05 2.048909664154e-08 2.852091490979e+00-3.352761268616e-08
     9.626594760026e-01 2.188125000000e+02 1.385748185060e+00-5.719523955416e-09
     2.021512775550e-10 5.160000000000e+02 1.404000000000e+03                   
     1.070000000000e+02 0.000000000000e+00 2.328306436539e-09 3.725290298462e-09
     1.884840000000e+05                                                         
END OF FILE                                                 COMMENT
