     3.05           N: NAVIGATION       M: MIXED            RINEX VERSION / TYPE
PYRINEXCONV 0.1.2 ALDELTUNES            20260721 010009 UTC PGM / RUN BY / DATE
GAL    1.0175e+02  3.3203e-01  2.2858e-02             B 33  IONOSPHERIC CORR
GPSA   9.3132e-09  2.2352e-08  1.5199e-05  1.5140e-05 B 04  IONOSPHERIC CORR
GPSB   1.0035e+05  1.3107e+05  1.6712e+07  1.6318e+07 B 04  IONOSPHERIC CORR
BDSA   1.9558e-08  2.9802e-08 -5.9605e-07  1.0133e-06 A 20  IONOSPHERIC CORR
BDSB   1.4131e+05 -7.8643e+05  6.0293e+06 -4.9807e+06 A 20  IONOSPHERIC CORR
GAUT  6.5192580223e-09-2.664535259e-15 174000 1404   E33  0 TIME SYSTEM CORR
GPUT -3.2014213502e-09 1.588507104e-12 356400 2428   G04  0 TIME SYSTEM CORR
BDUT  0.0000000000e+00 0.000000000e+00 172800 1072   C20  0 TIME SYSTEM CORR
                                                            END OF HEADER
E19 2026 07 21 00 50 54 3.108098288067e-03 2.432898327243e-11 0.000000000000e+00
     3.700000000000e+01-4.050000000000e+01 3.223348551120e-09 1.412633671577e+00
    -2.050772309303e-06 2.443577395752e-04 5.675479769707e-06 5.440615755081e+03
     1.746000000000e+05 1.117587089539e-08 2.860613617845e+00 3.725290298462e-09
     9.747201369147e-01 2.229062500000e+02-2.406143815034e-01-5.626305786791e-09
     2.117945363783e-10 5.160000000000e+02 1.404000000000e+03                   
     1.070000000000e+02 0.000000000000e+00-4.423782229424e-09-4.423782229424e-09
     1.758540000000e+05                                                         
E12 2026 07 21 00 51 24-5.891994806007e-05-2.685851541173e-12 0.000000000000e+00
     3.800000000000e+01-6.875000000000e+01 2.509390240462e-09 1.618173247708e+00
    -3.224238753319e-06 3.186337416992e-04 6.390735507011e-06 5.440607120514e+03
     1.752000000000e+05 6.519258022308e-08 7.696506109915e-01 1.117587089539e-08
     9.945677732484e-01 2.196875000000e+02 8.637516329397e-01-5.527373094419e-09
    -2.428672592533e-10 5.160000000000e+02 1.404000000000e+03                   
     1.070000000000e+02 0.000000000000e+00-1.187436282635e-08-1.164153218269e-08
     1.758840000000e+05                                                         
G26 2026 07 21 00 52 48-3.841021971311e-04-2.511768570912e-12 0.000000000000e+00
    -6.264209747314e-03 5.512890625000e+01 5.416118460217e-09 4.981622482401e-01
     3.001652657986e-06 1.116635178914e-02 9.015202522278e-06 5.153641958227e+03
     1.152000000000e+05-2.700835466385e-08-1.639756209171e+00 1.173466444016e-07
     9.274891442743e-01 1.881914062500e+02 7.146350318747e-01-7.784374913940e-09
    -1.928651764659e-10 5.416118460217e-09-2.000000000000e+00 3.000000000000e+00
     3.000000000000e+01 4.000000000000e+00 6.519258022308e-09 7.000000000000e+00
    -8.440110832453e-10-4.190951585770e-09 5.820766091347e-09 5.878973752260e-09
     1.759680000000e+05 2.428000000000e+03 0.000000000000e+00                   
C32 2026 07 21 00 52 54-9.033411042765e-04 1.862510146111e-12 0.000000000000e+00
     1.000000000000e+00-1.528125000000e+01 3.335138921923e-09 2.071525875573e+00
    -8.088536560535e-07 5.075715016574e-04 7.343944162130e-06 5.282631332397e+03
     1.728000000000e+05 3.213062882423e-08 2.177669544060e+00-3.067776560783e-06
     9.887592087384e-01 2.231875000000e+02-4.909819910278e-02-5.694133612092e-07
     4.546617956316e-10                    1.072000000000e+03                   
     0.000000000000e+00 0.000000000000e+00-3.818422555923e-08-3.818422555923e-08
     1.759740000000e+05 1.000000000000e+00                                      
C23 2026 07 21 00 52 54-4.541792441159e-04 3.552713678801e-15 0.000000000000e+00
     1.000000000000e+00 2.312500000000e+01 4.183745698373e-09 1.632283515366e+00
     1.185573637486e-06 3.784552682191e-04 1.036701723933e-05 5.282653682709e+03
     1.728000000000e+05 2.374872565269e-08-2.018286977548e+00 1.897569745779e-05
     9.436858907966e-01 1.384843750000e+02-8.755830209416e-01 4.225365289139e-07
    -2.728685089258e-10                    1.072000000000e+03                   
     0.000000000000e+00 0.000000000000e+00 1.024454832077e-07 1.024454832077e-07
     1.759740000000e+05 1.000000000000e+00                                      
C37 2026 07 21 00 52 54-9.073964320123e-04 6.909139926847e-12 0.000000000000e+00
     1.000000000000e+00 1.034375000000e+01 4.165173496195e-09 3.452587901002e-01
     4.637986421585e-07 7.127004209906e-04 1.081917434931e-05 5.282669240952e+03
     1.728000000000e+05-9.313225746155e-10-2.018514202373e+00 4.359474405646e-05
     9.451582169021e-01 1.326093750000e+02-3.738174789299e-01 2.002644132452e-07
    -2.560820954186e-10                    1.072000000000e+03                   
     0.000000000000e+00 0.000000000000e+00-7.823109626770e-08-7.823109626770e-08
     1.759740000000e+05 1.000000000000e+00                                      
C41 2026 07 21 00 52 54-9.488336509094e-04-2.091660178394e-12 0.000000000000e+00
     1.000000000000e+00-1.260937500000e+01 3.406927626496e-09-2.389793850518e+00
    -5.229376256466e-07 1.458042184822e-03 7.325783371925e-06 5.282628807068e+03
     1.728000000000e+05 1.676380634308e-08 2.179923621403e+00-1.113722100854e-05
     9.876143744000e-01 2.254375000000e+02-1.038559629000e+00 1.630723997629e-06
     4.560904265684e-10                    1.072000000000e+03                   
     0.000000000000e+00 0.000000000000e+00-1.117587089539e-07-1.117587089539e-07
     1.759740000000e+05 1.000000000000e+00                                      
C20 2026 07 21 00 52 54-8.893513586372e-04 2.998490344908e-12 0.000000000000e+00
     1.000000000000e+00-1.573437500000e+01 3.369426064406e-09 8.950717361763e-01
    -9.662471711636e-07 8.085578447208e-04 7.249414920807e-06 5.282634410858e+03
     1.728000000000e+05 4.982575774193e-08 2.185750703530e+00 1.670792698860e-06
     9.899256035634e-01 2.309843750000e+02 2.735976587493e-01 1.329226081887e-06
     4.182317067436e-10                    1.072000000000e+03                   
     0.000000000000e+00 0.000000000000e+00 5.541369318962e-08 5.541369318962e-08
     1.759740000000e+05 1.000000000000e+00                                      
G16 2026 07 21 00 53 54 3.019548021257e-04 6.480149750132e-12 0.000000000000e+00
     8.700000000000e+01 6.278125000000e+01 4.749840707074e-09 4.905484698842e-03
     3.473833203316e-06 1.503468246665e-02 8.979812264442e-06 5.153715620041e+03
     1.800000000000e+05-4.656612873077e-08-1.450390116970e+00 1.844018697739e-07
     9.573753442173e-01 2.042187500000e+02 9.375411286941e-01-8.338561620276e-09
    -8.571785620706e-11 1.000000000000e+00 3.800000000000e+02 0.000000000000e+00
     2.000000000000e+00 0.000000000000e+00-1.024454832077e-08 8.700000000000e+01
     7.041360000000e+05 4.000000000000e+00                                      
G03 2026 07 21 00 53 54 3.641797229648e-04-1.898570189951e-11 0.000000000000e+00
     3.900000000000e+01-2.587500000000e+01 3.495145586843e-09 1.972188565113e+00
    -1.396983861923e-06 6.975172669627e-03 9.100884199142e-06 5.153767438889e+03
     1.799840000000e+05 2.980232238770e-08 1.621788574712e+00-1.285225152969e-07
     9.947606312017e-01 2.198125000000e+02 1.276449267064e+00-7.577458488704e-09
     3.042983895351e-10 1.000000000000e+00 3.800000000000e+02 0.000000000000e+00
     2.000000000000e+00 0.000000000000e+00 1.396983861923e-09 3.900000000000e+01
     7.041360000000e+05 4.000000000000e+00                                      
G31 2026 07 21 00 53 54-1.340978778899e-04 2.728484105319e-12 0.000000000000e+00
     4.600000000000e+01-3.046875000000e+01 4.896989693563e-09 1.387305427708e+00
    -1.519918441772e-06 1.091507845558e-02 9.141862392426e-06 5.153633649826e+03
     1.800000000000e+05-2.589076757431e-07-2.561142719726e+00 8.940696716309e-08
     9.550181209095e-01 2.048125000000e+02 9.765602962162e-01-8.211770624636e-09
    -1.703642392115e-10 1.000000000000e+00 3.800000000000e+02 0.000000000000e+00
     2.000000000000e+00 0.000000000000e+00-1.350417733192e-08 4.600000000000e+01
     7.041360000000e+05 4.000000000000e+00                                      
G04 2026 07 21 00 53 54 6.273528560996e-05 6.821210263297e-13 0.000000000000e+00
     4.000000000000e+00-2.156250000000e+01 4.435899058715e-09-1.318618189375e+00
    -1.283362507820e-06 3.821728983894e-03 6.174668669701e-06 5.153673210144e+03
     1.800000000000e+05 4.470348358154e-08 2.690147796711e+00-5.960464477539e-08
     9.724411767983e-01 2.633125000000e+02-2.902038596573e+00-8.003904823334e-09
     3.196561721055e-10 1.000000000000e+00 3.800000000000e+02 0.000000000000e+00
     2.000000000000e+00 0.000000000000e+00-4.656612873077e-09 5.160000000000e+02
     7.041360000000e+05 4.000000000000e+00                                      
G28 2026 07 21 00 53 54-4.658922553062e-04 1.091393642128e-11 0.000000000000e+00
     9.500000000000e+01-3.215625000000e+01 4.697338520147e-09-3.139609729576e+00
    -1.585111021996e-06 5.170600488782e-04 8.603557944298e-06 5.153621814728e+03
     1.800000000000e+05-4.656612873077e-08-2.610111901157e+00 2.048909664154e-08
     9.622425633680e-01 2.147500000000e+02-3.117338440287e-01-7.972474942725e-09
    -9.357532635937e-11 1.000000000000e+00 3.800000000000e+02 0.000000000000e+00
     2.000000000000e+00 0.000000000000e+00-9.313225746155e-09 3.510000000000e+02
     7.041360000000e+05 4.000000000000e+00                                      
E07 2026 07 21 00 55 35-7.847271626815e-05-2.543742994021e-12 0.000000000000e+00
     3.800000000000e+01-4.796875000000e+01 3.299423148503e-09 2.602796138964e+00
    -2.142041921616e-06 4.214008804411e-04 5.424022674561e-06 5.440618276596e+03
     1.752000000000e+05 1.303851604462e-08 2.852460567655e+00 1.303851604462e-08
     9.693524959138e-01 2.308437500000e+02 1.827660495110e-01-5.654164090058e-09
     1.925080187317e-10 1.000000000000e+00 1.404000000000e+03                   
     1.070000000000e+02 0.000000000000e+00 4.423782229424e-09 4.889443516731e-09
     1.761350000000e+05                                                         
E27 2026 07 21 00 58 55-1.049726095516e-03-1.062971932697e-11 0.000000000000e+00
     3.700000000000e+01 1.031875000000e+02 3.284065365933e-09 1.502247616563e+00
     4.922971129417e-06 2.446804428473e-04 8.303672075272e-06 5.440614410400e+03
     1.746000000000e+05 5.401670932770e-08-1.329007517583e+00-1.303851604462e-08
     9.605918841420e-01 1.592500000000e+02-8.808755747463e-01-5.630948837335e-09
    -3.500145795122e-11 1.000000000000e+00 1.404000000000e+03                   
     1.070000000000e+02 0.000000000000e+00 2.328306436539e-10 2.328306436539e-10
     1.763350000000e+05                                                         
G03 2026 07 21 00 59 12 3.642191586550e-04-1.892885848065e-11 0.000000000000e+00
    -5.082130432129e-03-3.272656250000e+01 3.511932000350e-09 1.668182751148e+00
    -1.699663698673e-06 6.976965523791e-03 9.193085134029e-06 5.153454907572e+03
     1.737000000000e+05-4.470348358154e-08 1.621804437133e+00-1.080334186554e-07
     9.947597490621e-01 2.185000000000e+02 1.276501399613e+00-8.703163185159e-09
     2.996553389905e-10 3.511932000350e-09-2.000000000000e+00 2.000000000000e+00
     2.700000000000e+01 4.000000000000e+00 1.396983861923e-09 7.000000000000e+00
     5.529727786779e-10-2.008164301515e-09 1.862645149231e-09 5.005858838558e-09
     1.763520000000e+05 2.428000000000e+03 0.000000000000e+00                   
E28 2026 07 21 00 59 35-6.027094786987e-05-2.927436071332e-12 0.000000000000e+00
     3.700000000000e+01-3.906250000000e+01 3.651580674421e-09-1.244498328682e+00
    -2.037733793259e-06 2.845055423677e-04 5.515292286873e-06 5.440607912064e+03
     1.746000000000e+05-1.862645149231e-09 2.870212497768e+00-1.117587089539e-08
     9.490499403337e-01 2.184687500000e+02 1.958976890496e+00-5.843814846916e-09
     2.167947446570e-10 1.000000000000e+00 1.404000000000e+03                   
     1.070000000000e+02 0.000000000000e+00 9.313225746155e-10 1.862645149231e-09
     1.763750000000e+05                                                         
G04 2026 07 21 01 00 00 6.273412145674e-05 6.998845947237e-13 0.000000000000e+00
    -5.631446838379e-04-2.111328125000e+01 4.452149735621e-09-1.581149703060e+00
    -1.121312379837e-06 3.821527818218e-03 6.383284926414e-06 5.153549399026e+03
     1.233000000000e+05 2.700835466385e-08 2.690162137697e+00-4.377216100693e-08
     9.724406055288e-01 2.625976562500e+02-2.902052367753e+00-8.337076507608e-09
     3.330495871378e-10 4.452149735621e-09-2.000000000000e+00 3.000000000000e+00
     3.000000000000e+01 4.000000000000e+00-4.656612873077e-09 7.000000000000e+00
    -2.037268131971e-10 3.317836672068e-09-1.426087692380e-09-1.396983861923e-09
     1.764000000000e+05 2.428000000000e+03 0.000000000000e+00                   
E19 2026 07 21 01 00 05 3.108113072813e-03 2.435740498186e-11 0.000000000000e+00
     3.800000000000e+01-4.078125000000e+01 3.216205396436e-09 1.486832582511e+00
    -2.047047019005e-06 2.443295670673e-04 5.671754479408e-06 5.440615858078e+03
     1.752000000000e+05 9.313225746155e-09 2.860610237041e+00 3.725290298462e-09
     9.747202612627e-01 2.225312500000e+02-2.404278916325e-01-5.625948629057e-09
     2.125088518467e-10 1.000000000000e+00 1.404000000000e+03                   
     1.070000000000e+02 0.000000000000e+00-4.423782229424e-09-4.423782229424e-09
     1.764050000000e+05                                                         
E29 2026 07 21 01 00 24-2.271460252814e-04-3.623767952377e-12 0.000000000000e+00
     3.700000000000e+01-4.634375000000e+01 3.417642358522e-09 5.022229145717e-01
    -2.084299921989e-06 2.009533345699e-04 5.552545189857e-06 5.440611452103e+03
     1.746000000000e+05-1.117587089539e-08 2.852197831957e+00 5.587935447693e-09
     9.627380215372e-01 2.196875000000e+02 1.417844790584e+00-5.746310785481e-09
     2.139374827835e-10 5.160000000000e+02 1.404000000000e+03                   
     1.070000000000e+02 0.000000000000e+00-3.259629011154e-09-2.793967723846e-09
     1.764240000000e+05                                                         
E21 2026 07 21 01 00 24-7.585274870507e-04-2.827960088325e-12 0.000000000000e+00
     3.800000000000e+01 1.217812500000e+02 3.151559846546e-09 1.439908301618e+00
     5.539506673813e-06 1.697258558124e-04 8.758157491684e-06 5.440619825363e+03
     1.752000000000e+05-7.450580596924e-09-1.328970709102e+00-1.490116119385e-08
     9.606208777154e-01 1.490937500000e+02-1.543655542055e+00-5.586661278295e-09
    -4.607334771129e-11 5.160000000000e+02 1.404000000000e+03                   
     1.070000000000e+02 0.000000000000e+00 6.984919309616e-10 9.313225746155e-10
     1.764240000000e+05                                                         
E33 2026 07 21 01 00 24-2.513604704291e-05-1.975308805413e-12 0.000000000000e+00
     3.600000000000e+01-7.168750000000e+01 2.431172696673e-09-1.102994296140e-01
    -3.250315785408e-06 1.660742564127e-04 6.973743438721e-06 5.440604534149e+03
     1.740000000000e+05 8.568167686462e-08 7.701162592791e-01 7.264316082001e-08
     9.976737209550e-01 2.066875000000e+02-3.026561867490e+00-5.443798184617e-09
    -1.992940156814e-10 5.160000000000e+02 1.404000000000e+03                   
     1.070000000000e+02 0.000000000000e+00-4.423782229424e-09-4.889443516731e-09
     1.764240000000e+05                                                         
END OF FILE                                                 COMMENT
