     3.05           N: NAVIGATION       M: MIXED            RINEX VERSION / TYPE
PYRINEXCONV 0.1.2 ALDELTUNES            20260721 121403 UTC PGM / RUN BY / DATE
GAL    1.0175e+02  3.3203e-01  2.2858e-02             M 10  IONOSPHERIC CORR
BDSA   2.1420e-08  7.4506e-08 -8.3447e-07  1.3113e-06 M 39  IONOSPHERIC CORR
BDSB   1.4131e+05 -7.2090e+05  5.6361e+06 -4.7186e+06 M 39  IONOSPHERIC CORR
GPSA   9.3132e-09  2.2352e-08  1.5199e-05  1.5140e-05 M 13  IONOSPHERIC CORR
GPSB   1.0035e+05  1.3107e+05  1.6712e+07  1.6318e+07 M 13  IONOSPHERIC CORR
GAUT  6.5192580223e-09-2.664535259e-15 216000 1404   E10  0 TIME SYSTEM CORR
BDUT  0.0000000000e+00 0.000000000e+00 216000 1072   C39  0 TIME SYSTEM CORR
GPUT  5.8207660913e-10-1.483257961e-12 442800 2428   G13  0 TIME SYSTEM CORR
                                                            END OF HEADER
C35 2026 07 21 12 04 54-4.783350741491e-04-1.614264277805e-11 0.000000000000e+00
     1.000000000000e+00 1.792187500000e+01 4.336609208609e-09 4.669290416059e-01
     8.274801075459e-07 8.120564743876e-04 3.822147846222e-06 5.282620946884e+03
     2.160000000000e+05 7.078051567078e-08 3.475175063562e-02 2.146093174815e-05
     9.437466530991e-01 2.746875000000e+02 8.870472662449e-01-2.015142510203e-06
    -6.750281176306e-11                    1.072000000000e+03                   
     0.000000000000e+00 0.000000000000e+00-1.257285475731e-08-1.257285475731e-08
     2.162940000000e+05 1.000000000000e+00                                      
C29 2026 07 21 12 04 54 6.338921375573e-04 5.202949182603e-12 0.000000000000e+00
     1.000000000000e+00 2.465625000000e+01 4.379468136712e-09 6.326844932773e-02
     1.261476427317e-06 2.177694113925e-04 3.475230187178e-06 5.282655553818e+03
     2.160000000000e+05-7.450580596924e-09 3.415257011163e-02 3.414368256927e-05
     9.455616092478e-01 2.823906250000e+02 2.111678146294e+00-2.599715431440e-06
    -1.178620522847e-11                    1.072000000000e+03                   
     0.000000000000e+00 0.000000000000e+00 9.313225746155e-10 9.313225746155e-10
     2.162940000000e+05 1.000000000000e+00                                      
C12 2026 07 21 12 04 54 6.156337913126e-04-4.996891789233e-12 0.000000000000e+00
     1.000000000000e+00-2.943750000000e+01 3.659080986839e-09-2.630241447657e-01
    -1.462642103434e-06 1.747981877998e-04 7.217749953270e-06 5.282643894196e+03
     2.160000000000e+05 6.984919309616e-09 2.170490174108e+00-3.792811185122e-05
     9.736061087052e-01 2.177656250000e+02 7.059895846714e-01-1.587878641519e-06
     1.542921411727e-10                    1.072000000000e+03                   
     0.000000000000e+00 0.000000000000e+00 3.725290298462e-09 3.725290298462e-09
     2.162940000000e+05 1.000000000000e+00                                      
C19 2026 07 21 12 04 54-9.326071012765e-04 8.189005029635e-13 0.000000000000e+00
     1.000000000000e+00-2.573437500000e+01 3.306923460922e-09 3.386366295520e-01
    -1.390464603901e-06 7.846758235246e-04 7.194932550192e-06 5.282633312225e+03
     2.160000000000e+05 1.396983861923e-08 2.184841312690e+00 1.379102468491e-05
     9.899549906618e-01 2.279531250000e+02-3.189565178192e-01 4.427434420415e-07
     1.492919328940e-10                    1.072000000000e+03                   
     0.000000000000e+00 0.000000000000e+00 4.330649971962e-08 4.330649971962e-08
     2.162940000000e+05 1.000000000000e+00                                      
C26 2026 07 21 12 04 54-6.725075654685e-04-5.538680625250e-12 0.000000000000e+00
     1.000000000000e+00 8.812500000000e+00 3.968736742387e-09 1.911948359135e+00
     4.526227712631e-07 9.375507943332e-04 9.174458682537e-06 5.282660764694e+03
     2.160000000000e+05 1.909211277962e-08-2.040592449381e+00 4.197936505079e-05
     9.453568650851e-01 1.662031250000e+02 7.301354864451e-01 2.607770409819e-06
    -1.064330047904e-10                    1.072000000000e+03                   
     0.000000000000e+00 0.000000000000e+00-2.328306436539e-08-2.328306436539e-08
     2.162940000000e+05 1.000000000000e+00                                      
C31 2026 07 21 12 04 54 7.556945784017e-04-9.037215420449e-12 0.000000000000e+00
     1.000000000000e+00 1.518750000000e+01 4.410898017322e-09-4.445036412123e-01
     7.422640919685e-07 7.334051188082e-04 3.811437636614e-06 5.282666347504e+03
     2.160000000000e+05 5.587935447693e-09 3.192312830929e-02 2.691242843866e-05
     9.410542781851e-01 2.776250000000e+02 1.055224217456e+00 1.215300622149e-06
    -7.821754378894e-11                    1.072000000000e+03                   
     0.000000000000e+00 0.000000000000e+00-6.519258022308e-09-6.519258022308e-09
     2.162940000000e+05 1.000000000000e+00                                      
C39 2026 07 21 12 04 54-9.575174190104e-04 8.786749106093e-12 0.000000000000e+00
     1.000000000000e+00 6.046875000000e+00 3.871232680951e-09-2.864413525612e+00
     3.427267074585e-07 5.721562774852e-04 9.524170309305e-06 5.282662319183e+03
     2.160000000000e+05 1.955777406693e-08-2.011571264852e+00-5.860393866897e-05
     9.490801569066e-01 1.626562500000e+02 5.979800241540e-02 9.870857589411e-07
    -6.107397254753e-11                    1.072000000000e+03                   
     0.000000000000e+00 0.000000000000e+00 8.987262845039e-08 8.987262845039e-08
     2.162940000000e+05 1.000000000000e+00                                      
G05 2026 07 21 12 06 24-2.352863957640e-04-3.375077994860e-13 0.000000000000e+00
    -5.671977996826e-03-3.324218750000e+01 4.024810506656e-09-1.031420181351e+00
    -1.653097569942e-06 5.603698780760e-03 7.516704499722e-06 5.153446300058e+03
     1.701000000000e+05-7.916241884232e-08 1.559859682165e+00 5.401670932770e-08
     9.811629890568e-01 2.459609375000e+02 1.481731062401e+00-8.459403031570e-09
     4.375182243902e-11 4.024810506656e-09-2.000000000000e+00 3.000000000000e+00
     3.000000000000e+01 4.000000000000e+00-1.071020960808e-08 7.000000000000e+00
    -3.783497959375e-10 5.733454599977e-09 0.000000000000e+00 0.000000000000e+00
     2.163840000000e+05 2.428000000000e+03 0.000000000000e+00                   
G21 2026 07 21 12 08 54 3.956621512771e-04-5.343281372916e-12 0.000000000000e+00
     2.300000000000e+02-4.034375000000e+01 4.495901558060e-09 1.287511599032e+00
    -1.912936568260e-06 7.923487573862e-04 7.547438144684e-06 5.153592666626e+03
     2.232000000000e+05 6.146728992462e-08 1.623503424840e+00-5.401670932770e-08
     9.641823678715e-01 2.333125000000e+02-8.721714242978e-02-8.044620805033e-09
     5.785955293977e-11 1.000000000000e+00 3.800000000000e+02 0.000000000000e+00
     2.800000000000e+00 0.000000000000e+00-9.778887033463e-09 4.860000000000e+02
     8.661360000000e+05 4.000000000000e+00                                      
G11 2026 07 21 12 08 54-2.677002921700e-04 1.227817847393e-11 0.000000000000e+00
     6.900000000000e+01-2.703125000000e+01 4.628764235181e-09-1.755002032525e+00
    -1.342967152596e-06 2.487988327630e-03 5.004927515984e-06 5.153647804260e+03
     2.232000000000e+05 6.891787052155e-08 5.992311482683e-01 0.000000000000e+00
     9.627620031533e-01 2.838125000000e+02-2.355045640144e+00-8.181412217230e-09
    -5.893102614235e-11 1.000000000000e+00 3.800000000000e+02 0.000000000000e+00
     2.000000000000e+00 0.000000000000e+00-8.847564458847e-09 8.370000000000e+02
     8.661360000000e+05 4.000000000000e+00                                      
G13 2026 07 21 12 08 54 4.184870049357e-04 5.229594535194e-12 0.000000000000e+00
     4.300000000000e+01 3.981250000000e+01 4.345538151964e-09 1.579206309287e+00
     2.102926373482e-06 2.269622404128e-03 9.225681424141e-06 5.153590618134e+03
     2.232000000000e+05 7.636845111847e-08-1.576006455406e+00-4.097819328308e-08
     9.588259094163e-01 1.999687500000e+02 1.820088937301e+00-7.917472651659e-09
     2.071514858337e-11 1.000000000000e+00 3.800000000000e+02 0.000000000000e+00
     2.800000000000e+00 6.300000000000e+01-8.381903171539e-09 4.300000000000e+01
     8.661360000000e+05 4.000000000000e+00                                      
G12 2026 07 21 12 08 54-6.054574623704e-04 5.684341886081e-13 0.000000000000e+00
     1.100000000000e+01 4.481250000000e+01 4.369467720155e-09 1.715136100223e+00
     2.250075340271e-06 8.705807500519e-03 8.989125490189e-06 5.153704656601e+03
     2.232000000000e+05 1.061707735062e-07-1.467491007577e+00-2.123415470123e-07
     9.583101912946e-01 2.030312500000e+02 1.587336480902e+00-7.903900657759e-09
     4.964492505326e-11 1.000000000000e+00 3.800000000000e+02 0.000000000000e+00
     2.000000000000e+00 0.000000000000e+00-1.257285475731e-08 1.100000000000e+01
     8.661360000000e+05 4.000000000000e+00                                      
G05 2026 07 21 12 08 54-2.352870069444e-04-3.410605131648e-13 0.000000000000e+00
     2.300000000000e+01-3.318750000000e+01 4.069812381164e-09-7.691829248591e-01
    -1.652166247368e-06 5.605044658296e-03 7.944181561470e-06 5.153775075912e+03
     2.232000000000e+05-8.754432201385e-08 1.559845350688e+00 7.450580596924e-09
     9.811629641872e-01 2.366875000000e+02 1.482026453356e+00-7.908186550570e-09
     5.714523747137e-11 1.000000000000e+00 3.800000000000e+02 0.000000000000e+00
     2.000000000000e+00 0.000000000000e+00-1.071020960808e-08 2.300000000000e+01
     8.661360000000e+05 4.000000000000e+00                                      
G25 2026 07 21 12 08 54 4.047034308314e-04-3.183231456205e-12 0.000000000000e+00
     8.000000000000e+01 3.790625000000e+01 4.647693595094e-09 1.648745407744e+00
     1.842156052589e-06 1.290104887448e-02 9.052455425262e-06 5.153670021057e+03
     2.232000000000e+05-2.123415470123e-07-1.562931777216e+00-2.291053533554e-07
     9.467232159420e-01 1.980937500000e+02 1.161786415102e+00-8.136410342721e-09
    -1.107188976008e-11 1.000000000000e+00 3.800000000000e+02 0.000000000000e+00
     2.000000000000e+00 0.000000000000e+00 5.587935447693e-09 8.000000000000e+01
     8.661360000000e+05 4.000000000000e+00                                      
G21 2026 07 21 12 10 00 3.956717555411e-04-5.307754236128e-12 0.000000000000e+00
    -7.040500640869e-03-3.537890625000e+01 4.462507309913e-09 1.026285565645e+00
    -1.767650246620e-06 7.946521509439e-04 7.230788469315e-06 5.153629512523e+03
     1.332000000000e+05 1.955777406693e-08 1.623518024762e+00-4.656612873077e-08
     9.641823159379e-01 2.416328125000e+02-8.855343836615e-02-8.309039625474e-09
     3.571577341961e-11 4.462507309913e-09-2.000000000000e+00 3.000000000000e+00
     3.100000000000e+01 4.000000000000e+00-9.778887033463e-09 7.000000000000e+00
    -8.731149137020e-11 6.199115887284e-09 1.746229827404e-10 1.455191522837e-10
     2.166000000000e+05 2.428000000000e+03 0.000000000000e+00                   
E11 2026 07 21 12 10 54 5.518369202036e-03 6.743050562363e-11-3.469446951954e-18
     1.050000000000e+02-4.525000000000e+01 2.680825952876e-09-9.627461100113e-01
    -2.160668373108e-06 4.166640574113e-04 5.722045898438e-06 5.440610313416e+03
     2.154000000000e+05-1.117587089539e-08 7.694211976413e-01-9.313225746155e-08
     9.945448449334e-01 2.337500000000e+02 1.348494470002e+00-5.499871948885e-09
    -1.478633019572e-10 5.160000000000e+02 1.404000000000e+03                   
     1.070000000000e+02 0.000000000000e+00-1.466833055019e-08-1.583248376846e-08
     2.166540000000e+05                                                         
E10 2026 07 21 12 10 54-8.074542274699e-04-2.657429831743e-12 0.000000000000e+00
     1.050000000000e+02-5.362500000000e+01 2.707255625206e-09-1.521800853800e+00
    -2.482905983925e-06 2.857750514522e-04 5.232170224190e-06 5.440600280762e+03
     2.154000000000e+05 6.519258022308e-08 7.679615579614e-01-5.774199962616e-08
     9.974619591743e-01 2.448437500000e+02 2.336323545185e+00-5.504157841696e-09
    -1.285767843106e-10 5.160000000000e+02 1.404000000000e+03                   
     1.070000000000e+02 0.000000000000e+00-1.164153218269e-09-2.328306436539e-10
     2.166540000000e+05                                                         
G11 2026 07 21 12 11 12-2.677223528735e-04 1.223909862347e-11 0.000000000000e+00
    -4.132270812988e-03-2.292187500000e+01 4.625728394441e-09-2.017792766517e+00
    -1.150183379650e-06 2.486625686288e-03 5.193054676056e-06 5.153574809431e+03
     1.872000000000e+05 5.774199962616e-08 5.992458425489e-01 4.656612873077e-09
     9.627621128722e-01 2.799687500000e+02-2.354806973837e+00-8.158319061643e-09
    -5.285934466102e-11 4.625728394441e-09-2.000000000000e+00 3.000000000000e+00
     2.900000000000e+01 4.000000000000e+00-8.847564458847e-09 7.000000000000e+00
    -2.037268131971e-10 5.675246939063e-09 3.783497959375e-10 2.328306436539e-10
     2.166720000000e+05 2.428000000000e+03 0.000000000000e+00                   
E12 2026 07 21 12 12 54-5.902443081141e-05-2.614797267597e-12 0.000000000000e+00
     1.040000000000e+02-5.346875000000e+01 2.791902008211e-09 2.504139079558e-01
    -2.425163984299e-06 3.171436255798e-04 4.950910806656e-06 5.440602628708e+03
     2.148000000000e+05 6.146728992462e-08 7.694331160349e-01 7.450580596924e-09
     9.945570705398e-01 2.502187500000e+02 8.577544266062e-01-5.530944671761e-09
    -1.182192100189e-10 5.160000000000e+02 1.404000000000e+03                   
     1.070000000000e+02 0.000000000000e+00-1.187436282635e-08-1.164153218269e-08
     2.167740000000e+05                                                         
E31 2026 07 21 12 13 05-1.581464312039e-04-2.984279490192e-12 0.000000000000e+00
     1.010000000000e+02 7.603125000000e+01 3.063341886200e-09-1.859423090104e+00
     3.661960363388e-06 3.415956161916e-04 9.361654520035e-06 5.440612691879e+03
     2.130000000000e+05 2.793967723846e-08-1.329261976091e+00 2.793967723846e-08
     9.605988725017e-01 1.409687500000e+02-1.399396088681e+00-5.481299746707e-09
     9.643258823294e-11 1.000000000000e+00 1.404000000000e+03                   
     1.070000000000e+02 0.000000000000e+00 3.492459654808e-09 4.190951585770e-09
     2.167850000000e+05                                                         
G13 2026 07 21 12 13 36 4.184774297755e-04 5.240252676231e-12 8.673617379884e-19
    -4.507541656494e-03 3.406250000000e+01 4.347502519502e-09 1.316556556711e+00
     1.756474375725e-06 2.271318458952e-03 8.977949619293e-06 5.153630947532e+03
     1.647000000000e+05 2.980232238770e-08-1.575992203658e+00-4.470348358154e-08
     9.588257221628e-01 2.048125000000e+02 1.820178237478e+00-8.384757065123e-09
     2.160804291886e-11 4.347502519502e-09-3.000000000000e+00 1.000000000000e+00
     3.000000000000e+01 7.000000000000e+00-8.381903171539e-09 7.000000000000e+00
    -1.164153218269e-10 5.267793312669e-09 1.658918336034e-09 1.949956640601e-09
     2.168160000000e+05 2.428000000000e+03 0.000000000000e+00                   
G12 2026 07 21 12 13 36-6.054585392121e-04 5.542233338929e-13 0.000000000000e+00
    -4.949092864990e-03 3.772265625000e+01 4.390361447605e-09 1.452541715439e+00
     1.955777406693e-06 8.707613684237e-03 8.841045200825e-06 5.153516838877e+03
     2.025000000000e+05-1.117587089539e-08-1.467476728765e+00-1.946464180946e-07
     9.583097143833e-01 2.068085937500e+02 1.587387384599e+00-8.343683925691e-09
     4.589476884420e-11 4.390361447605e-09-2.000000000000e+00 3.000000000000e+00
     2.800000000000e+01 4.000000000000e+00-1.257285475731e-08 7.000000000000e+00
    -6.984919309616e-10 7.072230800986e-09 0.000000000000e+00 0.000000000000e+00
     2.168160000000e+05 2.428000000000e+03 0.000000000000e+00                   
E25 2026 07 21 12 14 05 2.174236578867e-05-7.105427357601e-14 0.000000000000e+00
     9.900000000000e+01 9.740625000000e+01 3.073342302757e-09 2.624236618057e+00
     4.328787326813e-06 2.982205478474e-04 8.316710591316e-06 5.440612489700e+03
     2.118000000000e+05 1.862645149231e-09-1.329174281467e+00-1.117587089539e-08
     9.606289369311e-01 1.592812500000e+02-1.309165599796e+00-5.515229731456e-09
     5.321650239522e-11 1.000000000000e+00 1.404000000000e+03                   
     1.070000000000e+02 0.000000000000e+00 2.328306436539e-09 2.561137080193e-09
     2.168450000000e+05                                                         
E16 2026 07 21 12 14 05-4.650175105780e-05-2.472688720445e-12 0.000000000000e+00
     1.040000000000e+02 8.293750000000e+01 2.962266247422e-09-1.387599465465e+00
     4.008412361145e-06 4.924213280901e-04 8.672475814819e-06 5.440619869232e+03
     2.148000000000e+05 1.862645149231e-08-1.332508973970e+00-5.587935447693e-09
     9.625735163992e-01 1.542500000000e+02-2.476026860160e+00-5.504157841696e-09
     8.036049019412e-11 1.000000000000e+00 1.404000000000e+03                   
     1.070000000000e+02 0.000000000000e+00-3.725290298462e-09-2.328306436539e-09
     2.168450000000e+05                                                         
E11 2026 07 21 12 14 05 5.518409656361e-03 6.741629476892e-11-3.469446951954e-18
     1.060000000000e+02-4.715625000000e+01 2.690112053965e-09-8.885373448612e-01
    -2.248212695122e-06 4.163919948041e-04 5.662441253662e-06 5.440609756470e+03
     2.160000000000e+05 3.725290298462e-09 7.694178724285e-01-9.126961231232e-08
     9.945447015674e-01 2.350312500000e+02 1.348670715057e+00-5.504872157164e-09
    -1.403629895391e-10 1.000000000000e+00 1.404000000000e+03                   
     1.070000000000e+02 0.000000000000e+00-1.466833055019e-08-1.583248376846e-08
     2.168450000000e+05                                                         
E10 2026 07 21 12 14 05-8.074557990767e-04-2.657429831743e-12 0.000000000000e+00
     1.060000000000e+02-5.384375000000e+01 2.715113095359e-09-1.448141785970e+00
    -2.492219209671e-06 2.855767961591e-04 5.129724740982e-06 5.440599714279e+03
     2.160000000000e+05 6.519258022308e-08 7.679582181194e-01-4.656612873077e-08
     9.974618450667e-01 2.471875000000e+02 2.337049907418e+00-5.504514999430e-09
    -1.214336296267e-10 1.000000000000e+00 1.404000000000e+03                   
     1.070000000000e+02 0.000000000000e+00-1.164153218269e-09-2.328306436539e-10
     2.168450000000e+05                                                         
END OF FILE                                                 COMMENT
