     3.05           N: NAVIGATION       M: MIXED            RINEX VERSION / TYPE
PYRINEXCONV 0.1.2 ALDELTUNES            20260721 115355 UTC PGM / RUN BY / DATE
GAL    1.0175e+02  3.3203e-01  2.2858e-02             L 10  IONOSPHERIC CORR
GPSA   9.3132e-09  2.2352e-08  1.5199e-05  1.5140e-05 L 21  IONOSPHERIC CORR
GPSB   1.0035e+05  1.3107e+05  1.6712e+07  1.6318e+07 L 21  IONOSPHERIC CORR
BDSA   2.1420e-08  5.9605e-08 -7.7486e-07  1.2517e-06 L 31  IONOSPHERIC CORR
BDSB   1.4131e+05 -7.0451e+05  5.6361e+06 -4.6531e+06 L 31  IONOSPHERIC CORR
GAUT  6.5192580223e-09-2.664535259e-15 213600 1404   E10  0 TIME SYSTEM CORR
GPUT -3.1141098589e-09-1.736388811e-13 428400 2428   G21  0 TIME SYSTEM CORR
BDUT  0.0000000000e+00 0.000000000e+00 212400 1072   C31  0 TIME SYSTEM CORR
                                                            END OF HEADER
E33 2026 07 21 11 48 35-2.521497663110e-05-1.989519660128e-12 0.000000000000e+00
     1.030000000000e+02-6.175000000000e+01 2.733328139803e-09-1.421096951101e+00
    -2.812594175339e-06 1.671655336395e-04 5.118548870087e-06 5.440604799271e+03
     2.142000000000e+05 2.421438694000e-08 7.698974520849e-01 2.421438694000e-08
     9.976630270239e-01 2.485625000000e+02-3.015134638403e+00-5.499514791151e-09
    -1.346484657919e-10 1.000000000000e+00 1.404000000000e+03                   
     1.070000000000e+02 0.000000000000e+00-4.423782229424e-09-4.889443516731e-09
     2.153150000000e+05                                                         
E31 2026 07 21 11 49 24-1.581464312039e-04-2.984279490192e-12 0.000000000000e+00
     1.010000000000e+02 7.603125000000e+01 3.063341886200e-09-1.859423090104e+00
     3.661960363388e-06 3.415956161916e-04 9.361654520035e-06 5.440612691879e+03
     2.130000000000e+05 2.793967723846e-08-1.329261976091e+00 2.793967723846e-08
     9.605988725017e-01 1.409687500000e+02-1.399396088681e+00-5.481299746707e-09
     9.643258823294e-11 5.160000000000e+02 1.404000000000e+03                   
     1.070000000000e+02 0.000000000000e+00 3.492459654808e-09 4.190951585770e-09
     2.153640000000e+05                                                         
E12 2026 07 21 11 49 55-5.902285920456e-05-2.614797267597e-12 0.000000000000e+00
     1.030000000000e+02-5.396875000000e+01 2.787258957666e-09 1.756224420539e-01
    -2.445653080940e-06 3.172440920025e-04 4.999339580536e-06 5.440602949142e+03
     2.142000000000e+05 6.891787052155e-08 7.694364939127e-01-5.587935447693e-09
     9.945571846474e-01 2.489687500000e+02 8.581604185574e-01-5.532730460432e-09
    -1.267909956396e-10 1.000000000000e+00 1.404000000000e+03                   
     1.070000000000e+02 0.000000000000e+00-1.187436282635e-08-1.164153218269e-08
     2.153950000000e+05                                                         
E16 2026 07 21 11 50 54-4.650017945096e-05-2.458477865730e-12 0.000000000000e+00
     1.030000000000e+02 8.262500000000e+01 2.962623405157e-09-1.461712353890e+00
     3.989785909653e-06 4.925592802465e-04 8.584931492805e-06 5.440620250702e+03
     2.142000000000e+05 1.676380634308e-08-1.332505654609e+00-3.725290298462e-09
     9.625734549566e-01 1.557500000000e+02-2.476298829797e+00-5.507015103569e-09
     8.036049019412e-11 5.160000000000e+02 1.404000000000e+03                   
     1.070000000000e+02 0.000000000000e+00-3.725290298462e-09-2.328306436539e-09
     2.154540000000e+05                                                         
G12 2026 07 21 11 52 48-6.054627010599e-04 5.542233338929e-13 0.000000000000e+00
     5.886554718018e-03 4.863281250000e+01 4.535903224290e-09 3.584829002517e-01
     2.461485564709e-06 8.703983854502e-03 8.565373718739e-06 5.153519584271e+03
     2.025000000000e+05-8.940696716309e-08-1.467415643889e+00-5.122274160385e-08
     9.583090143770e-01 2.155156250000e+02 1.587535177361e+00-8.202070884082e-09
     2.857261873569e-12 4.535903224290e-09-2.000000000000e+00 2.000000000000e+00
     2.700000000000e+01 4.000000000000e+00-1.257285475731e-08 7.000000000000e+00
    -6.984919309616e-10 7.072230800986e-09 0.000000000000e+00 0.000000000000e+00
     2.155680000000e+05 2.428000000000e+03 0.000000000000e+00                   
C35 2026 07 21 11 52 54-4.782762844115e-04-1.604139043820e-11 0.000000000000e+00
     1.000000000000e+00 1.640625000000e+01 4.353395622116e-09-2.054039094973e-02
     7.916241884232e-07 8.117869729176e-04 3.815162926912e-06 5.282620409012e+03
     2.124000000000e+05 2.421438694000e-08 3.477810364190e-02 2.688728272915e-05
     9.437471197699e-01 2.762343750000e+02 8.869464068208e-01-1.991598672365e-06
    -1.192906832215e-10                    1.072000000000e+03                   
     0.000000000000e+00 0.000000000000e+00-1.257285475731e-08-1.257285475731e-08
     2.155740000000e+05 1.000000000000e+00                                      
C26 2026 07 21 11 52 54-6.724876584485e-04-5.552003301545e-12 0.000000000000e+00
     1.000000000000e+00 1.518750000000e+01 4.022667560250e-09 1.425399953469e+00
     6.621703505516e-07 9.378691902384e-04 9.299721568823e-06 5.282658828735e+03
     2.124000000000e+05 2.048909664154e-08-2.040567908930e+00 4.292931407690e-05
     9.453572571472e-01 1.624062500000e+02 7.291255785041e-01 2.631679977177e-06
    -1.053615315878e-10                    1.072000000000e+03                   
     0.000000000000e+00 0.000000000000e+00-2.328306436539e-08-2.328306436539e-08
     2.155740000000e+05 1.000000000000e+00                                      
C39 2026 07 21 11 52 54-9.575489675626e-04 8.791189998192e-12 0.000000000000e+00
     1.000000000000e+00 1.012500000000e+01 3.866946788141e-09 2.931656340077e+00
     5.550682544708e-07 5.713555729017e-04 9.272247552872e-06 5.282663963318e+03
     2.124000000000e+05 1.117587089539e-08-2.011546913117e+00 5.748448893428e-05
     9.490802724772e-01 1.672031250000e+02 5.935714034886e-02 1.010812461539e-06
    -5.500229106620e-11                    1.072000000000e+03                   
     0.000000000000e+00 0.000000000000e+00 8.987262845039e-08 8.987262845039e-08
     2.155740000000e+05 1.000000000000e+00                                      
C31 2026 07 21 11 52 54 7.557274075225e-04-9.001688283661e-12 0.000000000000e+00
     1.000000000000e+00 1.143750000000e+01 4.450542525817e-09-9.323507889756e-01
     6.780028343201e-07 7.329288637266e-04 3.820285201073e-06 5.282665330887e+03
     2.124000000000e+05 4.656612873077e-09 3.194917849153e-02 2.954434603453e-05
     9.410546029529e-01 2.765156250000e+02 1.055513240329e+00 1.238981608557e-06
    -8.178912113090e-11                    1.072000000000e+03                   
     0.000000000000e+00 0.000000000000e+00-6.519258022308e-09-6.519258022308e-09
     2.155740000000e+05 1.000000000000e+00                                      
E12 2026 07 21 11 53 35-5.902443081141e-05-2.614797267597e-12 0.000000000000e+00
     1.040000000000e+02-5.346875000000e+01 2.791902008211e-09 2.504139079558e-01
    -2.425163984299e-06 3.171436255798e-04 4.950910806656e-06 5.440602628708e+03
     2.148000000000e+05 6.146728992462e-08 7.694331160349e-01 7.450580596924e-09
     9.945570705398e-01 2.502187500000e+02 8.577544266062e-01-5.530944671761e-09
    -1.182192100189e-10 1.000000000000e+00 1.404000000000e+03                   
     1.070000000000e+02 0.000000000000e+00-1.187436282635e-08-1.164153218269e-08
     2.156150000000e+05                                                         
G11 2026 07 21 11 53 36-2.678104792722e-04 1.223909862347e-11 0.000000000000e+00
    -9.360313415527e-04-2.354687500000e+01 4.523759861328e-09-3.067374537467e+00
    -1.215375959873e-06 2.486338082235e-03 5.622394382954e-06 5.153570937345e+03
     1.872000000000e+05-3.073364496231e-08 5.993054630438e-01-1.108273863792e-07
     9.627631054621e-01 2.717890625000e+02-2.355419437657e+00-8.195820623734e-09
    -1.960795960737e-10 4.523759861328e-09-2.000000000000e+00 3.000000000000e+00
     2.800000000000e+01 4.000000000000e+00-8.847564458847e-09 7.000000000000e+00
    -2.037268131971e-10 5.675246939063e-09 3.783497959375e-10 2.328306436539e-10
     2.156160000000e+05 2.428000000000e+03 0.000000000000e+00                   
G13 2026 07 21 11 53 36 4.184397403151e-04 5.229594535194e-12 8.673617379884e-19
     4.562377929688e-03 4.561328125000e+01 4.458221417103e-09 2.657256497513e-01
     2.283602952957e-06 2.268318727147e-03 8.784234523773e-06 5.153633150734e+03
     1.647000000000e+05-3.725290298462e-09-1.575934714635e+00-1.955777406693e-08
     9.588254551803e-01 2.099062500000e+02 1.820784640429e+00-8.351541395843e-09
     1.660783464012e-11 4.458221417103e-09-2.000000000000e+00 2.000000000000e+00
     3.000000000000e+01 7.000000000000e+00-8.381903171539e-09 7.000000000000e+00
    -1.164153218269e-10 5.267793312669e-09 1.658918336034e-09 1.949956640601e-09
     2.156160000000e+05 2.428000000000e+03 0.000000000000e+00                   
G21 2026 07 21 11 53 36 3.957099397667e-04-5.300648808770e-12 0.000000000000e+00
     5.232810974121e-03-2.124218750000e+01 4.319287058500e-09-2.916990990098e-02
    -1.072883605957e-06 7.935005123727e-04 7.556751370430e-06 5.153627001018e+03
     1.332000000000e+05 8.381903171539e-09 1.623575795397e+00-1.024454832077e-08
     9.641822917997e-01 2.359882812500e+02-8.331798883724e-02-8.343148189090e-09
     1.678641350722e-11 4.319287058500e-09-2.000000000000e+00 3.000000000000e+00
     3.100000000000e+01 4.000000000000e+00-9.778887033463e-09 7.000000000000e+00
    -8.731149137020e-11 6.199115887284e-09 1.746229827404e-10 1.455191522837e-10
     2.156160000000e+05 2.428000000000e+03 0.000000000000e+00                   
E11 2026 07 21 11 54 05 5.518126708921e-03 6.747313818778e-11-3.469446951954e-18
     9.900000000000e+01-3.928125000000e+01 2.638681340241e-09-1.408247597405e+00
    -1.888722181320e-06 4.173512570560e-04 5.777925252914e-06 5.440611831665e+03
     2.118000000000e+05-7.823109626770e-08 7.694409879970e-01-4.470348358154e-08
     9.945458133851e-01 2.324062500000e+02 1.347685586023e+00-5.458798809453e-09
    -1.860791795162e-10 1.000000000000e+00 1.404000000000e+03                   
     1.070000000000e+02 0.000000000000e+00-1.466833055019e-08-1.583248376846e-08
     2.156450000000e+05                                                         
E25 2026 07 21 11 54 05 2.174236578867e-05-7.105427357601e-14 0.000000000000e+00
     9.900000000000e+01 9.740625000000e+01 3.073342302757e-09 2.624236618057e+00
     4.328787326813e-06 2.982205478474e-04 8.316710591316e-06 5.440612489700e+03
     2.118000000000e+05 1.862645149231e-09-1.329174281467e+00-1.117587089539e-08
     9.606289369311e-01 1.592812500000e+02-1.309165599796e+00-5.515229731456e-09
     5.321650239522e-11 1.000000000000e+00 1.404000000000e+03                   
     1.070000000000e+02 0.000000000000e+00 2.328306436539e-09 2.561137080193e-09
     2.156450000000e+05                                                         
E10 2026 07 21 11 54 05-8.074495708570e-04-2.643218977028e-12 0.000000000000e+00
     1.020000000000e+02-5.062500000000e+01 2.676540060065e-09-1.742219497612e+00
    -2.352520823479e-06 2.863210393116e-04 5.545094609261e-06 5.440602169037e+03
     2.136000000000e+05 3.911554813385e-08 7.679715760244e-01-9.499490261078e-08
     9.974623687914e-01 2.376875000000e+02 2.333586160670e+00-5.497729002480e-09
    -1.542921411727e-10 1.000000000000e+00 1.404000000000e+03                   
     1.070000000000e+02 0.000000000000e+00-1.164153218269e-09-2.328306436539e-10
     2.156450000000e+05                                                         
E16 2026 07 21 11 54 05-4.650175105780e-05-2.472688720445e-12 0.000000000000e+00
     1.040000000000e+02 8.293750000000e+01 2.962266247422e-09-1.387599465465e+00
     4.008412361145e-06 4.924213280901e-04 8.672475814819e-06 5.440619869232e+03
     2.148000000000e+05 1.862645149231e-08-1.332508973970e+00-5.587935447693e-09
     9.625735163992e-01 1.542500000000e+02-2.476026860160e+00-5.504157841696e-09
     8.036049019412e-11 1.000000000000e+00 1.404000000000e+03                   
     1.070000000000e+02 0.000000000000e+00-3.725290298462e-09-2.328306436539e-09
     2.156450000000e+05                                                         
END OF FILE                                                 COMMENT
