     3.05           N: NAVIGATION       M: MIXED            RINEX VERSION / TYPE
PYRINEXCONV 0.1.2 ALDELTUNES            20260721 124413 UTC PGM / RUN BY / DATE
GAL    9.2500e+01  2.3047e-01  2.8290e-02             M 36  IONOSPHERIC CORR
GPSA   1.1176e-08  2.2352e-08  1.5199e-05  1.5140e-05 M 12  IONOSPHERIC CORR
GPSB   1.0650e+05  1.4746e+05  1.6712e+07  1.6450e+07 M 12  IONOSPHERIC CORR
BDSA   2.1420e-08  7.4506e-08 -8.3447e-07  1.3113e-06 M 12  IONOSPHERIC CORR
BDSB   1.4131e+05 -7.2090e+05  5.6361e+06 -4.7186e+06 M 12  IONOSPHERIC CORR
GAUT  6.5192580223e-09-2.664535259e-15 217800 1404   E36  0 TIME SYSTEM CORR
GPUT  9.6042640507e-10-1.594724353e-12 443100 2428   G12  0 TIME SYSTEM CORR
BDUT  0.0000000000e+00 0.000000000e+00 216000 1072   C12  0 TIME SYSTEM CORR
                                                            END OF HEADER
E12 2026 07 21 12 37 35-5.902443081141e-05-2.614797267597e-12 0.000000000000e+00
     1.040000000000e+02-5.346875000000e+01 2.791902008211e-09 2.504139079558e-01
    -2.425163984299e-06 3.171436255798e-04 4.950910806656e-06 5.440602628708e+03
     2.148000000000e+05 6.146728992462e-08 7.694331160349e-01 7.450580596924e-09
     9.945570705398e-01 2.502187500000e+02 8.577544266062e-01-5.530944671761e-09
    -1.182192100189e-10 1.000000000000e+00 1.404000000000e+03                   
     1.070000000000e+02 0.000000000000e+00-1.187436282635e-08-1.164153218269e-08
     2.182550000000e+05                                                         
E31 2026 07 21 12 38 05-1.581587712280e-04-2.970068635477e-12 0.000000000000e+00
     1.080000000000e+02 8.156250000000e+01 3.007982437399e-09-1.337281630096e+00
     3.840774297714e-06 3.421033034101e-04 9.445473551750e-06 5.440614084244e+03
     2.172000000000e+05-2.980232238770e-08-1.329284859056e+00 7.264316082001e-08
     9.605995469069e-01 1.388750000000e+02-1.400839571894e+00-5.442726711414e-09
     6.143113028173e-11 1.000000000000e+00 1.404000000000e+03                   
     1.070000000000e+02 0.000000000000e+00 3.026798367500e-09 3.725290298462e-09
     2.182850000000e+05                                                         
E25 2026 07 21 12 40 54 2.174294786528e-05-1.421085471520e-14 0.000000000000e+00
     1.080000000000e+02 8.309375000000e+01 2.979052660930e-09-2.986770448921e+00
     3.922730684280e-06 2.965871244669e-04 8.381903171539e-06 5.440616130829e+03
     2.172000000000e+05 1.862645149231e-08-1.329203967001e+00-1.862645149231e-09
     9.606292090339e-01 1.573125000000e+02-1.311874722196e+00-5.524872990279e-09
     4.357324357192e-11 5.160000000000e+02 1.404000000000e+03                   
     1.070000000000e+02 0.000000000000e+00 2.328306436539e-09 2.561137080193e-09
     2.184540000000e+05                                                         
E11 2026 07 21 12 40 54 5.518490565009e-03 6.740208391420e-11-3.469446951954e-18
     1.080000000000e+02-5.059375000000e+01 2.709041413877e-09-7.399909987725e-01
    -2.410262823105e-06 4.157666116953e-04 5.485489964485e-06 5.440608507156e+03
     2.172000000000e+05 2.793967723846e-08 7.694112059108e-01-7.823109626770e-08
     9.945444397051e-01 2.388437500000e+02 1.348894423027e+00-5.511658154114e-09
    -1.250052069686e-10 5.160000000000e+02 1.404000000000e+03                   
     1.070000000000e+02 0.000000000000e+00-1.490116119385e-08-1.583248376846e-08
     2.184540000000e+05                                                         
C35 2026 07 21 12 40 54-4.783350741491e-04-1.614264277805e-11 0.000000000000e+00
     1.000000000000e+00 1.792187500000e+01 4.336609208609e-09 4.669290416059e-01
     8.274801075459e-07 8.120564743876e-04 3.822147846222e-06 5.282620946884e+03
     2.160000000000e+05 7.078051567078e-08 3.475175063562e-02 2.146093174815e-05
     9.437466530991e-01 2.746875000000e+02 8.870472662449e-01-2.015142510203e-06
    -6.750281176306e-11                    1.072000000000e+03                   
     0.000000000000e+00 0.000000000000e+00-1.257285475731e-08-1.257285475731e-08
     2.184540000000e+05 1.000000000000e+00                                      
C31 2026 07 21 12 40 54 7.556945784017e-04-9.037215420449e-12 0.000000000000e+00
     1.000000000000e+00 1.518750000000e+01 4.410898017322e-09-4.445036412123e-01
     7.422640919685e-07 7.334051188082e-04 3.811437636614e-06 5.282666347504e+03
     2.160000000000e+05 5.587935447693e-09 3.192312830929e-02 2.691242843866e-05
     9.410542781851e-01 2.776250000000e+02 1.055224217456e+00 1.215300622149e-06
    -7.821754378894e-11                    1.072000000000e+03                   
     0.000000000000e+00 0.000000000000e+00-6.519258022308e-09-6.519258022308e-09
     2.184540000000e+05 1.000000000000e+00                                      
C26 2026 07 21 12 40 54-6.725075654685e-04-5.538680625250e-12 0.000000000000e+00
     1.000000000000e+00 8.812500000000e+00 3.968736742387e-09 1.911948359135e+00
     4.526227712631e-07 9.375507943332e-04 9.174458682537e-06 5.282660764694e+03
     2.160000000000e+05 1.909211277962e-08-2.040592449381e+00 4.197936505079e-05
     9.453568650851e-01 1.662031250000e+02 7.301354864451e-01 2.607770409819e-06
    -1.064330047904e-10                    1.072000000000e+03                   
     0.000000000000e+00 0.000000000000e+00-2.328306436539e-08-2.328306436539e-08
     2.184540000000e+05 1.000000000000e+00                                      
C22 2026 07 21 12 40 54 4.575505154207e-04 2.415845301584e-13 0.000000000000e+00
     1.000000000000e+00-2.451562500000e+01 3.274779264844e-09-1.553923854754e+00
    -1.234468072653e-06 8.554557571188e-04 7.349532097578e-06 5.282634288788e+03
     2.160000000000e+05-1.490116119385e-08 2.185937668849e+00 1.190323382616e-05
     9.892405263415e-01 2.292343750000e+02 7.761369981127e-01 1.513782340825e-06
     1.607209803882e-10                    1.072000000000e+03                   
     0.000000000000e+00 0.000000000000e+00 6.239861249924e-08 6.239861249924e-08
     2.184540000000e+05 1.000000000000e+00                                      
C20 2026 07 21 12 40 54-8.892210898921e-04 2.986055847032e-12 0.000000000000e+00
     1.000000000000e+00-3.246875000000e+01 3.374783430419e-09 4.628641233029e-01
    -1.553446054459e-06 8.070028852671e-04 7.338821887970e-06 5.282635116577e+03
     2.160000000000e+05 3.632158041000e-08 2.185468916250e+00 1.190602779388e-05
     9.899397338892e-01 2.240000000000e+02 2.733589222221e-01 1.054334631555e-06
     1.703642392115e-10                    1.072000000000e+03                   
     0.000000000000e+00 0.000000000000e+00 5.541369318962e-08 5.541369318962e-08
     2.184540000000e+05 1.000000000000e+00                                      
C24 2026 07 21 12 40 54-5.303765647113e-04-3.571365425614e-11 0.000000000000e+00
     1.000000000000e+00 1.940625000000e+01 4.068026592493e-09 1.377513724942e+00
     8.600763976574e-07 6.253774045035e-04 9.284820407629e-06 5.282656173706e+03
     2.160000000000e+05 2.840533852577e-08-2.018773171057e+00 3.791088238358e-05
     9.436745634220e-01 1.635000000000e+02 5.437472064194e-01-5.432904873724e-08
    -1.321483616526e-10                    1.072000000000e+03                   
     0.000000000000e+00 0.000000000000e+00 1.909211277962e-08 1.909211277962e-08
     2.184540000000e+05 1.000000000000e+00                                      
C39 2026 07 21 12 40 54-9.575174190104e-04 8.786749106093e-12 0.000000000000e+00
     1.000000000000e+00 6.046875000000e+00 3.871232680951e-09-2.864413525612e+00
     3.427267074585e-07 5.721562774852e-04 9.524170309305e-06 5.282662319183e+03
     2.160000000000e+05 1.955777406693e-08-2.011571264852e+00-5.860393866897e-05
     9.490801569066e-01 1.626562500000e+02 5.979800241540e-02 9.870857589411e-07
    -6.107397254753e-11                    1.072000000000e+03                   
     0.000000000000e+00 0.000000000000e+00 8.987262845039e-08 8.987262845039e-08
     2.184540000000e+05 1.000000000000e+00                                      
C12 2026 07 21 12 41 12 6.156337913126e-04-4.996891789233e-12 0.000000000000e+00
     1.000000000000e+00-2.943750000000e+01 3.659080986839e-09-2.630241447657e-01
    -1.462642103434e-06 1.747981877998e-04 7.217749953270e-06 5.282643894196e+03
     2.160000000000e+05 6.984919309616e-09 2.170490174108e+00-3.792811185122e-05
     9.736061087052e-01 2.177656250000e+02 7.059895846714e-01-1.587878641519e-06
     1.542921411727e-10                    1.072000000000e+03                   
     0.000000000000e+00 0.000000000000e+00 3.725290298462e-09 3.725290298462e-09
     2.184720000000e+05 1.000000000000e+00                                      
G21 2026 07 21 12 41 36 3.956717555411e-04-5.307754236128e-12 0.000000000000e+00
    -7.040500640869e-03-3.537890625000e+01 4.462507309913e-09 1.026285565645e+00
    -1.767650246620e-06 7.946521509439e-04 7.230788469315e-06 5.153629512523e+03
     1.332000000000e+05 1.955777406693e-08 1.623518024762e+00-4.656612873077e-08
     9.641823159379e-01 2.416328125000e+02-8.855343836615e-02-8.309039625474e-09
     3.571577341961e-11 4.462507309913e-09-2.000000000000e+00 3.000000000000e+00
     3.100000000000e+01 4.000000000000e+00-9.778887033463e-09 7.000000000000e+00
    -8.731149137020e-11 6.199115887284e-09 1.746229827404e-10 1.455191522837e-10
     2.184960000000e+05 2.428000000000e+03 0.000000000000e+00                   
G05 2026 07 21 12 42 24-2.352863957640e-04-3.375077994860e-13 0.000000000000e+00
    -5.671977996826e-03-3.324218750000e+01 4.024810506656e-09-1.031420181351e+00
    -1.653097569942e-06 5.603698780760e-03 7.516704499722e-06 5.153446300058e+03
     1.701000000000e+05-7.916241884232e-08 1.559859682165e+00 5.401670932770e-08
     9.811629890568e-01 2.459609375000e+02 1.481731062401e+00-8.459403031570e-09
     4.375182243902e-11 4.024810506656e-09-2.000000000000e+00 3.000000000000e+00
     3.000000000000e+01 4.000000000000e+00-1.071020960808e-08 7.000000000000e+00
    -3.783497959375e-10 5.733454599977e-09 0.000000000000e+00 0.000000000000e+00
     2.185440000000e+05 2.428000000000e+03 0.000000000000e+00                   
E36 2026 07 21 12 43 24-5.969225894660e-04-5.286437954055e-12 0.000000000000e+00
     1.020000000000e+02-4.303125000000e+01 2.632609658759e-09-1.181910736058e+00
    -1.989305019379e-06 8.817587513477e-05 6.057322025299e-06 5.440604431152e+03
     2.136000000000e+05-5.587935447693e-08 7.699256688488e-01 1.862645149231e-09
     9.976500012013e-01 2.292187500000e+02 5.890226133276e-01-5.404867991589e-09
    -1.317912039184e-10 5.160000000000e+02 1.404000000000e+03                   
     1.070000000000e+02 0.000000000000e+00 4.656612873077e-09 5.587935447693e-09
     2.186040000000e+05                                                         
G13 2026 07 21 12 44 00 4.184774297755e-04 5.240252676231e-12 8.673617379884e-19
    -4.507541656494e-03 3.406250000000e+01 4.347502519502e-09 1.316556556711e+00
     1.756474375725e-06 2.271318458952e-03 8.977949619293e-06 5.153630947532e+03
     1.647000000000e+05 2.980232238770e-08-1.575992203658e+00-4.470348358154e-08
     9.588257221628e-01 2.048125000000e+02 1.820178237478e+00-8.384757065123e-09
     2.160804291886e-11 4.347502519502e-09-3.000000000000e+00 1.000000000000e+00
     3.000000000000e+01 7.000000000000e+00-8.381903171539e-09 7.000000000000e+00
    -1.164153218269e-10 5.267793312669e-09 1.658918336034e-09 1.949956640601e-09
     2.186400000000e+05 2.428000000000e+03 0.000000000000e+00                   
G25 2026 07 21 12 44 00 4.047089896630e-04-3.229416734030e-12 0.000000000000e+00
     4.336357116699e-03 4.065625000000e+01 4.696624204679e-09 1.386186788381e+00
     2.051703631878e-06 1.289950474165e-02 8.748844265938e-06 5.153552874520e+03
     1.593000000000e+05-2.169981598854e-07-1.562916745733e+00-7.729977369308e-08
     9.467228845911e-01 2.032539062500e+02 1.161801535092e+00-8.100816666438e-09
    -5.768097407267e-11 4.696624204679e-09-2.000000000000e+00 3.000000000000e+00
     3.000000000000e+01 4.000000000000e+00 5.587935447693e-09 7.000000000000e+00
    -1.891748979688e-09-4.773028194904e-09-1.047737896442e-09 6.402842700481e-10
     2.186400000000e+05 2.428000000000e+03 0.000000000000e+00                   
G12 2026 07 21 12 44 00-6.054585392121e-04 5.542233338929e-13 0.000000000000e+00
    -4.949092864990e-03 3.772265625000e+01 4.390361447605e-09 1.452541715439e+00
     1.955777406693e-06 8.707613684237e-03 8.841045200825e-06 5.153516838877e+03
     2.025000000000e+05-1.117587089539e-08-1.467476728765e+00-1.946464180946e-07
     9.583097143833e-01 2.068085937500e+02 1.587387384599e+00-8.343683925691e-09
     4.589476884420e-11 4.390361447605e-09-2.000000000000e+00 3.000000000000e+00
     2.800000000000e+01 4.000000000000e+00-1.257285475731e-08 7.000000000000e+00
    -6.984919309616e-10 7.072230800986e-09 0.000000000000e+00 0.000000000000e+00
     2.186400000000e+05 2.428000000000e+03 0.000000000000e+00                   
G11 2026 07 21 12 44 00-2.677223528735e-04 1.223909862347e-11 0.000000000000e+00
    -4.132270812988e-03-2.292187500000e+01 4.625728394441e-09-2.017792766517e+00
    -1.150183379650e-06 2.486625686288e-03 5.193054676056e-06 5.153574809431e+03
     1.872000000000e+05 5.774199962616e-08 5.992458425489e-01 4.656612873077e-09
     9.627621128722e-01 2.799687500000e+02-2.354806973837e+00-8.158319061643e-09
    -5.285934466102e-11 4.625728394441e-09-2.000000000000e+00 3.000000000000e+00
     2.900000000000e+01 4.000000000000e+00-8.847564458847e-09 7.000000000000e+00
    -2.037268131971e-10 5.675246939063e-09 3.783497959375e-10 2.328306436539e-10
     2.186400000000e+05 2.428000000000e+03 0.000000000000e+00                   
E10 2026 07 21 12 44 24-8.074557990767e-04-2.657429831743e-12 0.000000000000e+00
     1.060000000000e+02-5.384375000000e+01 2.715113095359e-09-1.448141785970e+00
    -2.492219209671e-06 2.855767961591e-04 5.129724740982e-06 5.440599714279e+03
     2.160000000000e+05 6.519258022308e-08 7.679582181194e-01-4.656612873077e-08
     9.974618450667e-01 2.471875000000e+02 2.337049907418e+00-5.504514999430e-09
    -1.214336296267e-10 5.160000000000e+02 1.404000000000e+03                   
     1.070000000000e+02 0.000000000000e+00-1.164153218269e-09-2.328306436539e-10
     2.186640000000e+05                                                         
E16 2026 07 21 12 44 24-4.650175105780e-05-2.472688720445e-12 0.000000000000e+00
     1.040000000000e+02 8.293750000000e+01 2.962266247422e-09-1.387599465465e+00
     4.008412361145e-06 4.924213280901e-04 8.672475814819e-06 5.440619869232e+03
     2.148000000000e+05 1.862645149231e-08-1.332508973970e+00-5.587935447693e-09
     9.625735163992e-01 1.542500000000e+02-2.476026860160e+00-5.504157841696e-09
     8.036049019412e-11 5.160000000000e+02 1.404000000000e+03                   
     1.070000000000e+02 0.000000000000e+00-3.725290298462e-09-2.328306436539e-09
     2.186640000000e+05                                                         
E11 2026 07 21 12 44 24 5.518530902918e-03 6.738787305949e-11-3.469446951954e-18
     1.090000000000e+02-5.190625000000e+01 2.717970357232e-09-6.656310147064e-01
    -2.471730113029e-06 4.154370399192e-04 5.375593900681e-06 5.440607854843e+03
     2.178000000000e+05 3.725290298462e-08 7.694078660688e-01-6.891787052155e-08
     9.945443212087e-01 2.411875000000e+02 1.348919501832e+00-5.513801100519e-09
    -1.175048945505e-10 5.160000000000e+02 1.404000000000e+03                   
     1.070000000000e+02 0.000000000000e+00-1.490116119385e-08-1.583248376846e-08
     2.186640000000e+05                                                         
E25 2026 07 21 12 44 24 2.174300607294e-05-1.421085471520e-14 0.000000000000e+00
     1.090000000000e+02 8.281250000000e+01 2.972623821714e-09-2.912257244667e+00
     3.930181264877e-06 2.965595340356e-04 8.381903171539e-06 5.440616222382e+03
     2.178000000000e+05 1.862645149231e-08-1.329207279047e+00-1.862645149231e-09
     9.606292353664e-01 1.576250000000e+02-1.312002698270e+00-5.524872990279e-09
     4.357324357192e-11 5.160000000000e+02 1.404000000000e+03                   
     1.070000000000e+02 0.000000000000e+00 2.328306436539e-09 2.561137080193e-09
     2.186640000000e+05                                                         
E36 2026 07 21 12 44 24-5.969451158307e-04-5.300648808770e-12 0.000000000000e+00
     1.090000000000e+02-3.828125000000e+01 2.600822620416e-09-6.576895331918e-01
    -1.821666955948e-06 8.920731488615e-05 5.794689059258e-06 5.440606575012e+03
     2.178000000000e+05-6.519258022308e-08 7.699029833781e-01-3.166496753693e-08
     9.976492975377e-01 2.364062500000e+02 5.855000133857e-01-5.428083244312e-09
    -1.232194182976e-10 5.160000000000e+02 1.404000000000e+03                   
     1.070000000000e+02 0.000000000000e+00 4.423782229424e-09 5.122274160385e-09
     2.186640000000e+05                                                         
END OF FILE                                                 COMMENT
