     3.05           N: NAVIGATION       M: MIXED            RINEX VERSION / TYPE
PYRINEXCONV 0.1.2 ALDELTUNES            20260721 003000 UTC PGM / RUN BY / DATE
GAL    1.0300e+02  3.0469e-01  2.1057e-02             A 19  IONOSPHERIC CORR
GPSA   9.3132e-09  2.2352e-08  1.5199e-05  1.5140e-05 A 04  IONOSPHERIC CORR
GPSB   1.0035e+05  1.3107e+05  1.6712e+07  1.6318e+07 A 04  IONOSPHERIC CORR
BDSA   1.9558e-08  2.9802e-08 -5.9605e-07  1.0133e-06 A 41  IONOSPHERIC CORR
BDSB   1.4131e+05 -7.8643e+05  6.0293e+06 -4.9807e+06 A 41  IONOSPHERIC CORR
GAUT  7.4505805969e-09-2.664535259e-15 168600 1404   E19  0 TIME SYSTEM CORR
GPUT -3.2014213502e-09 1.588507104e-12 356400 2428   G04  0 TIME SYSTEM CORR
BDUT  0.0000000000e+00 0.000000000e+00 172800 1072   C41  0 TIME SYSTEM CORR
                                                            END OF HEADER
E27 2026 07 21 00 20 35-1.049706945196e-03-1.061550847226e-11 0.000000000000e+00
     3.400000000000e+01 1.092500000000e+02 3.238349175956e-09 1.275304361043e+00
     5.142763257027e-06 2.441855613142e-04 8.527189493179e-06 5.440616481781e+03
     1.728000000000e+05 3.352761268616e-08-1.328997340062e+00-2.235174179077e-08
     9.605920436001e-01 1.531250000000e+02-8.770874332293e-01-5.624877155854e-09
    -4.750197864808e-11 1.000000000000e+00 1.404000000000e+03                   
     1.070000000000e+02 0.000000000000e+00 6.984919309616e-10 9.313225746155e-10
     1.740350000000e+05                                                         
E33 2026 07 21 00 20 54-2.513366052881e-05-1.975308805413e-12 0.000000000000e+00
     3.400000000000e+01-7.190625000000e+01 2.436172904951e-09-2.589978050753e-01
    -3.276392817497e-06 1.660402631387e-04 6.990507245064e-06 5.440604461670e+03
     1.728000000000e+05 9.126961231232e-08 7.701228087633e-01 4.656612873077e-08
     9.976738423772e-01 2.065000000000e+02-3.026634128329e+00-5.458441651719e-09
    -1.907222300607e-10 5.160000000000e+02 1.404000000000e+03                   
     1.070000000000e+02 0.000000000000e+00-4.190951585770e-09-4.656612873077e-09
     1.740540000000e+05                                                         
E29 2026 07 21 00 20 54-2.271393314004e-04-3.623767952377e-12 0.000000000000e+00
     3.400000000000e+01-4.437500000000e+01 3.435500245232e-09 2.801384386276e-01
    -2.035871148109e-06 2.008315641433e-04 5.565583705902e-06 5.440610969543e+03
     1.728000000000e+05-7.450580596924e-09 2.852208236230e+00 1.490116119385e-08
     9.627376353268e-01 2.191875000000e+02 1.416772073718e+00-5.751668151494e-09
     2.103659054415e-10 5.160000000000e+02 1.404000000000e+03                   
     1.070000000000e+02 0.000000000000e+00-3.259629011154e-09-3.026798367500e-09
     1.740540000000e+05                                                         
E30 2026 07 21 00 22 35-1.275924907532e-03-3.971933892899e-11 0.000000000000e+00
     2.500000000000e+01 1.072812500000e+02 3.258350009071e-09-4.525046708073e-02
     5.045905709267e-06 2.124481834471e-04 8.385628461838e-06 5.440624414444e+03
     1.674000000000e+05 2.980232238770e-08-1.327277429701e+00 1.676380634308e-08
     9.583802767739e-01 1.559687500000e+02 5.253313294728e-01-5.640592096159e-09
    -4.107313943255e-11 1.000000000000e+00 1.404000000000e+03                   
     1.070000000000e+02 0.000000000000e+00 6.984919309616e-10 9.313225746155e-10
     1.741550000000e+05                                                         
E27 2026 07 21 00 28 35-1.049713348038e-03-1.062971932697e-11 0.000000000000e+00
     3.500000000000e+01 1.068125000000e+02 3.254421273995e-09 1.351064698571e+00
     5.055218935013e-06 2.443334087729e-04 8.461996912956e-06 5.440615758896e+03
     1.734000000000e+05 4.097819328308e-08-1.329000728181e+00-2.048909664154e-08
     9.605919894721e-01 1.549375000000e+02-8.784627883469e-01-5.627020102259e-09
    -4.393040130612e-11 1.000000000000e+00 1.404000000000e+03                   
     1.070000000000e+02 0.000000000000e+00 2.328306436539e-10 2.328306436539e-10
     1.745150000000e+05                                                         
G03 2026 07 21 00 28 48 3.642138326541e-04-1.891820033961e-11 0.000000000000e+00
    -5.082130432129e-03-3.272656250000e+01 3.515146419958e-09 1.711937466416e+00
    -1.699663698673e-06 6.976966746151e-03 9.193085134029e-06 5.153455060496e+03
     1.620000000000e+05-4.470348358154e-08 1.621802147666e+00-1.080334186554e-07
     9.947598273283e-01 2.185000000000e+02 1.276501542979e+00-8.703163185159e-09
     2.996553389905e-10 3.515146419958e-09-2.000000000000e+00 2.000000000000e+00
     2.800000000000e+01 4.000000000000e+00 1.396983861923e-09 7.000000000000e+00
     5.529727786779e-10-2.008164301515e-09 1.862645149231e-09 5.005858838558e-09
     1.745280000000e+05 2.428000000000e+03 0.000000000000e+00                   
G16 2026 07 21 00 28 54 3.019548021257e-04 6.480149750132e-12 0.000000000000e+00
     8.700000000000e+01 6.278125000000e+01 4.749840707074e-09 4.905484698842e-03
     3.473833203316e-06 1.503468246665e-02 8.979812264442e-06 5.153715620041e+03
     1.800000000000e+05-4.656612873077e-08-1.450390116970e+00 1.844018697739e-07
     9.573753442173e-01 2.042187500000e+02 9.375411286941e-01-8.338561620276e-09
    -8.571785620706e-11 1.000000000000e+00 3.800000000000e+02 0.000000000000e+00
     2.000000000000e+00 0.000000000000e+00-1.024454832077e-08 8.700000000000e+01
     6.981360000000e+05 4.000000000000e+00                                      
G31 2026 07 21 00 28 54-1.340978778899e-04 2.728484105319e-12 0.000000000000e+00
     4.600000000000e+01-3.046875000000e+01 4.896989693563e-09 1.387305427708e+00
    -1.519918441772e-06 1.091507845558e-02 9.141862392426e-06 5.153633649826e+03
     1.800000000000e+05-2.589076757431e-07-2.561142719726e+00 8.940696716309e-08
     9.550181209095e-01 2.048125000000e+02 9.765602962162e-01-8.211770624636e-09
    -1.703642392115e-10 1.000000000000e+00 3.800000000000e+02 0.000000000000e+00
     2.000000000000e+00 0.000000000000e+00-1.350417733192e-08 4.600000000000e+01
     6.981360000000e+05 4.000000000000e+00                                      
G03 2026 07 21 00 28 54 3.641797229648e-04-1.898570189951e-11 0.000000000000e+00
     3.900000000000e+01-2.587500000000e+01 3.495145586843e-09 1.972188565113e+00
    -1.396983861923e-06 6.975172669627e-03 9.100884199142e-06 5.153767438889e+03
     1.799840000000e+05 2.980232238770e-08 1.621788574712e+00-1.285225152969e-07
     9.947606312017e-01 2.198125000000e+02 1.276449267064e+00-7.577458488704e-09
     3.042983895351e-10 1.000000000000e+00 3.800000000000e+02 0.000000000000e+00
     2.000000000000e+00 0.000000000000e+00 1.396983861923e-09 3.900000000000e+01
     6.981360000000e+05 4.000000000000e+00                                      
G04 2026 07 21 00 28 54 6.273528560996e-05 6.821210263297e-13 0.000000000000e+00
     4.000000000000e+00-2.156250000000e+01 4.435899058715e-09-1.318618189375e+00
    -1.283362507820e-06 3.821728983894e-03 6.174668669701e-06 5.153673210144e+03
     1.800000000000e+05 4.470348358154e-08 2.690147796711e+00-5.960464477539e-08
     9.724411767983e-01 2.633125000000e+02-2.902038596573e+00-8.003904823334e-09
     3.196561721055e-10 1.000000000000e+00 3.800000000000e+02 0.000000000000e+00
     2.000000000000e+00 0.000000000000e+00-4.656612873077e-09 5.160000000000e+02
     6.981360000000e+05 4.000000000000e+00                                      
G28 2026 07 21 00 28 54-4.658922553062e-04 1.091393642128e-11 0.000000000000e+00
     9.500000000000e+01-3.215625000000e+01 4.697338520147e-09-3.139609729576e+00
    -1.585111021996e-06 5.170600488782e-04 8.603557944298e-06 5.153621814728e+03
     1.800000000000e+05-4.656612873077e-08-2.610111901157e+00 2.048909664154e-08
     9.622425633680e-01 2.147500000000e+02-3.117338440287e-01-7.972474942725e-09
    -9.357532635937e-11 1.000000000000e+00 3.800000000000e+02 0.000000000000e+00
     2.000000000000e+00 0.000000000000e+00-9.313225746155e-09 3.510000000000e+02
     6.981360000000e+05 4.000000000000e+00                                      
C32 2026 07 21 00 28 54-9.033411042765e-04 1.862510146111e-12 0.000000000000e+00
     1.000000000000e+00-1.528125000000e+01 3.335138921923e-09 2.071525875573e+00
    -8.088536560535e-07 5.075715016574e-04 7.343944162130e-06 5.282631332397e+03
     1.728000000000e+05 3.213062882423e-08 2.177669544060e+00-3.067776560783e-06
     9.887592087384e-01 2.231875000000e+02-4.909819910278e-02-5.694133612092e-07
     4.546617956316e-10                    1.072000000000e+03                   
     0.000000000000e+00 0.000000000000e+00-3.818422555923e-08-3.818422555923e-08
     1.745340000000e+05 1.000000000000e+00                                      
C37 2026 07 21 00 28 54-9.073964320123e-04 6.909139926847e-12 0.000000000000e+00
     1.000000000000e+00 1.034375000000e+01 4.165173496195e-09 3.452587901002e-01
     4.637986421585e-07 7.127004209906e-04 1.081917434931e-05 5.282669240952e+03
     1.728000000000e+05-9.313225746155e-10-2.018514202373e+00 4.359474405646e-05
     9.451582169021e-01 1.326093750000e+02-3.738174789299e-01 2.002644132452e-07
    -2.560820954186e-10                    1.072000000000e+03                   
     0.000000000000e+00 0.000000000000e+00-7.823109626770e-08-7.823109626770e-08
     1.745340000000e+05 1.000000000000e+00                                      
C41 2026 07 21 00 28 54-9.488336509094e-04-2.091660178394e-12 0.000000000000e+00
     1.000000000000e+00-1.260937500000e+01 3.406927626496e-09-2.389793850518e+00
    -5.229376256466e-07 1.458042184822e-03 7.325783371925e-06 5.282628807068e+03
     1.728000000000e+05 1.676380634308e-08 2.179923621403e+00-1.113722100854e-05
     9.876143744000e-01 2.254375000000e+02-1.038559629000e+00 1.630723997629e-06
     4.560904265684e-10                    1.072000000000e+03                   
     0.000000000000e+00 0.000000000000e+00-1.117587089539e-07-1.117587089539e-07
     1.745340000000e+05 1.000000000000e+00                                      
G04 2026 07 21 00 29 36 6.273412145674e-05 6.998845947237e-13 0.000000000000e+00
    -5.631446838379e-04-2.111328125000e+01 4.452149735621e-09-1.581149703060e+00
    -1.121312379837e-06 3.821527818218e-03 6.383284926414e-06 5.153549399026e+03
     1.233000000000e+05 2.700835466385e-08 2.690162137697e+00-4.377216100693e-08
     9.724406055288e-01 2.625976562500e+02-2.902052367753e+00-8.337076507608e-09
     3.330495871378e-10 4.452149735621e-09-2.000000000000e+00 3.000000000000e+00
     3.000000000000e+01 4.000000000000e+00-4.656612873077e-09 7.000000000000e+00
    -2.037268131971e-10 3.317836672068e-09-1.426087692380e-09-1.396983861923e-09
     1.745760000000e+05 2.428000000000e+03 0.000000000000e+00                   
E21 2026 07 21 00 29 54-7.585140410811e-04-2.827960088325e-12 0.000000000000e+00
     3.000000000000e+01 1.150937500000e+02 3.159774474433e-09 8.572248956120e-01
     5.146488547325e-06 1.701257424429e-04 9.587034583092e-06 5.440615518570e+03
     1.704000000000e+05 1.303851604462e-08-1.328944024013e+00 7.450580596924e-09
     9.606212609999e-01 1.338125000000e+02-1.556055263490e+00-5.563446025572e-09
    -5.143071372424e-11 5.160000000000e+02 1.404000000000e+03                   
     1.070000000000e+02 0.000000000000e+00 1.164153218269e-09 1.164153218269e-09
     1.745940000000e+05                                                         
E07 2026 07 21 00 29 54-7.846829248592e-05-2.543742994021e-12 0.000000000000e+00
     3.500000000000e+01-4.984375000000e+01 3.343353549810e-09 2.379629005625e+00
    -2.190470695496e-06 4.220121772960e-04 5.545094609261e-06 5.440617073059e+03
     1.734000000000e+05-1.862645149231e-09 2.852470811007e+00-1.862645149231e-09
     9.693520555754e-01 2.261250000000e+02 1.827766117795e-01-5.668807557160e-09
     1.953652806053e-10 5.160000000000e+02 1.404000000000e+03                   
     1.070000000000e+02 0.000000000000e+00 4.423782229424e-09 4.889443516731e-09
     1.745940000000e+05                                                         
E33 2026 07 21 00 30 05-2.513488288969e-05-1.989519660128e-12 0.000000000000e+00
     3.500000000000e+01-7.203125000000e+01 2.434744274015e-09-1.845617039186e-01
    -3.274530172348e-06 1.660318812355e-04 6.984919309616e-06 5.440604440689e+03
     1.734000000000e+05 8.940696716309e-08 7.701195289010e-01 5.960464477539e-08
     9.976737809347e-01 2.065000000000e+02-3.026684932548e+00-5.451298497035e-09
    -1.946509651369e-10 1.000000000000e+00 1.404000000000e+03                   
     1.070000000000e+02 0.000000000000e+00-4.423782229424e-09-4.889443516731e-09
     1.746050000000e+05                                                         
E29 2026 07 21 00 30 05-2.271416597068e-04-3.623767952377e-12 0.000000000000e+00
     3.500000000000e+01-4.503125000000e+01 3.429785721485e-09 3.541882240812e-01
    -2.052634954453e-06 2.008775481954e-04 5.563721060753e-06 5.440611127853e+03
     1.734000000000e+05-9.313225746155e-09 2.852204767651e+00 1.117587089539e-08
     9.627377626007e-01 2.192500000000e+02 1.417108027003e+00-5.750239520557e-09
     2.114373786441e-10 1.000000000000e+00 1.404000000000e+03                   
     1.070000000000e+02 0.000000000000e+00-3.259629011154e-09-2.793967723846e-09
     1.746050000000e+05                                                         
E19 2026 07 21 00 30 05 3.107951488346e-03 2.410160959698e-11 0.000000000000e+00
     2.700000000000e+01-4.056250000000e+01 3.285493996870e-09 6.700663307008e-01
    -1.993030309677e-06 2.444363199174e-04 5.826354026794e-06 5.440615125656e+03
     1.686000000000e+05-4.284083843231e-08 2.860647537064e+00-4.097819328308e-08
     9.747192006471e-01 2.257500000000e+02-2.419013792948e-01-5.610948004220e-09
     1.692927660089e-10 1.000000000000e+00 1.404000000000e+03                   
     1.070000000000e+02 0.000000000000e+00-4.190951585770e-09-4.423782229424e-09
     1.746050000000e+05                                                         
END OF FILE                                                 COMMENT
