     3.05           N: NAVIGATION       M: MIXED            RINEX VERSION / TYPE
PYRINEXCONV 0.1.2 ALDELTUNES            20260721 100314 UTC PGM / RUN BY / DATE
GAL    1.0175e+02  3.3203e-01  2.2858e-02             K 11  IONOSPHERIC CORR
GPSA   1.1176e-08  2.2352e-08  1.5199e-05  1.5140e-05 K 24  IONOSPHERIC CORR
GPSB   1.0650e+05  1.4746e+05  1.6712e+07  1.6450e+07 K 24  IONOSPHERIC CORR
GAUT  6.5192580223e-09-2.664535259e-15 207600 1404   E11  0 TIME SYSTEM CORR
GPUT  1.0186340660e-09 1.190603172e-12 428400 2428   G24  0 TIME SYSTEM CORR
                                                            END OF HEADER
E31 2026 07 21 10 00 35-1.581299002282e-04-2.955857780762e-12 0.000000000000e+00
     9.200000000000e+01 8.221875000000e+01 3.059413151124e-09-2.523117550911e+00
     3.989785909653e-06 3.416769905016e-04 8.620321750641e-06 5.440616680145e+03
     2.076000000000e+05-5.587935447693e-09-1.329232145729e+00-3.725290298462e-09
     9.605980913034e-01 1.548125000000e+02-1.405167565292e+00-5.518086993329e-09
     1.042900583853e-10 1.000000000000e+00 1.404000000000e+03                   
     1.070000000000e+02 0.000000000000e+00 3.492459654808e-09 4.190951585770e-09
     2.088350000000e+05                                                         
E12 2026 07 21 10 00 54-5.900522228330e-05-2.600586412882e-12 0.000000000000e+00
     9.200000000000e+01-4.268750000000e+01 2.664039539369e-09-6.465472629915e-01
    -2.004206180573e-06 3.198821796104e-04 5.761161446571e-06 5.440608850479e+03
     2.076000000000e+05-3.725290298462e-08 7.694733682258e-01-9.685754776001e-08
     9.945589986658e-01 2.299062500000e+02 8.620929105901e-01-5.498086160215e-09
    -2.260808457461e-10 5.160000000000e+02 1.404000000000e+03                   
     1.070000000000e+02 0.000000000000e+00-1.187436282635e-08-1.164153218269e-08
     2.088540000000e+05                                                         
E33 2026 07 21 10 03 05-2.519506961107e-05-1.946887095983e-12 0.000000000000e+00
     8.600000000000e+01-5.178125000000e+01 2.673325640458e-09-2.678856425900e+00
    -2.324581146240e-06 1.662023132667e-04 5.647540092468e-06 5.440606731415e+03
     2.040000000000e+05 5.587935447693e-08 7.699541489380e-01-8.754432201385e-08
     9.976651175338e-01 2.334062500000e+02-3.021928220766e+00-5.507015103569e-09
    -2.207234797332e-10 1.000000000000e+00 1.404000000000e+03                   
     1.070000000000e+02 0.000000000000e+00-4.423782229424e-09-4.889443516731e-09
     2.089850000000e+05                                                         
E31 2026 07 21 10 03 05-1.581317046657e-04-2.955857780762e-12 0.000000000000e+00
     9.300000000000e+01 8.250000000000e+01 3.058698835655e-09-2.449247106047e+00
     4.006549715996e-06 3.417236730456e-04 8.702278137207e-06 5.440616317749e+03
     2.082000000000e+05 0.000000000000e+00-1.329235476793e+00-5.587935447693e-09
     9.605981703010e-01 1.533750000000e+02-1.404652937044e+00-5.514872573722e-09
     1.042900583853e-10 1.000000000000e+00 1.404000000000e+03                   
     1.070000000000e+02 0.000000000000e+00 3.492459654808e-09 4.190951585770e-09
     2.089850000000e+05                                                         
G06 2026 07 21 10 03 12-5.692653940059e-04 7.975842208907e-12 0.000000000000e+00
    -7.128715515137e-03-1.784765625000e+01 4.109635468527e-09 1.982657061328e+00
    -8.838251233101e-07 3.696886647958e-03 5.481764674187e-06 5.153499173991e+03
     1.845000000000e+05 1.052394509315e-07 5.836211130877e-01-1.303851604462e-08
     9.858719241286e-01 2.858281250000e+02-5.461467665764e-01-8.395114639415e-09
    -2.101873265744e-10 4.109635468527e-09-2.000000000000e+00 3.000000000000e+00
     2.900000000000e+01 4.000000000000e+00 3.725290298462e-09 7.000000000000e+00
     3.201421350241e-10-3.929017111659e-09 1.775333657861e-09 2.211891114712e-09
     2.089920000000e+05 2.428000000000e+03 0.000000000000e+00                   
G11 2026 07 21 10 03 12-2.678104792722e-04 1.223909862347e-11 0.000000000000e+00
    -9.360313415527e-04-2.354687500000e+01 4.523759861328e-09-3.067374537467e+00
    -1.215375959873e-06 2.486338082235e-03 5.622394382954e-06 5.153570937345e+03
     1.872000000000e+05-3.073364496231e-08 5.993054630438e-01-1.108273863792e-07
     9.627631054621e-01 2.717890625000e+02-2.355419437657e+00-8.195820623734e-09
    -1.960795960737e-10 4.523759861328e-09-2.000000000000e+00 3.000000000000e+00
     2.800000000000e+01 4.000000000000e+00-8.847564458847e-09 7.000000000000e+00
    -2.037268131971e-10 5.675246939063e-09 3.783497959375e-10 2.328306436539e-10
     2.089920000000e+05 2.428000000000e+03 0.000000000000e+00                   
G24 2026 07 21 10 03 12 1.224652514793e-04 1.861266696324e-11 0.000000000000e+00
     3.237724304199e-04-3.702734375000e+01 4.960206612515e-09 2.151533203994e+00
    -1.907348632812e-06 1.843404141255e-02 7.623806595802e-06 5.153591472595e+03
     1.980000000000e+05 5.774199962616e-08-2.697239305266e+00-3.175809979439e-07
     9.355030438911e-01 2.200507812500e+02 1.162171590460e+00-8.262251962294e-09
    -1.050043738536e-10 4.960206612515e-09-2.000000000000e+00 2.000000000000e+00
     2.800000000000e+01 4.000000000000e+00 2.328306436539e-09 7.000000000000e+00
     2.910383045673e-11-1.426087692380e-09 1.484295353293e-09 2.764863893390e-09
     2.089920000000e+05 2.428000000000e+03 0.000000000000e+00                   
E16 2026 07 21 10 03 24-4.647969035432e-05-2.486899575160e-12 0.000000000000e+00
     8.900000000000e+01 9.781250000000e+01 3.090485873999e-09-2.506894661311e+00
     4.362314939499e-06 4.925836110488e-04 8.363276720047e-06 5.440616605759e+03
     2.058000000000e+05 5.587935447693e-09-1.332459325456e+00 3.725290298462e-09
     9.625727512931e-01 1.593437500000e+02-2.472509234140e+00-5.512729627317e-09
     8.107480566251e-11 5.160000000000e+02 1.404000000000e+03                   
     1.070000000000e+02 0.000000000000e+00-3.725290298462e-09-2.328306436539e-09
     2.090040000000e+05                                                         
E10 2026 07 21 10 03 24-8.074251818471e-04-2.600586412882e-12 0.000000000000e+00
     8.700000000000e+01-4.515625000000e+01 2.576893052225e-09-2.856180244606e+00
    -2.223998308182e-06 2.871559699997e-04 6.128102540970e-06 5.440603137970e+03
     2.046000000000e+05-6.146728992462e-08 7.680206642406e-01 7.450580596924e-09
     9.974651600391e-01 2.255937500000e+02 2.331766037495e+00-5.393796101829e-09
    -2.400099973798e-10 5.160000000000e+02 1.404000000000e+03                   
     1.070000000000e+02 0.000000000000e+00-1.164153218269e-09-2.328306436539e-10
     2.090040000000e+05                                                         
E11 2026 07 21 10 03 24 5.517843528651e-03 6.752998160664e-11-3.469446951954e-18
     9.200000000000e+01-4.434375000000e+01 2.638681340241e-09-1.931308183972e+00
    -2.140179276466e-06 4.167810548097e-04 6.133690476418e-06 5.440609558105e+03
     2.076000000000e+05-5.029141902924e-08 7.694637115036e-01 1.117587089539e-08
     9.945469295916e-01 2.250312500000e+02 1.350049069157e+00-5.415225565881e-09
    -2.003654888840e-10 5.160000000000e+02 1.404000000000e+03                   
     1.070000000000e+02 0.000000000000e+00-1.466833055019e-08-1.583248376846e-08
     2.090040000000e+05                                                         
E12 2026 07 21 10 03 24-5.900685209781e-05-2.600586412882e-12 0.000000000000e+00
     9.300000000000e+01-4.415625000000e+01 2.675825744597e-09-5.721360592377e-01
    -2.056360244751e-06 3.196983598173e-04 5.748122930527e-06 5.440608488083e+03
     2.082000000000e+05-2.048909664154e-08 7.694700488647e-01-1.043081283569e-07
     9.945587953202e-01 2.302812500000e+02 8.620668267607e-01-5.505586472633e-09
    -2.178662178596e-10 5.160000000000e+02 1.404000000000e+03                   
     1.070000000000e+02 0.000000000000e+00-1.187436282635e-08-1.164153218269e-08
     2.090040000000e+05                                                         
END OF FILE                                                 COMMENT
