     3.05           N: NAVIGATION       M: MIXED            RINEX VERSION / TYPE
PYRINEXCONV 0.1.2 ALDELTUNES            20260721 020027 UTC PGM / RUN BY / DATE
GAL    1.0175e+02  3.3203e-01  2.2858e-02             C 19  IONOSPHERIC CORR
GPSA   9.3132e-09  2.2352e-08  1.5199e-05  1.5140e-05 C 04  IONOSPHERIC CORR
GPSB   1.0035e+05  1.3107e+05  1.6712e+07  1.6318e+07 C 04  IONOSPHERIC CORR
BDSA   1.9558e-08  2.9802e-08 -5.9605e-07  1.0133e-06 B 12  IONOSPHERIC CORR
BDSB   1.4131e+05 -7.8643e+05  6.0293e+06 -4.9807e+06 B 12  IONOSPHERIC CORR
GAUT  6.5192580223e-09-2.664535259e-15 178200 1404   E19  0 TIME SYSTEM CORR
GPUT -3.2014213502e-09 1.588507104e-12 356400 2428   G04  0 TIME SYSTEM CORR
BDUT  0.0000000000e+00 0.000000000e+00 176400 1072   C12  0 TIME SYSTEM CORR
                                                            END OF HEADER
C37 2026 07 21 01 52 54-9.073717519641e-04 6.894929072132e-12 0.000000000000e+00
     1.000000000000e+00 1.954687500000e+01 4.141601085738e-09 8.311552507124e-01
     9.462237358093e-07 7.138121873140e-04 1.042569056153e-05 5.282672407150e+03
     1.764000000000e+05-5.122274160385e-09-2.018538811581e+00 3.761239349842e-05
     9.451572162661e-01 1.400781250000e+02-3.721579578270e-01 1.764005620772e-07
    -2.492960984689e-10                    1.072000000000e+03                   
     0.000000000000e+00 0.000000000000e+00-7.823109626770e-08-7.823109626770e-08
     1.795740000000e+05 1.000000000000e+00                                      
C32 2026 07 21 01 52 54-9.033344686031e-04 1.854516540334e-12 0.000000000000e+00
     1.000000000000e+00-1.312500000000e+01 3.323709874429e-09 2.559447414184e+00
    -6.132759153843e-07 5.078297108412e-04 7.395632565022e-06 5.282630712509e+03
     1.764000000000e+05 3.306195139885e-08 2.177645836010e+00-4.491303116083e-06
     9.887608252629e-01 2.226406250000e+02-4.945625415436e-02-5.925457533376e-07
     4.518045337580e-10                    1.072000000000e+03                   
     0.000000000000e+00 0.000000000000e+00-3.818422555923e-08-3.818422555923e-08
     1.795740000000e+05 1.000000000000e+00                                      
C20 2026 07 21 01 52 54-8.893401827663e-04 3.032241124856e-12 0.000000000000e+00
     1.000000000000e+00-1.635937500000e+01 3.292994309288e-09 1.381506767154e+00
    -9.723007678986e-07 8.087712340057e-04 7.377937436104e-06 5.282636220932e+03
     1.764000000000e+05 4.423782229424e-08 2.185726955981e+00 2.164393663406e-06
     9.899271118320e-01 2.240156250000e+02 2.747253579282e-01 1.305682244049e-06
     4.300179119721e-10                    1.072000000000e+03                   
     0.000000000000e+00 0.000000000000e+00 5.541369318962e-08 5.541369318962e-08
     1.795740000000e+05 1.000000000000e+00                                      
C23 2026 07 21 01 52 54-4.541795933619e-04-3.108624468950e-14 0.000000000000e+00
     1.000000000000e+00 1.907812500000e+01 4.261606084428e-09 2.122035657497e+00
     1.065898686647e-06 3.790127811953e-04 1.015933230519e-05 5.282651744843e+03
     1.764000000000e+05 1.220032572746e-07-2.018312272865e+00 7.591675966978e-06
     9.436848199406e-01 1.447968750000e+02-8.777745760915e-01 3.959754225372e-07
    -1.946509651369e-10                    1.072000000000e+03                   
     0.000000000000e+00 0.000000000000e+00 1.024454832077e-07 1.024454832077e-07
     1.795740000000e+05 1.000000000000e+00                                      
C12 2026 07 21 01 52 54 6.158314645290e-04-5.119460411152e-12 0.000000000000e+00
     1.000000000000e+00-1.454687500000e+01 3.619436478343e-09 6.559349926339e-01
    -9.150244295597e-07 1.759527949616e-04 7.207971066236e-06 5.282643482208e+03
     1.764000000000e+05 5.215406417847e-08 2.170754432704e+00-5.007488653064e-05
     9.735933813180e-01 2.216250000000e+02 7.070514042605e-01-1.330130762428e-06
     4.214461263514e-10                    1.072000000000e+03                   
     0.000000000000e+00 0.000000000000e+00 3.725290298462e-09 3.725290298462e-09
     1.795740000000e+05 1.000000000000e+00                                      
G03 2026 07 21 01 56 00 3.642191586550e-04-1.892885848065e-11 0.000000000000e+00
    -5.082130432129e-03-3.272656250000e+01 3.511932000350e-09 1.668182751148e+00
    -1.699663698673e-06 6.976965523791e-03 9.193085134029e-06 5.153454907572e+03
     1.737000000000e+05-4.470348358154e-08 1.621804437133e+00-1.080334186554e-07
     9.947597490621e-01 2.185000000000e+02 1.276501399613e+00-8.703163185159e-09
     2.996553389905e-10 3.511932000350e-09-2.000000000000e+00 2.000000000000e+00
     2.700000000000e+01 4.000000000000e+00 1.396983861923e-09 7.000000000000e+00
     5.529727786779e-10-2.008164301515e-09 1.862645149231e-09 5.005858838558e-09
     1.797600000000e+05 2.428000000000e+03 0.000000000000e+00                   
G16 2026 07 21 01 56 24 3.019548021257e-04 6.480149750132e-12 0.000000000000e+00
     8.700000000000e+01 6.278125000000e+01 4.749840707074e-09 4.905484698842e-03
     3.473833203316e-06 1.503468246665e-02 8.979812264442e-06 5.153715620041e+03
     1.800000000000e+05-4.656612873077e-08-1.450390116970e+00 1.844018697739e-07
     9.573753442173e-01 2.042187500000e+02 9.375411286941e-01-8.338561620276e-09
    -8.571785620706e-11 1.000000000000e+00 3.800000000000e+02 0.000000000000e+00
     2.000000000000e+00 0.000000000000e+00-1.024454832077e-08 8.700000000000e+01
     7.191360000000e+05 4.000000000000e+00                                      
G04 2026 07 21 01 56 24 6.273528560996e-05 6.821210263297e-13 0.000000000000e+00
     4.000000000000e+00-2.156250000000e+01 4.435899058715e-09-1.318618189375e+00
    -1.283362507820e-06 3.821728983894e-03 6.174668669701e-06 5.153673210144e+03
     1.800000000000e+05 4.470348358154e-08 2.690147796711e+00-5.960464477539e-08
     9.724411767983e-01 2.633125000000e+02-2.902038596573e+00-8.003904823334e-09
     3.196561721055e-10 1.000000000000e+00 3.800000000000e+02 0.000000000000e+00
     2.000000000000e+00 0.000000000000e+00-4.656612873077e-09 5.160000000000e+02
     7.191360000000e+05 4.000000000000e+00                                      
G09 2026 07 21 01 56 24 7.172152400017e-04-6.934897101019e-12 0.000000000000e+00
     6.700000000000e+01-1.775000000000e+01 4.581619414267e-09-4.508002746923e-01
    -1.188367605209e-06 3.669588360935e-03 6.427988409996e-06 5.153694242477e+03
     1.800000000000e+05-4.097819328308e-08 2.624974743614e+00-1.303851604462e-08
     9.667031907710e-01 2.595312500000e+02 2.038005290461e+00-8.129624345771e-09
     3.371569010811e-10 1.000000000000e+00 3.800000000000e+02 0.000000000000e+00
     2.000000000000e+00 0.000000000000e+00 4.656612873077e-10 6.700000000000e+01
     7.191360000000e+05 4.000000000000e+00                                      
G03 2026 07 21 01 56 24 3.641797229648e-04-1.898570189951e-11 0.000000000000e+00
     3.900000000000e+01-2.587500000000e+01 3.495145586843e-09 1.972188565113e+00
    -1.396983861923e-06 6.975172669627e-03 9.100884199142e-06 5.153767438889e+03
     1.799840000000e+05 2.980232238770e-08 1.621788574712e+00-1.285225152969e-07
     9.947606312017e-01 2.198125000000e+02 1.276449267064e+00-7.577458488704e-09
     3.042983895351e-10 1.000000000000e+00 3.800000000000e+02 0.000000000000e+00
     2.000000000000e+00 0.000000000000e+00 1.396983861923e-09 3.900000000000e+01
     7.191360000000e+05 4.000000000000e+00                                      
G08 2026 07 21 01 56 24 3.941175527871e-04-9.208633855451e-12 0.000000000000e+00
     7.000000000000e+01 5.346875000000e+01 5.096998024712e-09-1.069394312611e+00
     2.812594175339e-06 1.168418244924e-02 4.606321454048e-06 5.153748771667e+03
     1.800000000000e+05 3.073364496231e-07-5.415815683262e-01-3.725290298462e-08
     9.417718760760e-01 2.810937500000e+02 5.447890937496e-01-8.495353865588e-09
    -1.082187934614e-10 1.000000000000e+00 3.800000000000e+02 0.000000000000e+00
     2.000000000000e+00 0.000000000000e+00 4.656612873077e-09 7.000000000000e+01
     7.191360000000e+05 4.000000000000e+00                                      
G07 2026 07 21 01 56 24-2.078558318317e-04-3.751665644813e-12 0.000000000000e+00
     9.500000000000e+01-4.153125000000e+01 4.832344143673e-09 2.487023629991e+00
    -2.285465598106e-06 2.093855303247e-02 8.402392268181e-06 5.153585344315e+03
     1.800000000000e+05 1.862645149231e-07-2.585971020119e+00-2.812594175339e-07
     9.513225455340e-01 2.106562500000e+02-1.955248498942e+00-7.751751462992e-09
    -1.939366496685e-10 1.000000000000e+00 3.800000000000e+02 0.000000000000e+00
     2.000000000000e+00 0.000000000000e+00-1.071020960808e-08 9.500000000000e+01
     7.191360000000e+05 4.000000000000e+00                                      
E27 2026 07 21 01 59 05-1.049770275131e-03-1.060129761754e-11 0.000000000000e+00
     4.400000000000e+01 1.013437500000e+02 3.330138713644e-09 2.025303840709e+00
     4.854053258896e-06 2.452005865052e-04 8.149072527885e-06 5.440612884521e+03
     1.788000000000e+05 5.587935447693e-08-1.329031447997e+00 6.146728992462e-08
     9.605915740034e-01 1.654062500000e+02-8.832340795703e-01-5.630948837335e-09
     1.214336296267e-11 1.000000000000e+00 1.404000000000e+03                   
     1.070000000000e+02 0.000000000000e+00 2.328306436539e-10 2.328306436539e-10
     1.799450000000e+05                                                         
G09 2026 07 21 01 59 12 7.172278710641e-04-6.984635092522e-12 0.000000000000e+00
     1.339435577393e-03-1.959375000000e+01 4.615192241282e-09-7.134542236493e-01
    -1.024454832077e-06 3.669837024063e-03 6.437301635742e-06 5.153528615372e+03
     1.395000000000e+05-5.587935447693e-09 2.624989215532e+00 3.166496753693e-08
     9.667025587904e-01 2.592617187500e+02 2.038118201404e+00-8.197427833538e-09
     3.714440435639e-10 4.615192241282e-09-2.000000000000e+00 3.000000000000e+00
     2.900000000000e+01 4.000000000000e+00 4.656612873077e-10 7.000000000000e+00
    -5.820766091347e-10-7.275957614183e-10 5.064066499472e-09 5.617039278150e-09
     1.799520000000e+05 2.428000000000e+03 0.000000000000e+00                   
G07 2026 07 21 01 59 12-2.078491088469e-04-3.755218358492e-12 0.000000000000e+00
    -3.325462341309e-03-4.600390625000e+01 4.862702551080e-09 2.224427951256e+00
    -2.330169081688e-06 2.093955763848e-02 8.520670235157e-06 5.153637426576e+03
     1.161000000000e+05 1.285225152969e-07-2.585957236504e+00-3.799796104431e-07
     9.513225528486e-01 2.129687500000e+02-1.955214520476e+00-8.504404906079e-09
    -1.712571335470e-10 4.862702551080e-09-2.000000000000e+00 3.000000000000e+00
     3.000000000000e+01 4.000000000000e+00-1.071020960808e-08 7.000000000000e+00
    -9.313225746155e-10 6.984919309616e-09 0.000000000000e+00 0.000000000000e+00
     1.799520000000e+05 2.428000000000e+03 0.000000000000e+00                   
G04 2026 07 21 02 00 00 6.273412145674e-05 6.998845947237e-13 0.000000000000e+00
    -5.631446838379e-04-2.111328125000e+01 4.452149735621e-09-1.581149703060e+00
    -1.121312379837e-06 3.821527818218e-03 6.383284926414e-06 5.153549399026e+03
     1.233000000000e+05 2.700835466385e-08 2.690162137697e+00-4.377216100693e-08
     9.724406055288e-01 2.625976562500e+02-2.902052367753e+00-8.337076507608e-09
     3.330495871378e-10 4.452149735621e-09-2.000000000000e+00 3.000000000000e+00
     3.000000000000e+01 4.000000000000e+00-4.656612873077e-09 7.000000000000e+00
    -2.037268131971e-10 3.317836672068e-09-1.426087692380e-09-1.396983861923e-09
     1.800000000000e+05 2.428000000000e+03 0.000000000000e+00                   
E21 2026 07 21 02 00 35-7.585358689539e-04-2.799538378895e-12 0.000000000000e+00
     4.300000000000e+01 1.138125000000e+02 3.210490872689e-09 1.815999025043e+00
     5.297362804413e-06 1.703940797597e-04 8.758157491684e-06 5.440617902756e+03
     1.782000000000e+05 1.117587089539e-08-1.328987503401e+00-3.725290298462e-08
     9.606206260935e-01 1.490625000000e+02-1.547821414872e+00-5.602733376334e-09
    -3.321566928024e-11 1.000000000000e+00 1.404000000000e+03                   
     1.070000000000e+02 0.000000000000e+00 6.984919309616e-10 9.313225746155e-10
     1.800350000000e+05                                                         
E23 2026 07 21 02 00 35-4.267983604223e-05-1.350031197944e-12 0.000000000000e+00
     4.400000000000e+01 1.183125000000e+02 3.128701751558e-09 2.307364778982e+00
     5.386769771576e-06 1.721276203170e-04 9.261071681976e-06 5.440621896744e+03
     1.788000000000e+05-9.313225746155e-09-1.332184285154e+00 1.862645149231e-09
     9.625506963401e-01 1.420937500000e+02-2.756850775386e+00-5.535587722305e-09
    -5.000208278745e-12 1.000000000000e+00 1.404000000000e+03                   
     1.070000000000e+02 0.000000000000e+00 4.656612873077e-10 1.862645149231e-09
     1.800350000000e+05                                                         
E29 2026 07 21 02 00 35-2.271611592732e-04-3.609557097661e-12 0.000000000000e+00
     4.400000000000e+01-4.778125000000e+01 3.395141421268e-09 1.021449858481e+00
    -2.108514308929e-06 2.010014140978e-04 5.524605512619e-06 5.440612041473e+03
     1.788000000000e+05-1.862645149231e-08 2.852173706975e+00 3.725290298462e-09
     9.627389109914e-01 2.216562500000e+02 1.419317368311e+00-5.747739416418e-09
     2.150089559860e-10 1.000000000000e+00 1.404000000000e+03                   
     1.070000000000e+02 0.000000000000e+00-3.259629011154e-09-2.793967723846e-09
     1.800350000000e+05                                                         
E28 2026 07 21 02 00 35-6.028253119439e-05-2.899014361901e-12 0.000000000000e+00
     4.400000000000e+01-3.946875000000e+01 3.598721329760e-09-7.235244791844e-01
    -2.024695277214e-06 2.847597934306e-04 5.399808287621e-06 5.440608428955e+03
     1.788000000000e+05 1.862645149231e-09 2.870187961706e+00-1.303851604462e-08
     9.490508575833e-01 2.161250000000e+02 1.958704651682e+00-5.844886320119e-09
     2.157232714544e-10 1.000000000000e+00 1.404000000000e+03                   
     1.070000000000e+02 0.000000000000e+00 9.313225746155e-10 1.862645149231e-09
     1.800350000000e+05                                                         
E19 2026 07 21 02 00 35 3.108187054750e-03 2.442845925543e-11 0.000000000000e+00
     4.300000000000e+01-4.293750000000e+01 3.184418358092e-09 1.857914075476e+00
    -2.041459083557e-06 2.441270044073e-04 5.668029189110e-06 5.440616420746e+03
     1.782000000000e+05 9.313225746155e-09 2.860593357893e+00 3.725290298462e-09
     9.747208976321e-01 2.213437500000e+02-2.395825224766e-01-5.625948629057e-09
     2.128660095809e-10 1.000000000000e+00 1.404000000000e+03                   
     1.070000000000e+02 0.000000000000e+00-4.423782229424e-09-4.423782229424e-09
     1.800350000000e+05                                                         
END OF FILE                                                 COMMENT
