     3.05           N: NAVIGATION       M: MIXED            RINEX VERSION / TYPE
PYRINEXCONV 0.1.2 ALDELTUNES            20260721 135603 UTC PGM / RUN BY / DATE
GAL    9.2500e+01  2.3047e-01  2.8290e-02             N 10  IONOSPHERIC CORR
GPSA   9.3132e-09  2.2352e-08  1.5199e-05  1.5140e-05 N 25  IONOSPHERIC CORR
GPSB   1.0035e+05  1.3107e+05  1.6712e+07  1.6318e+07 N 25  IONOSPHERIC CORR
BDSA   2.1420e-08  7.4506e-08 -8.3447e-07  1.3113e-06 N 24  IONOSPHERIC CORR
BDSB   1.4131e+05 -7.2090e+05  5.6361e+06 -4.7186e+06 N 24  IONOSPHERIC CORR
GAUT  6.5192580223e-09-2.664535259e-15 222000 1404   E10  0 TIME SYSTEM CORR
GPUT  6.1118043959e-10 1.133759753e-12 442800 2428   G25  0 TIME SYSTEM CORR
BDUT  0.0000000000e+00 0.000000000e+00 219600 1072   C24  0 TIME SYSTEM CORR
                                                            END OF HEADER
G13 2026 07 21 13 48 48 4.184774297755e-04 5.240252676231e-12 8.673617379884e-19
    -4.507541656494e-03 3.406250000000e+01 4.347502519502e-09 1.316556556711e+00
     1.756474375725e-06 2.271318458952e-03 8.977949619293e-06 5.153630947532e+03
     1.647000000000e+05 2.980232238770e-08-1.575992203658e+00-4.470348358154e-08
     9.588257221628e-01 2.048125000000e+02 1.820178237478e+00-8.384757065123e-09
     2.160804291886e-11 4.347502519502e-09-3.000000000000e+00 1.000000000000e+00
     3.000000000000e+01 7.000000000000e+00-8.381903171539e-09 7.000000000000e+00
    -1.164153218269e-10 5.267793312669e-09 1.658918336034e-09 1.949956640601e-09
     2.225280000000e+05 2.428000000000e+03 0.000000000000e+00                   
G05 2026 07 21 13 48 54-2.352870069444e-04-3.410605131648e-13 0.000000000000e+00
     2.300000000000e+01-3.318750000000e+01 4.069812381164e-09-7.691829248591e-01
    -1.652166247368e-06 5.605044658296e-03 7.944181561470e-06 5.153775075912e+03
     2.232000000000e+05-8.754432201385e-08 1.559845350688e+00 7.450580596924e-09
     9.811629641872e-01 2.366875000000e+02 1.482026453356e+00-7.908186550570e-09
     5.714523747137e-11 1.000000000000e+00 3.800000000000e+02 0.000000000000e+00
     2.000000000000e+00 0.000000000000e+00-1.071020960808e-08 2.300000000000e+01
     8.901360000000e+05 4.000000000000e+00                                      
G25 2026 07 21 13 48 54 4.047034308314e-04-3.183231456205e-12 0.000000000000e+00
     8.000000000000e+01 3.790625000000e+01 4.647693595094e-09 1.648745407744e+00
     1.842156052589e-06 1.290104887448e-02 9.052455425262e-06 5.153670021057e+03
     2.232000000000e+05-2.123415470123e-07-1.562931777216e+00-2.291053533554e-07
     9.467232159420e-01 1.980937500000e+02 1.161786415102e+00-8.136410342721e-09
    -1.107188976008e-11 1.000000000000e+00 3.800000000000e+02 0.000000000000e+00
     2.000000000000e+00 0.000000000000e+00 5.587935447693e-09 8.000000000000e+01
     8.901360000000e+05 4.000000000000e+00                                      
G29 2026 07 21 13 48 54-2.777096815407e-04 7.389644451905e-12 0.000000000000e+00
     8.600000000000e+01 5.112500000000e+01 4.622335395966e-09-1.203435310997e+00
     2.352520823479e-06 3.657206660137e-03 5.047768354416e-06 5.153688520432e+03
     2.232000000000e+05 2.048909664154e-08-4.180532909004e-01-1.862645149231e-08
     9.601397678467e-01 2.815937500000e+02 2.869500261472e+00-8.233557246422e-09
     1.150047904111e-10 1.000000000000e+00 3.800000000000e+02 0.000000000000e+00
     2.000000000000e+00 0.000000000000e+00-9.778887033463e-09 8.600000000000e+01
     8.901360000000e+05 4.000000000000e+00                                      
G12 2026 07 21 13 48 54-6.054574623704e-04 5.684341886081e-13 0.000000000000e+00
     1.100000000000e+01 4.481250000000e+01 4.369467720155e-09 1.715136100223e+00
     2.250075340271e-06 8.705807500519e-03 8.989125490189e-06 5.153704656601e+03
     2.232000000000e+05 1.061707735062e-07-1.467491007577e+00-2.123415470123e-07
     9.583101912946e-01 2.030312500000e+02 1.587336480902e+00-7.903900657759e-09
     4.964492505326e-11 1.000000000000e+00 3.800000000000e+02 0.000000000000e+00
     2.000000000000e+00 0.000000000000e+00-1.257285475731e-08 1.100000000000e+01
     8.901360000000e+05 4.000000000000e+00                                      
E11 2026 07 21 13 50 54 5.518773279618e-03 6.734524049534e-11-3.469446951954e-18
     1.150000000000e+02-5.228125000000e+01 2.749757395576e-09-2.185710104628e-01
    -2.484768629074e-06 4.139589145780e-04 4.798173904419e-06 5.440604850769e+03
     2.214000000000e+05 3.725290298462e-08 7.693877772777e-01-1.862645149231e-09
     9.945437535965e-01 2.531562500000e+02 1.348170888615e+00-5.513801100519e-09
    -7.607459738377e-11 5.160000000000e+02 1.404000000000e+03                   
     1.070000000000e+02 0.000000000000e+00-1.490116119385e-08-1.583248376846e-08
     2.226540000000e+05                                                         
E25 2026 07 21 13 50 54 2.174323890358e-05 0.000000000000e+00 0.000000000000e+00
     1.150000000000e+02 8.459375000000e+01 2.965123509296e-09-2.468564614516e+00
     4.060566425323e-06 2.968865446746e-04 8.778646588326e-06 5.440614538193e+03
     2.214000000000e+05 2.980232238770e-08-1.329227214232e+00-5.587935447693e-09
     9.606294343232e-01 1.512500000000e+02-1.309384841477e+00-5.516301204659e-09
     4.428755904031e-11 5.160000000000e+02 1.404000000000e+03                   
     1.070000000000e+02 0.000000000000e+00 2.328306436539e-09 2.561137080193e-09
     2.226540000000e+05                                                         
G20 2026 07 21 13 52 00 2.371800073888e-04 1.183408926408e-11 0.000000000000e+00
    -3.228187561035e-04-2.279296875000e+01 4.565190158494e-09 1.306373534330e+00
    -1.153908669949e-06 1.908392121550e-03 6.604008376598e-06 5.153608599011e+03
     1.737000000000e+05-4.749745130539e-08 2.629533328744e+00-2.980232238770e-08
     9.620859543303e-01 2.527812500000e+02-1.761457486975e+00-8.249930020464e-09
     8.750364487804e-11 4.565190158494e-09-3.000000000000e+00 2.000000000000e+00
     2.900000000000e+01 4.000000000000e+00-6.984919309616e-09 7.000000000000e+00
    -1.455191522837e-10 4.220055416226e-09 2.095475792885e-09 2.066371962428e-09
     2.227200000000e+05 2.428000000000e+03 0.000000000000e+00                   
G12 2026 07 21 13 52 48-6.054585392121e-04 5.542233338929e-13 0.000000000000e+00
    -4.949092864990e-03 3.772265625000e+01 4.390361447605e-09 1.452541715439e+00
     1.955777406693e-06 8.707613684237e-03 8.841045200825e-06 5.153516838877e+03
     2.025000000000e+05-1.117587089539e-08-1.467476728765e+00-1.946464180946e-07
     9.583097143833e-01 2.068085937500e+02 1.587387384599e+00-8.343683925691e-09
     4.589476884420e-11 4.390361447605e-09-2.000000000000e+00 3.000000000000e+00
     2.800000000000e+01 4.000000000000e+00-1.257285475731e-08 7.000000000000e+00
    -6.984919309616e-10 7.072230800986e-09 0.000000000000e+00 0.000000000000e+00
     2.227680000000e+05 2.428000000000e+03 0.000000000000e+00                   
C31 2026 07 21 13 52 54 7.556617492810e-04-9.059419880941e-12 0.000000000000e+00
     1.000000000000e+00 2.003125000000e+01 4.359467303597e-09 4.305959072479e-02
     8.363276720047e-07 7.341586751863e-04 3.856141120195e-06 5.282667808533e+03
     2.196000000000e+05 4.330649971962e-08 3.189692598357e-02 2.191215753555e-05
     9.410539490286e-01 2.747812500000e+02 1.055218690551e+00 1.188922380532e-06
    -5.357366012941e-11                    1.072000000000e+03                   
     0.000000000000e+00 0.000000000000e+00-6.519258022308e-09-6.519258022308e-09
     2.227740000000e+05 1.000000000000e+00                                      
C24 2026 07 21 13 52 54-5.305053200573e-04-3.573052964612e-11 0.000000000000e+00
     1.000000000000e+00 1.393750000000e+01 4.035882396416e-09 1.863937396360e+00
     6.551854312420e-07 6.251466693357e-04 9.253621101379e-06 5.282657627106e+03
     2.196000000000e+05 3.213062882423e-08-2.018797743692e+00 3.601144999266e-05
     9.436740645669e-01 1.642968750000e+02 5.448827819493e-01-7.787288657544e-08
    -1.360770967287e-10                    1.072000000000e+03                   
     0.000000000000e+00 0.000000000000e+00 1.909211277962e-08 1.909211277962e-08
     2.227740000000e+05 1.000000000000e+00                                      
E10 2026 07 21 13 53 05-8.074668003246e-04-2.671640686458e-12 0.000000000000e+00
     1.130000000000e+02-5.234375000000e+01 2.727256458321e-09-9.289669936269e-01
    -2.417713403702e-06 2.849890151992e-04 4.870817065239e-06 5.440598266602e+03
     2.202000000000e+05 2.793967723846e-08 7.679348597065e-01-5.587935447693e-09
     9.974612540478e-01 2.529062500000e+02 2.338574724487e+00-5.493800267404e-09
    -8.750364487804e-11 1.000000000000e+00 1.404000000000e+03                   
     1.070000000000e+02 0.000000000000e+00-1.396983861923e-09-6.984919309616e-10
     2.227850000000e+05                                                         
E02 2026 07 21 13 55 35 5.612667882815e-05 2.700062395888e-12 0.000000000000e+00
     1.120000000000e+02 9.393750000000e+01 3.018340011691e-09 1.555995134632e+00
     4.261732101440e-06 2.689292887226e-04 8.413568139076e-06 5.440622732162e+03
     2.196000000000e+05 7.450580596924e-09-1.325923507796e+00-3.539025783539e-08
     9.610047781407e-01 1.582500000000e+02-9.217092829484e-02-5.504157841696e-09
     1.428630936784e-12 1.000000000000e+00 1.404000000000e+03                   
     1.070000000000e+02 0.000000000000e+00-2.328306436539e-09-3.026798367500e-09
     2.229350000000e+05                                                         
E16 2026 07 21 13 55 54-4.651554627344e-05-2.501110429876e-12 0.000000000000e+00
     1.130000000000e+02 7.490625000000e+01 2.970838033043e-09-7.198503297071e-01
     3.607943654060e-06 4.904707893729e-04 9.393319487572e-06 5.440615587234e+03
     2.202000000000e+05 5.215406417847e-08-1.332538720946e+00 5.215406417847e-08
     9.625742580987e-01 1.400000000000e+02-2.474311816927e+00-5.453441443440e-09
     6.535986535788e-11 5.160000000000e+02 1.404000000000e+03                   
     1.070000000000e+02 0.000000000000e+00-3.958120942116e-09-2.561137080193e-09
     2.229540000000e+05                                                         
E36 2026 07 21 13 55 54-5.969643825665e-04-5.314859663486e-12 0.000000000000e+00
     1.150000000000e+02-4.393750000000e+01 2.616894718455e-09-2.089308411396e-01
    -2.177432179451e-06 8.850242011249e-05 5.738809704781e-06 5.440605104446e+03
     2.214000000000e+05-1.490116119385e-08 7.698833393142e-01-7.078051567078e-08
     9.976486202066e-01 2.375625000000e+02 5.830529215574e-01-5.460227440390e-09
    -9.393248409357e-11 5.160000000000e+02 1.404000000000e+03                   
     1.070000000000e+02 0.000000000000e+00 4.423782229424e-09 5.122274160385e-09
     2.229540000000e+05                                                         
E04 2026 07 21 13 55 55-1.211890485138e-04 3.356603883731e-11 1.734723475977e-18
     1.160000000000e+02-3.662500000000e+01 3.280850946325e-09 1.210891819076e-02
    -1.743435859680e-06 2.911165356636e-04 5.979090929031e-06 5.440609312057e+03
     2.220000000000e+05-2.421438694000e-08 2.852249145271e+00-7.450580596924e-09
     9.693590351576e-01 2.108125000000e+02-7.019562390664e-02-5.599161798992e-09
     7.643175511796e-11 1.000000000000e+00 1.404000000000e+03                   
     1.070000000000e+02 0.000000000000e+00-4.656612873077e-09-5.122274160385e-09
     2.229550000000e+05                                                         
G05 2026 07 21 13 56 00-2.352863957640e-04-3.375077994860e-13 0.000000000000e+00
    -5.671977996826e-03-3.324218750000e+01 4.024810506656e-09-1.031420181351e+00
    -1.653097569942e-06 5.603698780760e-03 7.516704499722e-06 5.153446300058e+03
     1.701000000000e+05-7.916241884232e-08 1.559859682165e+00 5.401670932770e-08
     9.811629890568e-01 2.459609375000e+02 1.481731062401e+00-8.459403031570e-09
     4.375182243902e-11 4.024810506656e-09-2.000000000000e+00 3.000000000000e+00
     3.000000000000e+01 4.000000000000e+00-1.071020960808e-08 7.000000000000e+00
    -3.783497959375e-10 5.733454599977e-09 0.000000000000e+00 0.000000000000e+00
     2.229600000000e+05 2.428000000000e+03 0.000000000000e+00                   
G29 2026 07 21 13 56 00-2.777229237836e-04 7.350564601438e-12 0.000000000000e+00
     4.547595977783e-03 4.461718750000e+01 4.664837166335e-09-1.466105003878e+00
     2.350658178329e-06 3.658789850306e-03 5.080364644527e-06 5.153534745687e+03
     1.764000000000e+05 1.769512891769e-08-4.180384547167e-01-2.328306436539e-08
     9.601395652325e-01 2.818437500000e+02 2.869630026695e+00-8.103316770577e-09
     1.114332130692e-10 4.664837166335e-09-2.000000000000e+00 3.000000000000e+00
     3.000000000000e+01 4.000000000000e+00-9.778887033463e-09 7.000000000000e+00
    -9.604264050722e-10 5.355104804039e-09 0.000000000000e+00 0.000000000000e+00
     2.229600000000e+05 2.428000000000e+03 0.000000000000e+00                   
G25 2026 07 21 13 56 00 4.047089896630e-04-3.229416734030e-12 0.000000000000e+00
     4.336357116699e-03 4.065625000000e+01 4.696624204679e-09 1.386186788381e+00
     2.051703631878e-06 1.289950474165e-02 8.748844265938e-06 5.153552874520e+03
     1.593000000000e+05-2.169981598854e-07-1.562916745733e+00-7.729977369308e-08
     9.467228845911e-01 2.032539062500e+02 1.161801535092e+00-8.100816666438e-09
    -5.768097407267e-11 4.696624204679e-09-2.000000000000e+00 3.000000000000e+00
     3.000000000000e+01 4.000000000000e+00 5.587935447693e-09 7.000000000000e+00
    -1.891748979688e-09-4.773028194904e-09-1.047737896442e-09 6.402842700481e-10
     2.229600000000e+05 2.428000000000e+03 0.000000000000e+00                   
E11 2026 07 21 13 56 05 5.518813733943e-03 6.733102964063e-11-3.469446951954e-18
     1.160000000000e+02-5.184375000000e+01 2.749757395576e-09-1.440673517492e-01
    -2.460554242134e-06 4.138762596995e-04 4.762783646584e-06 5.440604660034e+03
     2.220000000000e+05 3.166496753693e-08 7.693844447504e-01 0.000000000000e+00
     9.945436965427e-01 2.537812500000e+02 1.348052659964e+00-5.512729627317e-09
    -7.321733551020e-11 1.000000000000e+00 1.404000000000e+03                   
     1.070000000000e+02 0.000000000000e+00-1.490116119385e-08-1.583248376846e-08
     2.229650000000e+05                                                         
E25 2026 07 21 13 56 05 2.174318069592e-05 0.000000000000e+00 0.000000000000e+00
     1.160000000000e+02 8.431250000000e+01 2.967623613435e-09-2.395124130054e+00
     4.043802618980e-06 2.969426568598e-04 8.897855877876e-06 5.440613971710e+03
     2.220000000000e+05 3.352761268616e-08-1.329230540907e+00-5.587935447693e-09
     9.606294811366e-01 1.489687500000e+02-1.308440314271e+00-5.512372469582e-09
     4.393040130612e-11 1.000000000000e+00 1.404000000000e+03                   
     1.070000000000e+02 0.000000000000e+00 2.328306436539e-09 2.561137080193e-09
     2.229650000000e+05                                                         
E10 2026 07 21 13 56 05-8.074717479758e-04-2.671640686458e-12 0.000000000000e+00
     1.160000000000e+02-5.612500000000e+01 2.709755729346e-09-7.055488674338e-01
    -2.572312951088e-06 2.854735357687e-04 4.926696419716e-06 5.440599231720e+03
     2.220000000000e+05 2.235174179077e-08 7.679249367331e-01-7.450580596924e-09
     9.974610916639e-01 2.515625000000e+02 2.338314221202e+00-5.490943005531e-09
    -8.464638300447e-11 1.000000000000e+00 1.404000000000e+03                   
     1.070000000000e+02 0.000000000000e+00-1.396983861923e-09-6.984919309616e-10
     2.229650000000e+05                                                         
END OF FILE                                                 COMMENT
