     3.05           N: NAVIGATION       M: MIXED            RINEX VERSION / TYPE
PYRINEXCONV 0.1.2 ALDELTUNES            20260721 085249 UTC PGM / RUN BY / DATE
GAL    1.0175e+02  3.3203e-01  2.2858e-02             I 31  IONOSPHERIC CORR
GPSA   1.1176e-08  2.2352e-08  1.5199e-05  1.5140e-05 I 06  IONOSPHERIC CORR
GPSB   1.0650e+05  1.4746e+05  1.6712e+07  1.6450e+07 I 06  IONOSPHERIC CORR
GAUT  6.5192580223e-09-2.664535259e-15 202800 1404   E31  0 TIME SYSTEM CORR
GPUT  1.1641532183e-09-1.367350677e-12 414300 2428   G06  0 TIME SYSTEM CORR
                                                            END OF HEADER
E05 2026 07 21 08 45 35 5.041219992563e-05 2.742694960034e-12 0.000000000000e+00
     8.500000000000e+01-3.943750000000e+01 3.221205604714e-09 2.068017049005e+00
    -1.883134245872e-06 2.910610055551e-04 5.833804607391e-06 5.440614107132e+03
     2.034000000000e+05 1.676380634308e-08 2.852226154051e+00 1.862645149231e-08
     9.693321247795e-01 2.192500000000e+02 2.843621332814e-01-5.692737125351e-09
     1.221479450951e-10 1.000000000000e+00 1.404000000000e+03                   
     1.070000000000e+02 0.000000000000e+00 2.328306436539e-09 2.561137080193e-09
     2.043350000000e+05                                                         
G30 2026 07 21 08 45 36 3.027125785593e-04 1.329070187239e-11 0.000000000000e+00
    -3.137111663818e-03-2.747656250000e+01 5.088247660225e-09-2.093370342420e-01
    -1.356005668640e-06 8.217922528274e-03 7.663853466511e-06 5.153540602366e+03
     1.980000000000e+05 2.793967723846e-09-2.597253092622e+00 1.341104507446e-07
     9.366260646580e-01 2.200625000000e+02-2.259071140935e+00-7.910094436377e-09
    -4.678766317969e-11 5.088247660225e-09-2.000000000000e+00 2.000000000000e+00
     2.700000000000e+01 4.000000000000e+00 4.190951585770e-09 7.000000000000e+00
    -1.513399183750e-09-3.259629011154e-09 2.328306436539e-09 3.230525180697e-09
     2.043360000000e+05 2.428000000000e+03 0.000000000000e+00                   
G14 2026 07 21 08 46 12 7.499796629418e-04 2.557953848736e-13 0.000000000000e+00
    -2.422332763672e-04 4.229296875000e+01 4.912883212734e-09-6.744416370642e-01
     2.199783921242e-06 7.365882338490e-03 8.623115718365e-06 5.153562711095e+03
     2.016000000000e+05 1.080334186554e-07-1.524266816540e+00 7.264316082001e-08
     9.416386459321e-01 2.037539062500e+02-2.680705784030e+00-8.091173407614e-09
     6.785996949726e-11 4.912883212734e-09-3.000000000000e+00 2.000000000000e+00
     2.700000000000e+01 4.000000000000e+00-7.916241884232e-09 7.000000000000e+00
    -2.619344741106e-10 5.005858838558e-09-1.455191522837e-09-1.076841726899e-09
     2.043720000000e+05 2.428000000000e+03 0.000000000000e+00                   
G22 2026 07 21 08 48 54 4.060100764036e-05 8.071765478235e-12 0.000000000000e+00
     9.200000000000e+01 5.381250000000e+01 4.444113686602e-09-2.529953664691e+00
     2.978369593620e-06 1.184459077194e-02 8.782371878624e-06 5.153724548340e+03
     2.088000000000e+05 1.490116119385e-08-1.447237888387e+00 1.899898052216e-07
     9.568470245193e-01 2.051562500000e+02-9.877956796893e-01-7.783895659069e-09
     9.107522222000e-11 1.000000000000e+00 3.800000000000e+02 0.000000000000e+00
     2.000000000000e+00 0.000000000000e+00-1.117587089539e-08 9.200000000000e+01
     8.181360000000e+05 4.000000000000e+00                                      
G19 2026 07 21 08 48 54 7.038190960884e-04 4.547473508865e-13 0.000000000000e+00
     5.000000000000e+01 4.206250000000e+01 4.855916554130e-09-1.509985941181e+00
     2.097338438034e-06 1.176493673120e-02 4.887580871582e-06 5.153760034561e+03
     2.088000000000e+05 5.774199962616e-08-3.912794762350e-01-1.620501279831e-07
     9.566052816954e-01 2.842500000000e+02 3.029474768527e+00-8.343918986289e-09
     1.535778257043e-10 1.000000000000e+00 3.800000000000e+02 0.000000000000e+00
     2.000000000000e+00 0.000000000000e+00-1.536682248116e-08 5.000000000000e+01
     8.181360000000e+05 4.000000000000e+00                                      
G17 2026 07 21 08 48 54-1.762625761330e-04-6.025402399246e-12 0.000000000000e+00
     6.600000000000e+01 5.268750000000e+01 4.767698593784e-09 3.140405416571e+00
     2.849847078323e-06 1.261520700064e-02 4.867091774940e-06 5.153678655624e+03
     2.088000000000e+05 1.322478055954e-07-4.350422214605e-01 2.756714820862e-07
     9.574385934805e-01 2.811875000000e+02-1.098618294159e+00-8.097122991959e-09
     4.500187450871e-11 1.000000000000e+00 3.800000000000e+02 0.000000000000e+00
     2.000000000000e+00 0.000000000000e+00-1.071020960808e-08 6.600000000000e+01
     8.181360000000e+05 4.000000000000e+00                                      
G06 2026 07 21 08 48 54-5.693081766367e-04 7.958078640513e-12 0.000000000000e+00
     1.400000000000e+01-2.406250000000e+01 4.019095982909e-09 1.195134823534e+00
    -1.270323991776e-06 3.694361192174e-03 5.714595317841e-06 5.153724903107e+03
     2.088000000000e+05 1.303851604462e-08 5.836642618564e-01-3.911554813385e-08
     9.858733950927e-01 2.786875000000e+02-5.462298515458e-01-7.903543500025e-09
    -2.785830326729e-10 1.000000000000e+00 3.800000000000e+02 0.000000000000e+00
     2.000000000000e+00 0.000000000000e+00 3.725290298462e-09 1.400000000000e+01
     8.181360000000e+05 4.000000000000e+00                                      
E33 2026 07 21 08 49 54-2.519378904253e-05-1.932676241267e-12 0.000000000000e+00
     8.500000000000e+01-5.012500000000e+01 2.659396488824e-09-2.751592231501e+00
    -2.261251211166e-06 1.660605194047e-04 5.720183253288e-06 5.440607337952e+03
     2.034000000000e+05 4.097819328308e-08 7.699574873170e-01-9.685754776001e-08
     9.976653179536e-01 2.314687500000e+02-3.023577494128e+00-5.502729210759e-09
    -2.303667385565e-10 5.160000000000e+02 1.404000000000e+03                   
     1.070000000000e+02 0.000000000000e+00-4.423782229424e-09-4.889443516731e-09
     2.045940000000e+05                                                         
E23 2026 07 21 08 49 54-4.271295620129e-05-1.321609488514e-12 0.000000000000e+00
     8.500000000000e+01 8.181250000000e+01 3.109415233911e-09-9.274984316097e-01
     3.982335329056e-06 1.739271683618e-04 8.987262845039e-06 5.440619457245e+03
     2.034000000000e+05 0.000000000000e+00-1.332321755566e+00-1.303851604462e-08
     9.625516194414e-01 1.496875000000e+02-2.755383070639e+00-5.497014687012e-09
     1.100045821324e-10 5.160000000000e+02 1.404000000000e+03                   
     1.070000000000e+02 0.000000000000e+00 4.656612873077e-10 1.862645149231e-09
     2.045940000000e+05                                                         
E26 2026 07 21 08 50 05 3.676526830532e-04 1.082867129298e-11 0.000000000000e+00
     8.500000000000e+01-5.334375000000e+01 2.815117260934e-09-2.434691454443e+00
    -2.425163984299e-06 9.291665628552e-05 5.122274160385e-06 5.440598814011e+03
     2.034000000000e+05 4.284083843231e-08 7.665171253150e-01 1.676380634308e-08
     9.909283373542e-01 2.447812500000e+02-2.570115426824e+00-5.542016561521e-09
    -1.903650723265e-10 1.000000000000e+00 1.404000000000e+03                   
     1.070000000000e+02 0.000000000000e+00-5.122274160385e-09-5.587935447693e-09
     2.046050000000e+05                                                         
E10 2026 07 21 08 50 35-8.074219222181e-04-2.600586412882e-12 0.000000000000e+00
     8.500000000000e+01-4.571875000000e+01 2.582964733706e-09-3.006293978680e+00
    -2.253800630569e-06 2.874764613807e-04 6.338581442833e-06 5.440602146149e+03
     2.034000000000e+05-5.960464477539e-08 7.680271274126e-01 7.450580596924e-09
     9.974654570114e-01 2.215937500000e+02 2.333108419902e+00-5.392010313158e-09
    -2.400099973798e-10 1.000000000000e+00 1.404000000000e+03                   
     1.070000000000e+02 0.000000000000e+00-1.164153218269e-09-2.328306436539e-10
     2.046350000000e+05                                                         
E12 2026 07 21 08 51 05-5.898519884795e-05-2.557953848736e-12 0.000000000000e+00
     8.000000000000e+01-4.656250000000e+01 2.602251251353e-09-1.541989154015e+00
    -2.337619662285e-06 3.188102273270e-04 6.387010216713e-06 5.440606094360e+03
     2.004000000000e+05-3.166496753693e-08 7.695124734890e-01 1.490116119385e-08
     9.945614680715e-01 2.191875000000e+02 8.649107058597e-01-5.409153884400e-09
    -2.667968274445e-10 1.000000000000e+00 1.404000000000e+03                   
     1.070000000000e+02 0.000000000000e+00-1.187436282635e-08-1.164153218269e-08
     2.046650000000e+05                                                         
G11 2026 07 21 08 52 00-2.678986347746e-04 1.224265133715e-11 0.000000000000e+00
     1.009941101074e-03-2.707031250000e+01 4.508402078757e-09 2.166119576878e+00
    -1.373700797558e-06 2.487270801794e-03 6.095506250858e-06 5.153573621315e+03
     1.872000000000e+05-7.916241884232e-08 5.993640390152e-01-3.259629011154e-08
     9.627647863549e-01 2.627109375000e+02-2.355922015117e+00-8.224750400204e-09
    -2.292952653539e-10 4.508402078757e-09-2.000000000000e+00 3.000000000000e+00
     2.800000000000e+01 4.000000000000e+00-8.847564458847e-09 7.000000000000e+00
    -2.037268131971e-10 5.675246939063e-09 3.783497959375e-10 2.328306436539e-10
     2.047200000000e+05 2.428000000000e+03 0.000000000000e+00                   
E16 2026 07 21 08 52 35-4.646781599149e-05-2.501110429876e-12 0.000000000000e+00
     8.100000000000e+01 1.001562500000e+02 3.139416483584e-09-3.101724718553e+00
     4.405155777931e-06 4.923009546474e-04 8.720904588699e-06 5.440617143631e+03
     2.010000000000e+05 1.862645149231e-09-1.332432891990e+00 9.313225746155e-09
     9.625723314356e-01 1.570937500000e+02-2.472761177891e+00-5.512015311848e-09
     8.500354073867e-11 1.000000000000e+00 1.404000000000e+03                   
     1.070000000000e+02 0.000000000000e+00-3.725290298462e-09-2.328306436539e-09
     2.047550000000e+05                                                         
E10 2026 07 21 08 52 35-8.074235520326e-04-2.600586412882e-12 0.000000000000e+00
     8.600000000000e+01-4.559375000000e+01 2.579393156364e-09-2.931262168504e+00
    -2.246350049973e-06 2.873095218092e-04 6.232410669327e-06 5.440602638245e+03
     2.040000000000e+05-5.960464477539e-08 7.680238914379e-01 7.450580596924e-09
     9.974653136455e-01 2.235937500000e+02 2.332462297263e+00-5.392010313158e-09
    -2.400099973798e-10 1.000000000000e+00 1.404000000000e+03                   
     1.070000000000e+02 0.000000000000e+00-1.164153218269e-09-2.328306436539e-10
     2.047550000000e+05                                                         
E26 2026 07 21 08 52 35 3.676592023112e-04 1.082867129298e-11 0.000000000000e+00
     8.600000000000e+01-5.331250000000e+01 2.815831576402e-09-2.360268526864e+00
    -2.432614564896e-06 9.291234891862e-05 5.135312676430e-06 5.440598825455e+03
     2.040000000000e+05 3.166496753693e-08 7.665137459742e-01 2.048909664154e-08
     9.909282013028e-01 2.447187500000e+02-2.570152562999e+00-5.538802141913e-09
    -1.839362331110e-10 1.000000000000e+00 1.404000000000e+03                   
     1.070000000000e+02 0.000000000000e+00-5.122274160385e-09-5.587935447693e-09
     2.047550000000e+05                                                         
E33 2026 07 21 08 52 35-2.519506961107e-05-1.946887095983e-12 0.000000000000e+00
     8.600000000000e+01-5.178125000000e+01 2.673325640458e-09-2.678856425900e+00
    -2.324581146240e-06 1.662023132667e-04 5.647540092468e-06 5.440606731415e+03
     2.040000000000e+05 5.587935447693e-08 7.699541489380e-01-8.754432201385e-08
     9.976651175338e-01 2.334062500000e+02-3.021928220766e+00-5.507015103569e-09
    -2.207234797332e-10 1.000000000000e+00 1.404000000000e+03                   
     1.070000000000e+02 0.000000000000e+00-4.423782229424e-09-4.889443516731e-09
     2.047550000000e+05                                                         
G06 2026 07 21 08 52 48-5.693228158634e-04 7.972289495228e-12 0.000000000000e+00
     5.177974700928e-03-2.061328125000e+01 4.004452515806e-09 9.323627841724e-01
    -1.042149960995e-06 3.692717407830e-03 6.204470992088e-06 5.153498310652e+03
     1.845000000000e+05 1.676380634308e-08 5.836785092156e-01-2.700835466385e-08
     9.858739305207e-01 2.723945312500e+02-5.459911281849e-01-8.441009408259e-09
    -2.816188734136e-10 4.004452515806e-09-2.000000000000e+00 3.000000000000e+00
     2.800000000000e+01 4.000000000000e+00 3.725290298462e-09 7.000000000000e+00
     3.201421350241e-10-3.929017111659e-09 1.775333657861e-09 2.211891114712e-09
     2.047680000000e+05 2.428000000000e+03 0.000000000000e+00                   
E09 2026 07 21 08 52 54-3.007745253853e-04 1.801936377888e-11 5.204170427930e-18
     8.400000000000e+01-3.828125000000e+01 3.040840948945e-09 2.677347624858e+00
    -1.784414052963e-06 4.990355810151e-04 5.668029189110e-06 5.440616653442e+03
     2.028000000000e+05 6.332993507385e-08 2.855512306932e+00 1.117587089539e-08
     9.750934560535e-01 2.261250000000e+02 3.878074610745e-01-5.604162007271e-09
     1.707213969457e-10 5.160000000000e+02 1.404000000000e+03                   
     1.070000000000e+02 0.000000000000e+00 6.984919309616e-10 9.313225746155e-10
     2.047740000000e+05                                                         
E31 2026 07 21 08 52 55-1.581155811436e-04-2.941646926047e-12 0.000000000000e+00
     8.400000000000e+01 8.581250000000e+01 3.111915338050e-09-3.118831762193e+00
     4.041939973831e-06 3.419846761972e-04 8.542090654373e-06 5.440615993500e+03
     2.028000000000e+05-1.490116119385e-08-1.329205419678e+00 2.421438694000e-08
     9.605975412462e-01 1.544687500000e+02-1.404535496907e+00-5.539873615115e-09
     9.643258823294e-11 1.000000000000e+00 1.404000000000e+03                   
     1.070000000000e+02 0.000000000000e+00 3.492459654808e-09 4.190951585770e-09
     2.047750000000e+05                                                         
END OF FILE                                                 COMMENT
