     3.05           N: NAVIGATION       M: MIXED            RINEX VERSION / TYPE
PYRINEXCONV 0.1.2 ALDELTUNES            20260721 052131 UTC PGM / RUN BY / DATE
GAL    1.0175e+02  3.3203e-01  2.2858e-02             F 23  IONOSPHERIC CORR
GPSA   9.3132e-09  2.2352e-08  1.5199e-05  1.5140e-05 F 14  IONOSPHERIC CORR
GPSB   1.0035e+05  1.3107e+05  1.6712e+07  1.6318e+07 F 14  IONOSPHERIC CORR
BDSA   2.0489e-08  2.2352e-08 -5.3644e-07  9.5367e-07 F 12  IONOSPHERIC CORR
BDSB   1.3722e+05 -4.4237e+05  4.3254e+06 -3.8666e+06 F 12  IONOSPHERIC CORR
GAUT  6.5192580223e-09-2.664535259e-15 189000 1404   E23  0 TIME SYSTEM CORR
GPUT -3.2887328416e-09 5.373479439e-14 385200 2428   G14  0 TIME SYSTEM CORR
BDUT  0.0000000000e+00 0.000000000e+00 190800 1072   C12  0 TIME SYSTEM CORR
                                                            END OF HEADER
G07 2026 07 21 05 16 24-2.079098485410e-04-3.751665644813e-12 0.000000000000e+00
     9.700000000000e+01-2.071875000000e+01 4.741626079187e-09-1.695767174572e+00
    -9.015202522278e-07 2.093818434514e-02 7.875263690948e-06 5.153584897995e+03
     1.944000000000e+05 4.228204488754e-07-2.586084121241e+00 1.657754182816e-07
     9.513214629746e-01 2.134062500000e+02-1.955170504928e+00-7.871042146213e-09
     1.142904749427e-11 1.000000000000e+00 3.800000000000e+02 0.000000000000e+00
     2.000000000000e+00 0.000000000000e+00-1.071020960808e-08 9.700000000000e+01
     7.671360000000e+05 4.000000000000e+00                                      
G30 2026 07 21 05 16 24 3.025494515896e-04 1.330136001343e-11 0.000000000000e+00
     9.900000000000e+01-2.796875000000e+01 5.111641491814e-09-2.003574362149e+00
    -1.674517989159e-06 8.217569906265e-03 7.912516593933e-06 5.153681093216e+03
     1.944000000000e+05 1.247972249985e-07-2.597151349596e+00 5.587935447693e-09
     9.366274792998e-01 2.088437500000e+02-2.258889940976e+00-8.182126532698e-09
     3.928735076157e-12 1.000000000000e+00 3.800000000000e+02 0.000000000000e+00
     2.000000000000e+00 0.000000000000e+00 4.190951585770e-09 9.900000000000e+01
     7.671360000000e+05 4.000000000000e+00                                      
G09 2026 07 21 05 16 24 7.171146571636e-04-7.048583938740e-12 0.000000000000e+00
     7.400000000000e+01-1.984375000000e+01 4.403754862638e-09 1.649337004501e+00
    -1.048669219017e-06 3.670229576528e-03 6.090849637985e-06 5.153696254730e+03
     1.944000000000e+05 1.378357410431e-07 2.624858163673e+00 3.166496753693e-08
     9.667080432703e-01 2.642812500000e+02 2.038203357865e+00-8.018548290436e-09
     2.792973481413e-10 1.000000000000e+00 3.800000000000e+02 0.000000000000e+00
     2.000000000000e+00 0.000000000000e+00 4.656612873077e-10 7.400000000000e+01
     7.671360000000e+05 4.000000000000e+00                                      
G02 2026 07 21 05 16 24 1.419312320650e-04 7.275957614183e-12 0.000000000000e+00
     1.300000000000e+01-2.415625000000e+01 4.525188492264e-09 1.292985379128e+00
    -1.484528183937e-06 1.689662365243e-02 4.813075065613e-06 5.153731765747e+03
     1.944000000000e+05 3.483146429062e-07 4.674341725895e-01 1.862645149231e-09
     9.620966197345e-01 2.790000000000e+02-7.358926908272e-01-8.126767083898e-09
    -4.053740283126e-10 1.000000000000e+00 3.800000000000e+02 0.000000000000e+00
     2.000000000000e+00 0.000000000000e+00-1.722946763039e-08 1.300000000000e+01
     7.671360000000e+05 4.000000000000e+00                                      
G14 2026 07 21 05 16 24 7.499763742089e-04 2.273736754432e-13 0.000000000000e+00
     2.270000000000e+02 6.125000000000e+01 4.906990110120e-09-2.599717998404e+00
     3.017485141754e-06 7.363637676463e-03 9.743496775627e-06 5.153661857605e+03
     1.944000000000e+05-2.048909664154e-08-1.524159444936e+00-1.657754182816e-07
     9.416377923194e-01 1.834687500000e+02-2.680783462054e+00-8.087836890870e-09
     4.500187450871e-11 1.000000000000e+00 3.800000000000e+02 0.000000000000e+00
     2.000000000000e+00 0.000000000000e+00-7.916241884232e-09 9.950000000000e+02
     7.671360000000e+05 4.000000000000e+00                                      
G27 2026 07 21 05 16 24 5.345791578293e-07 0.000000000000e+00 0.000000000000e+00
     9.200000000000e+01 4.981250000000e+01 5.066996775040e-09 1.178820661012e+00
     2.728775143623e-06 1.433041493874e-02 5.435198545456e-06 5.153676309586e+03
     1.944000000000e+05-1.974403858185e-07-5.084907592869e-01 2.197921276093e-07
     9.508924168974e-01 2.717500000000e+02 9.006274967388e-01-8.603929816784e-09
    -1.414344627416e-10 1.000000000000e+00 3.800000000000e+02 0.000000000000e+00
     2.800000000000e+00 0.000000000000e+00 2.328306436539e-09 9.200000000000e+01
     7.671360000000e+05 4.000000000000e+00                                      
G22 2026 07 21 05 16 24 4.048552364111e-05 8.071765478235e-12 0.000000000000e+00
     9.000000000000e+01 6.537500000000e+01 4.593048461762e-09 1.652859933599e+00
     3.341585397720e-06 1.184515061323e-02 9.132549166679e-06 5.153724006653e+03
     1.944000000000e+05 2.570450305939e-07-1.447124740451e+00 1.862645149231e-09
     9.568466251426e-01 1.999687500000e+02-9.877256878367e-01-7.882471193708e-09
    -1.785788670980e-11 1.000000000000e+00 3.800000000000e+02 0.000000000000e+00
     2.000000000000e+00 0.000000000000e+00-1.117587089539e-08 9.000000000000e+01
     7.671360000000e+05 4.000000000000e+00                                      
C30 2026 07 21 05 16 54 4.927119007334e-04 7.579714633721e-12 0.000000000000e+00
     1.000000000000e+00 8.125000000000e-01 4.278035340201e-09-1.449826612629e+00
    -2.654269337654e-08 4.686597967520e-04 3.840308636427e-06 5.282646724701e+03
     1.908000000000e+05-3.539025783539e-08 3.480146936946e-02 3.549642860889e-05
     9.455224015804e-01 2.767656250000e+02 9.824146559137e-01-1.968054834526e-06
    -2.850118718885e-10                    1.072000000000e+03                   
     0.000000000000e+00 0.000000000000e+00-4.516914486885e-08-4.516914486885e-08
     1.918140000000e+05 1.000000000000e+00                                      
C28 2026 07 21 05 16 54 5.406929412857e-04 3.968381179220e-12 0.000000000000e+00
     1.000000000000e+00 5.546875000000e+00 4.264463346301e-09-3.108576724012e+00
     3.152526915073e-07 1.220272388309e-04 3.856141120195e-06 5.282633798599e+03
     1.908000000000e+05 6.519258022308e-08 7.535890402941e-02 2.926448360085e-05
     9.477858459877e-01 2.728437500000e+02-2.180369134086e+00 1.686451676053e-06
    -2.757257707994e-10                    1.072000000000e+03                   
     0.000000000000e+00 0.000000000000e+00-2.002343535423e-08-2.002343535423e-08
     1.918140000000e+05 1.000000000000e+00                                      
C19 2026 07 21 05 16 54-9.326281724498e-04 8.535394613318e-13 0.000000000000e+00
     1.000000000000e+00-1.454687500000e+01 3.231920336740e-09-3.074938024357e+00
    -6.747432053089e-07 7.844705833122e-04 7.526483386755e-06 5.282631372452e+03
     1.908000000000e+05 3.445893526077e-08 2.185004919597e+00-3.527384251356e-06
     9.899478326036e-01 2.224531250000e+02-3.183201396772e-01 6.010125345845e-07
     3.975165581602e-10                    1.072000000000e+03                   
     0.000000000000e+00 0.000000000000e+00 4.330649971962e-08 4.330649971962e-08
     1.918140000000e+05 1.000000000000e+00                                      
C12 2026 07 21 05 16 54 6.157602183521e-04-4.996003610813e-12 0.000000000000e+00
     1.000000000000e+00-1.071875000000e+01 3.498002848716e-09 2.604315417425e+00
    -5.019828677177e-07 1.757345162332e-04 7.205642759800e-06 5.282644876480e+03
     1.908000000000e+05 4.936009645462e-08 2.170657425143e+00-5.502253770828e-05
     9.735994334101e-01 2.218125000000e+02 7.089143119380e-01-1.427049085180e-06
     4.157316026042e-10                    1.072000000000e+03                   
     0.000000000000e+00 0.000000000000e+00 3.725290298462e-09 3.725290298462e-09
     1.918140000000e+05 1.000000000000e+00                                      
E19 2026 07 21 05 17 35 3.108420118224e-03 2.441424840072e-11 0.000000000000e+00
     5.900000000000e+01-4.403125000000e+01 3.094771766809e-09 3.048866073898e+00
    -1.968815922737e-06 2.429059240967e-04 5.505979061127e-06 5.440619012833e+03
     1.878000000000e+05-1.676380634308e-08 2.860539399622e+00-2.235174179077e-08
     9.747228433132e-01 2.296250000000e+02-2.403696938254e-01-5.641306411627e-09
     2.182233755938e-10 1.000000000000e+00 1.404000000000e+03                   
     1.070000000000e+02 0.000000000000e+00-4.423782229424e-09-4.423782229424e-09
     1.918550000000e+05                                                         
G17 2026 07 21 05 20 00-1.761649618857e-04-6.036060540282e-12 0.000000000000e+00
     2.120018005371e-03 4.628515625000e+01 4.906632952386e-09 7.775775832846e-01
     2.395361661911e-06 1.261565118330e-02 4.561617970467e-06 5.153547761236e+03
     1.728000000000e+05-5.308538675308e-08-4.349087667587e-01-2.337619662285e-07
     9.574384830302e-01 2.892773437500e+02-1.098697298318e+00-7.797589750105e-09
    -9.339674749228e-11 4.906632952386e-09-2.000000000000e+00 3.000000000000e+00
     2.800000000000e+01 4.000000000000e+00-1.071020960808e-08 7.000000000000e+00
    -8.440110832453e-10 6.722984835505e-09 0.000000000000e+00 0.000000000000e+00
     1.920000000000e+05 2.428000000000e+03 0.000000000000e+00                   
E04 2026 07 21 05 20 54-1.222349237651e-04 3.353761712788e-11 0.000000000000e+00
     6.400000000000e+01-4.231250000000e+01 3.191204355042e-09 2.424568222256e+00
    -1.894310116768e-06 2.932403003797e-04 5.653128027916e-06 5.440609418869e+03
     1.908000000000e+05-1.862645149231e-09 2.852424004943e+00 1.490116119385e-08
     9.693539617577e-01 2.207187500000e+02-6.751345869798e-02-5.691308494415e-09
     2.025084352892e-10 5.160000000000e+02 1.404000000000e+03                   
     1.070000000000e+02 0.000000000000e+00-4.190951585770e-09-4.656612873077e-09
     1.920540000000e+05                                                         
E28 2026 07 21 05 20 54-6.031669909135e-05-2.856381797756e-12 0.000000000000e+00
     6.400000000000e+01-4.321875000000e+01 3.464072863968e-09 7.615187160598e-01
    -1.946464180946e-06 2.854596823454e-04 5.323439836502e-06 5.440610692978e+03
     1.908000000000e+05 6.332993507385e-08 2.870117729935e+00 1.303851604462e-08
     9.490535932401e-01 2.207187500000e+02 1.961378526534e+00-5.815956543649e-09
     2.035799084918e-10 5.160000000000e+02 1.404000000000e+03                   
     1.070000000000e+02 0.000000000000e+00 9.313225746155e-10 1.862645149231e-09
     1.920540000000e+05                                                         
E21 2026 07 21 05 20 54-7.585714338347e-04-2.813749233610e-12 0.000000000000e+00
     6.400000000000e+01 8.518750000000e+01 3.239063491424e-09-2.892721135275e+00
     4.092231392860e-06 1.708827912807e-04 8.529052138329e-06 5.440617326736e+03
     1.908000000000e+05-4.656612873077e-08-1.329059139574e+00 3.166496753693e-08
     9.606204154333e-01 1.575937500000e+02-1.560192980986e+00-5.570589180256e-09
     9.357532635937e-11 5.160000000000e+02 1.404000000000e+03                   
     1.070000000000e+02 0.000000000000e+00 6.984919309616e-10 9.313225746155e-10
     1.920540000000e+05                                                         
E04 2026 07 21 05 21 24-1.222147839144e-04 3.353761712788e-11 0.000000000000e+00
     6.500000000000e+01-4.237500000000e+01 3.184418358092e-09 2.498943208547e+00
    -1.894310116768e-06 2.932238858193e-04 5.662441253662e-06 5.440609451294e+03
     1.914000000000e+05 3.725290298462e-09 2.852420559771e+00 9.313225746155e-09
     9.693541065866e-01 2.208437500000e+02-6.750283644980e-02-5.685951128402e-09
     2.035799084918e-10 5.160000000000e+02 1.404000000000e+03                   
     1.070000000000e+02 0.000000000000e+00-4.190951585770e-09-4.656612873077e-09
     1.920840000000e+05                                                         
E21 2026 07 21 05 21 24-7.585730636492e-04-2.799538378895e-12 0.000000000000e+00
     6.500000000000e+01 8.396875000000e+01 3.230134548069e-09-2.817542582712e+00
     4.041939973831e-06 1.707910560071e-04 8.506700396538e-06 5.440617650986e+03
     1.914000000000e+05-4.842877388000e-08-1.329062545247e+00 2.048909664154e-08
     9.606204812646e-01 1.580937500000e+02-1.560986084467e+00-5.564160341041e-09
     9.714690370133e-11 5.160000000000e+02 1.404000000000e+03                   
     1.070000000000e+02 0.000000000000e+00 6.984919309616e-10 9.313225746155e-10
     1.920840000000e+05                                                         
E23 2026 07 21 05 21 35-4.269339842722e-05-1.307398633799e-12 0.000000000000e+00
     6.100000000000e+01 1.003125000000e+02 3.242992226500e-09-2.724192371284e+00
     4.665926098824e-06 1.740616280586e-04 8.402392268181e-06 5.440616353989e+03
     1.890000000000e+05 4.284083843231e-08-1.332241047839e+00-7.450580596924e-09
     9.625504257002e-01 1.612500000000e+02-2.743935148576e+00-5.571303495725e-09
     3.785871982478e-11 1.000000000000e+00 1.404000000000e+03                   
     1.070000000000e+02 0.000000000000e+00 4.656612873077e-10 1.862645149231e-09
     1.920950000000e+05                                                         
E06 2026 07 21 05 21 35-3.006262704730e-04-5.059064278612e-12 0.000000000000e+00
     6.100000000000e+01-3.984375000000e+01 3.304423356782e-09 3.549919878469e-01
    -1.901760697365e-06 5.052095511928e-04 5.543231964111e-06 5.440611343384e+03
     1.890000000000e+05 2.793967723846e-08 2.852084682558e+00-2.607703208923e-08
     9.626597203099e-01 2.187812500000e+02 1.385861648986e+00-5.724167005961e-09
     1.982225424788e-10 1.000000000000e+00 1.404000000000e+03                   
     1.070000000000e+02 0.000000000000e+00 2.328306436539e-09 3.725290298462e-09
     1.920950000000e+05                                                         
E31 2026 07 21 05 21 35-1.580716343597e-04-2.984279490192e-12 0.000000000000e+00
     5.900000000000e+01 1.233125000000e+02 3.150488373344e-09 1.295640980670e+00
     5.668029189110e-06 3.408213378862e-04 9.192153811455e-06 5.440619762421e+03
     1.878000000000e+05 0.000000000000e+00-1.329121822687e+00-3.725290298462e-09
     9.605967498075e-01 1.453125000000e+02-1.395455464287e+00-5.546659612065e-09
     4.893060958486e-11 1.000000000000e+00 1.404000000000e+03                   
     1.070000000000e+02 0.000000000000e+00 3.492459654808e-09 4.190951585770e-09
     1.920950000000e+05                                                         
E28 2026 07 21 05 21 35-6.031838711351e-05-2.856381797756e-12 0.000000000000e+00
     6.500000000000e+01-4.243750000000e+01 3.455143920613e-09 8.353221417201e-01
    -1.924112439156e-06 2.854741178453e-04 5.289912223816e-06 5.440611021042e+03
     1.914000000000e+05 6.146728992462e-08 2.870114239413e+00 1.490116119385e-08
     9.490537205140e-01 2.218437500000e+02 1.961960943480e+00-5.815599385915e-09
     2.028655930234e-10 1.000000000000e+00 1.404000000000e+03                   
     1.070000000000e+02 0.000000000000e+00 9.313225746155e-10 1.862645149231e-09
     1.920950000000e+05                                                         
G14 2026 07 21 05 21 36 7.499761122745e-04 2.593480985524e-13 0.000000000000e+00
    -2.451896667480e-03 6.748828125000e+01 4.874488756308e-09-2.862347758742e+00
     3.377906978130e-06 7.362615899183e-03 9.466893970966e-06 5.153559374317e+03
     1.152000000000e+05-6.146728992462e-08-1.524144717008e+00-1.182779669762e-07
     9.416378201149e-01 1.868945312500e+02-2.680703005217e+00-8.281895637675e-09
     1.892935991239e-11 4.874488756308e-09-2.000000000000e+00 3.000000000000e+00
     3.100000000000e+01 4.000000000000e+00-7.916241884232e-09 7.000000000000e+00
    -2.619344741106e-10 5.005858838558e-09-1.455191522837e-09-1.076841726899e-09
     1.920960000000e+05 2.428000000000e+03 0.000000000000e+00                   
G30 2026 07 21 05 21 36 3.025251789950e-04 1.329425458607e-11 0.000000000000e+00
    -3.261566162109e-03-2.504296875000e+01 5.127356432119e-09-2.266179138040e+00
    -1.365318894386e-06 8.216449525207e-03 8.302740752697e-06 5.153540978890e+03
     1.107000000000e+05 1.396983861923e-07-2.597136550716e+00-1.210719347000e-08
     9.366274697908e-01 2.046562500000e+02-2.258832282254e+00-8.150104433757e-09
    -9.464679956196e-12 5.127356432119e-09-2.000000000000e+00 3.000000000000e+00
     3.100000000000e+01 4.000000000000e+00 4.190951585770e-09 7.000000000000e+00
    -1.513399183750e-09-3.259629011154e-09 2.328306436539e-09 3.230525180697e-09
     1.920960000000e+05 2.428000000000e+03 0.000000000000e+00                   
END OF FILE                                                 COMMENT
