     3.05           N: NAVIGATION       M: MIXED            RINEX VERSION / TYPE
PYRINEXCONV 0.1.2 ALDELTUNES            20260721 131425 UTC PGM / RUN BY / DATE
GAL    9.2500e+01  2.3047e-01  2.8290e-02             N 36  IONOSPHERIC CORR
BDSA   2.1420e-08  7.4506e-08 -8.3447e-07  1.3113e-06 N 24  IONOSPHERIC CORR
BDSB   1.4131e+05 -7.2090e+05  5.6361e+06 -4.7186e+06 N 24  IONOSPHERIC CORR
GPSA   9.3132e-09  2.2352e-08  1.5199e-05  1.5140e-05 N 13  IONOSPHERIC CORR
GPSB   1.0035e+05  1.3107e+05  1.6712e+07  1.6318e+07 N 13  IONOSPHERIC CORR
GAUT  6.5192580223e-09-2.664535259e-15 219600 1404   E36  0 TIME SYSTEM CORR
BDUT  0.0000000000e+00 0.000000000e+00 219600 1072   C24  0 TIME SYSTEM CORR
GPUT  5.8207660913e-10-1.483257961e-12 442800 2428   G13  0 TIME SYSTEM CORR
                                                            END OF HEADER
C31 2026 07 21 13 04 54 7.556617492810e-04-9.059419880941e-12 0.000000000000e+00
     1.000000000000e+00 2.003125000000e+01 4.359467303597e-09 4.305959072479e-02
     8.363276720047e-07 7.341586751863e-04 3.856141120195e-06 5.282667808533e+03
     2.196000000000e+05 4.330649971962e-08 3.189692598357e-02 2.191215753555e-05
     9.410539490286e-01 2.747812500000e+02 1.055218690551e+00 1.188922380532e-06
    -5.357366012941e-11                    1.072000000000e+03                   
     0.000000000000e+00 0.000000000000e+00-6.519258022308e-09-6.519258022308e-09
     2.198940000000e+05 1.000000000000e+00                                      
C22 2026 07 21 13 04 54 4.575514467433e-04 2.486899575160e-13 0.000000000000e+00
     1.000000000000e+00-2.610937500000e+01 3.290851362883e-09-1.066053442205e+00
    -1.383479684591e-06 8.555479580536e-04 7.184688001871e-06 5.282634832382e+03
     2.196000000000e+05-6.519258022308e-09 2.185914071981e+00 1.570722088218e-05
     9.892411612479e-01 2.304375000000e+02 7.758289894887e-01 1.490512800127e-06
     1.639353999960e-10                    1.072000000000e+03                   
     0.000000000000e+00 0.000000000000e+00 6.239861249924e-08 6.239861249924e-08
     2.198940000000e+05 1.000000000000e+00                                      
C26 2026 07 21 13 04 54-6.725278217345e-04-5.570655048359e-12 0.000000000000e+00
     1.000000000000e+00 8.000000000000e+00 3.945878647398e-09 2.399327405297e+00
     4.242174327374e-07 9.374478831887e-04 9.180977940559e-06 5.282661136627e+03
     2.196000000000e+05 1.909211277962e-08-2.040617011775e+00 4.198215901852e-05
     9.453564832635e-01 1.675781250000e+02 7.303139800058e-01 2.581437884392e-06
    -1.067901625246e-10                    1.072000000000e+03                   
     0.000000000000e+00 0.000000000000e+00-2.328306436539e-08-2.328306436539e-08
     2.198940000000e+05 1.000000000000e+00                                      
C24 2026 07 21 13 04 54-5.305053200573e-04-3.573052964612e-11 0.000000000000e+00
     1.000000000000e+00 1.393750000000e+01 4.035882396416e-09 1.863937396360e+00
     6.551854312420e-07 6.251466693357e-04 9.253621101379e-06 5.282657627106e+03
     2.196000000000e+05 3.213062882423e-08-2.018797743692e+00 3.601144999266e-05
     9.436740645669e-01 1.642968750000e+02 5.448827819493e-01-7.787288657544e-08
    -1.360770967287e-10                    1.072000000000e+03                   
     0.000000000000e+00 0.000000000000e+00 1.909211277962e-08 1.909211277962e-08
     2.198940000000e+05 1.000000000000e+00                                      
E16 2026 07 21 13 05 05-4.650175105780e-05-2.472688720445e-12 0.000000000000e+00
     1.040000000000e+02 8.293750000000e+01 2.962266247422e-09-1.387599465465e+00
     4.008412361145e-06 4.924213280901e-04 8.672475814819e-06 5.440619869232e+03
     2.148000000000e+05 1.862645149231e-08-1.332508973970e+00-5.587935447693e-09
     9.625735163992e-01 1.542500000000e+02-2.476026860160e+00-5.504157841696e-09
     8.036049019412e-11 1.000000000000e+00 1.404000000000e+03                   
     1.070000000000e+02 0.000000000000e+00-3.725290298462e-09-2.328306436539e-09
     2.199050000000e+05                                                         
E11 2026 07 21 13 05 24 5.518530902918e-03 6.738787305949e-11-3.469446951954e-18
     1.090000000000e+02-5.190625000000e+01 2.717970357232e-09-6.656310147064e-01
    -2.471730113029e-06 4.154370399192e-04 5.375593900681e-06 5.440607854843e+03
     2.178000000000e+05 3.725290298462e-08 7.694078660688e-01-6.891787052155e-08
     9.945443212087e-01 2.411875000000e+02 1.348919501832e+00-5.513801100519e-09
    -1.175048945505e-10 5.160000000000e+02 1.404000000000e+03                   
     1.070000000000e+02 0.000000000000e+00-1.490116119385e-08-1.583248376846e-08
     2.199240000000e+05                                                         
E10 2026 07 21 13 10 54-8.074635989033e-04-2.671640686458e-12 0.000000000000e+00
     1.110000000000e+02-5.196875000000e+01 2.732970982068e-09-1.077834489733e+00
    -2.404674887657e-06 2.849271986634e-04 4.852190613747e-06 5.440598133087e+03
     2.190000000000e+05 4.656612873077e-08 7.679415496308e-01-1.117587089539e-08
     9.974614032654e-01 2.533125000000e+02 2.338670612915e+00-5.499514791151e-09
    -9.786121916973e-11 5.160000000000e+02 1.404000000000e+03                   
     1.070000000000e+02 0.000000000000e+00-1.396983861923e-09-6.984919309616e-10
     2.202540000000e+05                                                         
E36 2026 07 21 13 10 54-5.969516350888e-04-5.300648808770e-12 0.000000000000e+00
     1.110000000000e+02-3.859375000000e+01 2.602251251353e-09-5.089237464654e-01
    -1.864507794380e-06 8.915876969695e-05 5.809590220451e-06 5.440606477737e+03
     2.190000000000e+05-5.587935447693e-08 7.698964631523e-01-5.215406417847e-08
     9.976490605450e-01 2.362812500000e+02 5.855048819771e-01-5.439869449541e-09
    -1.153619481453e-10 5.160000000000e+02 1.404000000000e+03                   
     1.070000000000e+02 0.000000000000e+00 4.423782229424e-09 5.122274160385e-09
     2.202540000000e+05                                                         
E11 2026 07 21 13 10 54 5.518611695152e-03 6.737366220477e-11-3.469446951954e-18
     1.110000000000e+02-5.334375000000e+01 2.733685297537e-09-5.167373996611e-01
    -2.538785338402e-06 4.148044390604e-04 5.142763257027e-06 5.440606599808e+03
     2.190000000000e+05 4.656612873077e-08 7.694011805332e-01-4.656612873077e-08
     9.945441061597e-01 2.461250000000e+02 1.348796133950e+00-5.516301204659e-09
    -1.035757429169e-10 5.160000000000e+02 1.404000000000e+03                   
     1.070000000000e+02 0.000000000000e+00-1.490116119385e-08-1.583248376846e-08
     2.202540000000e+05                                                         
E16 2026 07 21 13 10 54-4.651251947507e-05-2.501110429876e-12 0.000000000000e+00
     1.110000000000e+02 7.725000000000e+01 2.972980979448e-09-8.685478552130e-01
     3.721565008163e-06 4.907898837700e-04 9.339302778244e-06 5.440616222382e+03
     2.190000000000e+05 5.401670932770e-08-1.332532150981e+00 2.607703208923e-08
     9.625740635306e-01 1.411562500000e+02-2.474384360109e+00-5.469156383745e-09
     7.321733551020e-11 5.160000000000e+02 1.404000000000e+03                   
     1.070000000000e+02 0.000000000000e+00-3.958120942116e-09-2.561137080193e-09
     2.202540000000e+05                                                         
E12 2026 07 21 13 11 05-5.903549026698e-05-2.643218977028e-12 0.000000000000e+00
     1.110000000000e+02-5.662500000000e+01 2.782258749387e-09 7.699269693830e-01
    -2.566725015640e-06 3.172096330673e-04 4.990026354790e-06 5.440603374481e+03
     2.190000000000e+05 5.215406417847e-08 7.694098497857e-01 1.490116119385e-08
     9.945565687589e-01 2.495625000000e+02 8.589409263144e-01-5.529158883090e-09
    -1.121475285376e-10 1.000000000000e+00 1.404000000000e+03                   
     1.070000000000e+02 0.000000000000e+00-1.187436282635e-08-1.164153218269e-08
     2.202650000000e+05                                                         
G21 2026 07 21 13 11 24 3.956621512771e-04-5.343281372916e-12 0.000000000000e+00
     2.300000000000e+02-4.034375000000e+01 4.495901558060e-09 1.287511599032e+00
    -1.912936568260e-06 7.923487573862e-04 7.547438144684e-06 5.153592666626e+03
     2.232000000000e+05 6.146728992462e-08 1.623503424840e+00-5.401670932770e-08
     9.641823678715e-01 2.333125000000e+02-8.721714242978e-02-8.044620805033e-09
     5.785955293977e-11 1.000000000000e+00 3.800000000000e+02 0.000000000000e+00
     2.800000000000e+00 0.000000000000e+00-9.778887033463e-09 4.860000000000e+02
     8.811360000000e+05 4.000000000000e+00                                      
G05 2026 07 21 13 11 24-2.352870069444e-04-3.410605131648e-13 0.000000000000e+00
     2.300000000000e+01-3.318750000000e+01 4.069812381164e-09-7.691829248591e-01
    -1.652166247368e-06 5.605044658296e-03 7.944181561470e-06 5.153775075912e+03
     2.232000000000e+05-8.754432201385e-08 1.559845350688e+00 7.450580596924e-09
     9.811629641872e-01 2.366875000000e+02 1.482026453356e+00-7.908186550570e-09
     5.714523747137e-11 1.000000000000e+00 3.800000000000e+02 0.000000000000e+00
     2.000000000000e+00 0.000000000000e+00-1.071020960808e-08 2.300000000000e+01
     8.811360000000e+05 4.000000000000e+00                                      
G12 2026 07 21 13 11 24-6.054574623704e-04 5.684341886081e-13 0.000000000000e+00
     1.100000000000e+01 4.481250000000e+01 4.369467720155e-09 1.715136100223e+00
     2.250075340271e-06 8.705807500519e-03 8.989125490189e-06 5.153704656601e+03
     2.232000000000e+05 1.061707735062e-07-1.467491007577e+00-2.123415470123e-07
     9.583101912946e-01 2.030312500000e+02 1.587336480902e+00-7.903900657759e-09
     4.964492505326e-11 1.000000000000e+00 3.800000000000e+02 0.000000000000e+00
     2.000000000000e+00 0.000000000000e+00-1.257285475731e-08 1.100000000000e+01
     8.811360000000e+05 4.000000000000e+00                                      
G11 2026 07 21 13 11 24-2.677002921700e-04 1.227817847393e-11 0.000000000000e+00
     6.900000000000e+01-2.703125000000e+01 4.628764235181e-09-1.755002032525e+00
    -1.342967152596e-06 2.487988327630e-03 5.004927515984e-06 5.153647804260e+03
     2.232000000000e+05 6.891787052155e-08 5.992311482683e-01 0.000000000000e+00
     9.627620031533e-01 2.838125000000e+02-2.355045640144e+00-8.181412217230e-09
    -5.893102614235e-11 1.000000000000e+00 3.800000000000e+02 0.000000000000e+00
     2.000000000000e+00 0.000000000000e+00-8.847564458847e-09 8.370000000000e+02
     8.811360000000e+05 4.000000000000e+00                                      
G13 2026 07 21 13 11 24 4.184870049357e-04 5.229594535194e-12 0.000000000000e+00
     4.300000000000e+01 3.981250000000e+01 4.345538151964e-09 1.579206309287e+00
     2.102926373482e-06 2.269622404128e-03 9.225681424141e-06 5.153590618134e+03
     2.232000000000e+05 7.636845111847e-08-1.576006455406e+00-4.097819328308e-08
     9.588259094163e-01 1.999687500000e+02 1.820088937301e+00-7.917472651659e-09
     2.071514858337e-11 1.000000000000e+00 3.800000000000e+02 0.000000000000e+00
     2.800000000000e+00 6.300000000000e+01-8.381903171539e-09 4.300000000000e+01
     8.811360000000e+05 4.000000000000e+00                                      
G25 2026 07 21 13 11 24 4.047034308314e-04-3.183231456205e-12 0.000000000000e+00
     8.000000000000e+01 3.790625000000e+01 4.647693595094e-09 1.648745407744e+00
     1.842156052589e-06 1.290104887448e-02 9.052455425262e-06 5.153670021057e+03
     2.232000000000e+05-2.123415470123e-07-1.562931777216e+00-2.291053533554e-07
     9.467232159420e-01 1.980937500000e+02 1.161786415102e+00-8.136410342721e-09
    -1.107188976008e-11 1.000000000000e+00 3.800000000000e+02 0.000000000000e+00
     2.000000000000e+00 0.000000000000e+00 5.587935447693e-09 8.000000000000e+01
     8.811360000000e+05 4.000000000000e+00                                      
G21 2026 07 21 13 12 48 3.956717555411e-04-5.307754236128e-12 0.000000000000e+00
    -7.040500640869e-03-3.537890625000e+01 4.462507309913e-09 1.026285565645e+00
    -1.767650246620e-06 7.946521509439e-04 7.230788469315e-06 5.153629512523e+03
     1.332000000000e+05 1.955777406693e-08 1.623518024762e+00-4.656612873077e-08
     9.641823159379e-01 2.416328125000e+02-8.855343836615e-02-8.309039625474e-09
     3.571577341961e-11 4.462507309913e-09-2.000000000000e+00 3.000000000000e+00
     3.100000000000e+01 4.000000000000e+00-9.778887033463e-09 7.000000000000e+00
    -8.731149137020e-11 6.199115887284e-09 1.746229827404e-10 1.455191522837e-10
     2.203680000000e+05 2.428000000000e+03 0.000000000000e+00                   
G05 2026 07 21 13 13 36-2.352863957640e-04-3.375077994860e-13 0.000000000000e+00
    -5.671977996826e-03-3.324218750000e+01 4.024810506656e-09-1.031420181351e+00
    -1.653097569942e-06 5.603698780760e-03 7.516704499722e-06 5.153446300058e+03
     1.701000000000e+05-7.916241884232e-08 1.559859682165e+00 5.401670932770e-08
     9.811629890568e-01 2.459609375000e+02 1.481731062401e+00-8.459403031570e-09
     4.375182243902e-11 4.024810506656e-09-2.000000000000e+00 3.000000000000e+00
     3.000000000000e+01 4.000000000000e+00-1.071020960808e-08 7.000000000000e+00
    -3.783497959375e-10 5.733454599977e-09 0.000000000000e+00 0.000000000000e+00
     2.204160000000e+05 2.428000000000e+03 0.000000000000e+00                   
G25 2026 07 21 13 13 36 4.047089896630e-04-3.229416734030e-12 0.000000000000e+00
     4.336357116699e-03 4.065625000000e+01 4.696624204679e-09 1.386186788381e+00
     2.051703631878e-06 1.289950474165e-02 8.748844265938e-06 5.153552874520e+03
     1.593000000000e+05-2.169981598854e-07-1.562916745733e+00-7.729977369308e-08
     9.467228845911e-01 2.032539062500e+02 1.161801535092e+00-8.100816666438e-09
    -5.768097407267e-11 4.696624204679e-09-2.000000000000e+00 3.000000000000e+00
     3.000000000000e+01 4.000000000000e+00 5.587935447693e-09 7.000000000000e+00
    -1.891748979688e-09-4.773028194904e-09-1.047737896442e-09 6.402842700481e-10
     2.204160000000e+05 2.428000000000e+03 0.000000000000e+00                   
G12 2026 07 21 13 13 36-6.054585392121e-04 5.542233338929e-13 0.000000000000e+00
    -4.949092864990e-03 3.772265625000e+01 4.390361447605e-09 1.452541715439e+00
     1.955777406693e-06 8.707613684237e-03 8.841045200825e-06 5.153516838877e+03
     2.025000000000e+05-1.117587089539e-08-1.467476728765e+00-1.946464180946e-07
     9.583097143833e-01 2.068085937500e+02 1.587387384599e+00-8.343683925691e-09
     4.589476884420e-11 4.390361447605e-09-2.000000000000e+00 3.000000000000e+00
     2.800000000000e+01 4.000000000000e+00-1.257285475731e-08 7.000000000000e+00
    -6.984919309616e-10 7.072230800986e-09 0.000000000000e+00 0.000000000000e+00
     2.204160000000e+05 2.428000000000e+03 0.000000000000e+00                   
E10 2026 07 21 13 14 05-8.074651705101e-04-2.671640686458e-12 0.000000000000e+00
     1.120000000000e+02-5.196875000000e+01 2.730828035663e-09-1.003430302134e+00
    -2.402812242508e-06 2.849298762158e-04 4.855915904045e-06 5.440598142624e+03
     2.196000000000e+05 3.725290298462e-08 7.679382039372e-01-7.450580596924e-09
     9.974613257308e-01 2.532500000000e+02 2.338652205017e+00-5.496657529278e-09
    -9.214669542259e-11 1.000000000000e+00 1.404000000000e+03                   
     1.070000000000e+02 0.000000000000e+00-1.396983861923e-09-6.984919309616e-10
     2.204450000000e+05                                                         
G13 2026 07 21 13 14 24 4.184774297755e-04 5.240252676231e-12 8.673617379884e-19
    -4.507541656494e-03 3.406250000000e+01 4.347502519502e-09 1.316556556711e+00
     1.756474375725e-06 2.271318458952e-03 8.977949619293e-06 5.153630947532e+03
     1.647000000000e+05 2.980232238770e-08-1.575992203658e+00-4.470348358154e-08
     9.588257221628e-01 2.048125000000e+02 1.820178237478e+00-8.384757065123e-09
     2.160804291886e-11 4.347502519502e-09-3.000000000000e+00 1.000000000000e+00
     3.000000000000e+01 7.000000000000e+00-8.381903171539e-09 7.000000000000e+00
    -1.164153218269e-10 5.267793312669e-09 1.658918336034e-09 1.949956640601e-09
     2.204640000000e+05 2.428000000000e+03 0.000000000000e+00                   
E25 2026 07 21 13 14 35 2.174300607294e-05-1.421085471520e-14 0.000000000000e+00
     1.090000000000e+02 8.281250000000e+01 2.972623821714e-09-2.912257244667e+00
     3.930181264877e-06 2.965595340356e-04 8.381903171539e-06 5.440616222382e+03
     2.178000000000e+05 1.862645149231e-08-1.329207279047e+00-1.862645149231e-09
     9.606292353664e-01 1.576250000000e+02-1.312002698270e+00-5.524872990279e-09
     4.357324357192e-11 1.000000000000e+00 1.404000000000e+03                   
     1.070000000000e+02 0.000000000000e+00 2.328306436539e-09 2.561137080193e-09
     2.204750000000e+05                                                         
E11 2026 07 21 13 14 35 5.518652033061e-03 6.735945135006e-11-3.469446951954e-18
     1.120000000000e+02-5.343750000000e+01 2.740114136752e-09-4.422175991095e-01
    -2.544373273849e-06 4.145257407799e-04 5.032867193222e-06 5.440606039047e+03
     2.196000000000e+05 4.842877388000e-08 7.693978319137e-01-3.539025783539e-08
     9.945440081442e-01 2.484375000000e+02 1.348661530858e+00-5.516658362393e-09
    -9.607543049875e-11 1.000000000000e+00 1.404000000000e+03                   
     1.070000000000e+02 0.000000000000e+00-1.490116119385e-08-1.583248376846e-08
     2.204750000000e+05                                                         
E16 2026 07 21 13 14 35-4.651409108192e-05-2.501110429876e-12 0.000000000000e+00
     1.120000000000e+02 7.590625000000e+01 2.972623821714e-09-7.942182515667e-01
     3.658235073090e-06 4.906039685011e-04 9.374693036079e-06 5.440615850449e+03
     2.196000000000e+05 5.587935447693e-08-1.332535439621e+00 3.911554813385e-08
     9.625741586202e-01 1.404062500000e+02-2.474328956476e+00-5.461656071327e-09
     6.964575816824e-11 1.000000000000e+00 1.404000000000e+03                   
     1.070000000000e+02 0.000000000000e+00-3.958120942116e-09-2.561137080193e-09
     2.204750000000e+05                                                         
E36 2026 07 21 13 14 35-5.969548365101e-04-5.300648808770e-12 0.000000000000e+00
     1.120000000000e+02-3.940625000000e+01 2.604751355492e-09-4.343424024130e-01
    -1.918524503708e-06 8.905760478228e-05 5.813315510750e-06 5.440606275558e+03
     2.196000000000e+05-4.842877388000e-08 7.698931935304e-01-5.960464477539e-08
     9.976489449745e-01 2.362187500000e+02 5.853088085298e-01-5.445583973288e-09
    -1.107188976008e-10 1.000000000000e+00 1.404000000000e+03                   
     1.070000000000e+02 0.000000000000e+00 4.423782229424e-09 5.122274160385e-09
     2.204750000000e+05                                                         
END OF FILE                                                 COMMENT
