     3.05           N: NAVIGATION       M: MIXED            RINEX VERSION / TYPE
PYRINEXCONV 0.1.2 ALDELTUNES            20260721 090253 UTC PGM / RUN BY / DATE
GAL    1.0175e+02  3.3203e-01  2.2858e-02             J 10  IONOSPHERIC CORR
GPSA   1.1176e-08  2.2352e-08  1.5199e-05  1.5140e-05 J 11  IONOSPHERIC CORR
GPSB   1.0650e+05  1.4746e+05  1.6712e+07  1.6450e+07 J 11  IONOSPHERIC CORR
GAUT  6.5192580223e-09-2.664535259e-15 204600 1404   E10  0 TIME SYSTEM CORR
GPUT  1.1350493878e-09-8.557599074e-13 414300 2428   G11  0 TIME SYSTEM CORR
                                                            END OF HEADER
E12 2026 07 21 08 57 25-5.898519884795e-05-2.557953848736e-12 0.000000000000e+00
     8.000000000000e+01-4.656250000000e+01 2.602251251353e-09-1.541989154015e+00
    -2.337619662285e-06 3.188102273270e-04 6.387010216713e-06 5.440606094360e+03
     2.004000000000e+05-3.166496753693e-08 7.695124734890e-01 1.490116119385e-08
     9.945614680715e-01 2.191875000000e+02 8.649107058597e-01-5.409153884400e-09
    -2.667968274445e-10 1.000000000000e+00 1.404000000000e+03                   
     1.070000000000e+02 0.000000000000e+00-1.187436282635e-08-1.164153218269e-08
     2.050450000000e+05                                                         
E23 2026 07 21 08 59 35-4.271382931620e-05-1.335820343229e-12 0.000000000000e+00
     8.600000000000e+01 8.112500000000e+01 3.110486707114e-09-8.534426233223e-01
     3.945082426071e-06 1.736701233312e-04 9.095296263695e-06 5.440618936539e+03
     2.040000000000e+05 5.587935447693e-09-1.332325067613e+00-1.117587089539e-08
     9.625517086794e-01 1.476875000000e+02-2.755053965273e+00-5.493443109670e-09
     1.096474243982e-10 1.000000000000e+00 1.404000000000e+03                   
     1.070000000000e+02 0.000000000000e+00 4.656612873077e-10 1.862645149231e-09
     2.051750000000e+05                                                         
E26 2026 07 21 09 00 05 3.676592023112e-04 1.082867129298e-11 0.000000000000e+00
     8.600000000000e+01-5.331250000000e+01 2.815831576402e-09-2.360268526864e+00
    -2.432614564896e-06 9.291234891862e-05 5.135312676430e-06 5.440598825455e+03
     2.040000000000e+05 3.166496753693e-08 7.665137459742e-01 2.048909664154e-08
     9.909282013028e-01 2.447187500000e+02-2.570152562999e+00-5.538802141913e-09
    -1.839362331110e-10 1.000000000000e+00 1.404000000000e+03                   
     1.070000000000e+02 0.000000000000e+00-5.122274160385e-09-5.587935447693e-09
     2.052050000000e+05                                                         
E09 2026 07 21 09 00 35-3.007745253853e-04 1.801936377888e-11 5.204170427930e-18
     8.400000000000e+01-3.828125000000e+01 3.040840948945e-09 2.677347624858e+00
    -1.784414052963e-06 4.990355810151e-04 5.668029189110e-06 5.440616653442e+03
     2.028000000000e+05 6.332993507385e-08 2.855512306932e+00 1.117587089539e-08
     9.750934560535e-01 2.261250000000e+02 3.878074610745e-01-5.604162007271e-09
     1.707213969457e-10 1.000000000000e+00 1.404000000000e+03                   
     1.070000000000e+02 0.000000000000e+00 6.984919309616e-10 9.313225746155e-10
     2.052350000000e+05                                                         
E10 2026 07 21 09 00 35-8.074235520326e-04-2.600586412882e-12 0.000000000000e+00
     8.600000000000e+01-4.559375000000e+01 2.579393156364e-09-2.931262168504e+00
    -2.246350049973e-06 2.873095218092e-04 6.232410669327e-06 5.440602638245e+03
     2.040000000000e+05-5.960464477539e-08 7.680238914379e-01 7.450580596924e-09
     9.974653136455e-01 2.235937500000e+02 2.332462297263e+00-5.392010313158e-09
    -2.400099973798e-10 1.000000000000e+00 1.404000000000e+03                   
     1.070000000000e+02 0.000000000000e+00-1.164153218269e-09-2.328306436539e-10
     2.052350000000e+05                                                         
E33 2026 07 21 09 00 35-2.519506961107e-05-1.946887095983e-12 0.000000000000e+00
     8.600000000000e+01-5.178125000000e+01 2.673325640458e-09-2.678856425900e+00
    -2.324581146240e-06 1.662023132667e-04 5.647540092468e-06 5.440606731415e+03
     2.040000000000e+05 5.587935447693e-08 7.699541489380e-01-8.754432201385e-08
     9.976651175338e-01 2.334062500000e+02-3.021928220766e+00-5.507015103569e-09
    -2.207234797332e-10 1.000000000000e+00 1.404000000000e+03                   
     1.070000000000e+02 0.000000000000e+00-4.423782229424e-09-4.889443516731e-09
     2.052350000000e+05                                                         
E12 2026 07 21 09 00 54-5.899538518861e-05-2.586375558167e-12 0.000000000000e+00
     8.600000000000e+01-4.228125000000e+01 2.614751772050e-09-1.093001263661e+00
    -2.088025212288e-06 3.199040656909e-04 5.815178155899e-06 5.440608863831e+03
     2.040000000000e+05-7.450580596924e-08 7.694930722694e-01-2.048909664154e-08
     9.945602699416e-01 2.291875000000e+02 8.622355597320e-01-5.448441235161e-09
    -2.589393572922e-10 5.160000000000e+02 1.404000000000e+03                   
     1.070000000000e+02 0.000000000000e+00-1.187436282635e-08-1.164153218269e-08
     2.052540000000e+05                                                         
G14 2026 07 21 09 01 24 7.499800994992e-04 2.273736754432e-13 0.000000000000e+00
     2.300000000000e+02 4.346875000000e+01 4.919847788551e-09-3.710923551318e-01
     2.404674887657e-06 7.365606026724e-03 8.778646588326e-06 5.153659263611e+03
     2.096800000000e+05 8.940696716309e-08-1.524283975837e+00 8.568167686462e-08
     9.416387081061e-01 2.008437500000e+02-2.680666114081e+00-8.262487022892e-09
     6.500270762369e-11 1.000000000000e+00 3.800000000000e+02 0.000000000000e+00
     2.000000000000e+00 0.000000000000e+00-7.916241884232e-09 9.980000000000e+02
     8.211360000000e+05 4.000000000000e+00                                      
G22 2026 07 21 09 01 24 4.060100764036e-05 8.071765478235e-12 0.000000000000e+00
     9.200000000000e+01 5.381250000000e+01 4.444113686602e-09-2.529953664691e+00
     2.978369593620e-06 1.184459077194e-02 8.782371878624e-06 5.153724548340e+03
     2.088000000000e+05 1.490116119385e-08-1.447237888387e+00 1.899898052216e-07
     9.568470245193e-01 2.051562500000e+02-9.877956796893e-01-7.783895659069e-09
     9.107522222000e-11 1.000000000000e+00 3.800000000000e+02 0.000000000000e+00
     2.000000000000e+00 0.000000000000e+00-1.117587089539e-08 9.200000000000e+01
     8.211360000000e+05 4.000000000000e+00                                      
G19 2026 07 21 09 01 24 7.038190960884e-04 4.547473508865e-13 0.000000000000e+00
     5.000000000000e+01 4.206250000000e+01 4.855916554130e-09-1.509985941181e+00
     2.097338438034e-06 1.176493673120e-02 4.887580871582e-06 5.153760034561e+03
     2.088000000000e+05 5.774199962616e-08-3.912794762350e-01-1.620501279831e-07
     9.566052816954e-01 2.842500000000e+02 3.029474768527e+00-8.343918986289e-09
     1.535778257043e-10 1.000000000000e+00 3.800000000000e+02 0.000000000000e+00
     2.000000000000e+00 0.000000000000e+00-1.536682248116e-08 5.000000000000e+01
     8.211360000000e+05 4.000000000000e+00                                      
G06 2026 07 21 09 01 24-5.693081766367e-04 7.958078640513e-12 0.000000000000e+00
     1.400000000000e+01-2.406250000000e+01 4.019095982909e-09 1.195134823534e+00
    -1.270323991776e-06 3.694361192174e-03 5.714595317841e-06 5.153724903107e+03
     2.088000000000e+05 1.303851604462e-08 5.836642618564e-01-3.911554813385e-08
     9.858733950927e-01 2.786875000000e+02-5.462298515458e-01-7.903543500025e-09
    -2.785830326729e-10 1.000000000000e+00 3.800000000000e+02 0.000000000000e+00
     2.000000000000e+00 0.000000000000e+00 3.725290298462e-09 1.400000000000e+01
     8.211360000000e+05 4.000000000000e+00                                      
G30 2026 07 21 09 01 24 3.027403727174e-04 1.330136001343e-11 0.000000000000e+00
     1.600000000000e+01-3.006250000000e+01 5.080925926673e-09 9.449358577428e-02
    -1.473352313042e-06 8.217709721066e-03 7.897615432739e-06 5.153681278229e+03
     2.087840000000e+05-4.656612873077e-08-2.597270394554e+00 1.881271600723e-07
     9.366260412513e-01 2.157187500000e+02-2.258931051900e+00-8.386777914392e-09
    -7.750322832055e-11 1.000000000000e+00 3.800000000000e+02 0.000000000000e+00
     2.000000000000e+00 0.000000000000e+00 4.190951585770e-09 1.600000000000e+01
     8.211360000000e+05 4.000000000000e+00                                      
G11 2026 07 21 09 01 24-2.678767777979e-04 1.227817847393e-11 0.000000000000e+00
     6.700000000000e+01-2.934375000000e+01 4.494830084858e-09 2.428444735728e+00
    -1.607462763786e-06 2.487311139703e-03 5.941838026047e-06 5.153649887085e+03
     2.088000000000e+05-5.401670932770e-08 5.993494486017e-01-4.470348358154e-08
     9.627644696332e-01 2.655000000000e+02-2.355698869639e+00-8.090694152744e-09
    -2.264380034803e-10 1.000000000000e+00 3.800000000000e+02 0.000000000000e+00
     2.000000000000e+00 0.000000000000e+00-8.847564458847e-09 8.350000000000e+02
     8.211360000000e+05 4.000000000000e+00                                      
E12 2026 07 21 09 01 24-5.899707321078e-05-2.586375558167e-12 0.000000000000e+00
     8.700000000000e+01-4.143750000000e+01 2.620109138062e-09-1.018474100243e+00
    -2.032145857811e-06 3.200228093192e-04 5.777925252914e-06 5.440609117508e+03
     2.046000000000e+05-7.636845111847e-08 7.694898128879e-01-3.166496753693e-08
     9.945600592814e-01 2.297500000000e+02 8.620937210467e-01-5.456655863048e-09
    -2.557249376844e-10 5.160000000000e+02 1.404000000000e+03                   
     1.070000000000e+02 0.000000000000e+00-1.187436282635e-08-1.164153218269e-08
     2.052840000000e+05                                                         
G06 2026 07 21 09 01 36-5.693228158634e-04 7.972289495228e-12 0.000000000000e+00
     5.177974700928e-03-2.061328125000e+01 4.004452515806e-09 9.323627841724e-01
    -1.042149960995e-06 3.692717407830e-03 6.204470992088e-06 5.153498310652e+03
     1.845000000000e+05 1.676380634308e-08 5.836785092156e-01-2.700835466385e-08
     9.858739305207e-01 2.723945312500e+02-5.459911281849e-01-8.441009408259e-09
    -2.816188734136e-10 4.004452515806e-09-2.000000000000e+00 3.000000000000e+00
     2.800000000000e+01 4.000000000000e+00 3.725290298462e-09 7.000000000000e+00
     3.201421350241e-10-3.929017111659e-09 1.775333657861e-09 2.211891114712e-09
     2.052960000000e+05 2.428000000000e+03 0.000000000000e+00                   
E31 2026 07 21 09 02 24-1.581155811436e-04-2.941646926047e-12 0.000000000000e+00
     8.400000000000e+01 8.581250000000e+01 3.111915338050e-09-3.118831762193e+00
     4.041939973831e-06 3.419846761972e-04 8.542090654373e-06 5.440615993500e+03
     2.028000000000e+05-1.490116119385e-08-1.329205419678e+00 2.421438694000e-08
     9.605975412462e-01 1.544687500000e+02-1.404535496907e+00-5.539873615115e-09
     9.643258823294e-11 5.160000000000e+02 1.404000000000e+03                   
     1.070000000000e+02 0.000000000000e+00 3.492459654808e-09 4.190951585770e-09
     2.053440000000e+05                                                         
G11 2026 07 21 09 02 24-2.678986347746e-04 1.224265133715e-11 0.000000000000e+00
     1.009941101074e-03-2.707031250000e+01 4.508402078757e-09 2.166119576878e+00
    -1.373700797558e-06 2.487270801794e-03 6.095506250858e-06 5.153573621315e+03
     1.872000000000e+05-7.916241884232e-08 5.993640390152e-01-3.259629011154e-08
     9.627647863549e-01 2.627109375000e+02-2.355922015117e+00-8.224750400204e-09
    -2.292952653539e-10 4.508402078757e-09-2.000000000000e+00 3.000000000000e+00
     2.800000000000e+01 4.000000000000e+00-8.847564458847e-09 7.000000000000e+00
    -2.037268131971e-10 5.675246939063e-09 3.783497959375e-10 2.328306436539e-10
     2.053440000000e+05 2.428000000000e+03 0.000000000000e+00                   
E26 2026 07 21 09 02 54 3.676656633615e-04 1.082867129298e-11 0.000000000000e+00
     8.700000000000e+01-5.368750000000e+01 2.814402945465e-09-2.285263830411e+00
    -2.458691596985e-06 9.290385060012e-05 5.155801773071e-06 5.440598941803e+03
     2.046000000000e+05 2.048909664154e-08 7.665103680964e-01 2.048909664154e-08
     9.909280725660e-01 2.444375000000e+02-2.570771422697e+00-5.535230564571e-09
    -1.782217093638e-10 5.160000000000e+02 1.404000000000e+03                   
     1.070000000000e+02 0.000000000000e+00-5.122274160385e-09-5.587935447693e-09
     2.053740000000e+05                                                         
E16 2026 07 21 09 03 05-4.646781599149e-05-2.501110429876e-12 0.000000000000e+00
     8.100000000000e+01 1.001562500000e+02 3.139416483584e-09-3.101724718553e+00
     4.405155777931e-06 4.923009546474e-04 8.720904588699e-06 5.440617143631e+03
     2.010000000000e+05 1.862645149231e-09-1.332432891990e+00 9.313225746155e-09
     9.625723314356e-01 1.570937500000e+02-2.472761177891e+00-5.512015311848e-09
     8.500354073867e-11 1.000000000000e+00 1.404000000000e+03                   
     1.070000000000e+02 0.000000000000e+00-3.725290298462e-09-2.328306436539e-09
     2.053850000000e+05                                                         
E10 2026 07 21 09 03 05-8.074251818471e-04-2.600586412882e-12 0.000000000000e+00
     8.700000000000e+01-4.515625000000e+01 2.576893052225e-09-2.856180244606e+00
    -2.223998308182e-06 2.871559699997e-04 6.128102540970e-06 5.440603137970e+03
     2.046000000000e+05-6.146728992462e-08 7.680206642406e-01 7.450580596924e-09
     9.974651600391e-01 2.255937500000e+02 2.331766037495e+00-5.393796101829e-09
    -2.400099973798e-10 1.000000000000e+00 1.404000000000e+03                   
     1.070000000000e+02 0.000000000000e+00-1.164153218269e-09-2.328306436539e-10
     2.053850000000e+05                                                         
END OF FILE                                                 COMMENT
