     3.05           N: NAVIGATION       M: MIXED            RINEX VERSION / TYPE
PYRINEXCONV 0.1.2 ALDELTUNES            20260721 055142 UTC PGM / RUN BY / DATE
GAL    1.0175e+02  3.3203e-01  2.2858e-02             F 04  IONOSPHERIC CORR
GPSA   1.1176e-08  2.2352e-08  1.5199e-05  1.5140e-05 F 17  IONOSPHERIC CORR
GPSB   1.0650e+05  1.4746e+05  1.6712e+07  1.6450e+07 F 17  IONOSPHERIC CORR
GAUT  6.5192580223e-09-2.664535259e-15 192600 1404   E04  0 TIME SYSTEM CORR
GPUT  1.3096723706e-09 5.373479439e-14 385500 2428   G17  0 TIME SYSTEM CORR
                                                            END OF HEADER
G07 2026 07 21 05 45 36-2.079032128677e-04-3.755218358492e-12 0.000000000000e+00
    -5.875587463379e-03-2.107812500000e+01 4.738947396181e-09-1.958368274151e+00
    -1.118518412113e-06 2.093622175744e-02 8.556991815567e-06 5.153637853118e+03
     1.161000000000e+05 3.129243850708e-07-2.586070385172e+00 6.239861249924e-08
     9.513216685146e-01 2.053984375000e+02-1.955131948259e+00-8.543692256841e-09
     7.393165097859e-11 4.738947396181e-09-2.000000000000e+00 3.000000000000e+00
     3.100000000000e+01 4.000000000000e+00-1.071020960808e-08 7.000000000000e+00
    -9.313225746155e-10 6.984919309616e-09 0.000000000000e+00 0.000000000000e+00
     1.935360000000e+05 2.428000000000e+03 0.000000000000e+00                   
E21 2026 07 21 05 46 05-7.585730636492e-04-2.799538378895e-12 0.000000000000e+00
     6.500000000000e+01 8.396875000000e+01 3.230134548069e-09-2.817542582712e+00
     4.041939973831e-06 1.707910560071e-04 8.506700396538e-06 5.440617650986e+03
     1.914000000000e+05-4.842877388000e-08-1.329062545247e+00 2.048909664154e-08
     9.606204812646e-01 1.580937500000e+02-1.560986084467e+00-5.564160341041e-09
     9.714690370133e-11 1.000000000000e+00 1.404000000000e+03                   
     1.070000000000e+02 0.000000000000e+00 6.984919309616e-10 9.313225746155e-10
     1.935650000000e+05                                                         
G30 2026 07 21 05 49 36 3.025251789950e-04 1.329425458607e-11 0.000000000000e+00
    -3.261566162109e-03-2.504296875000e+01 5.127356432119e-09-2.266179138040e+00
    -1.365318894386e-06 8.216449525207e-03 8.302740752697e-06 5.153540978890e+03
     1.107000000000e+05 1.396983861923e-07-2.597136550716e+00-1.210719347000e-08
     9.366274697908e-01 2.046562500000e+02-2.258832282254e+00-8.150104433757e-09
    -9.464679956196e-12 5.127356432119e-09-2.000000000000e+00 3.000000000000e+00
     3.100000000000e+01 4.000000000000e+00 4.190951585770e-09 7.000000000000e+00
    -1.513399183750e-09-3.259629011154e-09 2.328306436539e-09 3.230525180697e-09
     1.937760000000e+05 2.428000000000e+03 0.000000000000e+00                   
G09 2026 07 21 05 49 36 7.171272591222e-04-6.991740519879e-12 0.000000000000e+00
     3.526687622070e-03-1.656250000000e+01 4.419469802942e-09 1.386780316189e+00
    -9.629875421524e-07 3.668958088383e-03 6.236135959625e-06 5.153526767805e+03
     1.395000000000e+05 1.192092895508e-07 2.624872550741e+00 7.450580596924e-09
     9.667074427424e-01 2.606484375000e+02 2.038220855097e+00-8.294574737239e-09
     2.851904507556e-10 4.419469802942e-09-2.000000000000e+00 3.000000000000e+00
     3.000000000000e+01 4.000000000000e+00 4.656612873077e-10 7.000000000000e+00
    -5.820766091347e-10-7.275957614183e-10 5.064066499472e-09 5.617039278150e-09
     1.937760000000e+05 2.428000000000e+03 0.000000000000e+00                   
E26 2026 07 21 05 50 35 3.675359766930e-04 1.092814727599e-11 0.000000000000e+00
     6.700000000000e+01-4.100000000000e+01 2.632966816494e-09 2.535695606449e+00
    -2.034008502960e-06 9.037612471730e-05 5.930662155151e-06 5.440606004715e+03
     1.926000000000e+05-4.284083843231e-08 7.665773053760e-01-2.793967723846e-08
     9.909316216053e-01 2.230312500000e+02-2.596254159493e+00-5.499157633417e-09
    -2.896549224330e-10 1.000000000000e+00 1.404000000000e+03                   
     1.070000000000e+02 0.000000000000e+00-5.122274160385e-09-5.587935447693e-09
     1.938350000000e+05                                                         
E09 2026 07 21 05 50 35-3.009574138559e-04 1.782041181286e-11 3.469446951954e-18
     6.700000000000e+01-4.009375000000e+01 3.096557555480e-09 1.413060599349e+00
    -1.898035407066e-06 4.996658535674e-04 5.727633833885e-06 5.440615345001e+03
     1.926000000000e+05 3.539025783539e-08 2.855569492400e+00-2.607703208923e-08
     9.750916391093e-01 2.216250000000e+02 3.875447575604e-01-5.606662111410e-09
     1.785788670980e-10 1.000000000000e+00 1.404000000000e+03                   
     1.070000000000e+02 0.000000000000e+00 6.984919309616e-10 9.313225746155e-10
     1.938350000000e+05                                                         
E31 2026 07 21 05 50 54-1.580856041983e-04-2.941646926047e-12 0.000000000000e+00
     6.700000000000e+01 1.054687500000e+02 3.200490456131e-09 1.895807256896e+00
     4.790723323822e-06 3.424333408475e-04 8.957460522652e-06 5.440615015030e+03
     1.926000000000e+05 1.303851604462e-08-1.329148469740e+00-7.450580596924e-09
     9.605969414498e-01 1.503437500000e+02-1.400542074336e+00-5.552016978078e-09
     5.500229106620e-11 5.160000000000e+02 1.404000000000e+03                   
     1.070000000000e+02 0.000000000000e+00 3.492459654808e-09 4.190951585770e-09
     1.938540000000e+05                                                         
E19 2026 07 21 05 51 05 3.108536882792e-03 2.434319412714e-11 0.000000000000e+00
     6.700000000000e+01-4.487500000000e+01 3.063699043934e-09-2.639674252731e+00
    -2.019107341766e-06 2.428862499073e-04 5.478039383888e-06 5.440618864059e+03
     1.926000000000e+05 2.793967723846e-08 2.860512423413e+00 6.332993507385e-08
     9.747241219036e-01 2.307187500000e+02-2.399339636755e-01-5.589518540169e-09
     2.053656971627e-10 1.000000000000e+00 1.404000000000e+03                   
     1.070000000000e+02 0.000000000000e+00-4.423782229424e-09-4.423782229424e-09
     1.938650000000e+05                                                         
G14 2026 07 21 05 51 12 7.499761122745e-04 2.593480985524e-13 0.000000000000e+00
    -2.451896667480e-03 6.748828125000e+01 4.874488756308e-09-2.862347758742e+00
     3.377906978130e-06 7.362615899183e-03 9.466893970966e-06 5.153559374317e+03
     1.152000000000e+05-6.146728992462e-08-1.524144717008e+00-1.182779669762e-07
     9.416378201149e-01 1.868945312500e+02-2.680703005217e+00-8.281895637675e-09
     1.892935991239e-11 4.874488756308e-09-2.000000000000e+00 3.000000000000e+00
     3.100000000000e+01 4.000000000000e+00-7.916241884232e-09 7.000000000000e+00
    -2.619344741106e-10 5.005858838558e-09-1.455191522837e-09-1.076841726899e-09
     1.938720000000e+05 2.428000000000e+03 0.000000000000e+00                   
G17 2026 07 21 05 51 12-1.761649618857e-04-6.036060540282e-12 0.000000000000e+00
     2.120018005371e-03 4.628515625000e+01 4.906632952386e-09 7.775775832846e-01
     2.395361661911e-06 1.261565118330e-02 4.561617970467e-06 5.153547761236e+03
     1.728000000000e+05-5.308538675308e-08-4.349087667587e-01-2.337619662285e-07
     9.574384830302e-01 2.892773437500e+02-1.098697298318e+00-7.797589750105e-09
    -9.339674749228e-11 4.906632952386e-09-2.000000000000e+00 3.000000000000e+00
     2.800000000000e+01 4.000000000000e+00-1.071020960808e-08 7.000000000000e+00
    -8.440110832453e-10 6.722984835505e-09 0.000000000000e+00 0.000000000000e+00
     1.938720000000e+05 2.428000000000e+03 0.000000000000e+00                   
E23 2026 07 21 05 51 24-4.269339842722e-05-1.307398633799e-12 0.000000000000e+00
     6.100000000000e+01 1.003125000000e+02 3.242992226500e-09-2.724192371284e+00
     4.665926098824e-06 1.740616280586e-04 8.402392268181e-06 5.440616353989e+03
     1.890000000000e+05 4.284083843231e-08-1.332241047839e+00-7.450580596924e-09
     9.625504257002e-01 1.612500000000e+02-2.743935148576e+00-5.571303495725e-09
     3.785871982478e-11 5.160000000000e+02 1.404000000000e+03                   
     1.070000000000e+02 0.000000000000e+00 4.656612873077e-10 1.862645149231e-09
     1.938840000000e+05                                                         
E09 2026 07 21 05 51 34-3.009466454387e-04 1.784883352229e-11 3.469446951954e-18
     6.800000000000e+01-4.037500000000e+01 3.094057451341e-09 1.487389037049e+00
    -1.896172761917e-06 4.996482748538e-04 5.729496479034e-06 5.440615409851e+03
     1.932000000000e+05 3.725290298462e-08 2.855566158410e+00-2.048909664154e-08
     9.750917429764e-01 2.216875000000e+02 3.876016109457e-01-5.609519373284e-09
     1.767930784271e-10 5.160000000000e+02 1.404000000000e+03                   
     1.070000000000e+02 0.000000000000e+00 6.984919309616e-10 9.313225746155e-10
     1.938940000000e+05                                                         
E28 2026 07 21 05 51 54-6.031838711351e-05-2.856381797756e-12 0.000000000000e+00
     6.500000000000e+01-4.243750000000e+01 3.455143920613e-09 8.353221417201e-01
    -1.924112439156e-06 2.854741178453e-04 5.289912223816e-06 5.440611021042e+03
     1.914000000000e+05 6.146728992462e-08 2.870114239413e+00 1.490116119385e-08
     9.490537205140e-01 2.218437500000e+02 1.961960943480e+00-5.815599385915e-09
     2.028655930234e-10 5.160000000000e+02 1.404000000000e+03                   
     1.070000000000e+02 0.000000000000e+00 9.313225746155e-10 1.862645149231e-09
     1.939140000000e+05                                                         
E04 2026 07 21 05 51 54-1.221743295901e-04 3.355182798259e-11 0.000000000000e+00
     6.700000000000e+01-4.246875000000e+01 3.155488581622e-09 2.647742845734e+00
    -1.899898052216e-06 2.930443733931e-04 5.640089511871e-06 5.440609802246e+03
     1.926000000000e+05 4.284083843231e-08 2.852413615299e+00 9.313225746155e-09
     9.693544913340e-01 2.223750000000e+02-6.753111758211e-02-5.659521456071e-09
     2.039370662260e-10 5.160000000000e+02 1.404000000000e+03                   
     1.070000000000e+02 0.000000000000e+00-4.190951585770e-09-4.656612873077e-09
     1.939140000000e+05                                                         
E06 2026 07 21 05 51 54-3.006262704730e-04-5.059064278612e-12 0.000000000000e+00
     6.100000000000e+01-3.984375000000e+01 3.304423356782e-09 3.549919878469e-01
    -1.901760697365e-06 5.052095511928e-04 5.543231964111e-06 5.440611343384e+03
     1.890000000000e+05 2.793967723846e-08 2.852084682558e+00-2.607703208923e-08
     9.626597203099e-01 2.187812500000e+02 1.385861648986e+00-5.724167005961e-09
     1.982225424788e-10 5.160000000000e+02 1.404000000000e+03                   
     1.070000000000e+02 0.000000000000e+00 2.328306436539e-09 3.725290298462e-09
     1.939140000000e+05                                                         
E31 2026 07 21 05 51 54-1.580872922204e-04-2.941646926047e-12 0.000000000000e+00
     6.800000000000e+01 1.033750000000e+02 3.208705084018e-09 1.970774208599e+00
     4.686415195465e-06 3.427705960348e-04 8.840113878250e-06 5.440614240646e+03
     1.932000000000e+05 1.490116119385e-08-1.329151806656e+00-7.450580596924e-09
     9.605969633936e-01 1.527187500000e+02-1.401123990964e+00-5.553088451281e-09
     5.678807973718e-11 5.160000000000e+02 1.404000000000e+03                   
     1.070000000000e+02 0.000000000000e+00 3.492459654808e-09 4.190951585770e-09
     1.939140000000e+05                                                         
E23 2026 07 21 05 51 54-4.269904457033e-05-1.321609488514e-12 0.000000000000e+00
     6.800000000000e+01 9.768750000000e+01 3.220848446980e-09-2.201250210861e+00
     4.569068551064e-06 1.740811858326e-04 8.471310138702e-06 5.440617101669e+03
     1.932000000000e+05 1.303851604462e-08-1.332264704687e+00 4.470348358154e-08
     9.625504842170e-01 1.590000000000e+02-2.746179599918e+00-5.563446025572e-09
     7.536028191537e-11 5.160000000000e+02 1.404000000000e+03                   
     1.070000000000e+02 0.000000000000e+00 4.656612873077e-10 1.862645149231e-09
     1.939140000000e+05                                                         
END OF FILE                                                 COMMENT
