     3.05           N: NAVIGATION       M: MIXED            RINEX VERSION / TYPE
PYRINEXCONV 0.1.2 ALDELTUNES            20260720 233945 UTC PGM / RUN BY / DATE
GAL    1.0300e+02  3.0469e-01  2.1057e-02             X 26  IONOSPHERIC CORR
GPSA   9.3132e-09  2.2352e-08  1.5199e-05  1.5140e-05 X 01  IONOSPHERIC CORR
GPSB   1.0035e+05  1.3107e+05  1.6712e+07  1.6318e+07 X 01  IONOSPHERIC CORR
GAUT  7.4505805969e-09-2.664535259e-15 170400 1404   E26  0 TIME SYSTEM CORR
GPUT -3.6088749766e-09 1.702193941e-12 342000 2428   G01  0 TIME SYSTEM CORR
                                                            END OF HEADER
E26 2026 07 20 23 30 54 3.672876628116e-04 1.081446043827e-11 0.000000000000e+00
     2.900000000000e+01-6.718750000000e+01 2.483317725865e-09-2.928609353820e-01
    -3.015622496605e-06 9.172561112791e-05 7.089227437973e-06 5.440601959229e+03
     1.698000000000e+05 3.911554813385e-08 7.667006220555e-01 1.005828380585e-07
     9.909375200910e-01 2.012500000000e+02-2.594344518897e+00-5.454870074377e-09
    -1.803646557690e-10 5.160000000000e+02 1.404000000000e+03                   
     1.070000000000e+02 0.000000000000e+00-4.889443516731e-09-5.355104804039e-09
     1.710540000000e+05                                                         
E33 2026 07 20 23 30 54-2.512801438570e-05-1.989519660128e-12 0.000000000000e+00
     2.900000000000e+01-6.843750000000e+01 2.424386699723e-09-6.317954121292e-01
    -3.134831786156e-06 1.667501637712e-04 6.798654794693e-06 5.440605901718e+03
     1.698000000000e+05 7.636845111847e-08 7.701392782951e-01 1.676380634308e-08
     9.976742476056e-01 2.112187500000e+02-3.025762333021e+00-5.481299746707e-09
    -1.832219176426e-10 5.160000000000e+02 1.404000000000e+03                   
     1.070000000000e+02 0.000000000000e+00-4.190951585770e-09-4.656612873077e-09
     1.710540000000e+05                                                         
E21 2026 07 20 23 30 54-7.585122366436e-04-2.813749233610e-12 0.000000000000e+00
     2.900000000000e+01 1.155000000000e+02 3.163346051775e-09 7.849065995161e-01
     5.168840289116e-06 1.700946595520e-04 9.736046195030e-06 5.440614822388e+03
     1.698000000000e+05 1.490116119385e-08-1.328940700263e+00 7.450580596924e-09
     9.606213034246e-01 1.310000000000e+02-1.558122553990e+00-5.560945921433e-09
    -5.143071372424e-11 5.160000000000e+02 1.404000000000e+03                   
     1.070000000000e+02 0.000000000000e+00 1.164153218269e-09 1.164153218269e-09
     1.710540000000e+05                                                         
E29 2026 07 20 23 33 54-2.271159319207e-04-3.680611371237e-12 0.000000000000e+00
     2.300000000000e+01-4.028125000000e+01 3.495145586843e-09-5.361748937451e-01
    -1.955777406693e-06 2.002498367801e-04 5.513429641724e-06 5.440609569550e+03
     1.662000000000e+05 3.166496753693e-08 2.852246529574e+00-1.303851604462e-08
     9.627364781586e-01 2.227500000000e+02 1.414841759164e+00-5.765240145393e-09
     1.767930784271e-10 5.160000000000e+02 1.404000000000e+03                   
     1.070000000000e+02 0.000000000000e+00-3.259629011154e-09-3.026798367500e-09
     1.712340000000e+05                                                         
G31 2026 07 20 23 35 12-1.341225288343e-04 2.749800387392e-12 0.000000000000e+00
     2.326011657715e-03-2.828515625000e+01 4.916097632342e-09 7.455362175474e-02
    -1.364387571812e-06 1.091416960116e-02 8.775852620602e-06 5.153591537401e+03
     1.377000000000e+05-2.514570951462e-08-2.561067546217e+00 9.965151548386e-08
     9.550202831024e-01 2.088867187500e+02 9.765517140072e-01-8.029742277332e-09
    -2.834046620846e-10 4.916097632342e-09-2.000000000000e+00 3.000000000000e+00
     2.900000000000e+01 4.000000000000e+00-1.350417733192e-08 7.000000000000e+00
    -2.619344741106e-10 8.265487849712e-09 0.000000000000e+00 0.000000000000e+00
     1.713120000000e+05 2.428000000000e+03 0.000000000000e+00                   
E07 2026 07 20 23 35 54-7.845880463719e-05-2.557953848736e-12 0.000000000000e+00
     2.900000000000e+01-4.956250000000e+01 3.371569010811e-09 1.933486272961e+00
    -2.184882760048e-06 4.223064752296e-04 5.599111318588e-06 5.440616483688e+03
     1.698000000000e+05-2.793967723846e-08 2.852491335748e+00-1.117587089539e-08
     9.693512612109e-01 2.235625000000e+02 1.826067421209e-01-5.683093866528e-09
     1.978653847446e-10 5.160000000000e+02 1.404000000000e+03                   
     1.070000000000e+02 0.000000000000e+00 4.423782229424e-09 4.889443516731e-09
     1.713540000000e+05                                                         
E07 2026 07 20 23 38 24-7.846049265936e-05-2.557953848736e-12 0.000000000000e+00
     3.000000000000e+01-4.956250000000e+01 3.370854695343e-09 2.007864597631e+00
    -2.186745405197e-06 4.222948336974e-04 5.595386028290e-06 5.440616504669e+03
     1.704000000000e+05-2.793967723846e-08 2.852487918371e+00-1.117587089539e-08
     9.693513840960e-01 2.236875000000e+02 1.826138226444e-01-5.682379551060e-09
     1.978653847446e-10 5.160000000000e+02 1.404000000000e+03                   
     1.070000000000e+02 0.000000000000e+00 4.423782229424e-09 4.889443516731e-09
     1.715040000000e+05                                                         
G31 2026 07 20 23 38 54-1.341179013252e-04 2.728484105319e-12 0.000000000000e+00
     4.400000000000e+01-2.543750000000e+01 4.918776315348e-09 3.371780548765e-01
    -1.119449734688e-06 1.091442990582e-02 8.637085556984e-06 5.153631544113e+03
     1.728000000000e+05-4.656612873077e-08-2.561082422631e+00 9.685754776001e-08
     9.550197725440e-01 2.106562500000e+02 9.764782499186e-01-8.298917111780e-09
    -2.953694461802e-10 1.000000000000e+00 3.800000000000e+02 0.000000000000e+00
     2.000000000000e+00 0.000000000000e+00-1.350417733192e-08 4.400000000000e+01
     6.861360000000e+05 4.000000000000e+00                                      
G03 2026 07 20 23 38 54 3.643161617219e-04-1.887201506179e-11 0.000000000000e+00
     3.800000000000e+01-2.650000000000e+01 3.571934499695e-09 9.220084394552e-01
    -1.473352313042e-06 6.975050549954e-03 8.925795555115e-06 5.153768224716e+03
     1.727840000000e+05-7.450580596924e-08 1.621844139267e+00 1.303851604462e-08
     9.947579043224e-01 2.238750000000e+02 1.276513170252e+00-7.735322207219e-09
     2.585821995580e-10 1.000000000000e+00 3.800000000000e+02 0.000000000000e+00
     2.000000000000e+00 0.000000000000e+00 1.396983861923e-09 3.800000000000e+01
     6.861360000000e+05 4.000000000000e+00                                      
G32 2026 07 20 23 38 54 1.745685003698e-04 2.023625711445e-11 0.000000000000e+00
     8.300000000000e+01-2.106250000000e+01 4.618763818624e-09-1.466529608536e+00
    -8.679926395416e-07 9.457790991291e-03 6.109476089478e-06 5.153570587158e+03
     1.728000000000e+05 1.620501279831e-07 2.642504108297e+00 1.732259988785e-07
     9.696742530420e-01 2.640937500000e+02-1.972830629617e+00-8.052478275185e-09
     2.821546100149e-10 1.000000000000e+00 3.800000000000e+02 0.000000000000e+00
     2.000000000000e+00 0.000000000000e+00 9.313225746155e-10 8.300000000000e+01
     6.861360000000e+05 4.000000000000e+00                                      
G01 2026 07 20 23 38 54 2.172910608351e-04-9.663381206337e-12 0.000000000000e+00
     2.140000000000e+02-3.896875000000e+01 4.440899266994e-09 3.023574912077e+00
    -1.963227987289e-06 1.825405866839e-03 6.137415766716e-06 5.153603368759e+03
     1.728000000000e+05 2.980232238770e-08 6.294874467360e-01 7.450580596924e-09
     9.571188654197e-01 2.592500000000e+02 1.953673888531e-01-8.208199047294e-09
    -1.607209803882e-10 1.000000000000e+00 3.800000000000e+02 0.000000000000e+00
     2.000000000000e+00 0.000000000000e+00-8.847564458847e-09 7.260000000000e+02
     6.861360000000e+05 4.000000000000e+00                                      
G04 2026 07 20 23 38 54 6.273016333580e-05 6.821210263297e-13 0.000000000000e+00
     3.000000000000e+00-2.187500000000e+01 4.529474385075e-09-2.368787335832e+00
    -1.249834895134e-06 3.821735270321e-03 6.604939699173e-06 5.153673292160e+03
     1.728000000000e+05-9.313225746155e-09 2.690205504440e+00-8.568167686462e-08
     9.724389180528e-01 2.630312500000e+02-2.902050409637e+00-7.988547040764e-09
     2.950122884460e-10 1.000000000000e+00 3.800000000000e+02 0.000000000000e+00
     2.000000000000e+00 0.000000000000e+00-4.656612873077e-09 5.150000000000e+02
     6.861360000000e+05 4.000000000000e+00                                      
G02 2026 07 20 23 38 54 1.417743042111e-04 7.275957614183e-12 0.000000000000e+00
     0.000000000000e+00-3.084375000000e+01 4.400183285296e-09-1.859677215066e+00
    -1.391395926476e-06 1.689599850215e-02 6.154179573059e-06 5.153729770660e+03
     1.727840000000e+05-3.352761268616e-07 4.676132952050e-01 1.266598701477e-07
     9.621009104733e-01 2.655625000000e+02-7.360036443860e-01-8.224985460802e-09
    -1.342913080577e-10 1.000000000000e+00 3.800000000000e+02 0.000000000000e+00
     2.000000000000e+00 0.000000000000e+00-1.722946763039e-08 0.000000000000e+00
     6.861360000000e+05 4.000000000000e+00                                      
G26 2026 07 20 23 38 54-3.840886056423e-04-2.501110429876e-12 0.000000000000e+00
     8.100000000000e+01 5.143750000000e+01 5.349508542789e-09-2.897121153982e-01
     2.676621079445e-06 1.116570027079e-02 9.324401617050e-06 5.153581596375e+03
     1.728000000000e+05 9.313225746155e-09-1.639710070197e+00 1.341104507446e-07
     9.274900724958e-01 1.798125000000e+02 7.148310607029e-01-8.559999415478e-09
    -1.735786588193e-10 1.000000000000e+00 3.800000000000e+02 0.000000000000e+00
     2.000000000000e+00 0.000000000000e+00 6.519258022308e-09 8.100000000000e+01
     6.861360000000e+05 4.000000000000e+00                                      
E19 2026 07 20 23 39 05 3.107951488346e-03 2.410160959698e-11 0.000000000000e+00
     2.700000000000e+01-4.056250000000e+01 3.285493996870e-09 6.700663307008e-01
    -1.993030309677e-06 2.444363199174e-04 5.826354026794e-06 5.440615125656e+03
     1.686000000000e+05-4.284083843231e-08 2.860647537064e+00-4.097819328308e-08
     9.747192006471e-01 2.257500000000e+02-2.419013792948e-01-5.610948004220e-09
     1.692927660089e-10 1.000000000000e+00 1.404000000000e+03                   
     1.070000000000e+02 0.000000000000e+00-4.190951585770e-09-4.423782229424e-09
     1.715450000000e+05                                                         
G03 2026 07 20 23 39 12 3.643557138275e-04-1.891464762593e-11 0.000000000000e+00
     1.033020019531e-02-3.304687500000e+01 3.616579216470e-09 6.177080208528e-01
    -1.737847924232e-06 6.972287141252e-03 8.434988558292e-06 5.153456002673e+03
     1.620000000000e+05-5.308538675308e-08 1.621860325724e+00 8.381903171539e-09
     9.947573608484e-01 2.366328125000e+02 1.276869954759e+00-8.594051497362e-09
     2.469745731966e-10 3.616579216470e-09-2.000000000000e+00 2.000000000000e+00
     2.700000000000e+01 4.000000000000e+00 1.396983861923e-09 7.000000000000e+00
     5.529727786779e-10-2.008164301515e-09 1.862645149231e-09 5.005858838558e-09
     1.715520000000e+05 2.428000000000e+03 0.000000000000e+00                   
E30 2026 07 20 23 39 34-1.275924907532e-03-3.971933892899e-11 0.000000000000e+00
     2.500000000000e+01 1.072812500000e+02 3.258350009071e-09-4.525046708073e-02
     5.045905709267e-06 2.124481834471e-04 8.385628461838e-06 5.440624414444e+03
     1.674000000000e+05 2.980232238770e-08-1.327277429701e+00 1.676380634308e-08
     9.583802767739e-01 1.559687500000e+02 5.253313294728e-01-5.640592096159e-09
    -4.107313943255e-11 5.160000000000e+02 1.404000000000e+03                   
     1.070000000000e+02 0.000000000000e+00 6.984919309616e-10 9.313225746155e-10
     1.715740000000e+05                                                         
E21 2026 07 20 23 39 34-7.585140410811e-04-2.827960088325e-12 0.000000000000e+00
     3.000000000000e+01 1.150937500000e+02 3.159774474433e-09 8.572248956120e-01
     5.146488547325e-06 1.701257424429e-04 9.587034583092e-06 5.440615518570e+03
     1.704000000000e+05 1.303851604462e-08-1.328944024013e+00 7.450580596924e-09
     9.606212609999e-01 1.338125000000e+02-1.556055263490e+00-5.563446025572e-09
    -5.143071372424e-11 5.160000000000e+02 1.404000000000e+03                   
     1.070000000000e+02 0.000000000000e+00 1.164153218269e-09 1.164153218269e-09
     1.715740000000e+05                                                         
E26 2026 07 20 23 39 54 3.672941820696e-04 1.081446043827e-11 0.000000000000e+00
     3.000000000000e+01-6.515625000000e+01 2.474031624776e-09-2.196196696408e-01
    -2.918764948845e-06 9.196647442877e-05 7.124617695808e-06 5.440602479935e+03
     1.704000000000e+05 2.235174179077e-08 7.666973699886e-01 1.043081283569e-07
     9.909374747405e-01 2.005312500000e+02-2.593200140989e+00-5.448441235161e-09
    -1.878649681871e-10 5.160000000000e+02 1.404000000000e+03                   
     1.070000000000e+02 0.000000000000e+00-4.889443516731e-09-5.355104804039e-09
     1.715940000000e+05                                                         
E33 2026 07 20 23 39 54-2.512923674658e-05-1.989519660128e-12 0.000000000000e+00
     3.000000000000e+01-6.906250000000e+01 2.429029750268e-09-5.573196278567e-01
    -3.162771463394e-06 1.665493473411e-04 6.867572665215e-06 5.440605503082e+03
     1.704000000000e+05 7.823109626770e-08 7.701359838036e-01 1.862645149231e-08
     9.976741481271e-01 2.096875000000e+02-3.025853031016e+00-5.479513958036e-09
    -1.835790753768e-10 5.160000000000e+02 1.404000000000e+03                   
     1.070000000000e+02 0.000000000000e+00-4.190951585770e-09-4.656612873077e-09
     1.715940000000e+05                                                         
E27 2026 07 20 23 39 54-1.049681508448e-03-1.061550847226e-11 0.000000000000e+00
     3.000000000000e+01 1.190312500000e+02 3.176918045674e-09 9.727910614524e-01
     5.476176738739e-06 2.439047675580e-04 8.620321750641e-06 5.440618940353e+03
     1.704000000000e+05 1.490116119385e-08-1.328983828551e+00-1.490116119385e-08
     9.605922571861e-01 1.503437500000e+02-8.721138731005e-01-5.615591054765e-09
    -5.750239520557e-11 5.160000000000e+02 1.404000000000e+03                   
     1.070000000000e+02 0.000000000000e+00 6.984919309616e-10 9.313225746155e-10
     1.715940000000e+05                                                         
E29 2026 07 20 23 39 54-2.271306002513e-04-3.623767952377e-12 0.000000000000e+00
     3.000000000000e+01-4.193750000000e+01 3.459072655689e-09-1.630714782959e-02
    -1.979991793633e-06 2.006179420277e-04 5.550682544708e-06 5.440610366821e+03
     1.704000000000e+05 5.587935447693e-09 2.852222135415e+00 2.048909664154e-08
     9.627371540268e-01 2.198750000000e+02 1.415674608667e+00-5.758454148443e-09
     2.032227507576e-10 5.160000000000e+02 1.404000000000e+03                   
     1.070000000000e+02 0.000000000000e+00-3.259629011154e-09-3.026798367500e-09
     1.715940000000e+05                                                         
G01 2026 07 20 23 40 00 2.173086104449e-04-9.638512210586e-12 0.000000000000e+00
     2.908706665039e-05-3.956640625000e+01 4.438220583988e-09 2.760973339245e+00
    -2.084299921989e-06 1.825133396778e-03 6.031244993210e-06 5.153618823177e+03
     8.550000000000e+04 2.980232238770e-08 6.295022200142e-01 4.656612873077e-09
     9.571191572718e-01 2.614335937500e+02 1.954132462146e-01-8.128853548572e-09
    -1.601852437869e-10 4.438220583988e-09-2.000000000000e+00 3.000000000000e+00
     3.100000000000e+01 4.000000000000e+00-8.847564458847e-09 7.000000000000e+00
    -2.910383045673e-10 5.646143108606e-09-5.529727786779e-10-6.693881005049e-10
     1.716000000000e+05 2.428000000000e+03 0.000000000000e+00                   
END OF FILE                                                 COMMENT
