     3.05           N: NAVIGATION       M: MIXED            RINEX VERSION / TYPE
PYRINEXCONV 0.1.2 ALDELTUNES            20260721 110334 UTC PGM / RUN BY / DATE
GAL    1.0175e+02  3.3203e-01  2.2858e-02             L 11  IONOSPHERIC CORR
GPSA   1.1176e-08  2.2352e-08  1.5199e-05  1.5140e-05 L 24  IONOSPHERIC CORR
GPSB   1.0650e+05  1.4746e+05  1.6712e+07  1.6450e+07 L 24  IONOSPHERIC CORR
GAUT  6.5192580223e-09-2.664535259e-15 211800 1404   E11  0 TIME SYSTEM CORR
GPUT  1.0186340660e-09 1.190603172e-12 428400 2428   G24  0 TIME SYSTEM CORR
                                                            END OF HEADER
E25 2026 07 21 10 56 35 2.174236578867e-05-8.526512829121e-14 0.000000000000e+00
     9.200000000000e+01 9.915625000000e+01 3.123344385545e-09 2.103223217106e+00
     4.330649971962e-06 2.982923761010e-04 8.534640073776e-06 5.440612390518e+03
     2.076000000000e+05-1.117587089539e-08-1.329151256599e+00 1.676380634308e-08
     9.606285785162e-01 1.595000000000e+02-1.308850285359e+00-5.512015311848e-09
     7.214586230761e-11 1.000000000000e+00 1.404000000000e+03                   
     1.070000000000e+02 0.000000000000e+00 2.328306436539e-09 2.561137080193e-09
     2.121950000000e+05                                                         
E11 2026 07 21 10 59 24 5.517843528651e-03 6.752998160664e-11-3.469446951954e-18
     9.200000000000e+01-4.434375000000e+01 2.638681340241e-09-1.931308183972e+00
    -2.140179276466e-06 4.167810548097e-04 6.133690476418e-06 5.440609558105e+03
     2.076000000000e+05-5.029141902924e-08 7.694637115036e-01 1.117587089539e-08
     9.945469295916e-01 2.250312500000e+02 1.350049069157e+00-5.415225565881e-09
    -2.003654888840e-10 5.160000000000e+02 1.404000000000e+03                   
     1.070000000000e+02 0.000000000000e+00-1.466833055019e-08-1.583248376846e-08
     2.123640000000e+05                                                         
E31 2026 07 21 11 00 35-1.581410178915e-04-2.970068635477e-12 0.000000000000e+00
     9.800000000000e+01 7.968750000000e+01 3.063699043934e-09-2.080923355565e+00
     3.857538104057e-06 3.417525440454e-04 9.203329682350e-06 5.440613857269e+03
     2.112000000000e+05 2.421438694000e-08-1.329252072136e+00 7.450580596924e-09
     9.605985960101e-01 1.439687500000e+02-1.401051358544e+00-5.495586056075e-09
     1.017899542459e-10 1.000000000000e+00 1.404000000000e+03                   
     1.070000000000e+02 0.000000000000e+00 3.492459654808e-09 4.190951585770e-09
     2.124350000000e+05                                                         
E25 2026 07 21 11 00 35 2.174230758101e-05-8.526512829121e-14 0.000000000000e+00
     9.800000000000e+01 9.840625000000e+01 3.083699877049e-09 2.549791165928e+00
     4.349276423454e-06 2.983972663060e-04 8.288770914078e-06 5.440612140656e+03
     2.112000000000e+05-1.862645149231e-09-1.329170992827e+00-9.313225746155e-09
     9.606288945065e-01 1.604062500000e+02-1.309105705004e+00-5.514158258253e-09
     5.571660653459e-11 1.000000000000e+00 1.404000000000e+03                   
     1.070000000000e+02 0.000000000000e+00 2.328306436539e-09 2.561137080193e-09
     2.124350000000e+05                                                         
E10 2026 07 21 11 00 54-8.074434008449e-04-2.657429831743e-12 0.000000000000e+00
     9.800000000000e+01-4.356250000000e+01 2.631181027823e-09-2.036139497909e+00
    -2.052634954453e-06 2.867034636438e-04 5.776062607765e-06 5.440604352951e+03
     2.112000000000e+05-2.793967723846e-08 7.679848651723e-01-1.080334186554e-07
     9.974630475854e-01 2.322187500000e+02 2.329965112193e+00-5.476299538429e-09
    -1.907222300607e-10 5.160000000000e+02 1.404000000000e+03                   
     1.070000000000e+02 0.000000000000e+00-1.164153218269e-09-2.328306436539e-10
     2.124540000000e+05                                                         
E11 2026 07 21 11 00 54 5.518086254597e-03 6.748734904249e-11-3.469446951954e-18
     9.800000000000e+01-3.968750000000e+01 2.635466920633e-09-1.482714612947e+00
    -1.911073923111e-06 4.173117922619e-04 5.783513188362e-06 5.440611726761e+03
     2.112000000000e+05-8.009374141693e-08 7.694442561560e-01-3.166496753693e-08
     9.945459816207e-01 2.322812500000e+02 1.347767423123e+00-5.451298497035e-09
    -1.900079145923e-10 5.160000000000e+02 1.404000000000e+03                   
     1.070000000000e+02 0.000000000000e+00-1.466833055019e-08-1.583248376846e-08
     2.124540000000e+05                                                         
G13 2026 07 21 11 01 36 4.184397403151e-04 5.229594535194e-12 8.673617379884e-19
     4.562377929688e-03 4.561328125000e+01 4.458221417103e-09 2.657256497513e-01
     2.283602952957e-06 2.268318727147e-03 8.784234523773e-06 5.153633150734e+03
     1.647000000000e+05-3.725290298462e-09-1.575934714635e+00-1.955777406693e-08
     9.588254551803e-01 2.099062500000e+02 1.820784640429e+00-8.351541395843e-09
     1.660783464012e-11 4.458221417103e-09-2.000000000000e+00 2.000000000000e+00
     3.000000000000e+01 7.000000000000e+00-8.381903171539e-09 7.000000000000e+00
    -1.164153218269e-10 5.267793312669e-09 1.658918336034e-09 1.949956640601e-09
     2.124960000000e+05 2.428000000000e+03 0.000000000000e+00                   
E25 2026 07 21 11 02 35 2.174236578867e-05-7.105427357601e-14 0.000000000000e+00
     9.900000000000e+01 9.740625000000e+01 3.073342302757e-09 2.624236618057e+00
     4.328787326813e-06 2.982205478474e-04 8.316710591316e-06 5.440612489700e+03
     2.118000000000e+05 1.862645149231e-09-1.329174281467e+00-1.117587089539e-08
     9.606289369311e-01 1.592812500000e+02-1.309165599796e+00-5.515229731456e-09
     5.321650239522e-11 1.000000000000e+00 1.404000000000e+03                   
     1.070000000000e+02 0.000000000000e+00 2.328306436539e-09 2.561137080193e-09
     2.125550000000e+05                                                         
G11 2026 07 21 11 03 12-2.678104792722e-04 1.223909862347e-11 0.000000000000e+00
    -9.360313415527e-04-2.354687500000e+01 4.523759861328e-09-3.067374537467e+00
    -1.215375959873e-06 2.486338082235e-03 5.622394382954e-06 5.153570937345e+03
     1.872000000000e+05-3.073364496231e-08 5.993054630438e-01-1.108273863792e-07
     9.627631054621e-01 2.717890625000e+02-2.355419437657e+00-8.195820623734e-09
    -1.960795960737e-10 4.523759861328e-09-2.000000000000e+00 3.000000000000e+00
     2.800000000000e+01 4.000000000000e+00-8.847564458847e-09 7.000000000000e+00
    -2.037268131971e-10 5.675246939063e-09 3.783497959375e-10 2.328306436539e-10
     2.125920000000e+05 2.428000000000e+03 0.000000000000e+00                   
G12 2026 07 21 11 03 12-6.054627010599e-04 5.542233338929e-13 0.000000000000e+00
     5.886554718018e-03 4.863281250000e+01 4.535903224290e-09 3.584829002517e-01
     2.461485564709e-06 8.703983854502e-03 8.565373718739e-06 5.153519584271e+03
     2.025000000000e+05-8.940696716309e-08-1.467415643889e+00-5.122274160385e-08
     9.583090143770e-01 2.155156250000e+02 1.587535177361e+00-8.202070884082e-09
     2.857261873569e-12 4.535903224290e-09-2.000000000000e+00 2.000000000000e+00
     2.700000000000e+01 4.000000000000e+00-1.257285475731e-08 7.000000000000e+00
    -6.984919309616e-10 7.072230800986e-09 0.000000000000e+00 0.000000000000e+00
     2.125920000000e+05 2.428000000000e+03 0.000000000000e+00                   
G24 2026 07 21 11 03 12 1.224652514793e-04 1.861266696324e-11 0.000000000000e+00
     3.237724304199e-04-3.702734375000e+01 4.960206612515e-09 2.151533203994e+00
    -1.907348632812e-06 1.843404141255e-02 7.623806595802e-06 5.153591472595e+03
     1.980000000000e+05 5.774199962616e-08-2.697239305266e+00-3.175809979439e-07
     9.355030438911e-01 2.200507812500e+02 1.162171590460e+00-8.262251962294e-09
    -1.050043738536e-10 4.960206612515e-09-2.000000000000e+00 2.000000000000e+00
     2.800000000000e+01 4.000000000000e+00 2.328306436539e-09 7.000000000000e+00
     2.910383045673e-11-1.426087692380e-09 1.484295353293e-09 2.764863893390e-09
     2.125920000000e+05 2.428000000000e+03 0.000000000000e+00                   
E31 2026 07 21 11 03 24-1.581428223290e-04-2.970068635477e-12 0.000000000000e+00
     9.900000000000e+01 7.840625000000e+01 3.064413359402e-09-2.007206237682e+00
     3.790482878685e-06 3.417062107474e-04 9.275972843170e-06 5.440613393784e+03
     2.118000000000e+05 2.607703208923e-08-1.329255378331e+00 1.303851604462e-08
     9.605986867111e-01 1.425625000000e+02-1.400383343336e+00-5.490943005531e-09
     1.003613233091e-10 5.160000000000e+02 1.404000000000e+03                   
     1.070000000000e+02 0.000000000000e+00 3.492459654808e-09 4.190951585770e-09
     2.126040000000e+05                                                         
E16 2026 07 21 11 03 35-4.648976027966e-05-2.472688720445e-12 0.000000000000e+00
     9.600000000000e+01 8.443750000000e+01 3.004053702323e-09-1.982710376646e+00
     3.952533006668e-06 4.925740649924e-04 8.465722203255e-06 5.440620019913e+03
     2.100000000000e+05 9.313225746155e-09-1.332482449802e+00 3.725290298462e-09
     9.625730936159e-01 1.559062500000e+02-2.475996013070e+00-5.514515415988e-09
     7.857470152314e-11 1.000000000000e+00 1.404000000000e+03                   
     1.070000000000e+02 0.000000000000e+00-3.725290298462e-09-2.328306436539e-09
     2.126150000000e+05                                                         
E12 2026 07 21 11 03 35-5.901011172682e-05-2.600586412882e-12 0.000000000000e+00
     9.500000000000e+01-4.771875000000e+01 2.700826785991e-09-4.231112028856e-01
    -2.194195985794e-06 3.192125586793e-04 5.677342414856e-06 5.440607519150e+03
     2.094000000000e+05 1.303851604462e-08 7.694633838099e-01-1.043081283569e-07
     9.945584091098e-01 2.321562500000e+02 8.618121883140e-01-5.518086993329e-09
    -2.003654888840e-10 1.000000000000e+00 1.404000000000e+03                   
     1.070000000000e+02 0.000000000000e+00-1.187436282635e-08-1.164153218269e-08
     2.126150000000e+05                                                         
E33 2026 07 21 11 03 35-2.520804991946e-05-2.003730514843e-12 0.000000000000e+00
     9.700000000000e+01-5.331250000000e+01 2.756900550260e-09-1.872639609905e+00
    -2.408400177956e-06 1.665498130023e-04 5.079433321953e-06 5.440602670670e+03
     2.106000000000e+05 3.539025783539e-08 7.699172731619e-01 1.862645149231e-08
     9.976635273419e-01 2.492812500000e+02-3.009906117986e+00-5.500943422088e-09
    -1.392915163365e-10 1.000000000000e+00 1.404000000000e+03                   
     1.070000000000e+02 0.000000000000e+00-4.423782229424e-09-4.889443516731e-09
     2.126150000000e+05                                                         
E10 2026 07 21 11 03 35-8.074449724518e-04-2.657429831743e-12 0.000000000000e+00
     9.900000000000e+01-4.531250000000e+01 2.642252917583e-09-1.962537274686e+00
    -2.123415470123e-06 2.866510767490e-04 5.746260285378e-06 5.440603900909e+03
     2.118000000000e+05-9.313225746155e-09 7.679815545886e-01-1.098960638046e-07
     9.974628661835e-01 2.329687500000e+02 2.330748146410e+00-5.483085535378e-09
    -1.821504444400e-10 1.000000000000e+00 1.404000000000e+03                   
     1.070000000000e+02 0.000000000000e+00-1.164153218269e-09-2.328306436539e-10
     2.126150000000e+05                                                         
E11 2026 07 21 11 03 35 5.518126708921e-03 6.747313818778e-11-3.469446951954e-18
     9.900000000000e+01-3.928125000000e+01 2.638681340241e-09-1.408247597405e+00
    -1.888722181320e-06 4.173512570560e-04 5.777925252914e-06 5.440611831665e+03
     2.118000000000e+05-7.823109626770e-08 7.694409879970e-01-4.470348358154e-08
     9.945458133851e-01 2.324062500000e+02 1.347685586023e+00-5.458798809453e-09
    -1.860791795162e-10 1.000000000000e+00 1.404000000000e+03                   
     1.070000000000e+02 0.000000000000e+00-1.466833055019e-08-1.583248376846e-08
     2.126150000000e+05                                                         
END OF FILE                                                 COMMENT
