     3.05           N: NAVIGATION       M: MIXED            RINEX VERSION / TYPE
PYRINEXCONV 0.1.2 ALDELTUNES            20260721 044118 UTC PGM / RUN BY / DATE
GAL    1.0175e+02  3.3203e-01  2.2858e-02             E 31  IONOSPHERIC CORR
GPSA   9.3132e-09  2.2352e-08  1.5199e-05  1.5140e-05 E 14  IONOSPHERIC CORR
GPSB   1.0035e+05  1.3107e+05  1.6712e+07  1.6318e+07 E 14  IONOSPHERIC CORR
BDSA   2.0489e-08  2.2352e-08 -5.3644e-07  9.5367e-07 E 30  IONOSPHERIC CORR
BDSB   1.3722e+05 -4.4237e+05  4.3254e+06 -3.8666e+06 E 30  IONOSPHERIC CORR
GAUT  6.5192580223e-09-2.664535259e-15 187800 1404   E31  0 TIME SYSTEM CORR
GPUT -3.2887328416e-09 5.373479439e-14 385200 2428   G14  0 TIME SYSTEM CORR
BDUT  0.0000000000e+00 0.000000000e+00 187200 1072   C30  0 TIME SYSTEM CORR
                                                            END OF HEADER
G04 2026 07 21 04 35 48 6.274419138208e-05 6.998845947237e-13 0.000000000000e+00
    -2.377986907959e-03-2.073046875000e+01 4.331073263729e-09 5.194197053099e-01
    -1.036562025547e-06 3.823000355624e-03 5.988404154778e-06 5.153547799324e+03
     1.233000000000e+05 4.097819328308e-08 2.690046872918e+00 1.136213541031e-07
     9.724446958477e-01 2.717421875000e+02-2.902263436110e+00-8.317611411095e-09
     2.407243128482e-10 4.331073263729e-09-2.000000000000e+00 3.000000000000e+00
     3.100000000000e+01 4.000000000000e+00-4.656612873077e-09 7.000000000000e+00
    -2.037268131971e-10 3.317836672068e-09-1.426087692380e-09-1.396983861923e-09
     1.893480000000e+05 2.428000000000e+03 0.000000000000e+00                   
G09 2026 07 21 04 38 54 7.171146571636e-04-7.048583938740e-12 0.000000000000e+00
     7.400000000000e+01-1.984375000000e+01 4.403754862638e-09 1.649337004501e+00
    -1.048669219017e-06 3.670229576528e-03 6.090849637985e-06 5.153696254730e+03
     1.944000000000e+05 1.378357410431e-07 2.624858163673e+00 3.166496753693e-08
     9.667080432703e-01 2.642812500000e+02 2.038203357865e+00-8.018548290436e-09
     2.792973481413e-10 1.000000000000e+00 3.800000000000e+02 0.000000000000e+00
     2.000000000000e+00 0.000000000000e+00 4.656612873077e-10 7.400000000000e+01
     7.581360000000e+05 4.000000000000e+00                                      
G07 2026 07 21 04 38 54-2.079098485410e-04-3.751665644813e-12 0.000000000000e+00
     9.700000000000e+01-2.071875000000e+01 4.741626079187e-09-1.695767174572e+00
    -9.015202522278e-07 2.093818434514e-02 7.875263690948e-06 5.153584897995e+03
     1.944000000000e+05 4.228204488754e-07-2.586084121241e+00 1.657754182816e-07
     9.513214629746e-01 2.134062500000e+02-1.955170504928e+00-7.871042146213e-09
     1.142904749427e-11 1.000000000000e+00 3.800000000000e+02 0.000000000000e+00
     2.000000000000e+00 0.000000000000e+00-1.071020960808e-08 9.700000000000e+01
     7.581360000000e+05 4.000000000000e+00                                      
G27 2026 07 21 04 38 54 5.345791578293e-07 0.000000000000e+00 0.000000000000e+00
     9.200000000000e+01 4.981250000000e+01 5.066996775040e-09 1.178820661012e+00
     2.728775143623e-06 1.433041493874e-02 5.435198545456e-06 5.153676309586e+03
     1.944000000000e+05-1.974403858185e-07-5.084907592869e-01 2.197921276093e-07
     9.508924168974e-01 2.717500000000e+02 9.006274967388e-01-8.603929816784e-09
    -1.414344627416e-10 1.000000000000e+00 3.800000000000e+02 0.000000000000e+00
     2.800000000000e+00 0.000000000000e+00 2.328306436539e-09 9.200000000000e+01
     7.581360000000e+05 4.000000000000e+00                                      
G30 2026 07 21 04 38 54 3.025494515896e-04 1.330136001343e-11 0.000000000000e+00
     9.900000000000e+01-2.796875000000e+01 5.111641491814e-09-2.003574362149e+00
    -1.674517989159e-06 8.217569906265e-03 7.912516593933e-06 5.153681093216e+03
     1.944000000000e+05 1.247972249985e-07-2.597151349596e+00 5.587935447693e-09
     9.366274792998e-01 2.088437500000e+02-2.258889940976e+00-8.182126532698e-09
     3.928735076157e-12 1.000000000000e+00 3.800000000000e+02 0.000000000000e+00
     2.000000000000e+00 0.000000000000e+00 4.190951585770e-09 9.900000000000e+01
     7.581360000000e+05 4.000000000000e+00                                      
G14 2026 07 21 04 38 54 7.499763742089e-04 2.273736754432e-13 0.000000000000e+00
     2.270000000000e+02 6.125000000000e+01 4.906990110120e-09-2.599717998404e+00
     3.017485141754e-06 7.363637676463e-03 9.743496775627e-06 5.153661857605e+03
     1.944000000000e+05-2.048909664154e-08-1.524159444936e+00-1.657754182816e-07
     9.416377923194e-01 1.834687500000e+02-2.680783462054e+00-8.087836890870e-09
     4.500187450871e-11 1.000000000000e+00 3.800000000000e+02 0.000000000000e+00
     2.000000000000e+00 0.000000000000e+00-7.916241884232e-09 9.950000000000e+02
     7.581360000000e+05 4.000000000000e+00                                      
G09 2026 07 21 04 40 48 7.171272591222e-04-6.991740519879e-12 0.000000000000e+00
     3.526687622070e-03-1.656250000000e+01 4.419469802942e-09 1.386780316189e+00
    -9.629875421524e-07 3.668958088383e-03 6.236135959625e-06 5.153526767805e+03
     1.395000000000e+05 1.192092895508e-07 2.624872550741e+00 7.450580596924e-09
     9.667074427424e-01 2.606484375000e+02 2.038220855097e+00-8.294574737239e-09
     2.851904507556e-10 4.419469802942e-09-2.000000000000e+00 3.000000000000e+00
     3.000000000000e+01 4.000000000000e+00 4.656612873077e-10 7.000000000000e+00
    -5.820766091347e-10-7.275957614183e-10 5.064066499472e-09 5.617039278150e-09
     1.896480000000e+05 2.428000000000e+03 0.000000000000e+00                   
G07 2026 07 21 04 40 48-2.079032128677e-04-3.755218358492e-12 0.000000000000e+00
    -5.875587463379e-03-2.107812500000e+01 4.738947396181e-09-1.958368274151e+00
    -1.118518412113e-06 2.093622175744e-02 8.556991815567e-06 5.153637853118e+03
     1.161000000000e+05 3.129243850708e-07-2.586070385172e+00 6.239861249924e-08
     9.513216685146e-01 2.053984375000e+02-1.955131948259e+00-8.543692256841e-09
     7.393165097859e-11 4.738947396181e-09-2.000000000000e+00 3.000000000000e+00
     3.100000000000e+01 4.000000000000e+00-1.071020960808e-08 7.000000000000e+00
    -9.313225746155e-10 6.984919309616e-09 0.000000000000e+00 0.000000000000e+00
     1.896480000000e+05 2.428000000000e+03 0.000000000000e+00                   
G30 2026 07 21 04 40 48 3.025251789950e-04 1.329425458607e-11 0.000000000000e+00
    -3.261566162109e-03-2.504296875000e+01 5.127356432119e-09-2.266179138040e+00
    -1.365318894386e-06 8.216449525207e-03 8.302740752697e-06 5.153540978890e+03
     1.107000000000e+05 1.396983861923e-07-2.597136550716e+00-1.210719347000e-08
     9.366274697908e-01 2.046562500000e+02-2.258832282254e+00-8.150104433757e-09
    -9.464679956196e-12 5.127356432119e-09-2.000000000000e+00 3.000000000000e+00
     3.100000000000e+01 4.000000000000e+00 4.190951585770e-09 7.000000000000e+00
    -1.513399183750e-09-3.259629011154e-09 2.328306436539e-09 3.230525180697e-09
     1.896480000000e+05 2.428000000000e+03 0.000000000000e+00                   
E23 2026 07 21 04 40 54-4.269258351997e-05-1.307398633799e-12 0.000000000000e+00
     6.000000000000e+01 1.006875000000e+02 3.236920545019e-09-2.797461490986e+00
     4.680827260017e-06 1.739555737004e-04 8.482486009598e-06 5.440616792679e+03
     1.884000000000e+05 3.911554813385e-08-1.332237681664e+00-1.490116119385e-08
     9.625504315519e-01 1.594687500000e+02-2.745051145873e+00-5.570589180256e-09
     3.285851154604e-11 5.160000000000e+02 1.404000000000e+03                   
     1.070000000000e+02 0.000000000000e+00 4.656612873077e-10 1.862645149231e-09
     1.896540000000e+05                                                         
E06 2026 07 21 04 40 54-3.006232436746e-04-5.073275133327e-12 0.000000000000e+00
     6.000000000000e+01-3.953125000000e+01 3.307994934124e-09 2.806672849761e-01
    -1.905485987663e-06 5.051887128502e-04 5.541369318962e-06 5.440611270905e+03
     1.884000000000e+05 2.421438694000e-08 2.852088089694e+00-2.980232238770e-08
     9.626596003507e-01 2.187812500000e+02 1.385800756484e+00-5.722024059555e-09
     2.000083311498e-10 5.160000000000e+02 1.404000000000e+03                   
     1.070000000000e+02 0.000000000000e+00 2.328306436539e-09 3.725290298462e-09
     1.896540000000e+05                                                         
E04 2026 07 21 04 40 54-1.223150757141e-04 3.350919541845e-11 0.000000000000e+00
     6.000000000000e+01-4.256250000000e+01 3.185846989029e-09 2.126974202682e+00
    -1.929700374603e-06 2.931922208518e-04 5.597248673439e-06 5.440609525681e+03
     1.884000000000e+05 2.607703208923e-08 2.852437443309e+00-9.313225746155e-09
     9.693535711586e-01 2.209687500000e+02-6.746159532623e-02-5.665950295287e-09
     2.078658013021e-10 5.160000000000e+02 1.404000000000e+03                   
     1.070000000000e+02 0.000000000000e+00-4.190951585770e-09-4.656612873077e-09
     1.896540000000e+05                                                         
E28 2026 07 21 04 40 54-6.030977237970e-05-2.842170943040e-12 0.000000000000e+00
     6.000000000000e+01-4.406250000000e+01 3.525146836515e-09 4.658230711493e-01
    -1.965090632439e-06 2.852999605238e-04 5.427747964859e-06 5.440609611511e+03
     1.884000000000e+05 5.587935447693e-09 2.870131948036e+00 0.000000000000e+00
     9.490528500778e-01 2.162500000000e+02 1.959530604989e+00-5.860958418158e-09
     2.060800126311e-10 5.160000000000e+02 1.404000000000e+03                   
     1.070000000000e+02 0.000000000000e+00 9.313225746155e-10 1.862645149231e-09
     1.896540000000e+05                                                         
C27 2026 07 21 04 40 54 6.608702242374e-04 4.930278407755e-12 0.000000000000e+00
     1.000000000000e+00-6.140625000000e+00 4.238390831705e-09-1.837001772715e+00
    -4.330649971962e-07 6.344947032630e-04 4.049390554428e-06 5.282656711578e+03
     1.872000000000e+05-1.955777406693e-08 7.570823277464e-02 4.718964919448e-05
     9.479133787971e-01 2.709531250000e+02 1.692672247028e+00 2.028957371361e-06
    -3.285851154604e-10                    1.072000000000e+03                   
     0.000000000000e+00 0.000000000000e+00-2.002343535423e-08-2.002343535423e-08
     1.896540000000e+05 1.000000000000e+00                                      
C12 2026 07 21 04 40 54 6.157784955576e-04-4.963141009284e-12 0.000000000000e+00
     1.000000000000e+00-1.239062500000e+01 3.542647565491e-09 2.118773301904e+00
    -5.620531737804e-07 1.763218315318e-04 7.363036274910e-06 5.282643545151e+03
     1.872000000000e+05 3.911554813385e-08 2.170681746156e+00-5.932617932558e-05
     9.735978636990e-01 2.170000000000e+02 7.068955990963e-01-1.400076533093e-06
     4.185888644778e-10                    1.072000000000e+03                   
     0.000000000000e+00 0.000000000000e+00 3.725290298462e-09 3.725290298462e-09
     1.896540000000e+05 1.000000000000e+00                                      
C19 2026 07 21 04 40 54-9.326311992481e-04 8.615330671091e-13 0.000000000000e+00
     1.000000000000e+00-1.514062500000e+01 3.240849280095e-09 2.720649106161e+00
    -7.529743015766e-07 7.844039937481e-04 7.436610758305e-06 5.282631511688e+03
     1.872000000000e+05 5.355104804039e-08 2.185028522317e+00 4.794448614120e-06
     9.899464984224e-01 2.225468750000e+02-3.182850749938e-01 6.245567295804e-07
     4.035882396416e-10                    1.072000000000e+03                   
     0.000000000000e+00 0.000000000000e+00 4.330649971962e-08 4.330649971962e-08
     1.896540000000e+05 1.000000000000e+00                                      
C20 2026 07 21 04 40 54-8.893072372302e-04 3.047340157991e-12 0.000000000000e+00
     1.000000000000e+00-1.387500000000e+01 3.215133923233e-09 2.844340348272e+00
    -6.393529474735e-07 8.085493464023e-04 7.359310984612e-06 5.282636501312e+03
     1.872000000000e+05 3.026798367500e-08 2.185655931308e+00-2.343673259020e-06
     9.899317068577e-01 2.263125000000e+02 2.745776207572e-01 1.235644683847e-06
     4.285892810353e-10                    1.072000000000e+03                   
     0.000000000000e+00 0.000000000000e+00 5.541369318962e-08 5.541369318962e-08
     1.896540000000e+05 1.000000000000e+00                                      
C36 2026 07 21 04 40 54 2.596642589197e-04-4.286349053473e-12 0.000000000000e+00
     1.000000000000e+00 1.617187500000e+01 4.173030966347e-09 1.350311617602e+00
     8.125789463520e-07 8.151222718880e-04 1.054210588336e-05 5.282654645920e+03
     1.872000000000e+05 2.235174179077e-08-2.018477895672e+00 4.573911428452e-05
     9.451413392162e-01 1.424218750000e+02-1.023781818656e+00 2.355115957176e-07
    -1.492919328940e-10                    1.072000000000e+03                   
     0.000000000000e+00 0.000000000000e+00-9.639188647270e-08-9.639188647270e-08
     1.896540000000e+05 1.000000000000e+00                                      
C30 2026 07 21 04 40 54 4.926846595481e-04 7.584155525819e-12 0.000000000000e+00
     1.000000000000e+00-7.343750000000e-01 4.256605876149e-09-1.936813892256e+00
    -8.381903171539e-09 4.687095060945e-04 3.837514668703e-06 5.282647251129e+03
     1.872000000000e+05-3.399327397346e-08 3.482757514259e-02 2.789497375488e-05
     9.455233685693e-01 2.782187500000e+02 9.818395169855e-01-1.941859457669e-06
    -2.957266039144e-10                    1.072000000000e+03                   
     0.000000000000e+00 0.000000000000e+00-4.516914486885e-08-4.516914486885e-08
     1.896540000000e+05 1.000000000000e+00                                      
E21 2026 07 21 04 40 55-7.585562416352e-04-2.813749233610e-12 0.000000000000e+00
     5.500000000000e+01 1.006875000000e+02 3.320138297087e-09 2.714061811340e+00
     4.794448614120e-06 1.726628979668e-04 8.253380656242e-06 5.440613023758e+03
     1.854000000000e+05 5.029141902924e-08-1.329028293946e+00 4.842877388000e-08
     9.606201886810e-01 1.634687500000e+02-1.553261353284e+00-5.615233897031e-09
     3.821587755898e-11 1.000000000000e+00 1.404000000000e+03                   
     1.070000000000e+02 0.000000000000e+00 6.984919309616e-10 9.313225746155e-10
     1.896550000000e+05                                                         
E19 2026 07 21 04 41 05 3.108420118224e-03 2.441424840072e-11 0.000000000000e+00
     5.900000000000e+01-4.403125000000e+01 3.094771766809e-09 3.048866073898e+00
    -1.968815922737e-06 2.429059240967e-04 5.505979061127e-06 5.440619012833e+03
     1.878000000000e+05-1.676380634308e-08 2.860539399622e+00-2.235174179077e-08
     9.747228433132e-01 2.296250000000e+02-2.403696938254e-01-5.641306411627e-09
     2.182233755938e-10 1.000000000000e+00 1.404000000000e+03                   
     1.070000000000e+02 0.000000000000e+00-4.423782229424e-09-4.423782229424e-09
     1.896650000000e+05                                                         
G14 2026 07 21 04 41 12 7.499761122745e-04 2.593480985524e-13 0.000000000000e+00
    -2.451896667480e-03 6.748828125000e+01 4.874488756308e-09-2.862347758742e+00
     3.377906978130e-06 7.362615899183e-03 9.466893970966e-06 5.153559374317e+03
     1.152000000000e+05-6.146728992462e-08-1.524144717008e+00-1.182779669762e-07
     9.416378201149e-01 1.868945312500e+02-2.680703005217e+00-8.281895637675e-09
     1.892935991239e-11 4.874488756308e-09-2.000000000000e+00 3.000000000000e+00
     3.100000000000e+01 4.000000000000e+00-7.916241884232e-09 7.000000000000e+00
    -2.619344741106e-10 5.005858838558e-09-1.455191522837e-09-1.076841726899e-09
     1.896720000000e+05 2.428000000000e+03 0.000000000000e+00                   
E31 2026 07 21 04 41 24-1.580716343597e-04-2.984279490192e-12 0.000000000000e+00
     5.900000000000e+01 1.233125000000e+02 3.150488373344e-09 1.295640980670e+00
     5.668029189110e-06 3.408213378862e-04 9.192153811455e-06 5.440619762421e+03
     1.878000000000e+05 0.000000000000e+00-1.329121822687e+00-3.725290298462e-09
     9.605967498075e-01 1.453125000000e+02-1.395455464287e+00-5.546659612065e-09
     4.893060958486e-11 5.160000000000e+02 1.404000000000e+03                   
     1.070000000000e+02 0.000000000000e+00 3.492459654808e-09 4.190951585770e-09
     1.896840000000e+05                                                         
E23 2026 07 21 04 41 24-4.269339842722e-05-1.307398633799e-12 0.000000000000e+00
     6.100000000000e+01 1.003125000000e+02 3.242992226500e-09-2.724192371284e+00
     4.665926098824e-06 1.740616280586e-04 8.402392268181e-06 5.440616353989e+03
     1.890000000000e+05 4.284083843231e-08-1.332241047839e+00-7.450580596924e-09
     9.625504257002e-01 1.612500000000e+02-2.743935148576e+00-5.571303495725e-09
     3.785871982478e-11 5.160000000000e+02 1.404000000000e+03                   
     1.070000000000e+02 0.000000000000e+00 4.656612873077e-10 1.862645149231e-09
     1.896840000000e+05                                                         
E06 2026 07 21 04 41 24-3.006262704730e-04-5.059064278612e-12 0.000000000000e+00
     6.100000000000e+01-3.984375000000e+01 3.304423356782e-09 3.549919878469e-01
    -1.901760697365e-06 5.052095511928e-04 5.543231964111e-06 5.440611343384e+03
     1.890000000000e+05 2.793967723846e-08 2.852084682558e+00-2.607703208923e-08
     9.626597203099e-01 2.187812500000e+02 1.385861648986e+00-5.724167005961e-09
     1.982225424788e-10 5.160000000000e+02 1.404000000000e+03                   
     1.070000000000e+02 0.000000000000e+00 2.328306436539e-09 3.725290298462e-09
     1.896840000000e+05                                                         
E04 2026 07 21 04 41 24-1.222949940711e-04 3.352340627316e-11 0.000000000000e+00
     6.100000000000e+01-4.256250000000e+01 3.180846780750e-09 2.201363774266e+00
    -1.920387148857e-06 2.931870985776e-04 5.606561899185e-06 5.440609531403e+03
     1.890000000000e+05 2.607703208923e-08 2.852434020081e+00-1.303851604462e-08
     9.693537042841e-01 2.210312500000e+02-6.746557153757e-02-5.663093033413e-09
     2.089372745047e-10 5.160000000000e+02 1.404000000000e+03                   
     1.070000000000e+02 0.000000000000e+00-4.190951585770e-09-4.656612873077e-09
     1.896840000000e+05                                                         
E28 2026 07 21 04 41 24-6.031146040186e-05-2.842170943040e-12 0.000000000000e+00
     6.100000000000e+01-4.415625000000e+01 3.510503369413e-09 5.399629123769e-01
    -1.968815922737e-06 2.853357000276e-04 5.418434739113e-06 5.440609764099e+03
     1.890000000000e+05 2.421438694000e-08 2.870128356572e+00-3.725290298462e-09
     9.490530446459e-01 2.169062500000e+02 1.959776644404e+00-5.846672108790e-09
     2.067943280995e-10 5.160000000000e+02 1.404000000000e+03                   
     1.070000000000e+02 0.000000000000e+00 9.313225746155e-10 1.862645149231e-09
     1.896840000000e+05                                                         
END OF FILE                                                 COMMENT
