     3.05           N: NAVIGATION       M: MIXED            RINEX VERSION / TYPE
PYRINEXCONV 0.1.2 ALDELTUNES            20260721 053134 UTC PGM / RUN BY / DATE
GAL    1.0175e+02  3.3203e-01  2.2858e-02             F 06  IONOSPHERIC CORR
GPSA   9.3132e-09  2.2352e-08  1.5199e-05  1.5140e-05 F 14  IONOSPHERIC CORR
GPSB   1.0035e+05  1.3107e+05  1.6712e+07  1.6318e+07 F 14  IONOSPHERIC CORR
BDSA   2.0489e-08  2.2352e-08 -5.3644e-07  9.5367e-07 F 12  IONOSPHERIC CORR
BDSB   1.3722e+05 -4.4237e+05  4.3254e+06 -3.8666e+06 F 12  IONOSPHERIC CORR
GAUT  6.5192580223e-09-2.664535259e-15 189000 1404   E06  0 TIME SYSTEM CORR
GPUT -3.2887328416e-09 5.373479439e-14 385200 2428   G14  0 TIME SYSTEM CORR
BDUT  0.0000000000e+00 0.000000000e+00 190800 1072   C12  0 TIME SYSTEM CORR
                                                            END OF HEADER
E19 2026 07 21 05 26 05 3.108420118224e-03 2.441424840072e-11 0.000000000000e+00
     5.900000000000e+01-4.403125000000e+01 3.094771766809e-09 3.048866073898e+00
    -1.968815922737e-06 2.429059240967e-04 5.505979061127e-06 5.440619012833e+03
     1.878000000000e+05-1.676380634308e-08 2.860539399622e+00-2.235174179077e-08
     9.747228433132e-01 2.296250000000e+02-2.403696938254e-01-5.641306411627e-09
     2.182233755938e-10 1.000000000000e+00 1.404000000000e+03                   
     1.070000000000e+02 0.000000000000e+00-4.423782229424e-09-4.423782229424e-09
     1.923650000000e+05                                                         
E31 2026 07 21 05 27 24-1.580716343597e-04-2.984279490192e-12 0.000000000000e+00
     5.900000000000e+01 1.233125000000e+02 3.150488373344e-09 1.295640980670e+00
     5.668029189110e-06 3.408213378862e-04 9.192153811455e-06 5.440619762421e+03
     1.878000000000e+05 0.000000000000e+00-1.329121822687e+00-3.725290298462e-09
     9.605967498075e-01 1.453125000000e+02-1.395455464287e+00-5.546659612065e-09
     4.893060958486e-11 5.160000000000e+02 1.404000000000e+03                   
     1.070000000000e+02 0.000000000000e+00 3.492459654808e-09 4.190951585770e-09
     1.924440000000e+05                                                         
G07 2026 07 21 05 28 54-2.079098485410e-04-3.751665644813e-12 0.000000000000e+00
     9.700000000000e+01-2.071875000000e+01 4.741626079187e-09-1.695767174572e+00
    -9.015202522278e-07 2.093818434514e-02 7.875263690948e-06 5.153584897995e+03
     1.944000000000e+05 4.228204488754e-07-2.586084121241e+00 1.657754182816e-07
     9.513214629746e-01 2.134062500000e+02-1.955170504928e+00-7.871042146213e-09
     1.142904749427e-11 1.000000000000e+00 3.800000000000e+02 0.000000000000e+00
     2.000000000000e+00 0.000000000000e+00-1.071020960808e-08 9.700000000000e+01
     7.701360000000e+05 4.000000000000e+00                                      
G08 2026 07 21 05 28 54 3.939843736589e-04-9.208633855451e-12 0.000000000000e+00
     8.200000000000e+01 5.553125000000e+01 5.257361847366e-09 1.030811823210e+00
     3.173947334290e-06 1.168476371095e-02 5.075708031654e-06 5.153750621796e+03
     1.944000000000e+05 5.587935447693e-09-5.417054526179e-01 1.657754182816e-07
     9.417689063523e-01 2.702812500000e+02 5.448627546008e-01-8.641074221140e-09
    -2.032227507576e-10 1.000000000000e+00 3.800000000000e+02 0.000000000000e+00
     2.000000000000e+00 0.000000000000e+00 4.656612873077e-09 8.200000000000e+01
     7.701360000000e+05 4.000000000000e+00                                      
G30 2026 07 21 05 28 54 3.025494515896e-04 1.330136001343e-11 0.000000000000e+00
     9.900000000000e+01-2.796875000000e+01 5.111641491814e-09-2.003574362149e+00
    -1.674517989159e-06 8.217569906265e-03 7.912516593933e-06 5.153681093216e+03
     1.944000000000e+05 1.247972249985e-07-2.597151349596e+00 5.587935447693e-09
     9.366274792998e-01 2.088437500000e+02-2.258889940976e+00-8.182126532698e-09
     3.928735076157e-12 1.000000000000e+00 3.800000000000e+02 0.000000000000e+00
     2.000000000000e+00 0.000000000000e+00 4.190951585770e-09 9.900000000000e+01
     7.701360000000e+05 4.000000000000e+00                                      
G14 2026 07 21 05 28 54 7.499763742089e-04 2.273736754432e-13 0.000000000000e+00
     2.270000000000e+02 6.125000000000e+01 4.906990110120e-09-2.599717998404e+00
     3.017485141754e-06 7.363637676463e-03 9.743496775627e-06 5.153661857605e+03
     1.944000000000e+05-2.048909664154e-08-1.524159444936e+00-1.657754182816e-07
     9.416377923194e-01 1.834687500000e+02-2.680783462054e+00-8.087836890870e-09
     4.500187450871e-11 1.000000000000e+00 3.800000000000e+02 0.000000000000e+00
     2.000000000000e+00 0.000000000000e+00-7.916241884232e-09 9.950000000000e+02
     7.701360000000e+05 4.000000000000e+00                                      
G17 2026 07 21 05 28 54-1.761759631336e-04-6.025402399246e-12 0.000000000000e+00
     7.000000000000e+00 4.365625000000e+01 4.868417074827e-09 1.040159025633e+00
     1.991167664528e-06 1.261625194456e-02 4.634261131287e-06 5.153675146103e+03
     1.944000000000e+05 6.705522537231e-08-4.349241727490e-01-3.371387720108e-07
     9.574388290103e-01 2.881562500000e+02-1.098734103143e+00-8.423565161015e-09
    -6.964575816824e-11 1.000000000000e+00 3.800000000000e+02 0.000000000000e+00
     2.000000000000e+00 0.000000000000e+00-1.071020960808e-08 7.000000000000e+00
     7.701360000000e+05 4.000000000000e+00                                      
G22 2026 07 21 05 28 54 4.048552364111e-05 8.071765478235e-12 0.000000000000e+00
     9.000000000000e+01 6.537500000000e+01 4.593048461762e-09 1.652859933599e+00
     3.341585397720e-06 1.184515061323e-02 9.132549166679e-06 5.153724006653e+03
     1.944000000000e+05 2.570450305939e-07-1.447124740451e+00 1.862645149231e-09
     9.568466251426e-01 1.999687500000e+02-9.877256878367e-01-7.882471193708e-09
    -1.785788670980e-11 1.000000000000e+00 3.800000000000e+02 0.000000000000e+00
     2.000000000000e+00 0.000000000000e+00-1.117587089539e-08 9.000000000000e+01
     7.701360000000e+05 4.000000000000e+00                                      
C30 2026 07 21 05 28 54 4.927119007334e-04 7.579714633721e-12 0.000000000000e+00
     1.000000000000e+00 8.125000000000e-01 4.278035340201e-09-1.449826612629e+00
    -2.654269337654e-08 4.686597967520e-04 3.840308636427e-06 5.282646724701e+03
     1.908000000000e+05-3.539025783539e-08 3.480146936946e-02 3.549642860889e-05
     9.455224015804e-01 2.767656250000e+02 9.824146559137e-01-1.968054834526e-06
    -2.850118718885e-10                    1.072000000000e+03                   
     0.000000000000e+00 0.000000000000e+00-4.516914486885e-08-4.516914486885e-08
     1.925340000000e+05 1.000000000000e+00                                      
C36 2026 07 21 05 28 54 2.596488920972e-04-4.279243626115e-12 0.000000000000e+00
     1.000000000000e+00 2.190625000000e+01 4.125528987699e-09 1.836934866156e+00
     9.578652679920e-07 8.149991044775e-04 1.050112769008e-05 5.282656148911e+03
     1.908000000000e+05 3.585591912270e-08-2.018502472696e+00 4.287157207727e-05
     9.451407686782e-01 1.432812500000e+02-1.022845103433e+00 2.115563121696e-07
    -1.410773050075e-10                    1.072000000000e+03                   
     0.000000000000e+00 0.000000000000e+00-9.639188647270e-08-9.639188647270e-08
     1.925340000000e+05 1.000000000000e+00                                      
C28 2026 07 21 05 28 54 5.406929412857e-04 3.968381179220e-12 0.000000000000e+00
     1.000000000000e+00 5.546875000000e+00 4.264463346301e-09-3.108576724012e+00
     3.152526915073e-07 1.220272388309e-04 3.856141120195e-06 5.282633798599e+03
     1.908000000000e+05 6.519258022308e-08 7.535890402941e-02 2.926448360085e-05
     9.477858459877e-01 2.728437500000e+02-2.180369134086e+00 1.686451676053e-06
    -2.757257707994e-10                    1.072000000000e+03                   
     0.000000000000e+00 0.000000000000e+00-2.002343535423e-08-2.002343535423e-08
     1.925340000000e+05 1.000000000000e+00                                      
C37 2026 07 21 05 28 54-9.072719840333e-04 6.924238959982e-12 0.000000000000e+00
     1.000000000000e+00 1.204687500000e+01 4.171245177676e-09 2.782990071279e+00
     6.533227860928e-07 7.134907646105e-04 9.797513484955e-06 5.282671453476e+03
     1.908000000000e+05-2.235174179077e-08-2.018638954175e+00 4.318868741393e-05
     9.451549414285e-01 1.549375000000e+02-3.737698741127e-01 7.715071363690e-08
    -3.535861568541e-11                    1.072000000000e+03                   
     0.000000000000e+00 0.000000000000e+00-7.823109626770e-08-7.823109626770e-08
     1.925340000000e+05 1.000000000000e+00                                      
C19 2026 07 21 05 28 54-9.326281724498e-04 8.535394613318e-13 0.000000000000e+00
     1.000000000000e+00-1.454687500000e+01 3.231920336740e-09-3.074938024357e+00
    -6.747432053089e-07 7.844705833122e-04 7.526483386755e-06 5.282631372452e+03
     1.908000000000e+05 3.445893526077e-08 2.185004919597e+00-3.527384251356e-06
     9.899478326036e-01 2.224531250000e+02-3.183201396772e-01 6.010125345845e-07
     3.975165581602e-10                    1.072000000000e+03                   
     0.000000000000e+00 0.000000000000e+00 4.330649971962e-08 4.330649971962e-08
     1.925340000000e+05 1.000000000000e+00                                      
C12 2026 07 21 05 28 54 6.157602183521e-04-4.996003610813e-12 0.000000000000e+00
     1.000000000000e+00-1.071875000000e+01 3.498002848716e-09 2.604315417425e+00
    -5.019828677177e-07 1.757345162332e-04 7.205642759800e-06 5.282644876480e+03
     1.908000000000e+05 4.936009645462e-08 2.170657425143e+00-5.502253770828e-05
     9.735994334101e-01 2.218125000000e+02 7.089143119380e-01-1.427049085180e-06
     4.157316026042e-10                    1.072000000000e+03                   
     0.000000000000e+00 0.000000000000e+00 3.725290298462e-09 3.725290298462e-09
     1.925340000000e+05 1.000000000000e+00                                      
E19 2026 07 21 05 30 05 3.108507662546e-03 2.437161583657e-11 0.000000000000e+00
     6.500000000000e+01-4.393750000000e+01 3.047984103629e-09-2.787996645080e+00
    -1.985579729080e-06 2.428441075608e-04 5.491077899933e-06 5.440619094849e+03
     1.914000000000e+05-9.313225746155e-09 2.860519152836e+00 8.381903171539e-08
     9.747240736273e-01 2.303750000000e+02-2.403816517178e-01-5.569874864788e-09
     1.857220217820e-10 1.000000000000e+00 1.404000000000e+03                   
     1.070000000000e+02 0.000000000000e+00-4.423782229424e-09-4.423782229424e-09
     1.926050000000e+05                                                         
G30 2026 07 21 05 30 24 3.025251789950e-04 1.329425458607e-11 0.000000000000e+00
    -3.261566162109e-03-2.504296875000e+01 5.127356432119e-09-2.266179138040e+00
    -1.365318894386e-06 8.216449525207e-03 8.302740752697e-06 5.153540978890e+03
     1.107000000000e+05 1.396983861923e-07-2.597136550716e+00-1.210719347000e-08
     9.366274697908e-01 2.046562500000e+02-2.258832282254e+00-8.150104433757e-09
    -9.464679956196e-12 5.127356432119e-09-2.000000000000e+00 3.000000000000e+00
     3.100000000000e+01 4.000000000000e+00 4.190951585770e-09 7.000000000000e+00
    -1.513399183750e-09-3.259629011154e-09 2.328306436539e-09 3.230525180697e-09
     1.926240000000e+05 2.428000000000e+03 0.000000000000e+00                   
G09 2026 07 21 05 30 24 7.171272591222e-04-6.991740519879e-12 0.000000000000e+00
     3.526687622070e-03-1.656250000000e+01 4.419469802942e-09 1.386780316189e+00
    -9.629875421524e-07 3.668958088383e-03 6.236135959625e-06 5.153526767805e+03
     1.395000000000e+05 1.192092895508e-07 2.624872550741e+00 7.450580596924e-09
     9.667074427424e-01 2.606484375000e+02 2.038220855097e+00-8.294574737239e-09
     2.851904507556e-10 4.419469802942e-09-2.000000000000e+00 3.000000000000e+00
     3.000000000000e+01 4.000000000000e+00 4.656612873077e-10 7.000000000000e+00
    -5.820766091347e-10-7.275957614183e-10 5.064066499472e-09 5.617039278150e-09
     1.926240000000e+05 2.428000000000e+03 0.000000000000e+00                   
E31 2026 07 21 05 30 54-1.580821117386e-04-2.955857780762e-12 0.000000000000e+00
     6.500000000000e+01 1.109687500000e+02 3.182989727155e-09 1.745577071617e+00
     5.057081580162e-06 3.417765256017e-04 9.143725037575e-06 5.440616647720e+03
     1.914000000000e+05 7.450580596924e-09-1.329141801760e+00-9.313225746155e-09
     9.605968975622e-01 1.464687500000e+02-1.399081807064e+00-5.550588347141e-09
     5.250218692682e-11 5.160000000000e+02 1.404000000000e+03                   
     1.070000000000e+02 0.000000000000e+00 3.492459654808e-09 4.190951585770e-09
     1.926540000000e+05                                                         
G14 2026 07 21 05 31 12 7.499761122745e-04 2.593480985524e-13 0.000000000000e+00
    -2.451896667480e-03 6.748828125000e+01 4.874488756308e-09-2.862347758742e+00
     3.377906978130e-06 7.362615899183e-03 9.466893970966e-06 5.153559374317e+03
     1.152000000000e+05-6.146728992462e-08-1.524144717008e+00-1.182779669762e-07
     9.416378201149e-01 1.868945312500e+02-2.680703005217e+00-8.281895637675e-09
     1.892935991239e-11 4.874488756308e-09-2.000000000000e+00 3.000000000000e+00
     3.100000000000e+01 4.000000000000e+00-7.916241884232e-09 7.000000000000e+00
    -2.619344741106e-10 5.005858838558e-09-1.455191522837e-09-1.076841726899e-09
     1.926720000000e+05 2.428000000000e+03 0.000000000000e+00                   
E28 2026 07 21 05 31 24-6.031838711351e-05-2.856381797756e-12 0.000000000000e+00
     6.500000000000e+01-4.243750000000e+01 3.455143920613e-09 8.353221417201e-01
    -1.924112439156e-06 2.854741178453e-04 5.289912223816e-06 5.440611021042e+03
     1.914000000000e+05 6.146728992462e-08 2.870114239413e+00 1.490116119385e-08
     9.490537205140e-01 2.218437500000e+02 1.961960943480e+00-5.815599385915e-09
     2.028655930234e-10 5.160000000000e+02 1.404000000000e+03                   
     1.070000000000e+02 0.000000000000e+00 9.313225746155e-10 1.862645149231e-09
     1.926840000000e+05                                                         
E21 2026 07 21 05 31 25-7.585730636492e-04-2.799538378895e-12 0.000000000000e+00
     6.500000000000e+01 8.396875000000e+01 3.230134548069e-09-2.817542582712e+00
     4.041939973831e-06 1.707910560071e-04 8.506700396538e-06 5.440617650986e+03
     1.914000000000e+05-4.842877388000e-08-1.329062545247e+00 2.048909664154e-08
     9.606204812646e-01 1.580937500000e+02-1.560986084467e+00-5.564160341041e-09
     9.714690370133e-11 1.000000000000e+00 1.404000000000e+03                   
     1.070000000000e+02 0.000000000000e+00 6.984919309616e-10 9.313225746155e-10
     1.926850000000e+05                                                         
E06 2026 07 21 05 31 35-3.006262704730e-04-5.059064278612e-12 0.000000000000e+00
     6.100000000000e+01-3.984375000000e+01 3.304423356782e-09 3.549919878469e-01
    -1.901760697365e-06 5.052095511928e-04 5.543231964111e-06 5.440611343384e+03
     1.890000000000e+05 2.793967723846e-08 2.852084682558e+00-2.607703208923e-08
     9.626597203099e-01 2.187812500000e+02 1.385861648986e+00-5.724167005961e-09
     1.982225424788e-10 1.000000000000e+00 1.404000000000e+03                   
     1.070000000000e+02 0.000000000000e+00 2.328306436539e-09 3.725290298462e-09
     1.926950000000e+05                                                         
E04 2026 07 21 05 31 35-1.222147839144e-04 3.353761712788e-11 0.000000000000e+00
     6.500000000000e+01-4.237500000000e+01 3.184418358092e-09 2.498943208547e+00
    -1.894310116768e-06 2.932238858193e-04 5.662441253662e-06 5.440609451294e+03
     1.914000000000e+05 3.725290298462e-09 2.852420559771e+00 9.313225746155e-09
     9.693541065866e-01 2.208437500000e+02-6.750283644980e-02-5.685951128402e-09
     2.035799084918e-10 1.000000000000e+00 1.404000000000e+03                   
     1.070000000000e+02 0.000000000000e+00-4.190951585770e-09-4.656612873077e-09
     1.926950000000e+05                                                         
E23 2026 07 21 05 31 35-4.269339842722e-05-1.307398633799e-12 0.000000000000e+00
     6.100000000000e+01 1.003125000000e+02 3.242992226500e-09-2.724192371284e+00
     4.665926098824e-06 1.740616280586e-04 8.402392268181e-06 5.440616353989e+03
     1.890000000000e+05 4.284083843231e-08-1.332241047839e+00-7.450580596924e-09
     9.625504257002e-01 1.612500000000e+02-2.743935148576e+00-5.571303495725e-09
     3.785871982478e-11 1.000000000000e+00 1.404000000000e+03                   
     1.070000000000e+02 0.000000000000e+00 4.656612873077e-10 1.862645149231e-09
     1.926950000000e+05                                                         
E09 2026 07 21 05 31 35-3.009788924828e-04 1.779199010343e-11 3.469446951954e-18
     6.500000000000e+01-3.956250000000e+01 3.100486290556e-09 1.264396900898e+00
    -1.905485987663e-06 4.996905336156e-04 5.727633833885e-06 5.440615230560e+03
     1.914000000000e+05 2.793967723846e-08 2.855576145751e+00-3.539025783539e-08
     9.750914211345e-01 2.215625000000e+02 3.874378753026e-01-5.600590429929e-09
     1.832219176426e-10 1.000000000000e+00 1.404000000000e+03                   
     1.070000000000e+02 0.000000000000e+00 6.984919309616e-10 9.313225746155e-10
     1.926950000000e+05                                                         
E31 2026 07 21 05 31 35-1.580838579684e-04-2.955857780762e-12 0.000000000000e+00
     6.600000000000e+01 1.080625000000e+02 3.191918670510e-09 1.820731619157e+00
     4.917383193970e-06 3.420959692448e-04 9.061768651009e-06 5.440615829468e+03
     1.920000000000e+05 9.313225746155e-09-1.329145134287e+00-9.313225746155e-09
     9.605969195060e-01 1.481875000000e+02-1.399851414619e+00-5.551302662610e-09
     5.357366012941e-11 1.000000000000e+00 1.404000000000e+03                   
     1.070000000000e+02 0.000000000000e+00 3.492459654808e-09 4.190951585770e-09
     1.926950000000e+05                                                         
END OF FILE                                                 COMMENT
