     3.05           N: NAVIGATION       M: MIXED            RINEX VERSION / TYPE
PYRINEXCONV 0.1.2 ALDELTUNES            20260721 142615 UTC PGM / RUN BY / DATE
GAL    9.2500e+01  2.3047e-01  2.8290e-02             O 02  IONOSPHERIC CORR
BDSA   2.1420e-08  7.4506e-08 -8.3447e-07  1.3709e-06 O 24  IONOSPHERIC CORR
BDSB   1.4131e+05 -6.3898e+05  5.1773e+06 -4.3909e+06 O 24  IONOSPHERIC CORR
GPSA   1.1176e-08  2.2352e-08  1.5199e-05  1.5140e-05 O 18  IONOSPHERIC CORR
GPSB   1.0650e+05  1.4746e+05  1.6712e+07  1.6450e+07 O 18  IONOSPHERIC CORR
GAUT  6.5192580223e-09-2.664535259e-15 223800 1404   E02  0 TIME SYSTEM CORR
BDUT  0.0000000000e+00 0.000000000e+00 223200 1072   C24  0 TIME SYSTEM CORR
GPUT  1.3387762010e-09-7.989164885e-13 457500 2428   G18  0 TIME SYSTEM CORR
                                                            END OF HEADER
C31 2026 07 21 14 16 54 7.556289201602e-04-9.076295270916e-12 0.000000000000e+00
     1.000000000000e+00 2.076562500000e+01 4.327323107520e-09 5.308578975051e-01
     8.661299943924e-07 7.339433068410e-04 3.593508154154e-06 5.282667261124e+03
     2.232000000000e+05 4.516914486885e-08 3.187059784690e-02 2.149166539311e-05
     9.410537632380e-01 2.766875000000e+02 1.054977528506e+00 1.162955584625e-06
    -1.321483616526e-11                    1.072000000000e+03                   
     0.000000000000e+00 0.000000000000e+00-6.519258022308e-09-6.519258022308e-09
     2.242140000000e+05 1.000000000000e+00                                      
C19 2026 07 21 14 16 54-9.326015133411e-04 7.975842208907e-13 0.000000000000e+00
     1.000000000000e+00-3.464062500000e+01 3.433000141093e-09 1.315068379157e+00
    -1.563224941492e-06 7.837800076231e-04 7.370021194220e-06 5.282630685806e+03
     2.232000000000e+05 9.406358003616e-08 2.184793934626e+00 3.297347575426e-06
     9.899559547248e-01 2.231406250000e+02-3.202614509864e-01 3.959300635049e-07
     1.957224383395e-10                    1.072000000000e+03                   
     0.000000000000e+00 0.000000000000e+00 4.330649971962e-08 4.330649971962e-08
     2.242140000000e+05 1.000000000000e+00                                      
C21 2026 07 21 14 16 54-8.454548660666e-04 1.064037746801e-12 0.000000000000e+00
     1.000000000000e+00-2.656250000000e+01 3.309066407327e-09-6.749845544903e-01
    -1.333653926849e-06 7.087890990078e-04 7.263384759426e-06 5.282636230469e+03
     2.232000000000e+05-3.725290298462e-08 2.185959113766e+00 1.260638237000e-05
     9.892323647215e-01 2.299687500000e+02 9.311821895330e-02 1.534354626315e-06
     2.046513816944e-10                    1.072000000000e+03                   
     0.000000000000e+00 0.000000000000e+00 5.168840289116e-08 5.168840289116e-08
     2.242140000000e+05 1.000000000000e+00                                      
C24 2026 07 21 14 16 54-5.306338425726e-04-3.572342421876e-11 0.000000000000e+00
     1.000000000000e+00 1.079687500000e+01 4.005166831275e-09 2.350621405754e+00
     5.434267222881e-07 6.246741395444e-04 9.104609489441e-06 5.282659021378e+03
     2.232000000000e+05 2.281740307808e-08-2.018822348511e+00 3.197044134140e-05
     9.436735159726e-01 1.686562500000e+02 5.457574182442e-01-1.010967110838e-07
    -1.392915163365e-10                    1.072000000000e+03                   
     0.000000000000e+00 0.000000000000e+00 1.909211277962e-08 1.909211277962e-08
     2.242140000000e+05 1.000000000000e+00                                      
E04 2026 07 21 14 17 24-1.211890485138e-04 3.356603883731e-11 1.734723475977e-18
     1.160000000000e+02-3.662500000000e+01 3.280850946325e-09 1.210891819076e-02
    -1.743435859680e-06 2.911165356636e-04 5.979090929031e-06 5.440609312057e+03
     2.220000000000e+05-2.421438694000e-08 2.852249145271e+00-7.450580596924e-09
     9.693590351576e-01 2.108125000000e+02-7.019562390664e-02-5.599161798992e-09
     7.643175511796e-11 5.160000000000e+02 1.404000000000e+03                   
     1.070000000000e+02 0.000000000000e+00-4.656612873077e-09-5.122274160385e-09
     2.242440000000e+05                                                         
E25 2026 07 21 14 18 24 2.174318069592e-05 0.000000000000e+00 0.000000000000e+00
     1.170000000000e+02 8.362500000000e+01 2.970480875309e-09-2.321753030333e+00
     4.010275006294e-06 2.969795605168e-04 9.015202522278e-06 5.440613370895e+03
     2.226000000000e+05 4.097819328308e-08-1.329233866120e+00-1.862645149231e-09
     9.606295352646e-01 1.465937500000e+02-1.307426395009e+00-5.507729419038e-09
     4.357324357192e-11 5.160000000000e+02 1.404000000000e+03                   
     1.070000000000e+02 0.000000000000e+00 2.328306436539e-09 2.561137080193e-09
     2.243040000000e+05                                                         
E04 2026 07 21 14 19 04-1.211490016431e-04 3.356603883731e-11 1.734723475977e-18
     1.180000000000e+02-3.709375000000e+01 3.293351467022e-09 1.610082839670e-01
    -1.713633537292e-06 2.910804469138e-04 5.973502993584e-06 5.440609212875e+03
     2.232000000000e+05-2.980232238770e-08 2.852242427551e+00-9.313225746155e-09
     9.693591317102e-01 2.107500000000e+02-7.032382965835e-02-5.599518956726e-09
     7.500312418118e-11 5.160000000000e+02 1.404000000000e+03                   
     1.070000000000e+02 0.000000000000e+00-4.656612873077e-09-5.122274160385e-09
     2.243440000000e+05                                                         
E02 2026 07 21 14 19 35 5.613698158413e-05 2.728484105319e-12 0.000000000000e+00
     1.180000000000e+02 8.415625000000e+01 2.974052452651e-09 1.999371252215e+00
     3.924593329430e-06 2.680122852325e-04 8.424744009972e-06 5.440625133514e+03
     2.232000000000e+05 2.793967723846e-08-1.325943159175e+00-1.490116119385e-08
     9.610047664373e-01 1.579687500000e+02-8.923688662880e-02-5.519872782000e-09
    -1.214336296267e-11 1.000000000000e+00 1.404000000000e+03                   
     1.070000000000e+02 0.000000000000e+00-2.328306436539e-09-3.026798367500e-09
     2.243750000000e+05                                                         
E11 2026 07 21 14 20 54 5.518894526176e-03 6.733102964063e-11-3.469446951954e-18
     1.180000000000e+02-5.168750000000e+01 2.746185818234e-09 4.743434337366e-03
    -2.436339855194e-06 4.138632211834e-04 4.744157195091e-06 5.440604618073e+03
     2.232000000000e+05 3.725290298462e-08 7.693778543044e-01-3.725290298462e-09
     9.945436204709e-01 2.538125000000e+02 1.348012852500e+00-5.514158258253e-09
    -7.678891285216e-11 5.160000000000e+02 1.404000000000e+03                   
     1.070000000000e+02 0.000000000000e+00-1.490116119385e-08-1.583248376846e-08
     2.244540000000e+05                                                         
E25 2026 07 21 14 20 54 2.174312248826e-05 0.000000000000e+00 0.000000000000e+00
     1.180000000000e+02 8.256250000000e+01 2.973338137182e-09-2.248405619645e+00
     3.958120942116e-06 2.969937631860e-04 9.126961231232e-06 5.440612760544e+03
     2.232000000000e+05 4.656612873077e-08-1.329237189870e+00 1.862645149231e-09
     9.606295937813e-01 1.443125000000e+02-1.306388766233e+00-5.502372053025e-09
     4.250177036933e-11 5.160000000000e+02 1.404000000000e+03                   
     1.070000000000e+02 0.000000000000e+00 2.328306436539e-09 2.561137080193e-09
     2.244540000000e+05                                                         
G12 2026 07 21 14 21 36-6.054545228835e-04 5.542233338929e-13 0.000000000000e+00
     6.319522857666e-03 3.805468750000e+01 4.313036798152e-09 2.503048853026e+00
     2.027489244938e-06 8.704697946087e-03 9.638257324696e-06 5.153519360289e+03
     2.025000000000e+05 9.126961231232e-08-1.467532359882e+00 4.563480615616e-08
     9.583109746872e-01 1.906250000000e+02 1.587048328465e+00-8.631910217187e-09
    -5.071639825584e-11 4.313036798152e-09-2.000000000000e+00 3.000000000000e+00
     2.800000000000e+01 4.000000000000e+00-1.257285475731e-08 7.000000000000e+00
    -6.984919309616e-10 7.072230800986e-09 0.000000000000e+00 0.000000000000e+00
     2.244960000000e+05 2.428000000000e+03 0.000000000000e+00                   
G05 2026 07 21 14 23 12-2.352888113819e-04-3.375077994860e-13 0.000000000000e+00
     2.565860748291e-03-4.619140625000e+01 4.156601710574e-09 1.813065473454e-02
    -2.316199243069e-06 5.603697441984e-03 7.780268788338e-06 5.153450394707e+03
     1.701000000000e+05-1.862645149231e-08 1.559802297741e+00 9.313225746155e-10
     9.811633233336e-01 2.414218750000e+02 1.482302350197e+00-8.397436164687e-09
     1.001827444420e-10 4.156601710574e-09-2.000000000000e+00 3.000000000000e+00
     3.000000000000e+01 4.000000000000e+00-1.071020960808e-08 7.000000000000e+00
    -3.783497959375e-10 5.733454599977e-09 0.000000000000e+00 0.000000000000e+00
     2.245920000000e+05 2.428000000000e+03 0.000000000000e+00                   
G25 2026 07 21 14 23 12 4.046857357025e-04-3.229416734030e-12 0.000000000000e+00
    -5.588054656982e-03 3.000781250000e+01 4.541617748037e-09 2.436339959041e+00
     1.566484570503e-06 1.290305523435e-02 9.091570973396e-06 5.153554986230e+03
     1.593000000000e+05 1.275911927223e-07-1.562974660465e+00-1.378357410431e-07
     9.467245493918e-01 1.958515625000e+02 1.161826039701e+00-8.519941267517e-09
    -3.446572134992e-11 4.541617748037e-09-2.000000000000e+00 3.000000000000e+00
     3.100000000000e+01 4.000000000000e+00 5.587935447693e-09 7.000000000000e+00
    -1.891748979688e-09-4.773028194904e-09-1.047737896442e-09 6.402842700481e-10
     2.245920000000e+05 2.428000000000e+03 0.000000000000e+00                   
E16 2026 07 21 14 24 04-4.651554627344e-05-2.501110429876e-12 0.000000000000e+00
     1.130000000000e+02 7.490625000000e+01 2.970838033043e-09-7.198503297071e-01
     3.607943654060e-06 4.904707893729e-04 9.393319487572e-06 5.440615587234e+03
     2.202000000000e+05 5.215406417847e-08-1.332538720946e+00 5.215406417847e-08
     9.625742580987e-01 1.400000000000e+02-2.474311816927e+00-5.453441443440e-09
     6.535986535788e-11 5.160000000000e+02 1.404000000000e+03                   
     1.070000000000e+02 0.000000000000e+00-3.958120942116e-09-2.561137080193e-09
     2.246440000000e+05                                                         
E10 2026 07 21 14 24 55-8.074751240201e-04-2.685851541173e-12 0.000000000000e+00
     1.180000000000e+02-6.012500000000e+01 2.698326681851e-09-5.568336245270e-01
    -2.738088369370e-06 2.859622472897e-04 4.921108484268e-06 5.440600194931e+03
     2.232000000000e+05 3.352761268616e-08 7.679184369881e-01 3.725290298462e-09
     9.974609877967e-01 2.516875000000e+02 2.338370713246e+00-5.498800475683e-09
    -9.107522222000e-11 1.000000000000e+00 1.404000000000e+03                   
     1.070000000000e+02 0.000000000000e+00-1.396983861923e-09-6.984919309616e-10
     2.246950000000e+05                                                         
E06 2026 07 21 14 25 25-3.007976338267e-04-5.130118552188e-12 0.000000000000e+00
     1.170000000000e+02-3.471875000000e+01 3.378712165495e-09-1.766071661528e+00
    -1.749023795128e-06 5.044356221333e-04 5.990266799927e-06 5.440611530304e+03
     2.226000000000e+05-5.215406417847e-08 2.851894459320e+00-4.284083843231e-08
     9.626649809634e-01 2.091875000000e+02 1.389325530322e+00-5.677379342781e-09
     8.964659128322e-11 1.000000000000e+00 1.404000000000e+03                   
     1.070000000000e+02 0.000000000000e+00 1.862645149231e-09 3.259629011154e-09
     2.247250000000e+05                                                         
E04 2026 07 21 14 25 35-1.211289200000e-04 3.356603883731e-11 1.734723475977e-18
     1.190000000000e+02-3.721875000000e+01 3.303351883580e-09 2.354202133283e-01
    -1.693144440651e-06 2.910761395469e-04 5.971640348434e-06 5.440609197617e+03
     2.238000000000e+05-2.048909664154e-08 2.852239056988e+00-2.421438694000e-08
     9.693591126922e-01 2.107812500000e+02-7.035014901751e-02-5.608090742347e-09
     8.143196339671e-11 1.000000000000e+00 1.404000000000e+03                   
     1.070000000000e+02 0.000000000000e+00-4.656612873077e-09-5.122274160385e-09
     2.247350000000e+05                                                         
G29 2026 07 21 14 25 36-2.776700130198e-04 7.350564601438e-12 0.000000000000e+00
    -5.925178527832e-03 5.248828125000e+01 4.560368529083e-09-4.153139892318e-01
     2.655200660229e-06 3.656025801320e-03 5.439855158329e-06 5.153534810115e+03
     1.764000000000e+05 3.166496753693e-08-4.180977182596e-01-1.210719347000e-08
     9.601403617914e-01 2.730742187500e+02 2.869004448545e+00-8.095637879292e-09
     1.082187934614e-10 4.560368529083e-09-2.000000000000e+00 3.000000000000e+00
     3.000000000000e+01 4.000000000000e+00-9.778887033463e-09 7.000000000000e+00
    -9.604264050722e-10 5.355104804039e-09 0.000000000000e+00 0.000000000000e+00
     2.247360000000e+05 2.428000000000e+03 0.000000000000e+00                   
E11 2026 07 21 14 25 54 5.518934922293e-03 6.731681878591e-11-3.469446951954e-18
     1.190000000000e+02-5.215625000000e+01 2.743328556360e-09 7.902107805937e-02
    -2.445653080940e-06 4.139206139371e-04 4.755333065987e-06 5.440604761124e+03
     2.238000000000e+05 4.470348358154e-08 7.693745846825e-01-5.587935447693e-09
     9.945435882867e-01 2.534375000000e+02 1.348120754412e+00-5.516658362393e-09
    -8.107480566251e-11 5.160000000000e+02 1.404000000000e+03                   
     1.070000000000e+02 0.000000000000e+00-1.490116119385e-08-1.583248376846e-08
     2.247540000000e+05                                                         
E36 2026 07 21 14 26 24-5.969643825665e-04-5.314859663486e-12 0.000000000000e+00
     1.150000000000e+02-4.393750000000e+01 2.616894718455e-09-2.089308411396e-01
    -2.177432179451e-06 8.850242011249e-05 5.738809704781e-06 5.440605104446e+03
     2.214000000000e+05-1.490116119385e-08 7.698833393142e-01-7.078051567078e-08
     9.976486202066e-01 2.375625000000e+02 5.830529215574e-01-5.460227440390e-09
    -9.393248409357e-11 5.160000000000e+02 1.404000000000e+03                   
     1.070000000000e+02 0.000000000000e+00 4.423782229424e-09 5.122274160385e-09
     2.247840000000e+05                                                         
E25 2026 07 21 14 26 24 2.174312248826e-05 0.000000000000e+00 0.000000000000e+00
     1.190000000000e+02 8.121875000000e+01 2.976195399056e-09-2.175034626717e+00
     3.891065716743e-06 2.969853812829e-04 9.223818778992e-06 5.440612165451e+03
     2.238000000000e+05 5.215406417847e-08-1.329240509231e+00 9.313225746155e-09
     9.606296596126e-01 1.422812500000e+02-1.305374693364e+00-5.495943213809e-09
     4.107313943255e-11 5.160000000000e+02 1.404000000000e+03                   
     1.070000000000e+02 0.000000000000e+00 2.328306436539e-09 2.561137080193e-09
     2.247840000000e+05                                                         
E02 2026 07 21 14 26 24 5.613861139864e-05 2.742694960034e-12 0.000000000000e+00
     1.190000000000e+02 8.356250000000e+01 2.969409402106e-09 2.073631147815e+00
     3.913417458534e-06 2.679326571524e-04 8.415430784225e-06 5.440625303268e+03
     2.238000000000e+05 2.793967723846e-08-1.325946450740e+00-1.117587089539e-08
     9.610047547340e-01 1.583750000000e+02-8.911191246313e-02-5.522015728406e-09
    -1.321483616526e-11 5.160000000000e+02 1.404000000000e+03                   
     1.070000000000e+02 0.000000000000e+00-2.328306436539e-09-3.026798367500e-09
     2.247840000000e+05                                                         
G18 2026 07 21 14 26 24-2.989628119394e-04 9.027445457832e-12 0.000000000000e+00
    -5.767345428467e-03-1.796875000000e+01 4.334644841071e-09-2.221947983269e+00
    -9.648501873016e-07 6.294639082626e-03 5.252659320831e-06 5.153600293992e+03
     1.683000000000e+05 1.676380634308e-08 5.764776943470e-01-1.387670636177e-07
     9.708441127885e-01 2.838007812500e+02-2.859351213901e+00-8.289217371226e-09
     2.857261873569e-12 4.334644841071e-09-2.000000000000e+00 3.000000000000e+00
     3.000000000000e+01 4.000000000000e+00-8.381903171539e-09 7.000000000000e+00
    -8.731149137020e-11 5.209585651755e-09-8.440110832453e-10-9.313225746155e-10
     2.247840000000e+05 2.428000000000e+03 0.000000000000e+00                   
G05 2026 07 21 14 26 24-2.352898009121e-04-3.410605131648e-13 0.000000000000e+00
     2.400000000000e+01-4.246875000000e+01 4.147315609485e-09 2.808141590255e-01
    -2.032145857811e-06 5.604402977042e-03 8.070841431618e-06 5.153773582458e+03
     2.304000000000e+05-1.862645149231e-08 1.559787951635e+00 2.048909664154e-08
     9.811635186331e-01 2.364687500000e+02 1.482146640854e+00-7.938902115711e-09
     1.125046862718e-10 1.000000000000e+00 3.800000000000e+02 0.000000000000e+00
     2.000000000000e+00 0.000000000000e+00-1.071020960808e-08 2.400000000000e+01
     8.991360000000e+05 4.000000000000e+00                                      
G29 2026 07 21 14 26 24-2.776570618153e-04 7.389644451905e-12 0.000000000000e+00
     9.000000000000e+01 5.809375000000e+01 4.563404369823e-09-1.533519178715e-01
     3.034248948097e-06 3.656383254565e-03 4.969537258148e-06 5.153686916351e+03
     2.304000000000e+05 3.352761268616e-08-4.181125420085e-01-7.450580596924e-09
     9.601405388045e-01 2.798125000000e+02 2.869589316610e+00-8.243914820714e-09
     1.060758470562e-10 1.000000000000e+00 3.800000000000e+02 0.000000000000e+00
     2.000000000000e+00 0.000000000000e+00-9.778887033463e-09 9.000000000000e+01
     8.991360000000e+05 4.000000000000e+00                                      
G21 2026 07 21 14 26 24 3.956239670515e-04-5.343281372916e-12 0.000000000000e+00
     2.320000000000e+02-4.750000000000e+01 4.465900308388e-09 2.335570818242e+00
    -2.305954694748e-06 7.916963659227e-04 8.292496204376e-06 5.153596115112e+03
     2.304000000000e+05-1.862645149231e-08 1.623444848137e+00 9.313225746155e-08
     9.641833436378e-01 2.218437500000e+02-8.504653772967e-02-8.016762501765e-09
     1.950081228711e-10 1.000000000000e+00 3.800000000000e+02 0.000000000000e+00
     2.000000000000e+00 0.000000000000e+00-9.778887033463e-09 4.880000000000e+02
     8.991360000000e+05 4.000000000000e+00                                      
G20 2026 07 21 14 26 24 2.372865565121e-04 1.182343112305e-11 0.000000000000e+00
     7.100000000000e+01-2.381250000000e+01 4.711981987249e-09 2.619551656555e+00
    -1.171603798866e-06 1.908528502099e-03 6.597489118576e-06 5.153612499237e+03
     2.304000000000e+05 9.313225746155e-09 2.629460637076e+00-9.872019290924e-08
     9.620869074214e-01 2.475937500000e+02-1.761861725619e+00-8.072121950566e-09
     1.110760553350e-10 1.000000000000e+00 3.800000000000e+02 0.000000000000e+00
     2.000000000000e+00 0.000000000000e+00-6.984919309616e-09 7.100000000000e+01
     8.991360000000e+05 4.000000000000e+00                                      
G15 2026 07 21 14 26 24 4.301615990698e-04 3.069544618484e-12 0.000000000000e+00
     9.400000000000e+01-1.437500000000e+01 5.143071372424e-09-1.023348202423e+00
    -5.289912223816e-07 1.703054609243e-02 7.145106792450e-06 5.153753536224e+03
     2.304000000000e+05-2.812594175339e-07 2.477172651247e+00 2.104789018631e-07
     9.447318040774e-01 2.346250000000e+02 1.537925166128e+00-8.521069222450e-09
     1.846505485794e-10 1.000000000000e+00 3.800000000000e+02 0.000000000000e+00
     2.800000000000e+00 0.000000000000e+00-1.071020960808e-08 9.400000000000e+01
     8.991360000000e+05 4.000000000000e+00                                      
G12 2026 07 21 14 26 24-6.054532714188e-04 5.684341886081e-13 0.000000000000e+00
     1.200000000000e+01 4.728125000000e+01 4.284464179416e-09 2.765317018782e+00
     2.562999725342e-06 8.705317042768e-03 9.298324584961e-06 5.153704978943e+03
     2.304000000000e+05 4.097819328308e-08-1.467546049869e+00 5.215406417847e-08
     9.583108964211e-01 1.959375000000e+02 1.587316086361e+00-7.684248651229e-09
    -7.607459738377e-11 1.000000000000e+00 3.800000000000e+02 0.000000000000e+00
     2.000000000000e+00 0.000000000000e+00-1.257285475731e-08 1.200000000000e+01
     8.991360000000e+05 4.000000000000e+00                                      
END OF FILE                                                 COMMENT
