     3.05           N: NAVIGATION       M: MIXED            RINEX VERSION / TYPE
PYRINEXCONV 0.1.2 ALDELTUNES            20260721 062157 UTC PGM / RUN BY / DATE
GAL    1.0175e+02  3.3203e-01  2.2858e-02             G 06  IONOSPHERIC CORR
GPSA   9.3132e-09  2.2352e-08  1.5199e-05  1.5140e-05 G 14  IONOSPHERIC CORR
GPSB   1.0035e+05  1.3107e+05  1.6712e+07  1.6318e+07 G 14  IONOSPHERIC CORR
BDSA   2.0489e-08  3.7253e-08 -5.9605e-07  1.0133e-06 G 19  IONOSPHERIC CORR
BDSB   1.3722e+05 -4.9152e+05  4.5875e+06 -4.0632e+06 G 19  IONOSPHERIC CORR
GAUT  6.5192580223e-09-2.664535259e-15 195000 1404   E06  0 TIME SYSTEM CORR
GPUT -3.2887328416e-09 5.373479439e-14 399600 2428   G14  0 TIME SYSTEM CORR
BDUT  0.0000000000e+00 0.000000000e+00 194400 1072   C19  0 TIME SYSTEM CORR
                                                            END OF HEADER
E21 2026 07 21 06 15 35-7.585730636492e-04-2.799538378895e-12 0.000000000000e+00
     6.500000000000e+01 8.396875000000e+01 3.230134548069e-09-2.817542582712e+00
     4.041939973831e-06 1.707910560071e-04 8.506700396538e-06 5.440617650986e+03
     1.914000000000e+05-4.842877388000e-08-1.329062545247e+00 2.048909664154e-08
     9.606204812646e-01 1.580937500000e+02-1.560986084467e+00-5.564160341041e-09
     9.714690370133e-11 1.000000000000e+00 1.404000000000e+03                   
     1.070000000000e+02 0.000000000000e+00 6.984919309616e-10 9.313225746155e-10
     1.953350000000e+05                                                         
C30 2026 07 21 06 16 54 4.927382105961e-04 7.498890397528e-12 0.000000000000e+00
     1.000000000000e+00 1.187500000000e+00 4.315536902291e-09-9.627765328557e-01
    -9.778887033463e-09 4.685263847932e-04 3.783963620663e-06 5.282646198273e+03
     1.944000000000e+05-2.095475792885e-08 3.477552012857e-02 3.978936001658e-05
     9.455214389803e-01 2.746406250000e+02 9.829272360762e-01-1.991644388554e-06
    -2.853690296227e-10                    1.072000000000e+03                   
     0.000000000000e+00 0.000000000000e+00-4.516914486885e-08-4.516914486885e-08
     1.954140000000e+05 1.000000000000e+00                                      
C27 2026 07 21 06 16 54 6.609043339267e-04 4.823696997391e-12 0.000000000000e+00
     1.000000000000e+00 5.468750000000e+00 4.294107438240e-09-8.593533960669e-01
     3.436580300331e-07 6.353700300679e-04 3.734137862921e-06 5.282660392761e+03
     1.944000000000e+05 3.073364496231e-08 7.565614557643e-02 2.423068508506e-05
     9.479107645625e-01 2.748125000000e+02 1.690143171807e+00 1.975743726228e-06
    -2.800116636097e-10                    1.072000000000e+03                   
     0.000000000000e+00 0.000000000000e+00-2.002343535423e-08-2.002343535423e-08
     1.954140000000e+05 1.000000000000e+00                                      
C36 2026 07 21 06 16 54 2.596328267828e-04-4.331646152878e-12 0.000000000000e+00
     1.000000000000e+00 1.807812500000e+01 4.129100565041e-09 2.325468025946e+00
     6.891787052155e-07 8.157768752426e-04 1.003360375762e-05 5.282653972626e+03
     1.944000000000e+05 7.776543498039e-08-2.018527266231e+00 3.838166594505e-05
     9.451402230097e-01 1.503750000000e+02-1.023818697358e+00 1.856809486425e-07
    -1.010756387775e-10                    1.072000000000e+03                   
     0.000000000000e+00 0.000000000000e+00-9.639188647270e-08-9.639188647270e-08
     1.954140000000e+05 1.000000000000e+00                                      
C11 2026 07 21 06 16 54-7.889120606706e-04-2.166089529965e-11 0.000000000000e+00
     1.000000000000e+00-1.812500000000e+00 4.195531903601e-09 2.386004172937e-01
    -1.294538378716e-07 1.699194544926e-04 3.919005393982e-06 5.282639928818e+03
     1.944000000000e+05-6.472691893578e-08 7.445530488230e-02 4.931772127748e-05
     9.504542363597e-01 2.778593750000e+02-6.700743752873e-01 8.059121409041e-07
    -2.664396697103e-10                    1.072000000000e+03                   
     0.000000000000e+00 0.000000000000e+00 1.350417733192e-08 1.350417733192e-08
     1.954140000000e+05 1.000000000000e+00                                      
C28 2026 07 21 06 16 54 5.407066782936e-04 3.915978652458e-12 0.000000000000e+00
     1.000000000000e+00 5.718750000000e+00 4.295893226910e-09-2.622961970220e+00
     3.338791429996e-07 1.223481958732e-04 3.766268491745e-06 5.282633029938e+03
     1.944000000000e+05 9.732320904732e-08 7.533246471096e-02 2.578506246209e-05
     9.477848365742e-01 2.759531250000e+02-2.178417554555e+00 1.660393447766e-06
    -2.025084352892e-10                    1.072000000000e+03                   
     0.000000000000e+00 0.000000000000e+00-2.002343535423e-08-2.002343535423e-08
     1.954140000000e+05 1.000000000000e+00                                      
C19 2026 07 21 06 16 54-9.326253784820e-04 8.286704655802e-13 0.000000000000e+00
     1.000000000000e+00-1.246875000000e+01 3.195490247852e-09-2.586947213649e+00
    -5.965121090412e-07 7.839070167392e-04 7.372349500656e-06 5.282632646561e+03
     1.944000000000e+05 3.771856427193e-08 2.184981193991e+00-1.373235136271e-06
     9.899492969846e-01 2.268437500000e+02-3.187478735169e-01 5.771943996064e-07
     3.953736117551e-10                    1.072000000000e+03                   
     0.000000000000e+00 0.000000000000e+00 4.330649971962e-08 4.330649971962e-08
     1.954140000000e+05 1.000000000000e+00                                      
G30 2026 07 21 06 18 54 3.026449121535e-04 1.330136001343e-11 0.000000000000e+00
     1.020000000000e+02-2.750000000000e+01 5.095569393776e-09-9.533816129710e-01
    -1.257285475731e-06 8.217833121307e-03 7.877126336098e-06 5.153681320190e+03
     2.016000000000e+05 9.499490261078e-08-2.597210167680e+00 1.918524503708e-07
     9.366267083419e-01 2.126875000000e+02-2.258902210470e+00-8.338204462542e-09
    -6.071681481333e-11 1.000000000000e+00 3.800000000000e+02 0.000000000000e+00
     2.000000000000e+00 0.000000000000e+00 4.190951585770e-09 1.020000000000e+02
     7.821360000000e+05 4.000000000000e+00                                      
G14 2026 07 21 06 18 54 7.499782368541e-04 2.273736754432e-13 0.000000000000e+00
     2.280000000000e+02 5.315625000000e+01 4.949491880489e-09-1.549798718355e+00
     2.620741724968e-06 7.365241763182e-03 8.642673492432e-06 5.153657085419e+03
     2.016000000000e+05 8.381903171539e-08-1.524218289353e+00-7.264316082001e-08
     9.416385018347e-01 2.009375000000e+02-2.680509337539e+00-8.118552456011e-09
     1.325055193867e-10 1.000000000000e+00 3.800000000000e+02 0.000000000000e+00
     2.000000000000e+00 0.000000000000e+00-7.916241884232e-09 9.960000000000e+02
     7.821360000000e+05 4.000000000000e+00                                      
G17 2026 07 21 06 18 54-1.762192696333e-04-6.025402399246e-12 0.000000000000e+00
     9.000000000000e+00 4.903125000000e+01 4.773770275265e-09 2.090283509201e+00
     2.602115273476e-06 1.261610374786e-02 4.317611455917e-06 5.153676527023e+03
     2.016000000000e+05 2.011656761169e-07-4.349826660654e-01-9.313225746155e-09
     9.574391947398e-01 2.891562500000e+02-1.098677207333e+00-8.113552247732e-09
    -1.753644474903e-10 1.000000000000e+00 3.800000000000e+02 0.000000000000e+00
     2.000000000000e+00 0.000000000000e+00-1.071020960808e-08 9.000000000000e+00
     7.821360000000e+05 4.000000000000e+00                                      
G02 2026 07 21 06 18 54 1.419833861291e-04 7.275957614183e-12 0.000000000000e+00
     2.500000000000e+01-2.075000000000e+01 4.609477717535e-09 2.343121696241e+00
    -9.033828973770e-07 1.689693063963e-02 4.844740033150e-06 5.153731908798e+03
     2.016000000000e+05 2.887099981308e-07 4.673759923375e-01 1.937150955200e-07
     9.620936456221e-01 2.829062500000e+02-7.358837523978e-01-8.076765001110e-09
    -3.868018261344e-10 1.000000000000e+00 3.800000000000e+02 0.000000000000e+00
     2.000000000000e+00 0.000000000000e+00-1.722946763039e-08 2.500000000000e+01
     7.821360000000e+05 4.000000000000e+00                                      
G22 2026 07 21 06 18 54 4.054326564074e-05 8.071765478235e-12 0.000000000000e+00
     9.100000000000e+01 6.240625000000e+01 4.572333313178e-09 2.703063429373e+00
     3.157183527946e-06 1.184571452904e-02 8.780509233475e-06 5.153722455978e+03
     2.016000000000e+05 1.806765794754e-07-1.447181204700e+00 1.471489667892e-07
     9.568464320374e-01 2.054375000000e+02-9.877782870562e-01-7.838897950136e-09
    -5.714523747137e-12 1.000000000000e+00 3.800000000000e+02 0.000000000000e+00
     2.000000000000e+00 0.000000000000e+00-1.117587089539e-08 9.100000000000e+01
     7.821360000000e+05 4.000000000000e+00                                      
G19 2026 07 21 06 18 54 7.038158364594e-04 4.547473508865e-13 0.000000000000e+00
     4.800000000000e+01 4.734375000000e+01 4.779127641278e-09-2.560077468131e+00
     2.495944499969e-06 1.176446687896e-02 4.906207323074e-06 5.153761194229e+03
     2.016000000000e+05-2.123415470123e-07-3.912187402651e-01-6.705522537231e-08
     9.566053621559e-01 2.855625000000e+02 3.029435360440e+00-8.179626428559e-09
    -3.428714248282e-11 1.000000000000e+00 3.800000000000e+02 0.000000000000e+00
     2.000000000000e+00 0.000000000000e+00-1.536682248116e-08 4.800000000000e+01
     7.821360000000e+05 4.000000000000e+00                                      
E23 2026 07 21 06 20 05-4.270055796951e-05-1.307398633799e-12 0.000000000000e+00
     7.000000000000e+01 9.381250000000e+01 3.198704667460e-09-2.049299584182e+00
     4.410743713379e-06 1.741431187838e-04 8.571892976761e-06 5.440618202209e+03
     1.944000000000e+05-5.587935447693e-09-1.332271475072e+00 4.470348358154e-08
     9.625505500483e-01 1.565625000000e+02-2.749359186532e+00-5.557017186357e-09
     8.464638300447e-11 1.000000000000e+00 1.404000000000e+03                   
     1.070000000000e+02 0.000000000000e+00 4.656612873077e-10 1.862645149231e-09
     1.956050000000e+05                                                         
E33 2026 07 21 06 20 05-2.517557004467e-05-1.932676241267e-12 0.000000000000e+00
     7.000000000000e+01-4.743750000000e+01 2.531176862248e-09 2.419635781828e+00
    -2.438202500343e-06 1.667221076787e-04 6.429851055145e-06 5.440606756210e+03
     1.944000000000e+05-3.911554813385e-08 7.700065448119e-01 1.303851604462e-08
     9.976686855910e-01 2.186250000000e+02-3.027398459138e+00-5.401653571982e-09
    -3.050127050035e-10 1.000000000000e+00 1.404000000000e+03                   
     1.070000000000e+02 0.000000000000e+00-4.423782229424e-09-4.889443516731e-09
     1.956050000000e+05                                                         
E26 2026 07 21 06 20 35 3.675552434288e-04 1.091393642128e-11 0.000000000000e+00
     7.000000000000e+01-4.237500000000e+01 2.661539435229e-09 2.758542073996e+00
    -2.020969986916e-06 9.053235407919e-05 5.934387445450e-06 5.440605693817e+03
     1.944000000000e+05-2.421438694000e-08 7.665673838656e-01-5.587935447693e-08
     9.909309647550e-01 2.228437500000e+02-2.595944676247e+00-5.517015520127e-09
    -2.764400862678e-10 1.000000000000e+00 1.404000000000e+03                   
     1.070000000000e+02 0.000000000000e+00-5.122274160385e-09-5.587935447693e-09
     1.956350000000e+05                                                         
G01 2026 07 21 06 20 48 2.170315419789e-04-9.634959496907e-12 0.000000000000e+00
    -1.117229461670e-03-2.564843750000e+01 4.646443543024e-09 6.786723551877e-01
    -1.356936991215e-06 1.827183994465e-03 5.745328962803e-06 5.153617600205e+03
     1.746000000000e+05-9.313225746155e-10 6.292672102708e-01-3.259629011154e-08
     9.571115413203e-01 2.650117187500e+02 1.954233154798e-01-8.066708102822e-09
    -3.005482333260e-10 4.646443543024e-09-2.000000000000e+00 3.000000000000e+00
     2.900000000000e+01 4.000000000000e+00-8.847564458847e-09 7.000000000000e+00
    -2.910383045673e-10 5.646143108606e-09-5.529727786779e-10-6.693881005049e-10
     1.956480000000e+05 2.428000000000e+03 0.000000000000e+00                   
E06 2026 07 21 06 20 54-3.006533370353e-04-5.030642569182e-12 0.000000000000e+00
     7.000000000000e+01-4.084375000000e+01 3.290851362883e-09 1.024307768427e+00
    -1.849606633186e-06 5.052631022409e-04 5.614012479782e-06 5.440611511230e+03
     1.944000000000e+05 7.450580596924e-09 2.852053918854e+00 1.862645149231e-09
     9.626606814471e-01 2.189375000000e+02 1.386015818608e+00-5.750596678291e-09
     1.910793877949e-10 5.160000000000e+02 1.404000000000e+03                   
     1.070000000000e+02 0.000000000000e+00 2.328306436539e-09 3.725290298462e-09
     1.956540000000e+05                                                         
E09 2026 07 21 06 20 54-3.009251668118e-04 1.787725523172e-11 3.469446951954e-18
     7.000000000000e+01-4.084375000000e+01 3.088700085328e-09 1.636056822894e+00
    -1.890584826469e-06 4.996088100597e-04 5.731359124184e-06 5.440615533829e+03
     1.944000000000e+05 3.725290298462e-08 2.855559462634e+00-1.490116119385e-08
     9.750919463221e-01 2.219687500000e+02 3.877044072733e-01-5.613448108360e-09
     1.750072897561e-10 5.160000000000e+02 1.404000000000e+03                   
     1.070000000000e+02 0.000000000000e+00 6.984919309616e-10 9.313225746155e-10
     1.956540000000e+05                                                         
E26 2026 07 21 06 21 05 3.675618208945e-04 1.091393642128e-11 0.000000000000e+00
     7.100000000000e+01-4.237500000000e+01 2.661539435229e-09 2.758542073996e+00
    -2.020969986916e-06 9.053235407919e-05 5.934387445450e-06 5.440605693817e+03
     1.944000000000e+05-1.303851604462e-08 7.665640615787e-01-6.146728992462e-08
     9.909307497061e-01 2.228437500000e+02-2.595413566764e+00-5.517015520127e-09
    -2.710827202548e-10 1.000000000000e+00 1.404000000000e+03                   
     1.070000000000e+02 0.000000000000e+00-5.122274160385e-09-5.587935447693e-09
     1.956650000000e+05                                                         
G30 2026 07 21 06 21 36 3.026208723895e-04 1.329070187239e-11 0.000000000000e+00
     3.701686859131e-03-2.192968750000e+01 5.097712340181e-09-1.216021699316e+00
    -1.246109604836e-06 8.218937087804e-03 7.903203368187e-06 5.153542055023e+03
     1.107000000000e+05 1.452863216400e-07-2.597195307358e+00 1.229345798492e-07
     9.366270645625e-01 2.134453125000e+02-2.258804522652e+00-8.059743527005e-09
    -4.518045337580e-11 5.097712340181e-09-2.000000000000e+00 3.000000000000e+00
     3.100000000000e+01 4.000000000000e+00 4.190951585770e-09 7.000000000000e+00
    -1.513399183750e-09-3.259629011154e-09 2.328306436539e-09 3.230525180697e-09
     1.956960000000e+05 2.428000000000e+03 0.000000000000e+00                   
G14 2026 07 21 06 21 36 7.499779458158e-04 2.557953848736e-13 0.000000000000e+00
    -3.282070159912e-03 5.808593750000e+01 4.971457081142e-09-1.812418756870e+00
     2.956017851830e-06 7.364144199528e-03 8.785165846348e-06 5.153566057914e+03
     1.152000000000e+05 6.984919309616e-08-1.524203728198e+00-6.146728992462e-08
     9.416382626476e-01 2.006640625000e+02-2.680439830644e+00-8.221535980596e-09
     1.428630936784e-10 4.971457081142e-09-2.000000000000e+00 3.000000000000e+00
     3.100000000000e+01 4.000000000000e+00-7.916241884232e-09 7.000000000000e+00
    -2.619344741106e-10 5.005858838558e-09-1.455191522837e-09-1.076841726899e-09
     1.956960000000e+05 2.428000000000e+03 0.000000000000e+00                   
G17 2026 07 21 06 21 36-1.762084430084e-04-6.036060540282e-12 0.000000000000e+00
     3.508567810059e-03 4.568359375000e+01 4.778770483544e-09 1.827803561184e+00
     2.356246113777e-06 1.261504000286e-02 4.746951162815e-06 5.153547111464e+03
     1.728000000000e+05 2.263113856316e-07-4.349681466035e-01-3.166496753693e-08
     9.574394507505e-01 2.844765625000e+02-1.098740390765e+00-8.205106724823e-09
    -1.607209803882e-10 4.778770483544e-09-2.000000000000e+00 3.000000000000e+00
     2.800000000000e+01 4.000000000000e+00-1.071020960808e-08 7.000000000000e+00
    -8.440110832453e-10 6.722984835505e-09 0.000000000000e+00 0.000000000000e+00
     1.956960000000e+05 2.428000000000e+03 0.000000000000e+00                   
E04 2026 07 21 06 22 05-1.221743295901e-04 3.355182798259e-11 0.000000000000e+00
     6.700000000000e+01-4.246875000000e+01 3.155488581622e-09 2.647742845734e+00
    -1.899898052216e-06 2.930443733931e-04 5.640089511871e-06 5.440609802246e+03
     1.926000000000e+05 4.284083843231e-08 2.852413615299e+00 9.313225746155e-09
     9.693544913340e-01 2.223750000000e+02-6.753111758211e-02-5.659521456071e-09
     2.039370662260e-10 1.000000000000e+00 1.404000000000e+03                   
     1.070000000000e+02 0.000000000000e+00-4.190951585770e-09-4.656612873077e-09
     1.957250000000e+05                                                         
E31 2026 07 21 06 22 05-1.580872922204e-04-2.941646926047e-12 0.000000000000e+00
     6.800000000000e+01 1.033750000000e+02 3.208705084018e-09 1.970774208599e+00
     4.686415195465e-06 3.427705960348e-04 8.840113878250e-06 5.440614240646e+03
     1.932000000000e+05 1.490116119385e-08-1.329151806656e+00-7.450580596924e-09
     9.605969633936e-01 1.527187500000e+02-1.401123990964e+00-5.553088451281e-09
     5.678807973718e-11 1.000000000000e+00 1.404000000000e+03                   
     1.070000000000e+02 0.000000000000e+00 3.492459654808e-09 4.190951585770e-09
     1.957250000000e+05                                                         
E28 2026 07 21 06 22 05-6.031838711351e-05-2.856381797756e-12 0.000000000000e+00
     6.500000000000e+01-4.243750000000e+01 3.455143920613e-09 8.353221417201e-01
    -1.924112439156e-06 2.854741178453e-04 5.289912223816e-06 5.440611021042e+03
     1.914000000000e+05 6.146728992462e-08 2.870114239413e+00 1.490116119385e-08
     9.490537205140e-01 2.218437500000e+02 1.961960943480e+00-5.815599385915e-09
     2.028655930234e-10 1.000000000000e+00 1.404000000000e+03                   
     1.070000000000e+02 0.000000000000e+00 9.313225746155e-10 1.862645149231e-09
     1.957250000000e+05                                                         
E09 2026 07 21 06 22 05-3.009144566022e-04 1.787725523172e-11 3.469446951954e-18
     7.100000000000e+01-4.087500000000e+01 3.085485665720e-09 1.710436765551e+00
    -1.883134245872e-06 4.996038042009e-04 5.736947059631e-06 5.440615543365e+03
     1.950000000000e+05 3.725290298462e-08 2.855556087682e+00-1.490116119385e-08
     9.750920531151e-01 2.220312500000e+02 3.877097410727e-01-5.612733792891e-09
     1.753644474903e-10 1.000000000000e+00 1.404000000000e+03                   
     1.070000000000e+02 0.000000000000e+00 6.984919309616e-10 9.313225746155e-10
     1.957250000000e+05                                                         
E06 2026 07 21 06 22 05-3.006564802490e-04-5.030642569182e-12 0.000000000000e+00
     7.100000000000e+01-4.090625000000e+01 3.279779473123e-09 1.098617704603e+00
    -1.851469278336e-06 5.052617052570e-04 5.615875124931e-06 5.440611583710e+03
     1.950000000000e+05 2.421438694000e-08 2.852050406387e+00-3.725290298462e-09
     9.626608540715e-01 2.192500000000e+02 1.386091498286e+00-5.738810473063e-09
     1.917937032633e-10 1.000000000000e+00 1.404000000000e+03                   
     1.070000000000e+02 0.000000000000e+00 2.328306436539e-09 3.725290298462e-09
     1.957250000000e+05                                                         
E23 2026 07 21 06 22 05-4.270131466910e-05-1.293187779083e-12 0.000000000000e+00
     7.100000000000e+01 9.150000000000e+01 3.186918462232e-09-1.973245510259e+00
     4.315748810768e-06 1.742112217471e-04 8.603557944298e-06 5.440618791580e+03
     1.950000000000e+05-1.490116119385e-08-1.332274857338e+00 4.284083843231e-08
     9.625505924729e-01 1.557812500000e+02-2.751027767486e+00-5.553445609015e-09
     8.857511808063e-11 1.000000000000e+00 1.404000000000e+03                   
     1.070000000000e+02 0.000000000000e+00 4.656612873077e-10 1.862645149231e-09
     1.957250000000e+05                                                         
END OF FILE                                                 COMMENT
