     3.05           N: NAVIGATION       M: MIXED            RINEX VERSION / TYPE
PYRINEXCONV 0.1.2 ALDELTUNES            20260721 141611 UTC PGM / RUN BY / DATE
GAL    9.2500e+01  2.3047e-01  2.8290e-02             O 36  IONOSPHERIC CORR
GPSA   9.3132e-09  2.2352e-08  1.5199e-05  1.5140e-05 O 25  IONOSPHERIC CORR
GPSB   1.0035e+05  1.3107e+05  1.6712e+07  1.6318e+07 O 25  IONOSPHERIC CORR
GAUT  6.5192580223e-09-2.664535259e-15 221400 1404   E36  0 TIME SYSTEM CORR
GPUT  6.1118043959e-10 1.133759753e-12 457200 2428   G25  0 TIME SYSTEM CORR
                                                            END OF HEADER
E11 2026 07 21 14 08 24 5.518813733943e-03 6.733102964063e-11-3.469446951954e-18
     1.160000000000e+02-5.184375000000e+01 2.749757395576e-09-1.440673517492e-01
    -2.460554242134e-06 4.138762596995e-04 4.762783646584e-06 5.440604660034e+03
     2.220000000000e+05 3.166496753693e-08 7.693844447504e-01 0.000000000000e+00
     9.945436965427e-01 2.537812500000e+02 1.348052659964e+00-5.512729627317e-09
    -7.321733551020e-11 5.160000000000e+02 1.404000000000e+03                   
     1.070000000000e+02 0.000000000000e+00-1.490116119385e-08-1.583248376846e-08
     2.237040000000e+05                                                         
G18 2026 07 21 14 08 48-2.989628119394e-04 9.027445457832e-12 0.000000000000e+00
    -5.767345428467e-03-1.796875000000e+01 4.334644841071e-09-2.221947983269e+00
    -9.648501873016e-07 6.294639082626e-03 5.252659320831e-06 5.153600293992e+03
     1.683000000000e+05 1.676380634308e-08 5.764776943470e-01-1.387670636177e-07
     9.708441127885e-01 2.838007812500e+02-2.859351213901e+00-8.289217371226e-09
     2.857261873569e-12 4.334644841071e-09-2.000000000000e+00 3.000000000000e+00
     3.000000000000e+01 4.000000000000e+00-8.381903171539e-09 7.000000000000e+00
    -8.731149137020e-11 5.209585651755e-09-8.440110832453e-10-9.313225746155e-10
     2.237280000000e+05 2.428000000000e+03 0.000000000000e+00                   
E02 2026 07 21 14 09 35 5.613523535430e-05 2.728484105319e-12 0.000000000000e+00
     1.170000000000e+02 8.518750000000e+01 2.979409818664e-09 1.925219571591e+00
     3.954395651817e-06 2.681303303689e-04 8.439645171165e-06 5.440624870300e+03
     2.226000000000e+05 2.793967723846e-08-1.325939873461e+00-1.862645149231e-08
     9.610047781407e-01 1.575000000000e+02-8.947012550985e-02-5.517372677861e-09
    -1.071473202588e-11 1.000000000000e+00 1.404000000000e+03                   
     1.070000000000e+02 0.000000000000e+00-2.328306436539e-09-3.026798367500e-09
     2.237750000000e+05                                                         
G12 2026 07 21 14 09 36-6.054545228835e-04 5.542233338929e-13 0.000000000000e+00
     6.319522857666e-03 3.805468750000e+01 4.313036798152e-09 2.503048853026e+00
     2.027489244938e-06 8.704697946087e-03 9.638257324696e-06 5.153519360289e+03
     2.025000000000e+05 9.126961231232e-08-1.467532359882e+00 4.563480615616e-08
     9.583109746872e-01 1.906250000000e+02 1.587048328465e+00-8.631910217187e-09
    -5.071639825584e-11 4.313036798152e-09-2.000000000000e+00 3.000000000000e+00
     2.800000000000e+01 4.000000000000e+00-1.257285475731e-08 7.000000000000e+00
    -6.984919309616e-10 7.072230800986e-09 0.000000000000e+00 0.000000000000e+00
     2.237760000000e+05 2.428000000000e+03 0.000000000000e+00                   
E10 2026 07 21 14 09 54-8.074734359980e-04-2.671640686458e-12 0.000000000000e+00
     1.170000000000e+02-5.803125000000e+01 2.704041205599e-09-6.311572931147e-01
    -2.652406692505e-06 2.857090439647e-04 4.930421710014e-06 5.440599695206e+03
     2.226000000000e+05 2.793967723846e-08 7.679216802775e-01-3.725290298462e-09
     9.974610433876e-01 2.514687500000e+02 2.338308521673e+00-5.494157425138e-09
    -8.750364487804e-11 5.160000000000e+02 1.404000000000e+03                   
     1.070000000000e+02 0.000000000000e+00-1.396983861923e-09-6.984919309616e-10
     2.237940000000e+05                                                         
E11 2026 07 21 14 10 54 5.518854130059e-03 6.733102964063e-11-3.469446951954e-18
     1.170000000000e+02-5.159375000000e+01 2.748328764639e-09-6.962343129538e-02
    -2.441927790642e-06 4.138459917158e-04 4.744157195091e-06 5.440604583740e+03
     2.226000000000e+05 3.166496753693e-08 7.693811370926e-01 0.000000000000e+00
     9.945436541181e-01 2.539687500000e+02 1.347994210535e+00-5.512729627317e-09
    -7.393165097859e-11 5.160000000000e+02 1.404000000000e+03                   
     1.070000000000e+02 0.000000000000e+00-1.490116119385e-08-1.583248376846e-08
     2.238540000000e+05                                                         
G05 2026 07 21 14 13 36-2.352888113819e-04-3.375077994860e-13 0.000000000000e+00
     2.565860748291e-03-4.619140625000e+01 4.156601710574e-09 1.813065473454e-02
    -2.316199243069e-06 5.603697441984e-03 7.780268788338e-06 5.153450394707e+03
     1.701000000000e+05-1.862645149231e-08 1.559802297741e+00 9.313225746155e-10
     9.811633233336e-01 2.414218750000e+02 1.482302350197e+00-8.397436164687e-09
     1.001827444420e-10 4.156601710574e-09-2.000000000000e+00 3.000000000000e+00
     3.000000000000e+01 4.000000000000e+00-1.071020960808e-08 7.000000000000e+00
    -3.783497959375e-10 5.733454599977e-09 0.000000000000e+00 0.000000000000e+00
     2.240160000000e+05 2.428000000000e+03 0.000000000000e+00                   
G05 2026 07 21 14 13 54-2.352898009121e-04-3.410605131648e-13 0.000000000000e+00
     2.400000000000e+01-4.246875000000e+01 4.147315609485e-09 2.808141590255e-01
    -2.032145857811e-06 5.604402977042e-03 8.070841431618e-06 5.153773582458e+03
     2.304000000000e+05-1.862645149231e-08 1.559787951635e+00 2.048909664154e-08
     9.811635186331e-01 2.364687500000e+02 1.482146640854e+00-7.938902115711e-09
     1.125046862718e-10 1.000000000000e+00 3.800000000000e+02 0.000000000000e+00
     2.000000000000e+00 0.000000000000e+00-1.071020960808e-08 2.400000000000e+01
     8.961360000000e+05 4.000000000000e+00                                      
G29 2026 07 21 14 13 54-2.776570618153e-04 7.389644451905e-12 0.000000000000e+00
     9.000000000000e+01 5.809375000000e+01 4.563404369823e-09-1.533519178715e-01
     3.034248948097e-06 3.656383254565e-03 4.969537258148e-06 5.153686916351e+03
     2.304000000000e+05 3.352761268616e-08-4.181125420085e-01-7.450580596924e-09
     9.601405388045e-01 2.798125000000e+02 2.869589316610e+00-8.243914820714e-09
     1.060758470562e-10 1.000000000000e+00 3.800000000000e+02 0.000000000000e+00
     2.000000000000e+00 0.000000000000e+00-9.778887033463e-09 9.000000000000e+01
     8.961360000000e+05 4.000000000000e+00                                      
G25 2026 07 21 14 13 54 4.046801477671e-04-3.183231456205e-12 0.000000000000e+00
     8.100000000000e+01 3.350000000000e+01 4.531617331480e-09 2.699019607812e+00
     1.724809408188e-06 1.290189649444e-02 9.311363101006e-06 5.153667339325e+03
     2.304000000000e+05 1.303851604462e-07-1.562988481384e+00-6.332993507385e-08
     9.467246393613e-01 1.887500000000e+02 1.161696325681e+00-7.767466403296e-09
    -5.643092200298e-11 1.000000000000e+00 3.800000000000e+02 0.000000000000e+00
     2.000000000000e+00 0.000000000000e+00 5.587935447693e-09 8.100000000000e+01
     8.961360000000e+05 4.000000000000e+00                                      
G12 2026 07 21 14 13 54-6.054532714188e-04 5.684341886081e-13 0.000000000000e+00
     1.200000000000e+01 4.728125000000e+01 4.284464179416e-09 2.765317018782e+00
     2.562999725342e-06 8.705317042768e-03 9.298324584961e-06 5.153704978943e+03
     2.304000000000e+05 4.097819328308e-08-1.467546049869e+00 5.215406417847e-08
     9.583108964211e-01 1.959375000000e+02 1.587316086361e+00-7.684248651229e-09
    -7.607459738377e-11 1.000000000000e+00 3.800000000000e+02 0.000000000000e+00
     2.000000000000e+00 0.000000000000e+00-1.257285475731e-08 1.200000000000e+01
     8.961360000000e+05 4.000000000000e+00                                      
G29 2026 07 21 14 15 12-2.776700130198e-04 7.350564601438e-12 0.000000000000e+00
    -5.925178527832e-03 5.248828125000e+01 4.560368529083e-09-4.153139892318e-01
     2.655200660229e-06 3.656025801320e-03 5.439855158329e-06 5.153534810115e+03
     1.764000000000e+05 3.166496753693e-08-4.180977182596e-01-1.210719347000e-08
     9.601403617914e-01 2.730742187500e+02 2.869004448545e+00-8.095637879292e-09
     1.082187934614e-10 4.560368529083e-09-2.000000000000e+00 3.000000000000e+00
     3.000000000000e+01 4.000000000000e+00-9.778887033463e-09 7.000000000000e+00
    -9.604264050722e-10 5.355104804039e-09 0.000000000000e+00 0.000000000000e+00
     2.241120000000e+05 2.428000000000e+03 0.000000000000e+00                   
G25 2026 07 21 14 15 12 4.046857357025e-04-3.229416734030e-12 0.000000000000e+00
    -5.588054656982e-03 3.000781250000e+01 4.541617748037e-09 2.436339959041e+00
     1.566484570503e-06 1.290305523435e-02 9.091570973396e-06 5.153554986230e+03
     1.593000000000e+05 1.275911927223e-07-1.562974660465e+00-1.378357410431e-07
     9.467245493918e-01 1.958515625000e+02 1.161826039701e+00-8.519941267517e-09
    -3.446572134992e-11 4.541617748037e-09-2.000000000000e+00 3.000000000000e+00
     3.100000000000e+01 4.000000000000e+00 5.587935447693e-09 7.000000000000e+00
    -1.891748979688e-09-4.773028194904e-09-1.047737896442e-09 6.402842700481e-10
     2.241120000000e+05 2.428000000000e+03 0.000000000000e+00                   
G20 2026 07 21 14 15 12 2.372651943006e-04 1.183053655041e-11 0.000000000000e+00
    -1.479625701904e-03-2.466406250000e+01 4.678766317969e-09 2.356802793473e+00
    -1.228414475918e-06 1.908916747198e-03 6.722286343575e-06 5.153610237918e+03
     1.737000000000e+05-7.450580596924e-09 2.629475266988e+00-5.867332220078e-08
     9.620867962396e-01 2.494765625000e+02-1.761669008105e+00-8.288860213492e-09
     9.571827276455e-11 4.678766317969e-09-3.000000000000e+00 2.000000000000e+00
     3.000000000000e+01 4.000000000000e+00-6.984919309616e-09 7.000000000000e+00
    -1.455191522837e-10 4.220055416226e-09 2.095475792885e-09 2.066371962428e-09
     2.241120000000e+05 2.428000000000e+03 0.000000000000e+00                   
E04 2026 07 21 14 15 54-1.211890485138e-04 3.356603883731e-11 1.734723475977e-18
     1.160000000000e+02-3.662500000000e+01 3.280850946325e-09 1.210891819076e-02
    -1.743435859680e-06 2.911165356636e-04 5.979090929031e-06 5.440609312057e+03
     2.220000000000e+05-2.421438694000e-08 2.852249145271e+00-7.450580596924e-09
     9.693590351576e-01 2.108125000000e+02-7.019562390664e-02-5.599161798992e-09
     7.643175511796e-11 5.160000000000e+02 1.404000000000e+03                   
     1.070000000000e+02 0.000000000000e+00-4.656612873077e-09-5.122274160385e-09
     2.241540000000e+05                                                         
E16 2026 07 21 14 15 55-4.651554627344e-05-2.501110429876e-12 0.000000000000e+00
     1.130000000000e+02 7.490625000000e+01 2.970838033043e-09-7.198503297071e-01
     3.607943654060e-06 4.904707893729e-04 9.393319487572e-06 5.440615587234e+03
     2.202000000000e+05 5.215406417847e-08-1.332538720946e+00 5.215406417847e-08
     9.625742580987e-01 1.400000000000e+02-2.474311816927e+00-5.453441443440e-09
     6.535986535788e-11 1.000000000000e+00 1.404000000000e+03                   
     1.070000000000e+02 0.000000000000e+00-3.958120942116e-09-2.561137080193e-09
     2.241550000000e+05                                                         
E10 2026 07 21 14 16 05-8.074751240201e-04-2.685851541173e-12 0.000000000000e+00
     1.180000000000e+02-6.012500000000e+01 2.698326681851e-09-5.568336245270e-01
    -2.738088369370e-06 2.859622472897e-04 4.921108484268e-06 5.440600194931e+03
     2.232000000000e+05 3.352761268616e-08 7.679184369881e-01 3.725290298462e-09
     9.974609877967e-01 2.516875000000e+02 2.338370713246e+00-5.498800475683e-09
    -9.107522222000e-11 1.000000000000e+00 1.404000000000e+03                   
     1.070000000000e+02 0.000000000000e+00-1.396983861923e-09-6.984919309616e-10
     2.241650000000e+05                                                         
E25 2026 07 21 14 16 24 2.174318069592e-05 0.000000000000e+00 0.000000000000e+00
     1.170000000000e+02 8.362500000000e+01 2.970480875309e-09-2.321753030333e+00
     4.010275006294e-06 2.969795605168e-04 9.015202522278e-06 5.440613370895e+03
     2.226000000000e+05 4.097819328308e-08-1.329233866120e+00-1.862645149231e-09
     9.606295352646e-01 1.465937500000e+02-1.307426395009e+00-5.507729419038e-09
     4.357324357192e-11 5.160000000000e+02 1.404000000000e+03                   
     1.070000000000e+02 0.000000000000e+00 2.328306436539e-09 2.561137080193e-09
     2.241840000000e+05                                                         
E36 2026 07 21 14 16 24-5.969643825665e-04-5.314859663486e-12 0.000000000000e+00
     1.150000000000e+02-4.393750000000e+01 2.616894718455e-09-2.089308411396e-01
    -2.177432179451e-06 8.850242011249e-05 5.738809704781e-06 5.440605104446e+03
     2.214000000000e+05-1.490116119385e-08 7.698833393142e-01-7.078051567078e-08
     9.976486202066e-01 2.375625000000e+02 5.830529215574e-01-5.460227440390e-09
    -9.393248409357e-11 5.160000000000e+02 1.404000000000e+03                   
     1.070000000000e+02 0.000000000000e+00 4.423782229424e-09 5.122274160385e-09
     2.241840000000e+05                                                         
E11 2026 07 21 14 16 24 5.518894526176e-03 6.733102964063e-11-3.469446951954e-18
     1.180000000000e+02-5.168750000000e+01 2.746185818234e-09 4.743434337366e-03
    -2.436339855194e-06 4.138632211834e-04 4.744157195091e-06 5.440604618073e+03
     2.232000000000e+05 3.725290298462e-08 7.693778543044e-01-3.725290298462e-09
     9.945436204709e-01 2.538125000000e+02 1.348012852500e+00-5.514158258253e-09
    -7.678891285216e-11 5.160000000000e+02 1.404000000000e+03                   
     1.070000000000e+02 0.000000000000e+00-1.490116119385e-08-1.583248376846e-08
     2.241840000000e+05                                                         
E02 2026 07 21 14 16 24 5.613698158413e-05 2.728484105319e-12 0.000000000000e+00
     1.180000000000e+02 8.415625000000e+01 2.974052452651e-09 1.999371252215e+00
     3.924593329430e-06 2.680122852325e-04 8.424744009972e-06 5.440625133514e+03
     2.232000000000e+05 2.793967723846e-08-1.325943159175e+00-1.490116119385e-08
     9.610047664373e-01 1.579687500000e+02-8.923688662880e-02-5.519872782000e-09
    -1.214336296267e-11 5.160000000000e+02 1.404000000000e+03                   
     1.070000000000e+02 0.000000000000e+00-2.328306436539e-09-3.026798367500e-09
     2.241840000000e+05                                                         
END OF FILE                                                 COMMENT
