     3.05           N: NAVIGATION       M: MIXED            RINEX VERSION / TYPE
PYRINEXCONV 0.1.2 ALDELTUNES            20260721 060150 UTC PGM / RUN BY / DATE
GAL    1.0175e+02  3.3203e-01  2.2858e-02             G 06  IONOSPHERIC CORR
GPSA   9.3132e-09  2.2352e-08  1.5199e-05  1.5140e-05 G 14  IONOSPHERIC CORR
GPSB   1.0035e+05  1.3107e+05  1.6712e+07  1.6318e+07 G 14  IONOSPHERIC CORR
BDSA   2.0489e-08  2.2352e-08 -5.3644e-07  9.5367e-07 F 19  IONOSPHERIC CORR
BDSB   1.3722e+05 -4.4237e+05  4.3254e+06 -3.8666e+06 F 19  IONOSPHERIC CORR
GAUT  6.5192580223e-09-2.664535259e-15 193800 1404   E06  0 TIME SYSTEM CORR
GPUT -3.2887328416e-09 5.373479439e-14 399600 2428   G14  0 TIME SYSTEM CORR
BDUT  0.0000000000e+00 0.000000000e+00 190800 1072   C19  0 TIME SYSTEM CORR
                                                            END OF HEADER
E13 2026 07 21 05 52 35-5.992822116241e-05-8.952838470577e-13 0.000000000000e+00
     6.800000000000e+01-5.137500000000e+01 2.552963484034e-09 3.494213099087e-01
    -2.382323145866e-06 5.486141890287e-05 6.061047315598e-06 5.440605804443e+03
     1.914000000000e+05 9.313225746155e-09 7.700408985172e-01-7.450580596924e-09
     9.976514875261e-01 2.258750000000e+02 2.052853355982e-01-5.442369553680e-09
    -2.360812623036e-10 1.000000000000e+00 1.404000000000e+03                   
     1.070000000000e+02 0.000000000000e+00 3.958120942116e-09 4.190951585770e-09
     1.939550000000e+05                                                         
C27 2026 07 21 05 52 54 6.608873372898e-04 4.875211345734e-12 0.000000000000e+00
     1.000000000000e+00-2.437500000000e+00 4.268392081377e-09-1.348262540432e+00
    -1.587904989719e-07 6.346796872094e-04 3.719236701727e-06 5.282658229828e+03
     1.908000000000e+05-3.119930624962e-08 7.568235082798e-02 3.977445885539e-05
     9.479120928921e-01 2.750312500000e+02 1.691492785418e+00 2.002670562125e-06
    -3.214419607765e-10                    1.072000000000e+03                   
     0.000000000000e+00 0.000000000000e+00-2.002343535423e-08-2.002343535423e-08
     1.939740000000e+05 1.000000000000e+00                                      
C30 2026 07 21 05 52 54 4.927119007334e-04 7.579714633721e-12 0.000000000000e+00
     1.000000000000e+00 8.125000000000e-01 4.278035340201e-09-1.449826612629e+00
    -2.654269337654e-08 4.686597967520e-04 3.840308636427e-06 5.282646724701e+03
     1.908000000000e+05-3.539025783539e-08 3.480146936946e-02 3.549642860889e-05
     9.455224015804e-01 2.767656250000e+02 9.824146559137e-01-1.968054834526e-06
    -2.850118718885e-10                    1.072000000000e+03                   
     0.000000000000e+00 0.000000000000e+00-4.516914486885e-08-4.516914486885e-08
     1.939740000000e+05 1.000000000000e+00                                      
C36 2026 07 21 05 52 54 2.596488920972e-04-4.279243626115e-12 0.000000000000e+00
     1.000000000000e+00 2.190625000000e+01 4.125528987699e-09 1.836934866156e+00
     9.578652679920e-07 8.149991044775e-04 1.050112769008e-05 5.282656148911e+03
     1.908000000000e+05 3.585591912270e-08-2.018502472696e+00 4.287157207727e-05
     9.451407686782e-01 1.432812500000e+02-1.022845103433e+00 2.115563121696e-07
    -1.410773050075e-10                    1.072000000000e+03                   
     0.000000000000e+00 0.000000000000e+00-9.639188647270e-08-9.639188647270e-08
     1.939740000000e+05 1.000000000000e+00                                      
C37 2026 07 21 05 52 54-9.072719840333e-04 6.924238959982e-12 0.000000000000e+00
     1.000000000000e+00 1.204687500000e+01 4.171245177676e-09 2.782990071279e+00
     6.533227860928e-07 7.134907646105e-04 9.797513484955e-06 5.282671453476e+03
     1.908000000000e+05-2.235174179077e-08-2.018638954175e+00 4.318868741393e-05
     9.451549414285e-01 1.549375000000e+02-3.737698741127e-01 7.715071363690e-08
    -3.535861568541e-11                    1.072000000000e+03                   
     0.000000000000e+00 0.000000000000e+00-7.823109626770e-08-7.823109626770e-08
     1.939740000000e+05 1.000000000000e+00                                      
C19 2026 07 21 05 52 54-9.326281724498e-04 8.535394613318e-13 0.000000000000e+00
     1.000000000000e+00-1.454687500000e+01 3.231920336740e-09-3.074938024357e+00
    -6.747432053089e-07 7.844705833122e-04 7.526483386755e-06 5.282631372452e+03
     1.908000000000e+05 3.445893526077e-08 2.185004919597e+00-3.527384251356e-06
     9.899478326036e-01 2.224531250000e+02-3.183201396772e-01 6.010125345845e-07
     3.975165581602e-10                    1.072000000000e+03                   
     0.000000000000e+00 0.000000000000e+00 4.330649971962e-08 4.330649971962e-08
     1.939740000000e+05 1.000000000000e+00                                      
G07 2026 07 21 05 53 54-2.079098485410e-04-3.751665644813e-12 0.000000000000e+00
     9.700000000000e+01-2.071875000000e+01 4.741626079187e-09-1.695767174572e+00
    -9.015202522278e-07 2.093818434514e-02 7.875263690948e-06 5.153584897995e+03
     1.944000000000e+05 4.228204488754e-07-2.586084121241e+00 1.657754182816e-07
     9.513214629746e-01 2.134062500000e+02-1.955170504928e+00-7.871042146213e-09
     1.142904749427e-11 1.000000000000e+00 3.800000000000e+02 0.000000000000e+00
     2.000000000000e+00 0.000000000000e+00-1.071020960808e-08 9.700000000000e+01
     7.761360000000e+05 4.000000000000e+00                                      
G30 2026 07 21 05 53 54 3.025494515896e-04 1.330136001343e-11 0.000000000000e+00
     9.900000000000e+01-2.796875000000e+01 5.111641491814e-09-2.003574362149e+00
    -1.674517989159e-06 8.217569906265e-03 7.912516593933e-06 5.153681093216e+03
     1.944000000000e+05 1.247972249985e-07-2.597151349596e+00 5.587935447693e-09
     9.366274792998e-01 2.088437500000e+02-2.258889940976e+00-8.182126532698e-09
     3.928735076157e-12 1.000000000000e+00 3.800000000000e+02 0.000000000000e+00
     2.000000000000e+00 0.000000000000e+00 4.190951585770e-09 9.900000000000e+01
     7.761360000000e+05 4.000000000000e+00                                      
G14 2026 07 21 05 53 54 7.499763742089e-04 2.273736754432e-13 0.000000000000e+00
     2.270000000000e+02 6.125000000000e+01 4.906990110120e-09-2.599717998404e+00
     3.017485141754e-06 7.363637676463e-03 9.743496775627e-06 5.153661857605e+03
     1.944000000000e+05-2.048909664154e-08-1.524159444936e+00-1.657754182816e-07
     9.416377923194e-01 1.834687500000e+02-2.680783462054e+00-8.087836890870e-09
     4.500187450871e-11 1.000000000000e+00 3.800000000000e+02 0.000000000000e+00
     2.000000000000e+00 0.000000000000e+00-7.916241884232e-09 9.950000000000e+02
     7.761360000000e+05 4.000000000000e+00                                      
G08 2026 07 21 05 53 54 3.939843736589e-04-9.208633855451e-12 0.000000000000e+00
     8.200000000000e+01 5.553125000000e+01 5.257361847366e-09 1.030811823210e+00
     3.173947334290e-06 1.168476371095e-02 5.075708031654e-06 5.153750621796e+03
     1.944000000000e+05 5.587935447693e-09-5.417054526179e-01 1.657754182816e-07
     9.417689063523e-01 2.702812500000e+02 5.448627546008e-01-8.641074221140e-09
    -2.032227507576e-10 1.000000000000e+00 3.800000000000e+02 0.000000000000e+00
     2.000000000000e+00 0.000000000000e+00 4.656612873077e-09 8.200000000000e+01
     7.761360000000e+05 4.000000000000e+00                                      
G17 2026 07 21 05 53 54-1.761759631336e-04-6.025402399246e-12 0.000000000000e+00
     7.000000000000e+00 4.365625000000e+01 4.868417074827e-09 1.040159025633e+00
     1.991167664528e-06 1.261625194456e-02 4.634261131287e-06 5.153675146103e+03
     1.944000000000e+05 6.705522537231e-08-4.349241727490e-01-3.371387720108e-07
     9.574388290103e-01 2.881562500000e+02-1.098734103143e+00-8.423565161015e-09
    -6.964575816824e-11 1.000000000000e+00 3.800000000000e+02 0.000000000000e+00
     2.000000000000e+00 0.000000000000e+00-1.071020960808e-08 7.000000000000e+00
     7.761360000000e+05 4.000000000000e+00                                      
G09 2026 07 21 05 53 54 7.171146571636e-04-7.048583938740e-12 0.000000000000e+00
     7.400000000000e+01-1.984375000000e+01 4.403754862638e-09 1.649337004501e+00
    -1.048669219017e-06 3.670229576528e-03 6.090849637985e-06 5.153696254730e+03
     1.944000000000e+05 1.378357410431e-07 2.624858163673e+00 3.166496753693e-08
     9.667080432703e-01 2.642812500000e+02 2.038203357865e+00-8.018548290436e-09
     2.792973481413e-10 1.000000000000e+00 3.800000000000e+02 0.000000000000e+00
     2.000000000000e+00 0.000000000000e+00 4.656612873077e-10 7.400000000000e+01
     7.761360000000e+05 4.000000000000e+00                                      
E26 2026 07 21 05 56 35 3.675423795357e-04 1.091393642128e-11 0.000000000000e+00
     6.800000000000e+01-4.100000000000e+01 2.641181444380e-09 2.610110207098e+00
    -2.007931470871e-06 9.037402924150e-05 5.926936864853e-06 5.440606010437e+03
     1.932000000000e+05-3.911554813385e-08 7.665740064958e-01-3.725290298462e-08
     9.909314007046e-01 2.229687500000e+02-2.596283407614e+00-5.505229314898e-09
    -2.857261873569e-10 1.000000000000e+00 1.404000000000e+03                   
     1.070000000000e+02 0.000000000000e+00-5.122274160385e-09-5.587935447693e-09
     1.941950000000e+05                                                         
G07 2026 07 21 05 57 36-2.079032128677e-04-3.755218358492e-12 0.000000000000e+00
    -5.875587463379e-03-2.107812500000e+01 4.738947396181e-09-1.958368274151e+00
    -1.118518412113e-06 2.093622175744e-02 8.556991815567e-06 5.153637853118e+03
     1.161000000000e+05 3.129243850708e-07-2.586070385172e+00 6.239861249924e-08
     9.513216685146e-01 2.053984375000e+02-1.955131948259e+00-8.543692256841e-09
     7.393165097859e-11 4.738947396181e-09-2.000000000000e+00 3.000000000000e+00
     3.100000000000e+01 4.000000000000e+00-1.071020960808e-08 7.000000000000e+00
    -9.313225746155e-10 6.984919309616e-09 0.000000000000e+00 0.000000000000e+00
     1.942560000000e+05 2.428000000000e+03 0.000000000000e+00                   
G17 2026 07 21 05 59 12-1.761649618857e-04-6.036060540282e-12 0.000000000000e+00
     2.120018005371e-03 4.628515625000e+01 4.906632952386e-09 7.775775832846e-01
     2.395361661911e-06 1.261565118330e-02 4.561617970467e-06 5.153547761236e+03
     1.728000000000e+05-5.308538675308e-08-4.349087667587e-01-2.337619662285e-07
     9.574384830302e-01 2.892773437500e+02-1.098697298318e+00-7.797589750105e-09
    -9.339674749228e-11 4.906632952386e-09-2.000000000000e+00 3.000000000000e+00
     2.800000000000e+01 4.000000000000e+00-1.071020960808e-08 7.000000000000e+00
    -8.440110832453e-10 6.722984835505e-09 0.000000000000e+00 0.000000000000e+00
     1.943520000000e+05 2.428000000000e+03 0.000000000000e+00                   
E23 2026 07 21 06 00 34-4.269904457033e-05-1.321609488514e-12 0.000000000000e+00
     6.800000000000e+01 9.768750000000e+01 3.220848446980e-09-2.201250210861e+00
     4.569068551064e-06 1.740811858326e-04 8.471310138702e-06 5.440617101669e+03
     1.932000000000e+05 1.303851604462e-08-1.332264704687e+00 4.470348358154e-08
     9.625504842170e-01 1.590000000000e+02-2.746179599918e+00-5.563446025572e-09
     7.536028191537e-11 5.160000000000e+02 1.404000000000e+03                   
     1.070000000000e+02 0.000000000000e+00 4.656612873077e-10 1.862645149231e-09
     1.944340000000e+05                                                         
E06 2026 07 21 06 00 54-3.006472834386e-04-5.030642569182e-12 0.000000000000e+00
     6.800000000000e+01-4.084375000000e+01 3.291208520617e-09 8.754878551947e-01
    -1.857057213783e-06 5.052605411038e-04 5.586072802544e-06 5.440611560822e+03
     1.932000000000e+05 1.490116119385e-08 2.852060777014e+00 0.000000000000e+00
     9.626604810273e-01 2.190937500000e+02 1.386064678609e+00-5.744524996810e-09
     1.914365455291e-10 5.160000000000e+02 1.404000000000e+03                   
     1.070000000000e+02 0.000000000000e+00 2.328306436539e-09 3.725290298462e-09
     1.944540000000e+05                                                         
E09 2026 07 21 06 00 54-3.009466454387e-04 1.784883352229e-11 3.469446951954e-18
     6.800000000000e+01-4.037500000000e+01 3.094057451341e-09 1.487389037049e+00
    -1.896172761917e-06 4.996482748538e-04 5.729496479034e-06 5.440615409851e+03
     1.932000000000e+05 3.725290298462e-08 2.855566158410e+00-2.048909664154e-08
     9.750917429764e-01 2.216875000000e+02 3.876016109457e-01-5.609519373284e-09
     1.767930784271e-10 5.160000000000e+02 1.404000000000e+03                   
     1.070000000000e+02 0.000000000000e+00 6.984919309616e-10 9.313225746155e-10
     1.944540000000e+05                                                         
E26 2026 07 21 06 01 35 3.675487823784e-04 1.091393642128e-11 0.000000000000e+00
     6.900000000000e+01-4.146875000000e+01 2.650824703203e-09 2.684422026050e+00
    -2.004206180573e-06 9.042699821293e-05 5.930662155151e-06 5.440605905533e+03
     1.938000000000e+05-3.352761268616e-08 7.665706988380e-01-4.842877388000e-08
     9.909311827298e-01 2.228750000000e+02-2.596209912072e+00-5.511300996380e-09
    -2.814402945465e-10 1.000000000000e+00 1.404000000000e+03                   
     1.070000000000e+02 0.000000000000e+00-5.122274160385e-09-5.587935447693e-09
     1.944950000000e+05                                                         
G14 2026 07 21 06 01 36 7.499779458158e-04 2.557953848736e-13 0.000000000000e+00
    -3.282070159912e-03 5.808593750000e+01 4.971457081142e-09-1.812418756870e+00
     2.956017851830e-06 7.364144199528e-03 8.785165846348e-06 5.153566057914e+03
     1.152000000000e+05 6.984919309616e-08-1.524203728198e+00-6.146728992462e-08
     9.416382626476e-01 2.006640625000e+02-2.680439830644e+00-8.221535980596e-09
     1.428630936784e-10 4.971457081142e-09-2.000000000000e+00 3.000000000000e+00
     3.100000000000e+01 4.000000000000e+00-7.916241884232e-09 7.000000000000e+00
    -2.619344741106e-10 5.005858838558e-09-1.455191522837e-09-1.076841726899e-09
     1.944960000000e+05 2.428000000000e+03 0.000000000000e+00                   
G30 2026 07 21 06 01 36 3.026208723895e-04 1.329070187239e-11 0.000000000000e+00
     3.701686859131e-03-2.192968750000e+01 5.097712340181e-09-1.216021699316e+00
    -1.246109604836e-06 8.218937087804e-03 7.903203368187e-06 5.153542055023e+03
     1.107000000000e+05 1.452863216400e-07-2.597195307358e+00 1.229345798492e-07
     9.366270645625e-01 2.134453125000e+02-2.258804522652e+00-8.059743527005e-09
    -4.518045337580e-11 5.097712340181e-09-2.000000000000e+00 3.000000000000e+00
     3.100000000000e+01 4.000000000000e+00 4.190951585770e-09 7.000000000000e+00
    -1.513399183750e-09-3.259629011154e-09 2.328306436539e-09 3.230525180697e-09
     1.944960000000e+05 2.428000000000e+03 0.000000000000e+00                   
E04 2026 07 21 06 02 05-1.221743295901e-04 3.355182798259e-11 0.000000000000e+00
     6.700000000000e+01-4.246875000000e+01 3.155488581622e-09 2.647742845734e+00
    -1.899898052216e-06 2.930443733931e-04 5.640089511871e-06 5.440609802246e+03
     1.926000000000e+05 4.284083843231e-08 2.852413615299e+00 9.313225746155e-09
     9.693544913340e-01 2.223750000000e+02-6.753111758211e-02-5.659521456071e-09
     2.039370662260e-10 1.000000000000e+00 1.404000000000e+03                   
     1.070000000000e+02 0.000000000000e+00-4.190951585770e-09-4.656612873077e-09
     1.945250000000e+05                                                         
E31 2026 07 21 06 02 05-1.580872922204e-04-2.941646926047e-12 0.000000000000e+00
     6.800000000000e+01 1.033750000000e+02 3.208705084018e-09 1.970774208599e+00
     4.686415195465e-06 3.427705960348e-04 8.840113878250e-06 5.440614240646e+03
     1.932000000000e+05 1.490116119385e-08-1.329151806656e+00-7.450580596924e-09
     9.605969633936e-01 1.527187500000e+02-1.401123990964e+00-5.553088451281e-09
     5.678807973718e-11 1.000000000000e+00 1.404000000000e+03                   
     1.070000000000e+02 0.000000000000e+00 3.492459654808e-09 4.190951585770e-09
     1.945250000000e+05                                                         
E28 2026 07 21 06 02 05-6.031838711351e-05-2.856381797756e-12 0.000000000000e+00
     6.500000000000e+01-4.243750000000e+01 3.455143920613e-09 8.353221417201e-01
    -1.924112439156e-06 2.854741178453e-04 5.289912223816e-06 5.440611021042e+03
     1.914000000000e+05 6.146728992462e-08 2.870114239413e+00 1.490116119385e-08
     9.490537205140e-01 2.218437500000e+02 1.961960943480e+00-5.815599385915e-09
     2.028655930234e-10 1.000000000000e+00 1.404000000000e+03                   
     1.070000000000e+02 0.000000000000e+00 9.313225746155e-10 1.862645149231e-09
     1.945250000000e+05                                                         
E23 2026 07 21 06 02 05-4.269980126992e-05-1.307398633799e-12 0.000000000000e+00
     6.900000000000e+01 9.590625000000e+01 3.210133714954e-09-2.125330172418e+00
     4.496425390244e-06 1.740999286994e-04 8.525326848030e-06 5.440617630005e+03
     1.938000000000e+05 3.725290298462e-09-1.332268091342e+00 4.656612873077e-08
     9.625505134753e-01 1.576875000000e+02-2.747714113208e+00-5.560231605965e-09
     8.000333245992e-11 1.000000000000e+00 1.404000000000e+03                   
     1.070000000000e+02 0.000000000000e+00 4.656612873077e-10 1.862645149231e-09
     1.945250000000e+05                                                         
E09 2026 07 21 06 02 05-3.009358770214e-04 1.786304437701e-11 3.469446951954e-18
     6.900000000000e+01-4.065625000000e+01 3.091557347201e-09 1.561716866176e+00
    -1.894310116768e-06 4.996274365112e-04 5.729496479034e-06 5.440615478516e+03
     1.938000000000e+05 3.725290298462e-08 2.855562818568e+00-1.676380634308e-08
     9.750918439178e-01 2.218437500000e+02 3.876590758308e-01-5.612019477423e-09
     1.757216052245e-10 1.000000000000e+00 1.404000000000e+03                   
     1.070000000000e+02 0.000000000000e+00 6.984919309616e-10 9.313225746155e-10
     1.945250000000e+05                                                         
E06 2026 07 21 06 02 05-3.006502520293e-04-5.030642569182e-12 0.000000000000e+00
     6.900000000000e+01-4.078125000000e+01 3.294780097959e-09 9.499177769854e-01
    -1.851469278336e-06 5.052606575191e-04 5.602836608887e-06 5.440611516953e+03
     1.938000000000e+05 3.725290298462e-09 2.852057390358e+00 5.587935447693e-09
     9.626605556362e-01 2.189375000000e+02 1.386020249787e+00-5.753811097899e-09
     1.900079145923e-10 1.000000000000e+00 1.404000000000e+03                   
     1.070000000000e+02 0.000000000000e+00 2.328306436539e-09 3.725290298462e-09
     1.945250000000e+05                                                         
END OF FILE                                                 COMMENT
