     3.05           N: NAVIGATION       M: MIXED            RINEX VERSION / TYPE
PYRINEXCONV 0.1.2 ALDELTUNES            20260721 051127 UTC PGM / RUN BY / DATE
GAL    1.0175e+02  3.3203e-01  2.2858e-02             F 28  IONOSPHERIC CORR
GPSA   9.3132e-09  2.2352e-08  1.5199e-05  1.5140e-05 F 14  IONOSPHERIC CORR
GPSB   1.0035e+05  1.3107e+05  1.6712e+07  1.6318e+07 F 14  IONOSPHERIC CORR
BDSA   2.0489e-08  2.2352e-08 -5.3644e-07  9.5367e-07 F 20  IONOSPHERIC CORR
BDSB   1.3722e+05 -4.4237e+05  4.3254e+06 -3.8666e+06 F 20  IONOSPHERIC CORR
GAUT  6.5192580223e-09-2.664535259e-15 190800 1404   E28  0 TIME SYSTEM CORR
GPUT -3.2887328416e-09 5.373479439e-14 385200 2428   G14  0 TIME SYSTEM CORR
BDUT  0.0000000000e+00 0.000000000e+00 190800 1072   C20  0 TIME SYSTEM CORR
                                                            END OF HEADER
G08 2026 07 21 05 03 54 3.939843736589e-04-9.208633855451e-12 0.000000000000e+00
     8.200000000000e+01 5.553125000000e+01 5.257361847366e-09 1.030811823210e+00
     3.173947334290e-06 1.168476371095e-02 5.075708031654e-06 5.153750621796e+03
     1.944000000000e+05 5.587935447693e-09-5.417054526179e-01 1.657754182816e-07
     9.417689063523e-01 2.702812500000e+02 5.448627546008e-01-8.641074221140e-09
    -2.032227507576e-10 1.000000000000e+00 3.800000000000e+02 0.000000000000e+00
     2.000000000000e+00 0.000000000000e+00 4.656612873077e-09 8.200000000000e+01
     7.641360000000e+05 4.000000000000e+00                                      
G07 2026 07 21 05 03 54-2.079098485410e-04-3.751665644813e-12 0.000000000000e+00
     9.700000000000e+01-2.071875000000e+01 4.741626079187e-09-1.695767174572e+00
    -9.015202522278e-07 2.093818434514e-02 7.875263690948e-06 5.153584897995e+03
     1.944000000000e+05 4.228204488754e-07-2.586084121241e+00 1.657754182816e-07
     9.513214629746e-01 2.134062500000e+02-1.955170504928e+00-7.871042146213e-09
     1.142904749427e-11 1.000000000000e+00 3.800000000000e+02 0.000000000000e+00
     2.000000000000e+00 0.000000000000e+00-1.071020960808e-08 9.700000000000e+01
     7.641360000000e+05 4.000000000000e+00                                      
G09 2026 07 21 05 03 54 7.171146571636e-04-7.048583938740e-12 0.000000000000e+00
     7.400000000000e+01-1.984375000000e+01 4.403754862638e-09 1.649337004501e+00
    -1.048669219017e-06 3.670229576528e-03 6.090849637985e-06 5.153696254730e+03
     1.944000000000e+05 1.378357410431e-07 2.624858163673e+00 3.166496753693e-08
     9.667080432703e-01 2.642812500000e+02 2.038203357865e+00-8.018548290436e-09
     2.792973481413e-10 1.000000000000e+00 3.800000000000e+02 0.000000000000e+00
     2.000000000000e+00 0.000000000000e+00 4.656612873077e-10 7.400000000000e+01
     7.641360000000e+05 4.000000000000e+00                                      
G30 2026 07 21 05 03 54 3.025494515896e-04 1.330136001343e-11 0.000000000000e+00
     9.900000000000e+01-2.796875000000e+01 5.111641491814e-09-2.003574362149e+00
    -1.674517989159e-06 8.217569906265e-03 7.912516593933e-06 5.153681093216e+03
     1.944000000000e+05 1.247972249985e-07-2.597151349596e+00 5.587935447693e-09
     9.366274792998e-01 2.088437500000e+02-2.258889940976e+00-8.182126532698e-09
     3.928735076157e-12 1.000000000000e+00 3.800000000000e+02 0.000000000000e+00
     2.000000000000e+00 0.000000000000e+00 4.190951585770e-09 9.900000000000e+01
     7.641360000000e+05 4.000000000000e+00                                      
G14 2026 07 21 05 03 54 7.499763742089e-04 2.273736754432e-13 0.000000000000e+00
     2.270000000000e+02 6.125000000000e+01 4.906990110120e-09-2.599717998404e+00
     3.017485141754e-06 7.363637676463e-03 9.743496775627e-06 5.153661857605e+03
     1.944000000000e+05-2.048909664154e-08-1.524159444936e+00-1.657754182816e-07
     9.416377923194e-01 1.834687500000e+02-2.680783462054e+00-8.087836890870e-09
     4.500187450871e-11 1.000000000000e+00 3.800000000000e+02 0.000000000000e+00
     2.000000000000e+00 0.000000000000e+00-7.916241884232e-09 9.950000000000e+02
     7.641360000000e+05 4.000000000000e+00                                      
G04 2026 07 21 05 03 54 6.274553015828e-05 6.821210263297e-13 0.000000000000e+00
     6.000000000000e+00-2.050000000000e+01 4.324823003380e-09 7.817716787169e-01
    -9.983777999878e-07 3.822581376880e-03 6.087124347687e-06 5.153674917221e+03
     1.944000000000e+05 7.450580596924e-09 2.690032590449e+00 1.415610313416e-07
     9.724451661759e-01 2.685000000000e+02-2.902069181801e+00-7.997118826385e-09
     2.214377952016e-10 1.000000000000e+00 3.800000000000e+02 0.000000000000e+00
     2.000000000000e+00 0.000000000000e+00-4.656612873077e-09 5.180000000000e+02
     7.641360000000e+05 4.000000000000e+00                                      
G22 2026 07 21 05 03 54 4.048552364111e-05 8.071765478235e-12 0.000000000000e+00
     9.000000000000e+01 6.537500000000e+01 4.593048461762e-09 1.652859933599e+00
     3.341585397720e-06 1.184515061323e-02 9.132549166679e-06 5.153724006653e+03
     1.944000000000e+05 2.570450305939e-07-1.447124740451e+00 1.862645149231e-09
     9.568466251426e-01 1.999687500000e+02-9.877256878367e-01-7.882471193708e-09
    -1.785788670980e-11 1.000000000000e+00 3.800000000000e+02 0.000000000000e+00
     2.000000000000e+00 0.000000000000e+00-1.117587089539e-08 9.000000000000e+01
     7.641360000000e+05 4.000000000000e+00                                      
C30 2026 07 21 05 04 54 4.927119007334e-04 7.579714633721e-12 0.000000000000e+00
     1.000000000000e+00 8.125000000000e-01 4.278035340201e-09-1.449826612629e+00
    -2.654269337654e-08 4.686597967520e-04 3.840308636427e-06 5.282646724701e+03
     1.908000000000e+05-3.539025783539e-08 3.480146936946e-02 3.549642860889e-05
     9.455224015804e-01 2.767656250000e+02 9.824146559137e-01-1.968054834526e-06
    -2.850118718885e-10                    1.072000000000e+03                   
     0.000000000000e+00 0.000000000000e+00-4.516914486885e-08-4.516914486885e-08
     1.910940000000e+05 1.000000000000e+00                                      
C19 2026 07 21 05 04 54-9.326281724498e-04 8.535394613318e-13 0.000000000000e+00
     1.000000000000e+00-1.454687500000e+01 3.231920336740e-09-3.074938024357e+00
    -6.747432053089e-07 7.844705833122e-04 7.526483386755e-06 5.282631372452e+03
     1.908000000000e+05 3.445893526077e-08 2.185004919597e+00-3.527384251356e-06
     9.899478326036e-01 2.224531250000e+02-3.183201396772e-01 6.010125345845e-07
     3.975165581602e-10                    1.072000000000e+03                   
     0.000000000000e+00 0.000000000000e+00 4.330649971962e-08 4.330649971962e-08
     1.910940000000e+05 1.000000000000e+00                                      
C12 2026 07 21 05 04 54 6.157602183521e-04-4.996003610813e-12 0.000000000000e+00
     1.000000000000e+00-1.071875000000e+01 3.498002848716e-09 2.604315417425e+00
    -5.019828677177e-07 1.757345162332e-04 7.205642759800e-06 5.282644876480e+03
     1.908000000000e+05 4.936009645462e-08 2.170657425143e+00-5.502253770828e-05
     9.735994334101e-01 2.218125000000e+02 7.089143119380e-01-1.427049085180e-06
     4.157316026042e-10                    1.072000000000e+03                   
     0.000000000000e+00 0.000000000000e+00 3.725290298462e-09 3.725290298462e-09
     1.910940000000e+05 1.000000000000e+00                                      
C36 2026 07 21 05 04 54 2.596488920972e-04-4.279243626115e-12 0.000000000000e+00
     1.000000000000e+00 2.190625000000e+01 4.125528987699e-09 1.836934866156e+00
     9.578652679920e-07 8.149991044775e-04 1.050112769008e-05 5.282656148911e+03
     1.908000000000e+05 3.585591912270e-08-2.018502472696e+00 4.287157207727e-05
     9.451407686782e-01 1.432812500000e+02-1.022845103433e+00 2.115563121696e-07
    -1.410773050075e-10                    1.072000000000e+03                   
     0.000000000000e+00 0.000000000000e+00-9.639188647270e-08-9.639188647270e-08
     1.910940000000e+05 1.000000000000e+00                                      
C22 2026 07 21 05 04 54 4.575445782393e-04 3.623767952377e-13 0.000000000000e+00
     1.000000000000e+00-1.960937500000e+01 3.246206646108e-09 1.315371106646e+00
    -9.983777999878e-07 8.554419036955e-04 7.543247193098e-06 5.282633016586e+03
     1.908000000000e+05 4.610046744347e-08 2.186101779000e+00 7.138587534428e-06
     9.892330713110e-01 2.223437500000e+02 7.770883264251e-01 1.671777493386e-06
     3.625151002090e-10                    1.072000000000e+03                   
     0.000000000000e+00 0.000000000000e+00 6.239861249924e-08 6.239861249924e-08
     1.910940000000e+05 1.000000000000e+00                                      
C20 2026 07 21 05 04 54-8.892959449440e-04 3.074873689002e-12 0.000000000000e+00
     1.000000000000e+00-1.048437500000e+01 3.182275411687e-09-2.951178756555e+00
    -4.912726581097e-07 8.079276885837e-04 7.228460162878e-06 5.282637727737e+03
     1.908000000000e+05 3.306195139885e-08 2.185632270071e+00 3.639608621597e-06
     9.899333306967e-01 2.294375000000e+02 2.744729548203e-01 1.215621349794e-06
     4.210889686172e-10                    1.072000000000e+03                   
     0.000000000000e+00 0.000000000000e+00 5.541369318962e-08 5.541369318962e-08
     1.910940000000e+05 1.000000000000e+00                                      
G09 2026 07 21 05 06 24 7.171272591222e-04-6.991740519879e-12 0.000000000000e+00
     3.526687622070e-03-1.656250000000e+01 4.419469802942e-09 1.386780316189e+00
    -9.629875421524e-07 3.668958088383e-03 6.236135959625e-06 5.153526767805e+03
     1.395000000000e+05 1.192092895508e-07 2.624872550741e+00 7.450580596924e-09
     9.667074427424e-01 2.606484375000e+02 2.038220855097e+00-8.294574737239e-09
     2.851904507556e-10 4.419469802942e-09-2.000000000000e+00 3.000000000000e+00
     3.000000000000e+01 4.000000000000e+00 4.656612873077e-10 7.000000000000e+00
    -5.820766091347e-10-7.275957614183e-10 5.064066499472e-09 5.617039278150e-09
     1.911840000000e+05 2.428000000000e+03 0.000000000000e+00                   
G17 2026 07 21 05 08 00-1.761649618857e-04-6.036060540282e-12 0.000000000000e+00
     2.120018005371e-03 4.628515625000e+01 4.906632952386e-09 7.775775832846e-01
     2.395361661911e-06 1.261565118330e-02 4.561617970467e-06 5.153547761236e+03
     1.728000000000e+05-5.308538675308e-08-4.349087667587e-01-2.337619662285e-07
     9.574384830302e-01 2.892773437500e+02-1.098697298318e+00-7.797589750105e-09
    -9.339674749228e-11 4.906632952386e-09-2.000000000000e+00 3.000000000000e+00
     2.800000000000e+01 4.000000000000e+00-1.071020960808e-08 7.000000000000e+00
    -8.440110832453e-10 6.722984835505e-09 0.000000000000e+00 0.000000000000e+00
     1.912800000000e+05 2.428000000000e+03 0.000000000000e+00                   
E21 2026 07 21 05 09 25-7.585698040202e-04-2.813749233610e-12 0.000000000000e+00
     6.300000000000e+01 8.687500000000e+01 3.249063907982e-09-2.968056661873e+00
     4.163011908531e-06 1.710130600259e-04 8.547678589821e-06 5.440616916656e+03
     1.902000000000e+05-4.097819328308e-08-1.329055726586e+00 4.097819328308e-08
     9.606203569166e-01 1.571875000000e+02-1.559242963448e+00-5.577018019472e-09
     8.928943354902e-11 1.000000000000e+00 1.404000000000e+03                   
     1.070000000000e+02 0.000000000000e+00 6.984919309616e-10 9.313225746155e-10
     1.913650000000e+05                                                         
G07 2026 07 21 05 09 36-2.079032128677e-04-3.755218358492e-12 0.000000000000e+00
    -5.875587463379e-03-2.107812500000e+01 4.738947396181e-09-1.958368274151e+00
    -1.118518412113e-06 2.093622175744e-02 8.556991815567e-06 5.153637853118e+03
     1.161000000000e+05 3.129243850708e-07-2.586070385172e+00 6.239861249924e-08
     9.513216685146e-01 2.053984375000e+02-1.955131948259e+00-8.543692256841e-09
     7.393165097859e-11 4.738947396181e-09-2.000000000000e+00 3.000000000000e+00
     3.100000000000e+01 4.000000000000e+00-1.071020960808e-08 7.000000000000e+00
    -9.313225746155e-10 6.984919309616e-09 0.000000000000e+00 0.000000000000e+00
     1.913760000000e+05 2.428000000000e+03 0.000000000000e+00                   
E04 2026 07 21 05 10 54-1.222550054081e-04 3.352340627316e-11 0.000000000000e+00
     6.300000000000e+01-4.231250000000e+01 3.189775724105e-09 2.350182116324e+00
    -1.899898052216e-06 2.932299394161e-04 5.638226866722e-06 5.440609441757e+03
     1.902000000000e+05 7.450580596924e-09 2.852427374044e+00 1.303851604462e-08
     9.693538710568e-01 2.207812500000e+02-6.751289693743e-02-5.684879655199e-09
     2.032227507576e-10 5.160000000000e+02 1.404000000000e+03                   
     1.070000000000e+02 0.000000000000e+00-4.190951585770e-09-4.656612873077e-09
     1.914540000000e+05                                                         
E28 2026 07 21 05 10 54-6.031501106918e-05-2.856381797756e-12 0.000000000000e+00
     6.300000000000e+01-4.381250000000e+01 3.477287700133e-09 6.877506857023e-01
    -1.961365342140e-06 2.854270860553e-04 5.360692739487e-06 5.440610342026e+03
     1.902000000000e+05 5.774199962616e-08 2.870121240939e+00 5.587935447693e-09
     9.490534337821e-01 2.193437500000e+02 1.960760676250e+00-5.821313909662e-09
     2.050085394286e-10 5.160000000000e+02 1.404000000000e+03                   
     1.070000000000e+02 0.000000000000e+00 9.313225746155e-10 1.862645149231e-09
     1.914540000000e+05                                                         
G14 2026 07 21 05 11 12 7.499761122745e-04 2.593480985524e-13 0.000000000000e+00
    -2.451896667480e-03 6.748828125000e+01 4.874488756308e-09-2.862347758742e+00
     3.377906978130e-06 7.362615899183e-03 9.466893970966e-06 5.153559374317e+03
     1.152000000000e+05-6.146728992462e-08-1.524144717008e+00-1.182779669762e-07
     9.416378201149e-01 1.868945312500e+02-2.680703005217e+00-8.281895637675e-09
     1.892935991239e-11 4.874488756308e-09-2.000000000000e+00 3.000000000000e+00
     3.100000000000e+01 4.000000000000e+00-7.916241884232e-09 7.000000000000e+00
    -2.619344741106e-10 5.005858838558e-09-1.455191522837e-09-1.076841726899e-09
     1.914720000000e+05 2.428000000000e+03 0.000000000000e+00                   
G30 2026 07 21 05 11 12 3.025251789950e-04 1.329425458607e-11 0.000000000000e+00
    -3.261566162109e-03-2.504296875000e+01 5.127356432119e-09-2.266179138040e+00
    -1.365318894386e-06 8.216449525207e-03 8.302740752697e-06 5.153540978890e+03
     1.107000000000e+05 1.396983861923e-07-2.597136550716e+00-1.210719347000e-08
     9.366274697908e-01 2.046562500000e+02-2.258832282254e+00-8.150104433757e-09
    -9.464679956196e-12 5.127356432119e-09-2.000000000000e+00 3.000000000000e+00
     3.100000000000e+01 4.000000000000e+00 4.190951585770e-09 7.000000000000e+00
    -1.513399183750e-09-3.259629011154e-09 2.328306436539e-09 3.230525180697e-09
     1.914720000000e+05 2.428000000000e+03 0.000000000000e+00                   
E23 2026 07 21 05 11 35-4.269339842722e-05-1.307398633799e-12 0.000000000000e+00
     6.100000000000e+01 1.003125000000e+02 3.242992226500e-09-2.724192371284e+00
     4.665926098824e-06 1.740616280586e-04 8.402392268181e-06 5.440616353989e+03
     1.890000000000e+05 4.284083843231e-08-1.332241047839e+00-7.450580596924e-09
     9.625504257002e-01 1.612500000000e+02-2.743935148576e+00-5.571303495725e-09
     3.785871982478e-11 1.000000000000e+00 1.404000000000e+03                   
     1.070000000000e+02 0.000000000000e+00 4.656612873077e-10 1.862645149231e-09
     1.914950000000e+05                                                         
E19 2026 07 21 05 11 35 3.108420118224e-03 2.441424840072e-11 0.000000000000e+00
     5.900000000000e+01-4.403125000000e+01 3.094771766809e-09 3.048866073898e+00
    -1.968815922737e-06 2.429059240967e-04 5.505979061127e-06 5.440619012833e+03
     1.878000000000e+05-1.676380634308e-08 2.860539399622e+00-2.235174179077e-08
     9.747228433132e-01 2.296250000000e+02-2.403696938254e-01-5.641306411627e-09
     2.182233755938e-10 1.000000000000e+00 1.404000000000e+03                   
     1.070000000000e+02 0.000000000000e+00-4.423782229424e-09-4.423782229424e-09
     1.914950000000e+05                                                         
E06 2026 07 21 05 11 35-3.006262704730e-04-5.059064278612e-12 0.000000000000e+00
     6.100000000000e+01-3.984375000000e+01 3.304423356782e-09 3.549919878469e-01
    -1.901760697365e-06 5.052095511928e-04 5.543231964111e-06 5.440611343384e+03
     1.890000000000e+05 2.793967723846e-08 2.852084682558e+00-2.607703208923e-08
     9.626597203099e-01 2.187812500000e+02 1.385861648986e+00-5.724167005961e-09
     1.982225424788e-10 1.000000000000e+00 1.404000000000e+03                   
     1.070000000000e+02 0.000000000000e+00 2.328306436539e-09 3.725290298462e-09
     1.914950000000e+05                                                         
E31 2026 07 21 05 11 35-1.580716343597e-04-2.984279490192e-12 0.000000000000e+00
     5.900000000000e+01 1.233125000000e+02 3.150488373344e-09 1.295640980670e+00
     5.668029189110e-06 3.408213378862e-04 9.192153811455e-06 5.440619762421e+03
     1.878000000000e+05 0.000000000000e+00-1.329121822687e+00-3.725290298462e-09
     9.605967498075e-01 1.453125000000e+02-1.395455464287e+00-5.546659612065e-09
     4.893060958486e-11 1.000000000000e+00 1.404000000000e+03                   
     1.070000000000e+02 0.000000000000e+00 3.492459654808e-09 4.190951585770e-09
     1.914950000000e+05                                                         
E04 2026 07 21 05 11 35-1.222349237651e-04 3.353761712788e-11 0.000000000000e+00
     6.400000000000e+01-4.231250000000e+01 3.191204355042e-09 2.424568222256e+00
    -1.894310116768e-06 2.932403003797e-04 5.653128027916e-06 5.440609418869e+03
     1.908000000000e+05-1.862645149231e-09 2.852424004943e+00 1.490116119385e-08
     9.693539617577e-01 2.207187500000e+02-6.751345869798e-02-5.691308494415e-09
     2.025084352892e-10 1.000000000000e+00 1.404000000000e+03                   
     1.070000000000e+02 0.000000000000e+00-4.190951585770e-09-4.656612873077e-09
     1.914950000000e+05                                                         
E28 2026 07 21 05 11 35-6.031669909135e-05-2.856381797756e-12 0.000000000000e+00
     6.400000000000e+01-4.321875000000e+01 3.464072863968e-09 7.615187160598e-01
    -1.946464180946e-06 2.854596823454e-04 5.323439836502e-06 5.440610692978e+03
     1.908000000000e+05 6.332993507385e-08 2.870117729935e+00 1.303851604462e-08
     9.490535932401e-01 2.207187500000e+02 1.961378526534e+00-5.815956543649e-09
     2.035799084918e-10 1.000000000000e+00 1.404000000000e+03                   
     1.070000000000e+02 0.000000000000e+00 9.313225746155e-10 1.862645149231e-09
     1.914950000000e+05                                                         
END OF FILE                                                 COMMENT
