     3.05           N: NAVIGATION       M: MIXED            RINEX VERSION / TYPE
PYRINEXCONV 0.1.2 ALDELTUNES            20260721 114351 UTC PGM / RUN BY / DATE
GAL    1.0175e+02  3.3203e-01  2.2858e-02             L 16  IONOSPHERIC CORR
GPSA   1.1176e-08  2.2352e-08  1.5199e-05  1.5140e-05 L 12  IONOSPHERIC CORR
GPSB   1.0650e+05  1.4746e+05  1.6712e+07  1.6450e+07 L 12  IONOSPHERIC CORR
BDSA   2.1420e-08  5.9605e-08 -7.7486e-07  1.2517e-06 L 31  IONOSPHERIC CORR
BDSB   1.4131e+05 -7.0451e+05  5.6361e+06 -4.6531e+06 L 31  IONOSPHERIC CORR
GAUT  6.5192580223e-09-2.664535259e-15 214200 1404   E16  0 TIME SYSTEM CORR
GPUT  9.6042640507e-10-1.594724353e-12 428100 2428   G12  0 TIME SYSTEM CORR
BDUT  0.0000000000e+00 0.000000000e+00 212400 1072   C31  0 TIME SYSTEM CORR
                                                            END OF HEADER
E33 2026 07 21 11 35 35-2.521387068555e-05-2.003730514843e-12 0.000000000000e+00
     1.020000000000e+02-5.996875000000e+01 2.737614032613e-09-1.496451678499e+00
    -2.732500433922e-06 1.670053461567e-04 5.139037966728e-06 5.440604347229e+03
     2.136000000000e+05 2.235174179077e-08 7.699007143922e-01 1.676380634308e-08
     9.976631104102e-01 2.481250000000e+02-3.014165579524e+00-5.495943213809e-09
    -1.325055193867e-10 1.000000000000e+00 1.404000000000e+03                   
     1.070000000000e+02 0.000000000000e+00-4.423782229424e-09-4.889443516731e-09
     2.145350000000e+05                                                         
G24 2026 07 21 11 37 36 1.224652514793e-04 1.861266696324e-11 0.000000000000e+00
     3.237724304199e-04-3.702734375000e+01 4.960206612515e-09 2.151533203994e+00
    -1.907348632812e-06 1.843404141255e-02 7.623806595802e-06 5.153591472595e+03
     1.980000000000e+05 5.774199962616e-08-2.697239305266e+00-3.175809979439e-07
     9.355030438911e-01 2.200507812500e+02 1.162171590460e+00-8.262251962294e-09
    -1.050043738536e-10 4.960206612515e-09-2.000000000000e+00 2.000000000000e+00
     2.800000000000e+01 4.000000000000e+00 2.328306436539e-09 7.000000000000e+00
     2.910383045673e-11-1.426087692380e-09 1.484295353293e-09 2.764863893390e-09
     2.146560000000e+05 2.428000000000e+03 0.000000000000e+00                   
E16 2026 07 21 11 40 24-4.648976027966e-05-2.472688720445e-12 0.000000000000e+00
     9.600000000000e+01 8.443750000000e+01 3.004053702323e-09-1.982710376646e+00
     3.952533006668e-06 4.925740649924e-04 8.465722203255e-06 5.440620019913e+03
     2.100000000000e+05 9.313225746155e-09-1.332482449802e+00 3.725290298462e-09
     9.625730936159e-01 1.559062500000e+02-2.475996013070e+00-5.514515415988e-09
     7.857470152314e-11 5.160000000000e+02 1.404000000000e+03                   
     1.070000000000e+02 0.000000000000e+00-3.725290298462e-09-2.328306436539e-09
     2.148240000000e+05                                                         
E12 2026 07 21 11 40 25-5.902128759772e-05-2.614797267597e-12 0.000000000000e+00
     1.020000000000e+02-5.437500000000e+01 2.780472960717e-09 1.007443465321e-01
    -2.460554242134e-06 3.173889126629e-04 5.066394805908e-06 5.440603368759e+03
     2.136000000000e+05 7.264316082001e-08 7.694398747164e-01-2.048909664154e-08
     9.945573133842e-01 2.472812500000e+02 8.586531044969e-01-5.533801933634e-09
    -1.360770967287e-10 1.000000000000e+00 1.404000000000e+03                   
     1.070000000000e+02 0.000000000000e+00-1.187436282635e-08-1.164153218269e-08
     2.148250000000e+05                                                         
E16 2026 07 21 11 40 54-4.649872425944e-05-2.458477865730e-12 0.000000000000e+00
     1.020000000000e+02 8.218750000000e+01 2.964052036093e-09-1.535874669928e+00
     3.963708877563e-06 4.926549736410e-04 8.516013622284e-06 5.440620538712e+03
     2.136000000000e+05 1.303851604462e-08-1.332502335248e+00-1.862645149231e-09
     9.625733979028e-01 1.568437500000e+02-2.476521401080e+00-5.509158049975e-09
     8.000333245992e-11 5.160000000000e+02 1.404000000000e+03                   
     1.070000000000e+02 0.000000000000e+00-3.725290298462e-09-2.328306436539e-09
     2.148540000000e+05                                                         
C35 2026 07 21 11 40 54-4.782762844115e-04-1.604139043820e-11 0.000000000000e+00
     1.000000000000e+00 1.640625000000e+01 4.353395622116e-09-2.054039094973e-02
     7.916241884232e-07 8.117869729176e-04 3.815162926912e-06 5.282620409012e+03
     2.124000000000e+05 2.421438694000e-08 3.477810364190e-02 2.688728272915e-05
     9.437471197699e-01 2.762343750000e+02 8.869464068208e-01-1.991598672365e-06
    -1.192906832215e-10                    1.072000000000e+03                   
     0.000000000000e+00 0.000000000000e+00-1.257285475731e-08-1.257285475731e-08
     2.148540000000e+05 1.000000000000e+00                                      
C29 2026 07 21 11 40 54 6.338730454445e-04 5.153211191100e-12 0.000000000000e+00
     1.000000000000e+00 1.675000000000e+01 4.365538985079e-09-4.245128246974e-01
     8.842907845974e-07 2.189400838688e-04 3.635883331299e-06 5.282657833099e+03
     2.124000000000e+05 6.426125764847e-08 3.417893335834e-02 2.294359728694e-05
     9.455616853196e-01 2.790156250000e+02 2.111899364377e+00-2.576765904071e-06
    -5.535944880039e-11                    1.072000000000e+03                   
     0.000000000000e+00 0.000000000000e+00 9.313225746155e-10 9.313225746155e-10
     2.148540000000e+05 1.000000000000e+00                                      
C26 2026 07 21 11 40 54-6.724876584485e-04-5.552003301545e-12 0.000000000000e+00
     1.000000000000e+00 1.518750000000e+01 4.022667560250e-09 1.425399953469e+00
     6.621703505516e-07 9.378691902384e-04 9.299721568823e-06 5.282658828735e+03
     2.124000000000e+05 2.048909664154e-08-2.040567908930e+00 4.292931407690e-05
     9.453572571472e-01 1.624062500000e+02 7.291255785041e-01 2.631679977177e-06
    -1.053615315878e-10                    1.072000000000e+03                   
     0.000000000000e+00 0.000000000000e+00-2.328306436539e-08-2.328306436539e-08
     2.148540000000e+05 1.000000000000e+00                                      
C39 2026 07 21 11 40 54-9.575489675626e-04 8.791189998192e-12 0.000000000000e+00
     1.000000000000e+00 1.012500000000e+01 3.866946788141e-09 2.931656340077e+00
     5.550682544708e-07 5.713555729017e-04 9.272247552872e-06 5.282663963318e+03
     2.124000000000e+05 1.117587089539e-08-2.011546913117e+00 5.748448893428e-05
     9.490802724772e-01 1.672031250000e+02 5.935714034886e-02 1.010812461539e-06
    -5.500229106620e-11                    1.072000000000e+03                   
     0.000000000000e+00 0.000000000000e+00 8.987262845039e-08 8.987262845039e-08
     2.148540000000e+05 1.000000000000e+00                                      
C31 2026 07 21 11 40 54 7.557274075225e-04-9.001688283661e-12 0.000000000000e+00
     1.000000000000e+00 1.143750000000e+01 4.450542525817e-09-9.323507889756e-01
     6.780028343201e-07 7.329288637266e-04 3.820285201073e-06 5.282665330887e+03
     2.124000000000e+05 4.656612873077e-09 3.194917849153e-02 2.954434603453e-05
     9.410546029529e-01 2.765156250000e+02 1.055513240329e+00 1.238981608557e-06
    -8.178912113090e-11                    1.072000000000e+03                   
     0.000000000000e+00 0.000000000000e+00-6.519258022308e-09-6.519258022308e-09
     2.148540000000e+05 1.000000000000e+00                                      
G06 2026 07 21 11 42 24-5.692653940059e-04 7.975842208907e-12 0.000000000000e+00
    -7.128715515137e-03-1.784765625000e+01 4.109635468527e-09 1.982657061328e+00
    -8.838251233101e-07 3.696886647958e-03 5.481764674187e-06 5.153499173991e+03
     1.845000000000e+05 1.052394509315e-07 5.836211130877e-01-1.303851604462e-08
     9.858719241286e-01 2.858281250000e+02-5.461467665764e-01-8.395114639415e-09
    -2.101873265744e-10 4.109635468527e-09-2.000000000000e+00 3.000000000000e+00
     2.900000000000e+01 4.000000000000e+00 3.725290298462e-09 7.000000000000e+00
     3.201421350241e-10-3.929017111659e-09 1.775333657861e-09 2.211891114712e-09
     2.149440000000e+05 2.428000000000e+03 0.000000000000e+00                   
G05 2026 07 21 11 42 24-2.352839510422e-04-3.375077994860e-13 0.000000000000e+00
     4.906177520752e-03-2.017187500000e+01 3.954807590753e-09-2.081730022491e+00
    -1.033768057823e-06 5.607326806057e-03 7.783062756062e-06 5.153448100658e+03
     1.701000000000e+05 6.426125764847e-08 1.559915684132e+00 4.004687070847e-08
     9.811634754771e-01 2.405859375000e+02 1.481933492958e+00-8.629231534181e-09
     4.857345185067e-11 3.954807590753e-09-2.000000000000e+00 3.000000000000e+00
     2.900000000000e+01 4.000000000000e+00-1.071020960808e-08 7.000000000000e+00
    -3.783497959375e-10 5.733454599977e-09 0.000000000000e+00 0.000000000000e+00
     2.149440000000e+05 2.428000000000e+03 0.000000000000e+00                   
E33 2026 07 21 11 43 35-2.521497663110e-05-1.989519660128e-12 0.000000000000e+00
     1.030000000000e+02-6.175000000000e+01 2.733328139803e-09-1.421096951101e+00
    -2.812594175339e-06 1.671655336395e-04 5.118548870087e-06 5.440604799271e+03
     2.142000000000e+05 2.421438694000e-08 7.698974520849e-01 2.421438694000e-08
     9.976630270239e-01 2.485625000000e+02-3.015134638403e+00-5.499514791151e-09
    -1.346484657919e-10 1.000000000000e+00 1.404000000000e+03                   
     1.070000000000e+02 0.000000000000e+00-4.423782229424e-09-4.889443516731e-09
     2.150150000000e+05                                                         
E11 2026 07 21 11 43 54 5.518126708921e-03 6.747313818778e-11-3.469446951954e-18
     9.900000000000e+01-3.928125000000e+01 2.638681340241e-09-1.408247597405e+00
    -1.888722181320e-06 4.173512570560e-04 5.777925252914e-06 5.440611831665e+03
     2.118000000000e+05-7.823109626770e-08 7.694409879970e-01-4.470348358154e-08
     9.945458133851e-01 2.324062500000e+02 1.347685586023e+00-5.458798809453e-09
    -1.860791795162e-10 5.160000000000e+02 1.404000000000e+03                   
     1.070000000000e+02 0.000000000000e+00-1.466833055019e-08-1.583248376846e-08
     2.150340000000e+05                                                         
E25 2026 07 21 11 43 54 2.174236578867e-05-7.105427357601e-14 0.000000000000e+00
     9.900000000000e+01 9.740625000000e+01 3.073342302757e-09 2.624236618057e+00
     4.328787326813e-06 2.982205478474e-04 8.316710591316e-06 5.440612489700e+03
     2.118000000000e+05 1.862645149231e-09-1.329174281467e+00-1.117587089539e-08
     9.606289369311e-01 1.592812500000e+02-1.309165599796e+00-5.515229731456e-09
     5.321650239522e-11 5.160000000000e+02 1.404000000000e+03                   
     1.070000000000e+02 0.000000000000e+00 2.328306436539e-09 2.561137080193e-09
     2.150340000000e+05                                                         
E10 2026 07 21 11 43 54-8.074495708570e-04-2.643218977028e-12 0.000000000000e+00
     1.020000000000e+02-5.062500000000e+01 2.676540060065e-09-1.742219497612e+00
    -2.352520823479e-06 2.863210393116e-04 5.545094609261e-06 5.440602169037e+03
     2.136000000000e+05 3.911554813385e-08 7.679715760244e-01-9.499490261078e-08
     9.974623687914e-01 2.376875000000e+02 2.333586160670e+00-5.497729002480e-09
    -1.542921411727e-10 5.160000000000e+02 1.404000000000e+03                   
     1.070000000000e+02 0.000000000000e+00-1.164153218269e-09-2.328306436539e-10
     2.150340000000e+05                                                         
E16 2026 07 21 11 43 54-4.650017945096e-05-2.458477865730e-12 0.000000000000e+00
     1.030000000000e+02 8.262500000000e+01 2.962623405157e-09-1.461712353890e+00
     3.989785909653e-06 4.925592802465e-04 8.584931492805e-06 5.440620250702e+03
     2.142000000000e+05 1.676380634308e-08-1.332505654609e+00-3.725290298462e-09
     9.625734549566e-01 1.557500000000e+02-2.476298829797e+00-5.507015103569e-09
     8.036049019412e-11 5.160000000000e+02 1.404000000000e+03                   
     1.070000000000e+02 0.000000000000e+00-3.725290298462e-09-2.328306436539e-09
     2.150340000000e+05                                                         
G11 2026 07 21 11 43 54-2.677883021533e-04 1.227817847393e-11 0.000000000000e+00
     6.800000000000e+01-2.675000000000e+01 4.559118477013e-09-2.804708465308e+00
    -1.342967152596e-06 2.486749202944e-03 5.591660737991e-06 5.153651065826e+03
     2.160000000000e+05 3.166496753693e-08 5.992905602973e-01-1.396983861923e-07
     9.627627141315e-01 2.712500000000e+02-2.355535992729e+00-8.172126116141e-09
    -1.628639267934e-10 1.000000000000e+00 3.800000000000e+02 0.000000000000e+00
     2.000000000000e+00 0.000000000000e+00-8.847564458847e-09 8.360000000000e+02
     8.601360000000e+05 4.000000000000e+00                                      
G13 2026 07 21 11 43 54 4.184492863715e-04 5.229594535194e-12 0.000000000000e+00
     4.200000000000e+01 4.490625000000e+01 4.425184326689e-09 5.289023622435e-01
     2.237036824226e-06 2.269272110425e-03 8.974224328995e-06 5.153590568542e+03
     2.160000000000e+05 0.000000000000e+00-1.575949081222e+00-2.048909664154e-08
     9.588254793184e-01 2.026875000000e+02 1.820162606930e+00-7.985689778890e-09
     1.535778257043e-11 1.000000000000e+00 3.800000000000e+02 0.000000000000e+00
     2.000000000000e+00 6.300000000000e+01-8.381903171539e-09 4.200000000000e+01
     8.601360000000e+05 4.000000000000e+00                                      
G12 2026 07 21 11 43 54-6.054616533220e-04 5.684341886081e-13 0.000000000000e+00
     1.000000000000e+01 4.975000000000e+01 4.497330188997e-09 6.626313143511e-01
     2.460554242134e-06 8.705397252925e-03 8.864328265190e-06 5.153704523087e+03
     2.159840000000e+05-9.313225746155e-08-1.467432603498e+00-5.587935447693e-08
     9.583090209601e-01 2.066250000000e+02 1.587346449225e+00-8.132481607645e-09
     3.571577341961e-12 1.000000000000e+00 3.800000000000e+02 0.000000000000e+00
     2.000000000000e+00 0.000000000000e+00-1.257285475731e-08 1.000000000000e+01
     8.601360000000e+05 4.000000000000e+00                                      
G21 2026 07 21 11 43 54 3.957003355026e-04-5.343281372916e-12 0.000000000000e+00
     2.290000000000e+02-2.828125000000e+01 4.340180785951e-09 2.357513989635e-01
    -1.603737473488e-06 7.935260655358e-04 7.549300789833e-06 5.153595853806e+03
     2.160000000000e+05 1.862645149231e-09 1.623561403209e+00-9.313225746155e-09
     9.641823035031e-01 2.349687500000e+02-8.568574369230e-02-7.997475984119e-09
     1.642925577302e-11 1.000000000000e+00 3.800000000000e+02 0.000000000000e+00
     2.000000000000e+00 0.000000000000e+00-9.778887033463e-09 4.850000000000e+02
     8.601360000000e+05 4.000000000000e+00                                      
G05 2026 07 21 11 43 54-2.352846786380e-04-3.410605131648e-13 0.000000000000e+00
     2.000000000000e+01-2.650000000000e+01 3.956950537158e-09-1.819273063500e+00
    -1.354143023491e-06 5.605535698123e-03 8.007511496544e-06 5.153775583267e+03
     2.160000000000e+05 6.705522537231e-08 1.559901888084e+00 9.313225746155e-08
     9.811634133030e-01 2.361250000000e+02 1.482001926072e+00-7.740322415498e-09
     3.214419607765e-11 1.000000000000e+00 3.800000000000e+02 0.000000000000e+00
     2.000000000000e+00 0.000000000000e+00-1.071020960808e-08 2.000000000000e+01
     8.601360000000e+05 4.000000000000e+00                                      
G11 2026 07 21 11 44 00-2.678104792722e-04 1.223909862347e-11 0.000000000000e+00
    -9.360313415527e-04-2.354687500000e+01 4.523759861328e-09-3.067374537467e+00
    -1.215375959873e-06 2.486338082235e-03 5.622394382954e-06 5.153570937345e+03
     1.872000000000e+05-3.073364496231e-08 5.993054630438e-01-1.108273863792e-07
     9.627631054621e-01 2.717890625000e+02-2.355419437657e+00-8.195820623734e-09
    -1.960795960737e-10 4.523759861328e-09-2.000000000000e+00 3.000000000000e+00
     2.800000000000e+01 4.000000000000e+00-8.847564458847e-09 7.000000000000e+00
    -2.037268131971e-10 5.675246939063e-09 3.783497959375e-10 2.328306436539e-10
     2.150400000000e+05 2.428000000000e+03 0.000000000000e+00                   
G13 2026 07 21 11 44 00 4.184397403151e-04 5.229594535194e-12 8.673617379884e-19
     4.562377929688e-03 4.561328125000e+01 4.458221417103e-09 2.657256497513e-01
     2.283602952957e-06 2.268318727147e-03 8.784234523773e-06 5.153633150734e+03
     1.647000000000e+05-3.725290298462e-09-1.575934714635e+00-1.955777406693e-08
     9.588254551803e-01 2.099062500000e+02 1.820784640429e+00-8.351541395843e-09
     1.660783464012e-11 4.458221417103e-09-2.000000000000e+00 2.000000000000e+00
     3.000000000000e+01 7.000000000000e+00-8.381903171539e-09 7.000000000000e+00
    -1.164153218269e-10 5.267793312669e-09 1.658918336034e-09 1.949956640601e-09
     2.150400000000e+05 2.428000000000e+03 0.000000000000e+00                   
G12 2026 07 21 11 44 00-6.054627010599e-04 5.542233338929e-13 0.000000000000e+00
     5.886554718018e-03 4.863281250000e+01 4.535903224290e-09 3.584829002517e-01
     2.461485564709e-06 8.703983854502e-03 8.565373718739e-06 5.153519584271e+03
     2.025000000000e+05-8.940696716309e-08-1.467415643889e+00-5.122274160385e-08
     9.583090143770e-01 2.155156250000e+02 1.587535177361e+00-8.202070884082e-09
     2.857261873569e-12 4.535903224290e-09-2.000000000000e+00 2.000000000000e+00
     2.700000000000e+01 4.000000000000e+00-1.257285475731e-08 7.000000000000e+00
    -6.984919309616e-10 7.072230800986e-09 0.000000000000e+00 0.000000000000e+00
     2.150400000000e+05 2.428000000000e+03 0.000000000000e+00                   
END OF FILE                                                 COMMENT
