     3.05           N: NAVIGATION       M: MIXED            RINEX VERSION / TYPE
PYRINEXCONV 0.1.2 ALDELTUNES            20260721 032052 UTC PGM / RUN BY / DATE
GAL    1.0175e+02  3.3203e-01  2.2858e-02             D 28  IONOSPHERIC CORR
GPSA   9.3132e-09  2.2352e-08  1.5199e-05  1.5140e-05 D 09  IONOSPHERIC CORR
GPSB   1.0035e+05  1.3107e+05  1.6712e+07  1.6318e+07 D 09  IONOSPHERIC CORR
BDSA   2.0489e-08  2.2352e-08 -5.3644e-07  9.5367e-07 D 19  IONOSPHERIC CORR
BDSB   1.3722e+05 -5.4067e+05  4.7841e+06 -4.1943e+06 D 19  IONOSPHERIC CORR
GAUT  6.5192580223e-09-2.664535259e-15 183600 1404   E28  0 TIME SYSTEM CORR
GPUT  5.5297277868e-10 1.020072915e-12 370800 2428   G09  0 TIME SYSTEM CORR
BDUT  0.0000000000e+00 0.000000000e+00 183600 1072   C19  0 TIME SYSTEM CORR
                                                            END OF HEADER
C37 2026 07 21 03 16 54-9.073218097910e-04 6.912692640526e-12 0.000000000000e+00
     1.000000000000e+00 1.870312500000e+01 4.227318941945e-09 1.807858117073e+00
     9.704381227493e-07 7.142786635086e-04 9.984243661165e-06 5.282670188904e+03
     1.836000000000e+05 1.033768057823e-07-2.018588858008e+00 2.123694866896e-05
     9.451554168769e-01 1.506406250000e+02-3.737505255582e-01 1.271642254718e-07
    -1.353627812603e-10                    1.072000000000e+03                   
     0.000000000000e+00 0.000000000000e+00-7.823109626770e-08-7.823109626770e-08
     1.846140000000e+05 1.000000000000e+00                                      
C12 2026 07 21 03 16 54 6.157959578559e-04-5.023537141824e-12 0.000000000000e+00
     1.000000000000e+00-1.328125000000e+01 3.553719455251e-09 1.630469720774e+00
    -6.719492375851e-07 1.762796891853e-04 7.256865501404e-06 5.282643817902e+03
     1.836000000000e+05 5.168840289116e-08 2.170705963302e+00-5.243392661214e-05
     9.735964315022e-01 2.174062500000e+02 7.076383474747e-01-1.376624127635e-06
     4.250177036933e-10                    1.072000000000e+03                   
     0.000000000000e+00 0.000000000000e+00 3.725290298462e-09 3.725290298462e-09
     1.846140000000e+05 1.000000000000e+00                                      
C20 2026 07 21 03 16 54-8.893182966858e-04 3.042899265893e-12 0.000000000000e+00
     1.000000000000e+00-1.395312500000e+01 3.250849696653e-09 2.356942117403e+00
    -6.514601409435e-07 8.090336341411e-04 7.441267371178e-06 5.282635536194e+03
     1.836000000000e+05 3.539025783539e-08 2.185679637896e+00-6.793998181820e-07
     9.899301839599e-01 2.225312500000e+02 2.744138148940e-01 1.258868508355e-06
     4.293035965037e-10                    1.072000000000e+03                   
     0.000000000000e+00 0.000000000000e+00 5.541369318962e-08 5.541369318962e-08
     1.846140000000e+05 1.000000000000e+00                                      
C28 2026 07 21 03 16 54 5.406640702859e-04 3.917755009297e-12 0.000000000000e+00
     1.000000000000e+00-7.296875000000e+00 4.239819462642e-09 2.203730723053e+00
    -4.931353032589e-07 1.239192206413e-04 4.018656909466e-06 5.282629848480e+03
     1.836000000000e+05-9.778887033463e-09 7.541098683887e-02 4.550768062472e-05
     9.477883490405e-01 2.703437500000e+02-2.184625124120e+00 1.738979578337e-06
    -3.267993267894e-10                    1.072000000000e+03                   
     0.000000000000e+00 0.000000000000e+00-2.002343535423e-08-2.002343535423e-08
     1.846140000000e+05 1.000000000000e+00                                      
C19 2026 07 21 03 16 54-9.326343424618e-04 8.508749260727e-13 0.000000000000e+00
     1.000000000000e+00-1.856250000000e+01 3.239420649158e-09 2.232843650100e+00
    -9.979121387005e-07 7.839655736461e-04 7.412862032652e-06 5.282632442474e+03
     1.836000000000e+05 4.284083843231e-08 2.185052050428e+00 9.068287909031e-06
     9.899450632997e-01 2.229531250000e+02-3.180424017541e-01 6.475976893289e-07
     4.132314984649e-10                    1.072000000000e+03                   
     0.000000000000e+00 0.000000000000e+00 4.330649971962e-08 4.330649971962e-08
     1.846140000000e+05 1.000000000000e+00                                      
E04 2026 07 21 03 18 24-1.227791071869e-04 3.326761088829e-11 0.000000000000e+00
     3.700000000000e+01-3.965625000000e+01 3.340496287936e-09 4.185966625626e-01
    -1.952052116394e-06 2.935096854344e-04 5.800276994705e-06 5.440607788086e+03
     1.746000000000e+05 2.235174179077e-08 2.852515250070e+00 9.313225746155e-09
     9.693503337209e-01 2.247187500000e+02-6.995501191847e-02-5.659878613805e-09
     2.450102056585e-10 5.160000000000e+02 1.404000000000e+03                   
     1.070000000000e+02 0.000000000000e+00-4.190951585770e-09-4.656612873077e-09
     1.847040000000e+05                                                         
E29 2026 07 21 03 19 05-2.271780977026e-04-3.581135388231e-12 0.000000000000e+00
     5.200000000000e+01-4.337500000000e+01 3.311209353732e-09 1.611081664544e+00
    -1.994892954826e-06 2.005466958508e-04 5.308538675308e-06 5.440614410400e+03
     1.836000000000e+05 2.793967723846e-08 2.852146098785e+00-7.450580596924e-09
     9.627400564563e-01 2.299687500000e+02 1.424770870900e+00-5.723095532758e-09
     2.185805333280e-10 1.000000000000e+00 1.404000000000e+03                   
     1.070000000000e+02 0.000000000000e+00-3.259629011154e-09-2.793967723846e-09
     1.847450000000e+05                                                         
G04 2026 07 21 03 20 00 6.273915641941e-05 6.998845947237e-13 0.000000000000e+00
     2.199172973633e-03-2.011328125000e+01 4.413219542594e-09-5.311305949440e-01
    -1.107342541218e-06 3.822266007774e-03 6.177462637424e-06 5.153549172013e+03
     1.233000000000e+05 8.102506399155e-08 2.690104707190e+00 1.955777406693e-08
     9.724425592559e-01 2.658359375000e+02-2.901889416965e+00-8.267966486041e-09
     2.787616115400e-10 4.413219542594e-09-2.000000000000e+00 3.000000000000e+00
     3.000000000000e+01 4.000000000000e+00-4.656612873077e-09 7.000000000000e+00
    -2.037268131971e-10 3.317836672068e-09-1.426087692380e-09-1.396983861923e-09
     1.848000000000e+05 2.428000000000e+03 0.000000000000e+00                   
G09 2026 07 21 03 20 00 7.171775796451e-04-6.988187806201e-12 0.000000000000e+00
     1.067161560059e-03-1.843359375000e+01 4.531081594879e-09 3.367306725841e-01
    -1.054257154465e-06 3.669601399451e-03 6.325542926788e-06 5.153528200759e+03
     1.395000000000e+05 1.117587089539e-08 2.624931008947e+00-4.284083843231e-08
     9.667048365538e-01 2.602773437500e+02 2.038101396132e+00-8.187427416980e-09
     2.962623405157e-10 4.531081594879e-09-2.000000000000e+00 3.000000000000e+00
     3.000000000000e+01 4.000000000000e+00 4.656612873077e-10 7.000000000000e+00
    -5.820766091347e-10-7.275957614183e-10 5.064066499472e-09 5.617039278150e-09
     1.848000000000e+05 2.428000000000e+03 0.000000000000e+00                   
G07 2026 07 21 03 20 00-2.078761754092e-04-3.755218358492e-12 0.000000000000e+00
     4.545211791992e-03-3.667578125000e+01 4.786092217095e-09-3.008415293281e+00
    -1.901760697365e-06 2.093720907578e-02 8.634291589260e-06 5.153634460868e+03
     1.161000000000e+05 3.129243850708e-07-2.586013350385e+00-2.095475792885e-07
     9.513214732150e-01 2.023242187500e+02-1.955314085949e+00-8.547620991917e-09
    -1.098260032653e-10 4.786092217095e-09-2.000000000000e+00 3.000000000000e+00
     3.100000000000e+01 4.000000000000e+00-1.071020960808e-08 7.000000000000e+00
    -9.313225746155e-10 6.984919309616e-09 0.000000000000e+00 0.000000000000e+00
     1.848000000000e+05 2.428000000000e+03 0.000000000000e+00                   
E21 2026 07 21 03 20 05-7.585358689539e-04-2.799538378895e-12 0.000000000000e+00
     4.300000000000e+01 1.138125000000e+02 3.210490872689e-09 1.815999025043e+00
     5.297362804413e-06 1.703940797597e-04 8.758157491684e-06 5.440617902756e+03
     1.782000000000e+05 1.117587089539e-08-1.328987503401e+00-3.725290298462e-08
     9.606206260935e-01 1.490625000000e+02-1.547821414872e+00-5.602733376334e-09
    -3.321566928024e-11 1.000000000000e+00 1.404000000000e+03                   
     1.070000000000e+02 0.000000000000e+00 6.984919309616e-10 9.313225746155e-10
     1.848050000000e+05                                                         
E19 2026 07 21 03 20 24 3.108187054750e-03 2.442845925543e-11 0.000000000000e+00
     4.300000000000e+01-4.293750000000e+01 3.184418358092e-09 1.857914075476e+00
    -2.041459083557e-06 2.441270044073e-04 5.668029189110e-06 5.440616420746e+03
     1.782000000000e+05 9.313225746155e-09 2.860593357893e+00 3.725290298462e-09
     9.747208976321e-01 2.213437500000e+02-2.395825224766e-01-5.625948629057e-09
     2.128660095809e-10 5.160000000000e+02 1.404000000000e+03                   
     1.070000000000e+02 0.000000000000e+00-4.423782229424e-09-4.423782229424e-09
     1.848240000000e+05                                                         
E27 2026 07 21 03 20 24-1.049820624758e-03-1.055866505340e-11 0.000000000000e+00
     5.200000000000e+01 8.940625000000e+01 3.273350633907e-09 2.619482434198e+00
     4.265457391739e-06 2.435067435727e-04 8.448958396912e-06 5.440616310120e+03
     1.836000000000e+05-4.842877388000e-08-1.329059028392e+00 5.587935447693e-08
     9.605916105763e-01 1.595312500000e+02-8.823274492570e-01-5.588447066966e-09
     7.071723137082e-11 5.160000000000e+02 1.404000000000e+03                   
     1.070000000000e+02 0.000000000000e+00 2.328306436539e-10 2.328306436539e-10
     1.848240000000e+05                                                         
E21 2026 07 21 03 20 35-7.585512357764e-04-2.813749233610e-12 0.000000000000e+00
     5.200000000000e+01 1.138125000000e+02 3.210490872689e-09 1.815999025043e+00
     5.297362804413e-06 1.703940797597e-04 8.758157491684e-06 5.440617902756e+03
     1.782000000000e+05 6.705522537231e-08-1.329018030113e+00 1.490116119385e-08
     9.606202486606e-01 1.490625000000e+02-1.553197710496e+00-5.602733376334e-09
     1.571494030463e-11 1.000000000000e+00 1.404000000000e+03                   
     1.070000000000e+02 0.000000000000e+00 6.984919309616e-10 9.313225746155e-10
     1.848350000000e+05                                                         
E04 2026 07 21 03 20 54-1.224765437655e-04 3.342393029016e-11 0.000000000000e+00
     5.200000000000e+01-3.975000000000e+01 3.226562970727e-09 1.532569243101e+00
    -1.976266503334e-06 2.934620715678e-04 5.593523383141e-06 5.440608863831e+03
     1.836000000000e+05 1.303851604462e-08 2.852464529237e+00-1.862645149231e-08
     9.693525558934e-01 2.205000000000e+02-6.814173519964e-02-5.657735667400e-09
     2.146517982518e-10 5.160000000000e+02 1.404000000000e+03                   
     1.070000000000e+02 0.000000000000e+00-4.190951585770e-09-4.656612873077e-09
     1.848540000000e+05                                                         
E19 2026 07 21 03 20 54 3.108318138402e-03 2.445688096486e-11 0.000000000000e+00
     5.200000000000e+01-4.621875000000e+01 3.118344177266e-09 2.526773956655e+00
    -2.037733793259e-06 2.437313087285e-04 5.694106221199e-06 5.440617250443e+03
     1.836000000000e+05 4.470348358154e-08 2.860562763887e+00-3.166496753693e-08
     9.747221776854e-01 2.226562500000e+02-2.389745702958e-01-5.593804432979e-09
     2.192948487964e-10 5.160000000000e+02 1.404000000000e+03                   
     1.070000000000e+02 0.000000000000e+00-4.423782229424e-09-4.423782229424e-09
     1.848540000000e+05                                                         
E23 2026 07 21 03 21 05-4.268635530025e-05-1.350031197944e-12 0.000000000000e+00
     5.200000000000e+01 1.184062500000e+02 3.143702376394e-09 2.901419929980e+00
     5.444511771202e-06 1.718186540529e-04 9.061768651009e-06 5.440622465134e+03
     1.836000000000e+05-7.450580596924e-09-1.332210876616e+00-2.607703208923e-08
     9.625505500483e-01 1.461250000000e+02-2.755825969088e+00-5.554517082217e-09
     4.643050544549e-12 1.000000000000e+00 1.404000000000e+03                   
     1.070000000000e+02 0.000000000000e+00 4.656612873077e-10 1.862645149231e-09
     1.848650000000e+05                                                         
E28 2026 07 21 03 21 05-6.029597716406e-05-2.856381797756e-12 0.000000000000e+00
     5.200000000000e+01-4.278125000000e+01 3.551219351112e-09-1.288110472343e-01
    -1.991167664528e-06 2.851557219401e-04 5.381181836128e-06 5.440609237671e+03
     1.836000000000e+05 1.490116119385e-08 2.870159980472e+00-9.313225746155e-09
     9.490518918664e-01 2.151875000000e+02 1.959078299978e+00-5.851672317069e-09
     2.078658013021e-10 1.000000000000e+00 1.404000000000e+03                   
     1.070000000000e+02 0.000000000000e+00 9.313225746155e-10 1.862645149231e-09
     1.848650000000e+05                                                         
E19 2026 07 21 03 21 05 3.108332632110e-03 2.444267011015e-11 0.000000000000e+00
     5.300000000000e+01-4.621875000000e+01 3.118344177266e-09 2.526773956655e+00
    -2.037733793259e-06 2.437313087285e-04 5.694106221199e-06 5.440617250443e+03
     1.836000000000e+05 5.029141902924e-08 2.860559381620e+00-2.980232238770e-08
     9.747223327547e-01 2.226562500000e+02-2.389731073777e-01-5.593804432979e-09
     2.192948487964e-10 1.000000000000e+00 1.404000000000e+03                   
     1.070000000000e+02 0.000000000000e+00-4.423782229424e-09-4.423782229424e-09
     1.848650000000e+05                                                         
E04 2026 07 21 03 21 05-1.224564621225e-04 3.342393029016e-11 0.000000000000e+00
     5.300000000000e+01-3.975000000000e+01 3.226562970727e-09 1.532569243101e+00
    -1.976266503334e-06 2.934620715678e-04 5.593523383141e-06 5.440608863831e+03
     1.836000000000e+05 1.676380634308e-08 2.852461152822e+00-1.862645149231e-08
     9.693526890190e-01 2.205000000000e+02-6.804140827777e-02-5.657735667400e-09
     2.132231673151e-10 1.000000000000e+00 1.404000000000e+03                   
     1.070000000000e+02 0.000000000000e+00-4.190951585770e-09-4.656612873077e-09
     1.848650000000e+05                                                         
E21 2026 07 21 03 21 05-7.585528655909e-04-2.813749233610e-12 0.000000000000e+00
     5.300000000000e+01 1.009062500000e+02 3.319781139353e-09 2.490841508244e+00
     4.809349775314e-06 1.727784983814e-04 8.186325430870e-06 5.440612791061e+03
     1.836000000000e+05 6.332993507385e-08-1.329021446026e+00 2.607703208923e-08
     9.606202223281e-01 1.643750000000e+02-1.553161481330e+00-5.619519789841e-09
     2.321525272275e-11 1.000000000000e+00 1.404000000000e+03                   
     1.070000000000e+02 0.000000000000e+00 6.984919309616e-10 9.313225746155e-10
     1.848650000000e+05                                                         
END OF FILE                                                 COMMENT
