     3.05           N: NAVIGATION       M: MIXED            RINEX VERSION / TYPE
PYRINEXCONV 0.1.2 ALDELTUNES            20260721 082239 UTC PGM / RUN BY / DATE
GAL    1.0175e+02  3.3203e-01  2.2858e-02             I 12  IONOSPHERIC CORR
GPSA   1.1176e-08  2.2352e-08  1.5199e-05  1.5140e-05 I 14  IONOSPHERIC CORR
GPSB   1.0650e+05  1.4746e+05  1.6712e+07  1.6450e+07 I 14  IONOSPHERIC CORR
BDSA   2.0489e-08  5.2154e-08 -6.5565e-07  1.1325e-06 I 39  IONOSPHERIC CORR
BDSB   1.3926e+05 -6.0621e+05  5.0463e+06 -4.3254e+06 I 39  IONOSPHERIC CORR
GAUT  6.5192580223e-09-2.664535259e-15 200400 1404   E12  0 TIME SYSTEM CORR
GPUT  9.8953023553e-10-1.767030966e-12 415200 2428   G14  0 TIME SYSTEM CORR
BDUT  0.0000000000e+00 0.000000000e+00 201600 1072   C39  0 TIME SYSTEM CORR
                                                            END OF HEADER
C36 2026 07 21 08 16 54 2.596018603072e-04-4.320099833421e-12 0.000000000000e+00
     1.000000000000e+00 1.542187500000e+01 4.059097649138e-09-2.981974030616e+00
     7.343478500843e-07 8.160521974787e-04 9.567942470312e-06 5.282653308868e+03
     2.016000000000e+05 1.257285475731e-08-2.018576818193e+00 4.748487845063e-05
     9.451397651163e-01 1.568593750000e+02-1.024440970044e+00 1.387761377260e-07
    -3.714440435639e-11                    1.072000000000e+03                   
     0.000000000000e+00 0.000000000000e+00-9.639188647270e-08-9.639188647270e-08
     2.026140000000e+05 1.000000000000e+00                                      
C30 2026 07 21 08 16 54 4.927918780595e-04 7.474021401777e-12 0.000000000000e+00
     1.000000000000e+00 1.251562500000e+01 4.366253300547e-09 1.314716285496e-02
     7.352791726589e-07 4.701827419922e-04 3.719702363014e-06 5.282649618149e+03
     2.016000000000e+05 7.031485438347e-08 3.472310669963e-02 1.446064561605e-05
     9.455191568281e-01 2.751093750000e+02 9.821292742436e-01-2.044309439408e-06
    -2.150089559860e-10                    1.072000000000e+03                   
     0.000000000000e+00 0.000000000000e+00-4.516914486885e-08-4.516914486885e-08
     2.026140000000e+05 1.000000000000e+00                                      
C11 2026 07 21 08 16 54-7.890666602179e-04-2.155786660296e-11 0.000000000000e+00
     1.000000000000e+00 4.703125000000e+00 4.238390831705e-09 1.209906606655e+00
     2.686865627766e-07 1.699145650491e-04 3.708992153406e-06 5.282640985489e+03
     2.016000000000e+05-1.629814505577e-08 7.440371653916e-02 5.046837031841e-05
     9.504523535841e-01 2.779218750000e+02-6.662516928116e-01 7.528356443407e-07
    -2.492960984689e-10                    1.072000000000e+03                   
     0.000000000000e+00 0.000000000000e+00 1.350417733192e-08 1.350417733192e-08
     2.026140000000e+05 1.000000000000e+00                                      
C29 2026 07 21 08 16 54 6.338179809973e-04 5.240252676231e-12 0.000000000000e+00
     1.000000000000e+00 5.515625000000e+00 4.330537527128e-09-1.892395480313e+00
     2.798624336720e-07 2.190576633438e-04 3.743451088667e-06 5.282656152725e+03
     2.016000000000e+05-2.700835466385e-08 3.425795141547e-02 4.335166886449e-05
     9.455638621417e-01 2.762343750000e+02 2.117102114029e+00-2.497539746841e-06
    -2.225092684042e-10                    1.072000000000e+03                   
     0.000000000000e+00 0.000000000000e+00 9.313225746155e-10 9.313225746155e-10
     2.026140000000e+05 1.000000000000e+00                                      
C39 2026 07 21 08 16 54-9.576437296346e-04 8.848921595472e-12 0.000000000000e+00
     1.000000000000e+00 1.939062500000e+01 4.016238721035e-09 1.470108519121e+00
     7.110647857189e-07 5.727914394811e-04 9.650364518166e-06 5.282661041260e+03
     2.016000000000e+05 5.494803190231e-08-2.011473458538e+00 5.104346200824e-05
     9.490809205499e-01 1.586875000000e+02 5.823257035172e-02 1.083409771223e-06
    -8.464638300447e-11                    1.072000000000e+03                   
     0.000000000000e+00 0.000000000000e+00 8.987262845039e-08 8.987262845039e-08
     2.026140000000e+05 1.000000000000e+00                                      
E09 2026 07 21 08 18 24-3.008393687196e-04 1.796252036002e-11 3.469446951954e-18
     7.800000000000e+01-4.043750000000e+01 3.062627570731e-09 2.231102926804e+00
    -1.855194568634e-06 4.994859918952e-04 5.761161446571e-06 5.440615755081e+03
     1.992000000000e+05 5.774199962616e-08 2.855532483498e+00 1.117587089539e-08
     9.750928474796e-01 2.231875000000e+02 3.877405252578e-01-5.604876322739e-09
     1.696499237431e-10 5.160000000000e+02 1.404000000000e+03                   
     1.070000000000e+02 0.000000000000e+00 6.984919309616e-10 9.313225746155e-10
     2.027040000000e+05                                                         
G06 2026 07 21 08 18 24-5.693228158634e-04 7.972289495228e-12 0.000000000000e+00
     5.177974700928e-03-2.061328125000e+01 4.004452515806e-09 9.323627841724e-01
    -1.042149960995e-06 3.692717407830e-03 6.204470992088e-06 5.153498310652e+03
     1.845000000000e+05 1.676380634308e-08 5.836785092156e-01-2.700835466385e-08
     9.858739305207e-01 2.723945312500e+02-5.459911281849e-01-8.441009408259e-09
    -2.816188734136e-10 4.004452515806e-09-2.000000000000e+00 3.000000000000e+00
     2.800000000000e+01 4.000000000000e+00 3.725290298462e-09 7.000000000000e+00
     3.201421350241e-10-3.929017111659e-09 1.775333657861e-09 2.211891114712e-09
     2.027040000000e+05 2.428000000000e+03 0.000000000000e+00                   
G17 2026 07 21 08 20 00-1.762518950272e-04-6.032507826603e-12 0.000000000000e+00
     1.567840576172e-03 5.030078125000e+01 4.780913429949e-09 2.877903456025e+00
     2.684071660042e-06 1.261496293591e-02 4.846602678299e-06 5.153543879276e+03
     1.728000000000e+05 2.235174179077e-07-4.350272550770e-01 1.806765794754e-07
     9.574384859560e-01 2.814101562500e+02-1.098660480327e+00-8.214749983646e-09
    -3.142988060926e-11 4.780913429949e-09-2.000000000000e+00 3.000000000000e+00
     2.900000000000e+01 4.000000000000e+00-1.071020960808e-08 7.000000000000e+00
    -8.440110832453e-10 6.722984835505e-09 0.000000000000e+00 0.000000000000e+00
     2.028000000000e+05 2.428000000000e+03 0.000000000000e+00                   
E23 2026 07 21 08 20 35-4.271027864888e-05-1.307398633799e-12 0.000000000000e+00
     8.200000000000e+01 8.196875000000e+01 3.107629445240e-09-1.149231881824e+00
     3.989785909653e-06 1.745658228174e-04 8.692964911461e-06 5.440620819092e+03
     2.016000000000e+05-1.676380634308e-08-1.332311788705e+00-1.490116119385e-08
     9.625513575791e-01 1.551875000000e+02-2.756804339441e+00-5.508800892240e-09
     1.103617398666e-10 1.000000000000e+00 1.404000000000e+03                   
     1.070000000000e+02 0.000000000000e+00 4.656612873077e-10 1.862645149231e-09
     2.028350000000e+05                                                         
E31 2026 07 21 08 20 54-1.581120886840e-04-2.955857780762e-12 0.000000000000e+00
     8.200000000000e+01 9.012500000000e+01 3.136202063976e-09 3.014690369200e+00
     4.196539521217e-06 3.424104070291e-04 8.543953299522e-06 5.440614961624e+03
     2.016000000000e+05-9.313225746155e-09-1.329198719513e+00 2.980232238770e-08
     9.605974286015e-01 1.544375000000e+02-1.403643403610e+00-5.544159507926e-09
     9.321816862518e-11 5.160000000000e+02 1.404000000000e+03                   
     1.070000000000e+02 0.000000000000e+00 3.492459654808e-09 4.190951585770e-09
     2.028540000000e+05                                                         
E06 2026 07 21 08 20 54-3.006900078617e-04-5.044853423897e-12 0.000000000000e+00
     8.200000000000e+01-4.100000000000e+01 3.229063074867e-09 1.916034078670e+00
    -1.834705471992e-06 5.052263149992e-04 5.498528480530e-06 5.440612312317e+03
     2.016000000000e+05 4.842877388000e-08 2.852012607510e+00 5.029141902924e-08
     9.626624647443e-01 2.235625000000e+02 1.386915716572e+00-5.680593762389e-09
     1.728643433509e-10 5.160000000000e+02 1.404000000000e+03                   
     1.070000000000e+02 0.000000000000e+00 2.328306436539e-09 3.725290298462e-09
     2.028540000000e+05                                                         
E26 2026 07 21 08 20 54 3.676331834868e-04 1.084288214770e-11 0.000000000000e+00
     8.200000000000e+01-5.468750000000e+01 2.801545267034e-09-2.654624577689e+00
    -2.466142177582e-06 9.282596874982e-05 5.187466740608e-06 5.440599426270e+03
     2.016000000000e+05 6.146728992462e-08 7.665272165239e-01-1.862645149231e-09
     9.909287586746e-01 2.425937500000e+02-2.573339319375e+00-5.546659612065e-09
    -2.050085394286e-10 5.160000000000e+02 1.404000000000e+03                   
     1.070000000000e+02 0.000000000000e+00-5.122274160385e-09-5.587935447693e-09
     2.028540000000e+05                                                         
E09 2026 07 21 08 20 54-3.007959458046e-04 1.800515292416e-11 3.469446951954e-18
     8.200000000000e+01-3.825000000000e+01 3.034769267464e-09 2.528557465916e+00
    -1.790001988411e-06 4.990102024749e-04 5.664303898811e-06 5.440616699219e+03
     2.016000000000e+05 6.146728992462e-08 2.855519020263e+00 2.048909664154e-08
     9.750932951325e-01 2.264375000000e+02 3.878272836145e-01-5.598447483524e-09
     1.675069773380e-10 5.160000000000e+02 1.404000000000e+03                   
     1.070000000000e+02 0.000000000000e+00 6.984919309616e-10 9.313225746155e-10
     2.028540000000e+05                                                         
E23 2026 07 21 08 21 05-4.271115176380e-05-1.321609488514e-12 0.000000000000e+00
     8.300000000000e+01 8.196875000000e+01 3.107629445240e-09-1.149231881824e+00
     3.989785909653e-06 1.745658228174e-04 8.692964911461e-06 5.440620819092e+03
     2.016000000000e+05-1.117587089539e-08-1.332315115381e+00-1.490116119385e-08
     9.625514438912e-01 1.551875000000e+02-2.756300102300e+00-5.508800892240e-09
     1.103617398666e-10 1.000000000000e+00 1.404000000000e+03                   
     1.070000000000e+02 0.000000000000e+00 4.656612873077e-10 1.862645149231e-09
     2.028650000000e+05                                                         
G14 2026 07 21 08 22 24 7.499796629418e-04 2.557953848736e-13 0.000000000000e+00
    -2.422332763672e-04 4.229296875000e+01 4.912883212734e-09-6.744416370642e-01
     2.199783921242e-06 7.365882338490e-03 8.623115718365e-06 5.153562711095e+03
     2.016000000000e+05 1.080334186554e-07-1.524266816540e+00 7.264316082001e-08
     9.416386459321e-01 2.037539062500e+02-2.680705784030e+00-8.091173407614e-09
     6.785996949726e-11 4.912883212734e-09-3.000000000000e+00 2.000000000000e+00
     2.700000000000e+01 4.000000000000e+00-7.916241884232e-09 7.000000000000e+00
    -2.619344741106e-10 5.005858838558e-09-1.455191522837e-09-1.076841726899e-09
     2.029440000000e+05 2.428000000000e+03 0.000000000000e+00                   
E16 2026 07 21 08 22 35-4.646781599149e-05-2.501110429876e-12 0.000000000000e+00
     8.100000000000e+01 1.001562500000e+02 3.139416483584e-09-3.101724718553e+00
     4.405155777931e-06 4.923009546474e-04 8.720904588699e-06 5.440617143631e+03
     2.010000000000e+05 1.862645149231e-09-1.332432891990e+00 9.313225746155e-09
     9.625723314356e-01 1.570937500000e+02-2.472761177891e+00-5.512015311848e-09
     8.500354073867e-11 1.000000000000e+00 1.404000000000e+03                   
     1.070000000000e+02 0.000000000000e+00-3.725290298462e-09-2.328306436539e-09
     2.029550000000e+05                                                         
E33 2026 07 21 08 22 35-2.518517430872e-05-1.918465386552e-12 0.000000000000e+00
     7.800000000000e+01-4.137500000000e+01 2.569749897541e-09 3.016262805716e+00
    -2.013519406319e-06 1.653057988733e-04 5.841255187988e-06 5.440609649658e+03
     1.992000000000e+05-6.146728992462e-08 7.699806233665e-01-5.587935447693e-08
     9.976668979051e-01 2.278750000000e+02-3.028942813478e+00-5.452727127972e-09
    -2.860833450911e-10 1.000000000000e+00 1.404000000000e+03                   
     1.070000000000e+02 0.000000000000e+00-4.423782229424e-09-4.889443516731e-09
     2.029550000000e+05                                                         
E26 2026 07 21 08 22 54 3.676397027448e-04 1.084288214770e-11 0.000000000000e+00
     8.300000000000e+01-5.415625000000e+01 2.807974106250e-09-2.581828444272e+00
    -2.447515726089e-06 9.288045112044e-05 5.146488547325e-06 5.440599119186e+03
     2.022000000000e+05 5.774199962616e-08 7.665238605898e-01 3.725290298462e-09
     9.909286182344e-01 2.437500000000e+02-2.571749845715e+00-5.545945296597e-09
    -2.010798043524e-10 5.160000000000e+02 1.404000000000e+03                   
     1.070000000000e+02 0.000000000000e+00-5.122274160385e-09-5.587935447693e-09
     2.029740000000e+05                                                         
E31 2026 07 21 08 22 54-1.581138349138e-04-2.941646926047e-12 0.000000000000e+00
     8.300000000000e+01 8.787500000000e+01 3.123701543279e-09 3.089516060071e+00
     4.114583134651e-06 3.421820001677e-04 8.549541234970e-06 5.440615501404e+03
     2.022000000000e+05-1.303851604462e-08-1.329202071059e+00 2.607703208923e-08
     9.605974827295e-01 1.542812500000e+02-1.404083529829e+00-5.542016561521e-09
     9.500395729616e-11 5.160000000000e+02 1.404000000000e+03                   
     1.070000000000e+02 0.000000000000e+00 3.492459654808e-09 4.190951585770e-09
     2.029740000000e+05                                                         
E09 2026 07 21 08 22 54-3.007852938026e-04 1.800515292416e-11 3.469446951954e-18
     8.300000000000e+01-3.806250000000e+01 3.036912213869e-09 2.602961589147e+00
    -1.782551407814e-06 4.989944864064e-04 5.662441253662e-06 5.440616731644e+03
     2.022000000000e+05 6.146728992462e-08 2.855515667255e+00 1.303851604462e-08
     9.750933682784e-01 2.263750000000e+02 3.878083563804e-01-5.602376218600e-09
     1.692927660089e-10 5.160000000000e+02 1.404000000000e+03                   
     1.070000000000e+02 0.000000000000e+00 6.984919309616e-10 9.313225746155e-10
     2.029740000000e+05                                                         
E06 2026 07 21 08 22 54-3.006930928677e-04-5.044853423897e-12 0.000000000000e+00
     8.300000000000e+01-4.162500000000e+01 3.227991601664e-09 1.990483499696e+00
    -1.840293407440e-06 5.052951164544e-04 5.492940545082e-06 5.440612165451e+03
     2.022000000000e+05 2.421438694000e-08 2.852009228169e+00 6.332993507385e-08
     9.626626827191e-01 2.237812500000e+02 1.386851656852e+00-5.667736083958e-09
     1.600066649198e-10 5.160000000000e+02 1.404000000000e+03                   
     1.070000000000e+02 0.000000000000e+00 2.328306436539e-09 3.725290298462e-09
     2.029740000000e+05                                                         
E12 2026 07 21 08 22 54-5.898519884795e-05-2.557953848736e-12 0.000000000000e+00
     8.000000000000e+01-4.656250000000e+01 2.602251251353e-09-1.541989154015e+00
    -2.337619662285e-06 3.188102273270e-04 6.387010216713e-06 5.440606094360e+03
     2.004000000000e+05-3.166496753693e-08 7.695124734890e-01 1.490116119385e-08
     9.945614680715e-01 2.191875000000e+02 8.649107058597e-01-5.409153884400e-09
    -2.667968274445e-10 5.160000000000e+02 1.404000000000e+03                   
     1.070000000000e+02 0.000000000000e+00-1.187436282635e-08-1.164153218269e-08
     2.029740000000e+05                                                         
END OF FILE                                                 COMMENT
