     3.05           N: NAVIGATION       M: MIXED            RINEX VERSION / TYPE
PYRINEXCONV 0.1.2 ALDELTUNES            20260721 040105 UTC PGM / RUN BY / DATE
GAL    1.0175e+02  3.3203e-01  2.2858e-02             E 28  IONOSPHERIC CORR
GPSA   9.3132e-09  2.2352e-08  1.5199e-05  1.5140e-05 D 07  IONOSPHERIC CORR
GPSB   1.0035e+05  1.3107e+05  1.6712e+07  1.6318e+07 D 07  IONOSPHERIC CORR
BDSA   2.0489e-08  2.2352e-08 -5.3644e-07  9.5367e-07 D 19  IONOSPHERIC CORR
BDSB   1.3722e+05 -5.4067e+05  4.7841e+06 -4.1943e+06 D 19  IONOSPHERIC CORR
GAUT  6.5192580223e-09-2.664535259e-15 183600 1404   E28  0 TIME SYSTEM CORR
GPUT -3.2887328416e-09 2.242650510e-13 371100 2428   G07  0 TIME SYSTEM CORR
BDUT  0.0000000000e+00 0.000000000e+00 183600 1072   C19  0 TIME SYSTEM CORR
                                                            END OF HEADER
C37 2026 07 21 03 52 54-9.073218097910e-04 6.912692640526e-12 0.000000000000e+00
     1.000000000000e+00 1.870312500000e+01 4.227318941945e-09 1.807858117073e+00
     9.704381227493e-07 7.142786635086e-04 9.984243661165e-06 5.282670188904e+03
     1.836000000000e+05 1.033768057823e-07-2.018588858008e+00 2.123694866896e-05
     9.451554168769e-01 1.506406250000e+02-3.737505255582e-01 1.271642254718e-07
    -1.353627812603e-10                    1.072000000000e+03                   
     0.000000000000e+00 0.000000000000e+00-7.823109626770e-08-7.823109626770e-08
     1.867740000000e+05 1.000000000000e+00                                      
C12 2026 07 21 03 52 54 6.157959578559e-04-5.023537141824e-12 0.000000000000e+00
     1.000000000000e+00-1.328125000000e+01 3.553719455251e-09 1.630469720774e+00
    -6.719492375851e-07 1.762796891853e-04 7.256865501404e-06 5.282643817902e+03
     1.836000000000e+05 5.168840289116e-08 2.170705963302e+00-5.243392661214e-05
     9.735964315022e-01 2.174062500000e+02 7.076383474747e-01-1.376624127635e-06
     4.250177036933e-10                    1.072000000000e+03                   
     0.000000000000e+00 0.000000000000e+00 3.725290298462e-09 3.725290298462e-09
     1.867740000000e+05 1.000000000000e+00                                      
C20 2026 07 21 03 52 54-8.893182966858e-04 3.042899265893e-12 0.000000000000e+00
     1.000000000000e+00-1.395312500000e+01 3.250849696653e-09 2.356942117403e+00
    -6.514601409435e-07 8.090336341411e-04 7.441267371178e-06 5.282635536194e+03
     1.836000000000e+05 3.539025783539e-08 2.185679637896e+00-6.793998181820e-07
     9.899301839599e-01 2.225312500000e+02 2.744138148940e-01 1.258868508355e-06
     4.293035965037e-10                    1.072000000000e+03                   
     0.000000000000e+00 0.000000000000e+00 5.541369318962e-08 5.541369318962e-08
     1.867740000000e+05 1.000000000000e+00                                      
C27 2026 07 21 03 52 54 6.608521798626e-04 4.879652237832e-12 0.000000000000e+00
     1.000000000000e+00-7.343750000000e+00 4.175173912752e-09-2.323725907026e+00
    -4.265457391739e-07 6.343512795866e-04 4.060566425323e-06 5.282657773972e+03
     1.836000000000e+05-2.002343535423e-08 7.573407814834e-02 4.576845094562e-05
     9.479145505944e-01 2.749375000000e+02 1.691837188518e+00 2.052135479680e-06
    -3.314423773340e-10                    1.072000000000e+03                   
     0.000000000000e+00 0.000000000000e+00-2.002343535423e-08-2.002343535423e-08
     1.867740000000e+05 1.000000000000e+00                                      
C19 2026 07 21 03 52 54-9.326343424618e-04 8.508749260727e-13 0.000000000000e+00
     1.000000000000e+00-1.856250000000e+01 3.239420649158e-09 2.232843650100e+00
    -9.979121387005e-07 7.839655736461e-04 7.412862032652e-06 5.282632442474e+03
     1.836000000000e+05 4.284083843231e-08 2.185052050428e+00 9.068287909031e-06
     9.899450632997e-01 2.229531250000e+02-3.180424017541e-01 6.475976893289e-07
     4.132314984649e-10                    1.072000000000e+03                   
     0.000000000000e+00 0.000000000000e+00 4.330649971962e-08 4.330649971962e-08
     1.867740000000e+05 1.000000000000e+00                                      
G04 2026 07 21 03 54 48 6.273915641941e-05 6.998845947237e-13 0.000000000000e+00
     2.199172973633e-03-2.011328125000e+01 4.413219542594e-09-5.311305949440e-01
    -1.107342541218e-06 3.822266007774e-03 6.177462637424e-06 5.153549172013e+03
     1.233000000000e+05 8.102506399155e-08 2.690104707190e+00 1.955777406693e-08
     9.724425592559e-01 2.658359375000e+02-2.901889416965e+00-8.267966486041e-09
     2.787616115400e-10 4.413219542594e-09-2.000000000000e+00 3.000000000000e+00
     3.000000000000e+01 4.000000000000e+00-4.656612873077e-09 7.000000000000e+00
    -2.037268131971e-10 3.317836672068e-09-1.426087692380e-09-1.396983861923e-09
     1.868880000000e+05 2.428000000000e+03 0.000000000000e+00                   
G07 2026 07 21 03 59 12-2.078761754092e-04-3.755218358492e-12 0.000000000000e+00
     4.545211791992e-03-3.667578125000e+01 4.786092217095e-09-3.008415293281e+00
    -1.901760697365e-06 2.093720907578e-02 8.634291589260e-06 5.153634460868e+03
     1.161000000000e+05 3.129243850708e-07-2.586013350385e+00-2.095475792885e-07
     9.513214732150e-01 2.023242187500e+02-1.955314085949e+00-8.547620991917e-09
    -1.098260032653e-10 4.786092217095e-09-2.000000000000e+00 3.000000000000e+00
     3.100000000000e+01 4.000000000000e+00-1.071020960808e-08 7.000000000000e+00
    -9.313225746155e-10 6.984919309616e-09 0.000000000000e+00 0.000000000000e+00
     1.871520000000e+05 2.428000000000e+03 0.000000000000e+00                   
G09 2026 07 21 03 59 12 7.171775796451e-04-6.988187806201e-12 0.000000000000e+00
     1.067161560059e-03-1.843359375000e+01 4.531081594879e-09 3.367306725841e-01
    -1.054257154465e-06 3.669601399451e-03 6.325542926788e-06 5.153528200759e+03
     1.395000000000e+05 1.117587089539e-08 2.624931008947e+00-4.284083843231e-08
     9.667048365538e-01 2.602773437500e+02 2.038101396132e+00-8.187427416980e-09
     2.962623405157e-10 4.531081594879e-09-2.000000000000e+00 3.000000000000e+00
     3.000000000000e+01 4.000000000000e+00 4.656612873077e-10 7.000000000000e+00
    -5.820766091347e-10-7.275957614183e-10 5.064066499472e-09 5.617039278150e-09
     1.871520000000e+05 2.428000000000e+03 0.000000000000e+00                   
E19 2026 07 21 04 00 05 3.108376520686e-03 2.444267011015e-11 0.000000000000e+00
     5.600000000000e+01-4.625000000000e+01 3.127630278355e-09 2.824552663785e+00
    -2.037733793259e-06 2.434833440930e-04 5.656853318214e-06 5.440617748260e+03
     1.860000000000e+05-2.421438694000e-08 2.860549568366e+00-2.048909664154e-08
     9.747224410107e-01 2.248125000000e+02-2.392123705554e-01-5.644520831235e-09
     2.175090601254e-10 1.000000000000e+00 1.404000000000e+03                   
     1.070000000000e+02 0.000000000000e+00-4.423782229424e-09-4.423782229424e-09
     1.872050000000e+05                                                         
E19 2026 07 21 04 00 35 3.108391014393e-03 2.442845925543e-11 0.000000000000e+00
     5.700000000000e+01-4.625000000000e+01 3.127630278355e-09 2.824552663785e+00
    -2.037733793259e-06 2.434833440930e-04 5.656853318214e-06 5.440617748260e+03
     1.860000000000e+05-3.725290298462e-08 2.860549568366e+00-2.980232238770e-08
     9.747224410107e-01 2.248125000000e+02-2.392123705554e-01-5.644520831235e-09
     2.175090601254e-10 1.000000000000e+00 1.404000000000e+03                   
     1.070000000000e+02 0.000000000000e+00-4.423782229424e-09-4.423782229424e-09
     1.872350000000e+05                                                         
E31 2026 07 21 04 00 54-1.580663374625e-04-2.984279490192e-12 0.000000000000e+00
     5.600000000000e+01 1.214687500000e+02 3.162631736306e-09 1.073256341732e+00
     5.604699254036e-06 3.409023629501e-04 9.231269359589e-06 5.440619222641e+03
     1.860000000000e+05 1.862645149231e-09-1.329111839734e+00-3.725290298462e-09
     9.605966649583e-01 1.440000000000e+02-1.396226490872e+00-5.545945296597e-09
     4.857345185067e-11 5.160000000000e+02 1.404000000000e+03                   
     1.070000000000e+02 0.000000000000e+00 3.492459654808e-09 4.190951585770e-09
     1.872540000000e+05                                                         
E21 2026 07 21 04 01 05-7.585562416352e-04-2.813749233610e-12 0.000000000000e+00
     5.500000000000e+01 1.006875000000e+02 3.320138297087e-09 2.714061811340e+00
     4.794448614120e-06 1.726628979668e-04 8.253380656242e-06 5.440613023758e+03
     1.854000000000e+05 5.029141902924e-08-1.329028293946e+00 4.842877388000e-08
     9.606201886810e-01 1.634687500000e+02-1.553261353284e+00-5.615233897031e-09
     3.821587755898e-11 1.000000000000e+00 1.404000000000e+03                   
     1.070000000000e+02 0.000000000000e+00 6.984919309616e-10 9.313225746155e-10
     1.872650000000e+05                                                         
E04 2026 07 21 04 01 05-1.224564621225e-04 3.342393029016e-11 0.000000000000e+00
     5.300000000000e+01-4.006250000000e+01 3.221562762449e-09 1.606854570068e+00
    -1.966953277588e-06 2.934384392574e-04 5.589798092842e-06 5.440608936310e+03
     1.842000000000e+05 1.676380634308e-08 2.852461152822e+00-1.862645149231e-08
     9.693526890190e-01 2.203750000000e+02-6.804140827777e-02-5.659164298337e-09
     2.132231673151e-10 1.000000000000e+00 1.404000000000e+03                   
     1.070000000000e+02 0.000000000000e+00-4.190951585770e-09-4.656612873077e-09
     1.872650000000e+05                                                         
E28 2026 07 21 04 01 05-6.029597716406e-05-2.856381797756e-12 0.000000000000e+00
     5.200000000000e+01-4.278125000000e+01 3.551219351112e-09-1.288110472343e-01
    -1.991167664528e-06 2.851557219401e-04 5.381181836128e-06 5.440609237671e+03
     1.836000000000e+05 1.490116119385e-08 2.870159980472e+00-9.313225746155e-09
     9.490518918664e-01 2.151875000000e+02 1.959078299978e+00-5.851672317069e-09
     2.078658013021e-10 1.000000000000e+00 1.404000000000e+03                   
     1.070000000000e+02 0.000000000000e+00 9.313225746155e-10 1.862645149231e-09
     1.872650000000e+05                                                         
E23 2026 07 21 04 01 05-4.268635530025e-05-1.350031197944e-12 0.000000000000e+00
     5.200000000000e+01 1.184062500000e+02 3.143702376394e-09 2.901419929980e+00
     5.444511771202e-06 1.718186540529e-04 9.061768651009e-06 5.440622465134e+03
     1.836000000000e+05-7.450580596924e-09-1.332210876616e+00-2.607703208923e-08
     9.625505500483e-01 1.461250000000e+02-2.755825969088e+00-5.554517082217e-09
     4.643050544549e-12 1.000000000000e+00 1.404000000000e+03                   
     1.070000000000e+02 0.000000000000e+00 4.656612873077e-10 1.862645149231e-09
     1.872650000000e+05                                                         
E31 2026 07 21 04 01 05-1.580680836923e-04-2.984279490192e-12 0.000000000000e+00
     5.700000000000e+01 1.214687500000e+02 3.162631736306e-09 1.073256341732e+00
     5.604699254036e-06 3.409023629501e-04 9.231269359589e-06 5.440619222641e+03
     1.860000000000e+05 1.862645149231e-09-1.329115167873e+00-3.725290298462e-09
     9.605966942166e-01 1.440000000000e+02-1.395725971006e+00-5.545945296597e-09
     4.857345185067e-11 1.000000000000e+00 1.404000000000e+03                   
     1.070000000000e+02 0.000000000000e+00 3.492459654808e-09 4.190951585770e-09
     1.872650000000e+05                                                         
END OF FILE                                                 COMMENT
