     3.05           N: NAVIGATION       M: MIXED            RINEX VERSION / TYPE
PYRINEXCONV 0.1.2 ALDELTUNES            20260721 045121 UTC PGM / RUN BY / DATE
GAL    1.0175e+02  3.3203e-01  2.2858e-02             E 28  IONOSPHERIC CORR
GPSA   9.3132e-09  2.2352e-08 -5.9605e-08 -1.1921e-07 E 14  IONOSPHERIC CORR
GPSB   1.0035e+05  1.3107e+05 -6.5536e+04 -4.5875e+05 E 14  IONOSPHERIC CORR
GAUT  6.5192580223e-09-2.664535259e-15 189600 1404   E28  0 TIME SYSTEM CORR
GPUT -3.5527136788e-15-3.725290298e-09 194400  380   G14  0 TIME SYSTEM CORR
                                                            END OF HEADER
E19 2026 07 21 04 43 25 3.108420118224e-03 2.441424840072e-11 0.000000000000e+00
     5.900000000000e+01-4.403125000000e+01 3.094771766809e-09 3.048866073898e+00
    -1.968815922737e-06 2.429059240967e-04 5.505979061127e-06 5.440619012833e+03
     1.878000000000e+05-1.676380634308e-08 2.860539399622e+00-2.235174179077e-08
     9.747228433132e-01 2.296250000000e+02-2.403696938254e-01-5.641306411627e-09
     2.182233755938e-10 1.000000000000e+00 1.404000000000e+03                   
     1.070000000000e+02 0.000000000000e+00-4.423782229424e-09-4.423782229424e-09
     1.898050000000e+05                                                         
E21 2026 07 21 04 45 04-7.585562416352e-04-2.813749233610e-12 0.000000000000e+00
     5.500000000000e+01 1.006875000000e+02 3.320138297087e-09 2.714061811340e+00
     4.794448614120e-06 1.726628979668e-04 8.253380656242e-06 5.440613023758e+03
     1.854000000000e+05 5.029141902924e-08-1.329028293946e+00 4.842877388000e-08
     9.606201886810e-01 1.634687500000e+02-1.553261353284e+00-5.615233897031e-09
     3.821587755898e-11 5.160000000000e+02 1.404000000000e+03                   
     1.070000000000e+02 0.000000000000e+00 6.984919309616e-10 9.313225746155e-10
     1.899040000000e+05                                                         
G07 2026 07 21 04 49 36-2.079032128677e-04-3.755218358492e-12 0.000000000000e+00
    -5.875587463379e-03-2.107812500000e+01 4.738947396181e-09-1.958368274151e+00
    -1.118518412113e-06 2.093622175744e-02 8.556991815567e-06 5.153637853118e+03
     1.161000000000e+05 3.129243850708e-07-2.586070385172e+00 6.239861249924e-08
     9.513216685146e-01 2.053984375000e+02-1.955131948259e+00-8.543692256841e-09
     7.393165097859e-11 4.738947396181e-09-2.000000000000e+00 3.000000000000e+00
     3.100000000000e+01 4.000000000000e+00-1.071020960808e-08 7.000000000000e+00
    -9.313225746155e-10 6.984919309616e-09 0.000000000000e+00 0.000000000000e+00
     1.901760000000e+05 2.428000000000e+03 0.000000000000e+00                   
G09 2026 07 21 04 49 36 7.171272591222e-04-6.991740519879e-12 0.000000000000e+00
     3.526687622070e-03-1.656250000000e+01 4.419469802942e-09 1.386780316189e+00
    -9.629875421524e-07 3.668958088383e-03 6.236135959625e-06 5.153526767805e+03
     1.395000000000e+05 1.192092895508e-07 2.624872550741e+00 7.450580596924e-09
     9.667074427424e-01 2.606484375000e+02 2.038220855097e+00-8.294574737239e-09
     2.851904507556e-10 4.419469802942e-09-2.000000000000e+00 3.000000000000e+00
     3.000000000000e+01 4.000000000000e+00 4.656612873077e-10 7.000000000000e+00
    -5.820766091347e-10-7.275957614183e-10 5.064066499472e-09 5.617039278150e-09
     1.901760000000e+05 2.428000000000e+03 0.000000000000e+00                   
E04 2026 07 21 04 50 54-1.222949940711e-04 3.352340627316e-11 0.000000000000e+00
     6.100000000000e+01-4.256250000000e+01 3.180846780750e-09 2.201363774266e+00
    -1.920387148857e-06 2.931870985776e-04 5.606561899185e-06 5.440609531403e+03
     1.890000000000e+05 2.607703208923e-08 2.852434020081e+00-1.303851604462e-08
     9.693537042841e-01 2.210312500000e+02-6.746557153757e-02-5.663093033413e-09
     2.089372745047e-10 5.160000000000e+02 1.404000000000e+03                   
     1.070000000000e+02 0.000000000000e+00-4.190951585770e-09-4.656612873077e-09
     1.902540000000e+05                                                         
E28 2026 07 21 04 50 54-6.031146040186e-05-2.842170943040e-12 0.000000000000e+00
     6.100000000000e+01-4.415625000000e+01 3.510503369413e-09 5.399629123769e-01
    -1.968815922737e-06 2.853357000276e-04 5.418434739113e-06 5.440609764099e+03
     1.890000000000e+05 2.421438694000e-08 2.870128356572e+00-3.725290298462e-09
     9.490530446459e-01 2.169062500000e+02 1.959776644404e+00-5.846672108790e-09
     2.067943280995e-10 5.160000000000e+02 1.404000000000e+03                   
     1.070000000000e+02 0.000000000000e+00 9.313225746155e-10 1.862645149231e-09
     1.902540000000e+05                                                         
G30 2026 07 21 04 51 12 3.025251789950e-04 1.329425458607e-11 0.000000000000e+00
    -3.261566162109e-03-2.504296875000e+01 5.127356432119e-09-2.266179138040e+00
    -1.365318894386e-06 8.216449525207e-03 8.302740752697e-06 5.153540978890e+03
     1.107000000000e+05 1.396983861923e-07-2.597136550716e+00-1.210719347000e-08
     9.366274697908e-01 2.046562500000e+02-2.258832282254e+00-8.150104433757e-09
    -9.464679956196e-12 5.127356432119e-09-2.000000000000e+00 3.000000000000e+00
     3.100000000000e+01 4.000000000000e+00 4.190951585770e-09 7.000000000000e+00
    -1.513399183750e-09-3.259629011154e-09 2.328306436539e-09 3.230525180697e-09
     1.902720000000e+05 2.428000000000e+03 0.000000000000e+00                   
G14 2026 07 21 04 51 12 7.499761122745e-04 2.593480985524e-13 0.000000000000e+00
    -2.451896667480e-03 6.748828125000e+01 4.874488756308e-09-2.862347758742e+00
     3.377906978130e-06 7.362615899183e-03 9.466893970966e-06 5.153559374317e+03
     1.152000000000e+05-6.146728992462e-08-1.524144717008e+00-1.182779669762e-07
     9.416378201149e-01 1.868945312500e+02-2.680703005217e+00-8.281895637675e-09
     1.892935991239e-11 4.874488756308e-09-2.000000000000e+00 3.000000000000e+00
     3.100000000000e+01 4.000000000000e+00-7.916241884232e-09 7.000000000000e+00
    -2.619344741106e-10 5.005858838558e-09-1.455191522837e-09-1.076841726899e-09
     1.902720000000e+05 2.428000000000e+03 0.000000000000e+00                   
G07 2026 07 21 04 51 24-2.079098485410e-04-3.751665644813e-12 0.000000000000e+00
     9.700000000000e+01-2.071875000000e+01 4.741626079187e-09-1.695767174572e+00
    -9.015202522278e-07 2.093818434514e-02 7.875263690948e-06 5.153584897995e+03
     1.944000000000e+05 4.228204488754e-07-2.586084121241e+00 1.657754182816e-07
     9.513214629746e-01 2.134062500000e+02-1.955170504928e+00-7.871042146213e-09
     1.142904749427e-11 1.000000000000e+00 3.800000000000e+02 0.000000000000e+00
     2.000000000000e+00 0.000000000000e+00-1.071020960808e-08 9.700000000000e+01
     7.611360000000e+05 4.000000000000e+00                                      
G09 2026 07 21 04 51 24 7.171146571636e-04-7.048583938740e-12 0.000000000000e+00
     7.400000000000e+01-1.984375000000e+01 4.403754862638e-09 1.649337004501e+00
    -1.048669219017e-06 3.670229576528e-03 6.090849637985e-06 5.153696254730e+03
     1.944000000000e+05 1.378357410431e-07 2.624858163673e+00 3.166496753693e-08
     9.667080432703e-01 2.642812500000e+02 2.038203357865e+00-8.018548290436e-09
     2.792973481413e-10 1.000000000000e+00 3.800000000000e+02 0.000000000000e+00
     2.000000000000e+00 0.000000000000e+00 4.656612873077e-10 7.400000000000e+01
     7.611360000000e+05 4.000000000000e+00                                      
G02 2026 07 21 04 51 24 1.419312320650e-04 7.275957614183e-12 0.000000000000e+00
     1.300000000000e+01-2.415625000000e+01 4.525188492264e-09 1.292985379128e+00
    -1.484528183937e-06 1.689662365243e-02 4.813075065613e-06 5.153731765747e+03
     1.944000000000e+05 3.483146429062e-07 4.674341725895e-01 1.862645149231e-09
     9.620966197345e-01 2.790000000000e+02-7.358926908272e-01-8.126767083898e-09
    -4.053740283126e-10 1.000000000000e+00 3.800000000000e+02 0.000000000000e+00
     2.000000000000e+00 0.000000000000e+00-1.722946763039e-08 1.300000000000e+01
     7.611360000000e+05 4.000000000000e+00                                      
G30 2026 07 21 04 51 24 3.025494515896e-04 1.330136001343e-11 0.000000000000e+00
     9.900000000000e+01-2.796875000000e+01 5.111641491814e-09-2.003574362149e+00
    -1.674517989159e-06 8.217569906265e-03 7.912516593933e-06 5.153681093216e+03
     1.944000000000e+05 1.247972249985e-07-2.597151349596e+00 5.587935447693e-09
     9.366274792998e-01 2.088437500000e+02-2.258889940976e+00-8.182126532698e-09
     3.928735076157e-12 1.000000000000e+00 3.800000000000e+02 0.000000000000e+00
     2.000000000000e+00 0.000000000000e+00 4.190951585770e-09 9.900000000000e+01
     7.611360000000e+05 4.000000000000e+00                                      
G14 2026 07 21 04 51 24 7.499763742089e-04 2.273736754432e-13 0.000000000000e+00
     2.270000000000e+02 6.125000000000e+01 4.906990110120e-09-2.599717998404e+00
     3.017485141754e-06 7.363637676463e-03 9.743496775627e-06 5.153661857605e+03
     1.944000000000e+05-2.048909664154e-08-1.524159444936e+00-1.657754182816e-07
     9.416377923194e-01 1.834687500000e+02-2.680783462054e+00-8.087836890870e-09
     4.500187450871e-11 1.000000000000e+00 3.800000000000e+02 0.000000000000e+00
     2.000000000000e+00 0.000000000000e+00-7.916241884232e-09 9.950000000000e+02
     7.611360000000e+05 4.000000000000e+00                                      
E23 2026 07 21 04 51 35-4.269339842722e-05-1.307398633799e-12 0.000000000000e+00
     6.100000000000e+01 1.003125000000e+02 3.242992226500e-09-2.724192371284e+00
     4.665926098824e-06 1.740616280586e-04 8.402392268181e-06 5.440616353989e+03
     1.890000000000e+05 4.284083843231e-08-1.332241047839e+00-7.450580596924e-09
     9.625504257002e-01 1.612500000000e+02-2.743935148576e+00-5.571303495725e-09
     3.785871982478e-11 1.000000000000e+00 1.404000000000e+03                   
     1.070000000000e+02 0.000000000000e+00 4.656612873077e-10 1.862645149231e-09
     1.902950000000e+05                                                         
E06 2026 07 21 04 51 35-3.006262704730e-04-5.059064278612e-12 0.000000000000e+00
     6.100000000000e+01-3.984375000000e+01 3.304423356782e-09 3.549919878469e-01
    -1.901760697365e-06 5.052095511928e-04 5.543231964111e-06 5.440611343384e+03
     1.890000000000e+05 2.793967723846e-08 2.852084682558e+00-2.607703208923e-08
     9.626597203099e-01 2.187812500000e+02 1.385861648986e+00-5.724167005961e-09
     1.982225424788e-10 1.000000000000e+00 1.404000000000e+03                   
     1.070000000000e+02 0.000000000000e+00 2.328306436539e-09 3.725290298462e-09
     1.902950000000e+05                                                         
E31 2026 07 21 04 51 35-1.580716343597e-04-2.984279490192e-12 0.000000000000e+00
     5.900000000000e+01 1.233125000000e+02 3.150488373344e-09 1.295640980670e+00
     5.668029189110e-06 3.408213378862e-04 9.192153811455e-06 5.440619762421e+03
     1.878000000000e+05 0.000000000000e+00-1.329121822687e+00-3.725290298462e-09
     9.605967498075e-01 1.453125000000e+02-1.395455464287e+00-5.546659612065e-09
     4.893060958486e-11 1.000000000000e+00 1.404000000000e+03                   
     1.070000000000e+02 0.000000000000e+00 3.492459654808e-09 4.190951585770e-09
     1.902950000000e+05                                                         
E04 2026 07 21 04 51 35-1.222750288434e-04 3.352340627316e-11 0.000000000000e+00
     6.200000000000e+01-4.240625000000e+01 3.182632569421e-09 2.275777712214e+00
    -1.907348632812e-06 2.932072384283e-04 5.621463060379e-06 5.440609487534e+03
     1.896000000000e+05 2.235174179077e-08 2.852430671461e+00-3.725290298462e-09
     9.693538081513e-01 2.209375000000e+02-6.749398433250e-02-5.669521872629e-09
     2.067943280995e-10 1.000000000000e+00 1.404000000000e+03                   
     1.070000000000e+02 0.000000000000e+00-4.190951585770e-09-4.656612873077e-09
     1.902950000000e+05                                                         
E28 2026 07 21 04 51 35-6.031326483935e-05-2.842170943040e-12 0.000000000000e+00
     6.200000000000e+01-4.412500000000e+01 3.493716955906e-09 6.139247223261e-01
    -1.968815922737e-06 2.853820333257e-04 5.394220352173e-06 5.440610017776e+03
     1.896000000000e+05 4.470348358154e-08 2.870124782663e+00-1.862645149231e-09
     9.490532465286e-01 2.180000000000e+02 1.960200735577e+00-5.832028641688e-09
     2.064371703653e-10 1.000000000000e+00 1.404000000000e+03                   
     1.070000000000e+02 0.000000000000e+00 9.313225746155e-10 1.862645149231e-09
     1.902950000000e+05                                                         
END OF FILE                                                 COMMENT
