     3.05           N: NAVIGATION       M: MIXED            RINEX VERSION / TYPE
PYRINEXCONV 0.1.2 ALDELTUNES            20260721 034059 UTC PGM / RUN BY / DATE
GAL    1.0175e+02  3.3203e-01  2.2858e-02             D 28  IONOSPHERIC CORR
GPSA   9.3132e-09  2.2352e-08  1.5199e-05  1.5140e-05 D 09  IONOSPHERIC CORR
GPSB   1.0035e+05  1.3107e+05  1.6712e+07  1.6318e+07 D 09  IONOSPHERIC CORR
BDSA   2.0489e-08  2.2352e-08 -5.3644e-07  9.5367e-07 D 19  IONOSPHERIC CORR
BDSB   1.3722e+05 -5.4067e+05  4.7841e+06 -4.1943e+06 D 19  IONOSPHERIC CORR
GAUT  6.5192580223e-09-2.664535259e-15 183600 1404   E28  0 TIME SYSTEM CORR
GPUT  5.5297277868e-10 1.020072915e-12 370800 2428   G09  0 TIME SYSTEM CORR
BDUT  0.0000000000e+00 0.000000000e+00 183600 1072   C19  0 TIME SYSTEM CORR
                                                            END OF HEADER
E21 2026 07 21 03 33 54-7.585544954054e-04-2.799538378895e-12 0.000000000000e+00
     5.400000000000e+01 1.010000000000e+02 3.322281243492e-09 2.639578206307e+00
     4.809349775314e-06 1.727663911879e-04 8.210539817810e-06 5.440612817764e+03
     1.848000000000e+05 5.774199962616e-08-1.329024867792e+00 3.911554813385e-08
     9.606202033102e-01 1.642812500000e+02-1.553163358254e+00-5.617376843436e-09
     3.071556514086e-11 5.160000000000e+02 1.404000000000e+03                   
     1.070000000000e+02 0.000000000000e+00 6.984919309616e-10 9.313225746155e-10
     1.856340000000e+05                                                         
G04 2026 07 21 03 34 24 6.273915641941e-05 6.998845947237e-13 0.000000000000e+00
     2.199172973633e-03-2.011328125000e+01 4.413219542594e-09-5.311305949440e-01
    -1.107342541218e-06 3.822266007774e-03 6.177462637424e-06 5.153549172013e+03
     1.233000000000e+05 8.102506399155e-08 2.690104707190e+00 1.955777406693e-08
     9.724425592559e-01 2.658359375000e+02-2.901889416965e+00-8.267966486041e-09
     2.787616115400e-10 4.413219542594e-09-2.000000000000e+00 3.000000000000e+00
     3.000000000000e+01 4.000000000000e+00-4.656612873077e-09 7.000000000000e+00
    -2.037268131971e-10 3.317836672068e-09-1.426087692380e-09-1.396983861923e-09
     1.856640000000e+05 2.428000000000e+03 0.000000000000e+00                   
G09 2026 07 21 03 36 24 7.171649485826e-04-6.934897101019e-12 0.000000000000e+00
     7.100000000000e+01-1.996875000000e+01 4.513402287036e-09 5.993508851872e-01
    -1.080334186554e-06 3.669901983812e-03 6.292015314102e-06 5.153694850922e+03
     1.872000000000e+05 7.450580596924e-09 2.624916329296e+00-4.842877388000e-08
     9.667053836852e-01 2.590312500000e+02 2.038022418306e+00-8.145339286076e-09
     2.985838657879e-10 1.000000000000e+00 3.800000000000e+02 0.000000000000e+00
     2.000000000000e+00 0.000000000000e+00 4.656612873077e-10 7.100000000000e+01
     7.431360000000e+05 4.000000000000e+00                                      
G08 2026 07 21 03 36 24 3.940509632230e-04-9.208633855451e-12 0.000000000000e+00
     8.100000000000e+01 5.003125000000e+01 5.274505418608e-09-1.925180004046e-02
     2.689659595490e-06 1.168377755675e-02 4.528090357780e-06 5.153748132706e+03
     1.872000000000e+05 1.080334186554e-07-5.416434614643e-01 1.136213541031e-07
     9.417700488913e-01 2.788125000000e+02 5.447862220414e-01-8.702148193688e-09
    -1.428630936784e-10 1.000000000000e+00 3.800000000000e+02 0.000000000000e+00
     2.000000000000e+00 0.000000000000e+00 4.656612873077e-09 8.100000000000e+01
     7.431360000000e+05 4.000000000000e+00                                      
G04 2026 07 21 03 36 24 6.274040788412e-05 6.821210263297e-13 0.000000000000e+00
     5.000000000000e+00-2.315625000000e+01 4.401611916233e-09-2.683905027874e-01
    -1.115724444389e-06 3.822015016340e-03 6.172806024551e-06 5.153673837662e+03
     1.872000000000e+05 6.891787052155e-08 2.690090186997e+00 2.793967723846e-08
     9.724430142234e-01 2.653750000000e+02-2.902086066802e+00-8.078550789781e-09
     2.771544017362e-10 1.000000000000e+00 3.800000000000e+02 0.000000000000e+00
     2.000000000000e+00 0.000000000000e+00-4.656612873077e-09 5.170000000000e+02
     7.431360000000e+05 4.000000000000e+00                                      
G27 2026 07 21 03 36 24 5.350448191166e-07 0.000000000000e+00 0.000000000000e+00
     9.100000000000e+01 4.712500000000e+01 5.086283292686e-09 1.286910908776e-01
     2.648681402206e-06 1.432913157623e-02 4.682689905167e-06 5.153673446655e+03
     1.872000000000e+05-2.793967723846e-08-5.084284536059e-01 1.974403858185e-07
     9.508937086540e-01 2.822500000000e+02 9.005730337617e-01-8.652860426369e-09
    -1.710785546799e-10 1.000000000000e+00 3.800000000000e+02 0.000000000000e+00
     2.800000000000e+00 0.000000000000e+00 2.328306436539e-09 9.100000000000e+01
     7.431360000000e+05 4.000000000000e+00                                      
G16 2026 07 21 03 36 24 3.020018339157e-04 6.480149750132e-12 0.000000000000e+00
     8.800000000000e+01 5.556250000000e+01 4.796985527988e-09 1.055045791189e+00
     3.138557076454e-06 1.503419992514e-02 9.190291166306e-06 5.153715074539e+03
     1.872000000000e+05-1.788139343262e-07-1.450449842064e+00 1.583248376846e-07
     9.573745001136e-01 2.048437500000e+02 9.375586091022e-01-8.299274269514e-09
    -1.175048945505e-10 1.000000000000e+00 3.800000000000e+02 0.000000000000e+00
     2.000000000000e+00 0.000000000000e+00-1.024454832077e-08 8.800000000000e+01
     7.431360000000e+05 4.000000000000e+00                                      
G07 2026 07 21 03 36 24-2.078828401864e-04-3.751665644813e-12 0.000000000000e+00
     9.600000000000e+01-3.100000000000e+01 4.775913221670e-09-2.745939998806e+00
    -1.866370439529e-06 2.093705639709e-02 8.448958396912e-06 5.153588115692e+03
     1.872000000000e+05 4.041939973831e-07-2.586027851560e+00-8.754432201385e-08
     9.513213634962e-01 2.061250000000e+02-1.955233648861e+00-7.812111120071e-09
    -2.071514858337e-11 1.000000000000e+00 3.800000000000e+02 0.000000000000e+00
     2.000000000000e+00 0.000000000000e+00-1.071020960808e-08 9.600000000000e+01
     7.431360000000e+05 4.000000000000e+00                                      
G09 2026 07 21 03 40 48 7.171775796451e-04-6.988187806201e-12 0.000000000000e+00
     1.067161560059e-03-1.843359375000e+01 4.531081594879e-09 3.367306725841e-01
    -1.054257154465e-06 3.669601399451e-03 6.325542926788e-06 5.153528200759e+03
     1.395000000000e+05 1.117587089539e-08 2.624931008947e+00-4.284083843231e-08
     9.667048365538e-01 2.602773437500e+02 2.038101396132e+00-8.187427416980e-09
     2.962623405157e-10 4.531081594879e-09-2.000000000000e+00 3.000000000000e+00
     3.000000000000e+01 4.000000000000e+00 4.656612873077e-10 7.000000000000e+00
    -5.820766091347e-10-7.275957614183e-10 5.064066499472e-09 5.617039278150e-09
     1.860480000000e+05 2.428000000000e+03 0.000000000000e+00                   
G07 2026 07 21 03 40 48-2.078761754092e-04-3.755218358492e-12 0.000000000000e+00
     4.545211791992e-03-3.667578125000e+01 4.786092217095e-09-3.008415293281e+00
    -1.901760697365e-06 2.093720907578e-02 8.634291589260e-06 5.153634460868e+03
     1.161000000000e+05 3.129243850708e-07-2.586013350385e+00-2.095475792885e-07
     9.513214732150e-01 2.023242187500e+02-1.955314085949e+00-8.547620991917e-09
    -1.098260032653e-10 4.786092217095e-09-2.000000000000e+00 3.000000000000e+00
     3.100000000000e+01 4.000000000000e+00-1.071020960808e-08 7.000000000000e+00
    -9.313225746155e-10 6.984919309616e-09 0.000000000000e+00 0.000000000000e+00
     1.860480000000e+05 2.428000000000e+03 0.000000000000e+00                   
G08 2026 07 21 03 40 48 3.940675815102e-04-9.229950137524e-12 0.000000000000e+00
    -4.871368408203e-03 4.580078125000e+01 5.255933216430e-09-2.816418393074e-01
     2.566725015640e-06 1.168359367875e-02 4.413537681103e-06 5.153474009747e+03
     1.413000000000e+05 9.685754776001e-08-5.416278236015e-01 9.406358003616e-08
     9.417702434594e-01 2.839804687500e+02 5.446378214371e-01-7.618653725273e-09
    -1.383986220010e-10 5.255933216430e-09-2.000000000000e+00 3.000000000000e+00
     2.900000000000e+01 4.000000000000e+00 4.656612873077e-09 7.000000000000e+00
    -1.047737896442e-09-4.685716703534e-09 6.257323548198e-09 6.839400157332e-09
     1.860480000000e+05 2.428000000000e+03 0.000000000000e+00                   
E19 2026 07 21 03 40 54 3.108347184025e-03 2.444267011015e-11 0.000000000000e+00
     5.400000000000e+01-4.621875000000e+01 3.117987019532e-09 2.675548943673e+00
    -2.034008502960e-06 2.437212970108e-04 5.714595317841e-06 5.440617267609e+03
     1.848000000000e+05 3.352761268616e-08 2.860556104684e+00-2.048909664154e-08
     9.747224029748e-01 2.227812500000e+02-2.389791550810e-01-5.603090534068e-09
     2.171519023912e-10 5.160000000000e+02 1.404000000000e+03                   
     1.070000000000e+02 0.000000000000e+00-4.423782229424e-09-4.423782229424e-09
     1.860540000000e+05                                                         
C37 2026 07 21 03 40 54-9.073218097910e-04 6.912692640526e-12 0.000000000000e+00
     1.000000000000e+00 1.870312500000e+01 4.227318941945e-09 1.807858117073e+00
     9.704381227493e-07 7.142786635086e-04 9.984243661165e-06 5.282670188904e+03
     1.836000000000e+05 1.033768057823e-07-2.018588858008e+00 2.123694866896e-05
     9.451554168769e-01 1.506406250000e+02-3.737505255582e-01 1.271642254718e-07
    -1.353627812603e-10                    1.072000000000e+03                   
     0.000000000000e+00 0.000000000000e+00-7.823109626770e-08-7.823109626770e-08
     1.860540000000e+05 1.000000000000e+00                                      
C12 2026 07 21 03 40 54 6.157959578559e-04-5.023537141824e-12 0.000000000000e+00
     1.000000000000e+00-1.328125000000e+01 3.553719455251e-09 1.630469720774e+00
    -6.719492375851e-07 1.762796891853e-04 7.256865501404e-06 5.282643817902e+03
     1.836000000000e+05 5.168840289116e-08 2.170705963302e+00-5.243392661214e-05
     9.735964315022e-01 2.174062500000e+02 7.076383474747e-01-1.376624127635e-06
     4.250177036933e-10                    1.072000000000e+03                   
     0.000000000000e+00 0.000000000000e+00 3.725290298462e-09 3.725290298462e-09
     1.860540000000e+05 1.000000000000e+00                                      
C20 2026 07 21 03 40 54-8.893182966858e-04 3.042899265893e-12 0.000000000000e+00
     1.000000000000e+00-1.395312500000e+01 3.250849696653e-09 2.356942117403e+00
    -6.514601409435e-07 8.090336341411e-04 7.441267371178e-06 5.282635536194e+03
     1.836000000000e+05 3.539025783539e-08 2.185679637896e+00-6.793998181820e-07
     9.899301839599e-01 2.225312500000e+02 2.744138148940e-01 1.258868508355e-06
     4.293035965037e-10                    1.072000000000e+03                   
     0.000000000000e+00 0.000000000000e+00 5.541369318962e-08 5.541369318962e-08
     1.860540000000e+05 1.000000000000e+00                                      
C19 2026 07 21 03 40 54-9.326343424618e-04 8.508749260727e-13 0.000000000000e+00
     1.000000000000e+00-1.856250000000e+01 3.239420649158e-09 2.232843650100e+00
    -9.979121387005e-07 7.839655736461e-04 7.412862032652e-06 5.282632442474e+03
     1.836000000000e+05 4.284083843231e-08 2.185052050428e+00 9.068287909031e-06
     9.899450632997e-01 2.229531250000e+02-3.180424017541e-01 6.475976893289e-07
     4.132314984649e-10                    1.072000000000e+03                   
     0.000000000000e+00 0.000000000000e+00 4.330649971962e-08 4.330649971962e-08
     1.860540000000e+05 1.000000000000e+00                                      
E21 2026 07 21 03 40 55-7.585562416352e-04-2.813749233610e-12 0.000000000000e+00
     5.500000000000e+01 1.010000000000e+02 3.322281243492e-09 2.639578206307e+00
     4.809349775314e-06 1.727663911879e-04 8.210539817810e-06 5.440612817764e+03
     1.848000000000e+05 5.029141902924e-08-1.329028293946e+00 4.842877388000e-08
     9.606201886810e-01 1.642812500000e+02-1.553261353284e+00-5.617376843436e-09
     3.821587755898e-11 1.000000000000e+00 1.404000000000e+03                   
     1.070000000000e+02 0.000000000000e+00 6.984919309616e-10 9.313225746155e-10
     1.860550000000e+05                                                         
E23 2026 07 21 03 41 05-4.268635530025e-05-1.350031197944e-12 0.000000000000e+00
     5.200000000000e+01 1.184062500000e+02 3.143702376394e-09 2.901419929980e+00
     5.444511771202e-06 1.718186540529e-04 9.061768651009e-06 5.440622465134e+03
     1.836000000000e+05-7.450580596924e-09-1.332210876616e+00-2.607703208923e-08
     9.625505500483e-01 1.461250000000e+02-2.755825969088e+00-5.554517082217e-09
     4.643050544549e-12 1.000000000000e+00 1.404000000000e+03                   
     1.070000000000e+02 0.000000000000e+00 4.656612873077e-10 1.862645149231e-09
     1.860650000000e+05                                                         
E04 2026 07 21 03 41 05-1.224564621225e-04 3.342393029016e-11 0.000000000000e+00
     5.300000000000e+01-4.006250000000e+01 3.221562762449e-09 1.606854570068e+00
    -1.966953277588e-06 2.934384392574e-04 5.589798092842e-06 5.440608936310e+03
     1.842000000000e+05 1.676380634308e-08 2.852461152822e+00-1.862645149231e-08
     9.693526890190e-01 2.203750000000e+02-6.804140827777e-02-5.659164298337e-09
     2.132231673151e-10 1.000000000000e+00 1.404000000000e+03                   
     1.070000000000e+02 0.000000000000e+00-4.190951585770e-09-4.656612873077e-09
     1.860650000000e+05                                                         
E28 2026 07 21 03 41 05-6.029597716406e-05-2.856381797756e-12 0.000000000000e+00
     5.200000000000e+01-4.278125000000e+01 3.551219351112e-09-1.288110472343e-01
    -1.991167664528e-06 2.851557219401e-04 5.381181836128e-06 5.440609237671e+03
     1.836000000000e+05 1.490116119385e-08 2.870159980472e+00-9.313225746155e-09
     9.490518918664e-01 2.151875000000e+02 1.959078299978e+00-5.851672317069e-09
     2.078658013021e-10 1.000000000000e+00 1.404000000000e+03                   
     1.070000000000e+02 0.000000000000e+00 9.313225746155e-10 1.862645149231e-09
     1.860650000000e+05                                                         
E29 2026 07 21 03 41 05-2.271780977026e-04-3.581135388231e-12 0.000000000000e+00
     5.200000000000e+01-4.337500000000e+01 3.311209353732e-09 1.611081664544e+00
    -1.994892954826e-06 2.005466958508e-04 5.308538675308e-06 5.440614410400e+03
     1.836000000000e+05 2.793967723846e-08 2.852146098785e+00-7.450580596924e-09
     9.627400564563e-01 2.299687500000e+02 1.424770870900e+00-5.723095532758e-09
     2.185805333280e-10 1.000000000000e+00 1.404000000000e+03                   
     1.070000000000e+02 0.000000000000e+00-3.259629011154e-09-2.793967723846e-09
     1.860650000000e+05                                                         
E19 2026 07 21 03 41 05 3.108361852355e-03 2.444267011015e-11 0.000000000000e+00
     5.500000000000e+01-4.621875000000e+01 3.117987019532e-09 2.675548943673e+00
    -2.034008502960e-06 2.437212970108e-04 5.714595317841e-06 5.440617267609e+03
     1.848000000000e+05 3.725290298462e-09 2.860552854080e+00-1.490116119385e-08
     9.747224234557e-01 2.227812500000e+02-2.390411316055e-01-5.603090534068e-09
     2.164375869228e-10 1.000000000000e+00 1.404000000000e+03                   
     1.070000000000e+02 0.000000000000e+00-4.423782229424e-09-4.423782229424e-09
     1.860650000000e+05                                                         
END OF FILE                                                 COMMENT
