     3.05           N: NAVIGATION       M: MIXED            RINEX VERSION / TYPE
PYRINEXCONV 0.1.2 ALDELTUNES            20260721 105330 UTC PGM / RUN BY / DATE
GAL    1.0175e+02  3.3203e-01  2.2858e-02             K 25  IONOSPHERIC CORR
GPSA   9.3132e-09  2.2352e-08  1.5199e-05  1.5140e-05 K 13  IONOSPHERIC CORR
GPSB   1.0035e+05  1.3107e+05  1.6712e+07  1.6318e+07 K 13  IONOSPHERIC CORR
BDSA   2.1420e-08  5.9605e-08 -7.7486e-07  1.2517e-06 K 26  IONOSPHERIC CORR
BDSB   1.4131e+05 -7.0451e+05  5.6361e+06 -4.6531e+06 K 26  IONOSPHERIC CORR
GAUT  6.5192580223e-09-2.664535259e-15 207600 1404   E25  0 TIME SYSTEM CORR
GPUT  5.8207660913e-10-1.481037515e-12 428400 2428   G13  0 TIME SYSTEM CORR
BDUT  0.0000000000e+00 0.000000000e+00 208800 1072   C26  0 TIME SYSTEM CORR
                                                            END OF HEADER
E31 2026 07 21 10 50 04-1.581392134540e-04-2.970068635477e-12 0.000000000000e+00
     9.700000000000e+01 8.084375000000e+01 3.062270412997e-09-2.154568832886e+00
     3.917142748833e-06 3.417842090130e-04 9.113922715187e-06 5.440614362717e+03
     2.106000000000e+05 1.862645149231e-08-1.329248761552e+00 1.862645149231e-09
     9.605985067721e-01 1.456875000000e+02-1.401790977741e+00-5.499871948885e-09
     1.028614274485e-10 5.160000000000e+02 1.404000000000e+03                   
     1.070000000000e+02 0.000000000000e+00 3.492459654808e-09 4.190951585770e-09
     2.118040000000e+05                                                         
E10 2026 07 21 10 50 54-8.074418292381e-04-2.657429831743e-12 0.000000000000e+00
     9.700000000000e+01-4.209375000000e+01 2.620466295797e-09-2.109880581315e+00
    -1.993030309677e-06 2.867316361517e-04 5.790963768959e-06 5.440604721069e+03
     2.106000000000e+05-4.470348358154e-08 7.679881669784e-01-1.005828380585e-07
     9.974632363018e-01 2.318437500000e+02 2.329320929384e+00-5.468799226010e-09
    -1.992940156814e-10 5.160000000000e+02 1.404000000000e+03                   
     1.070000000000e+02 0.000000000000e+00-1.164153218269e-09-2.328306436539e-10
     2.118540000000e+05                                                         
E31 2026 07 21 10 52 24-1.581410178915e-04-2.970068635477e-12 0.000000000000e+00
     9.800000000000e+01 7.968750000000e+01 3.063699043934e-09-2.080923355565e+00
     3.857538104057e-06 3.417525440454e-04 9.203329682350e-06 5.440613857269e+03
     2.112000000000e+05 2.421438694000e-08-1.329252072136e+00 7.450580596924e-09
     9.605985960101e-01 1.439687500000e+02-1.401051358544e+00-5.495586056075e-09
     1.017899542459e-10 5.160000000000e+02 1.404000000000e+03                   
     1.070000000000e+02 0.000000000000e+00 3.492459654808e-09 4.190951585770e-09
     2.119440000000e+05                                                         
E33 2026 07 21 10 52 35-2.520804991946e-05-2.003730514843e-12 0.000000000000e+00
     9.700000000000e+01-5.331250000000e+01 2.756900550260e-09-1.872639609905e+00
    -2.408400177956e-06 1.665498130023e-04 5.079433321953e-06 5.440602670670e+03
     2.106000000000e+05 3.539025783539e-08 7.699172731619e-01 1.862645149231e-08
     9.976635273419e-01 2.492812500000e+02-3.009906117986e+00-5.500943422088e-09
    -1.392915163365e-10 1.000000000000e+00 1.404000000000e+03                   
     1.070000000000e+02 0.000000000000e+00-4.423782229424e-09-4.889443516731e-09
     2.119550000000e+05                                                         
G12 2026 07 21 10 52 48-6.054627010599e-04 5.542233338929e-13 0.000000000000e+00
     5.886554718018e-03 4.863281250000e+01 4.535903224290e-09 3.584829002517e-01
     2.461485564709e-06 8.703983854502e-03 8.565373718739e-06 5.153519584271e+03
     2.025000000000e+05-8.940696716309e-08-1.467415643889e+00-5.122274160385e-08
     9.583090143770e-01 2.155156250000e+02 1.587535177361e+00-8.202070884082e-09
     2.857261873569e-12 4.535903224290e-09-2.000000000000e+00 2.000000000000e+00
     2.700000000000e+01 4.000000000000e+00-1.257285475731e-08 7.000000000000e+00
    -6.984919309616e-10 7.072230800986e-09 0.000000000000e+00 0.000000000000e+00
     2.119680000000e+05 2.428000000000e+03 0.000000000000e+00                   
G24 2026 07 21 10 52 48 1.224652514793e-04 1.861266696324e-11 0.000000000000e+00
     3.237724304199e-04-3.702734375000e+01 4.960206612515e-09 2.151533203994e+00
    -1.907348632812e-06 1.843404141255e-02 7.623806595802e-06 5.153591472595e+03
     1.980000000000e+05 5.774199962616e-08-2.697239305266e+00-3.175809979439e-07
     9.355030438911e-01 2.200507812500e+02 1.162171590460e+00-8.262251962294e-09
    -1.050043738536e-10 4.960206612515e-09-2.000000000000e+00 2.000000000000e+00
     2.800000000000e+01 4.000000000000e+00 2.328306436539e-09 7.000000000000e+00
     2.910383045673e-11-1.426087692380e-09 1.484295353293e-09 2.764863893390e-09
     2.119680000000e+05 2.428000000000e+03 0.000000000000e+00                   
C29 2026 07 21 10 52 54 6.338543025777e-04 5.135447622706e-12 0.000000000000e+00
     1.000000000000e+00 1.521875000000e+01 4.349109729306e-09-9.110447593682e-01
     8.149072527885e-07 2.195158740506e-04 3.830529749393e-06 5.282659032822e+03
     2.088000000000e+05 9.220093488693e-08 3.420547946980e-02 2.021994441748e-05
     9.455621198063e-01 2.746562500000e+02 2.110871622002e+00-2.550433378645e-06
    -1.310768884500e-10                    1.072000000000e+03                   
     0.000000000000e+00 0.000000000000e+00 9.313225746155e-10 9.313225746155e-10
     2.119740000000e+05 1.000000000000e+00                                      
C39 2026 07 21 10 52 54-9.575803996995e-04 8.823164421301e-12 0.000000000000e+00
     1.000000000000e+00 1.242187500000e+01 3.910162873979e-09 2.444445175468e+00
     6.249174475670e-07 5.720010958612e-04 9.388197213411e-06 5.282662654877e+03
     2.088000000000e+05 1.350417733192e-08-2.011522527736e+00 5.819834768772e-05
     9.490804787486e-01 1.627031250000e+02 5.901150839762e-02 1.033624840338e-06
    -5.464513333200e-11                    1.072000000000e+03                   
     0.000000000000e+00 0.000000000000e+00 8.987262845039e-08 8.987262845039e-08
     2.119740000000e+05 1.000000000000e+00                                      
C35 2026 07 21 10 52 54-4.782178439200e-04-1.597300069989e-11 0.000000000000e+00
     1.000000000000e+00 1.009375000000e+01 4.378396663510e-09-5.081559909653e-01
     5.466863512993e-07 8.109206100926e-04 3.785360604525e-06 5.282618713379e+03
     2.088000000000e+05-1.071020960808e-08 3.480422404420e-02 3.429735079408e-05
     9.437477107888e-01 2.770156250000e+02 8.869912028353e-01-1.965403295508e-06
    -1.414344627416e-10                    1.072000000000e+03                   
     0.000000000000e+00 0.000000000000e+00-1.257285475731e-08-1.257285475731e-08
     2.119740000000e+05 1.000000000000e+00                                      
C26 2026 07 21 10 52 54-6.724677514285e-04-5.570655048359e-12 0.000000000000e+00
     1.000000000000e+00 1.592187500000e+01 4.055883229531e-09 9.379059658339e-01
     5.918554961681e-07 9.379084222019e-04 9.368173778057e-06 5.282658725739e+03
     2.088000000000e+05 3.539025783539e-08-2.040543279241e+00 4.078308120370e-05
     9.453576448205e-01 1.619687500000e+02 7.290609804305e-01 2.654492355976e-06
    -1.142904749427e-10                    1.072000000000e+03                   
     0.000000000000e+00 0.000000000000e+00-2.328306436539e-08-2.328306436539e-08
     2.119740000000e+05 1.000000000000e+00                                      
E11 2026 07 21 10 53 24 5.517843528651e-03 6.752998160664e-11-3.469446951954e-18
     9.200000000000e+01-4.434375000000e+01 2.638681340241e-09-1.931308183972e+00
    -2.140179276466e-06 4.167810548097e-04 6.133690476418e-06 5.440609558105e+03
     2.076000000000e+05-5.029141902924e-08 7.694637115036e-01 1.117587089539e-08
     9.945469295916e-01 2.250312500000e+02 1.350049069157e+00-5.415225565881e-09
    -2.003654888840e-10 5.160000000000e+02 1.404000000000e+03                   
     1.070000000000e+02 0.000000000000e+00-1.466833055019e-08-1.583248376846e-08
     2.120040000000e+05                                                         
E16 2026 07 21 10 53 35-4.648976027966e-05-2.472688720445e-12 0.000000000000e+00
     9.600000000000e+01 8.443750000000e+01 3.004053702323e-09-1.982710376646e+00
     3.952533006668e-06 4.925740649924e-04 8.465722203255e-06 5.440620019913e+03
     2.100000000000e+05 9.313225746155e-09-1.332482449802e+00 3.725290298462e-09
     9.625730936159e-01 1.559062500000e+02-2.475996013070e+00-5.514515415988e-09
     7.857470152314e-11 1.000000000000e+00 1.404000000000e+03                   
     1.070000000000e+02 0.000000000000e+00-3.725290298462e-09-2.328306436539e-09
     2.120150000000e+05                                                         
E12 2026 07 21 10 53 35-5.901011172682e-05-2.600586412882e-12 0.000000000000e+00
     9.500000000000e+01-4.771875000000e+01 2.700826785991e-09-4.231112028856e-01
    -2.194195985794e-06 3.192125586793e-04 5.677342414856e-06 5.440607519150e+03
     2.094000000000e+05 1.303851604462e-08 7.694633838099e-01-1.043081283569e-07
     9.945584091098e-01 2.321562500000e+02 8.618121883140e-01-5.518086993329e-09
    -2.003654888840e-10 1.000000000000e+00 1.404000000000e+03                   
     1.070000000000e+02 0.000000000000e+00-1.187436282635e-08-1.164153218269e-08
     2.120150000000e+05                                                         
E25 2026 07 21 10 53 35 2.174236578867e-05-8.526512829121e-14 0.000000000000e+00
     9.200000000000e+01 9.915625000000e+01 3.123344385545e-09 2.103223217106e+00
     4.330649971962e-06 2.982923761010e-04 8.534640073776e-06 5.440612390518e+03
     2.076000000000e+05-1.117587089539e-08-1.329151256599e+00 1.676380634308e-08
     9.606285785162e-01 1.595000000000e+02-1.308850285359e+00-5.512015311848e-09
     7.214586230761e-11 1.000000000000e+00 1.404000000000e+03                   
     1.070000000000e+02 0.000000000000e+00 2.328306436539e-09 2.561137080193e-09
     2.120150000000e+05                                                         
E10 2026 07 21 10 53 35-8.074434008449e-04-2.657429831743e-12 0.000000000000e+00
     9.800000000000e+01-4.356250000000e+01 2.631181027823e-09-2.036139497909e+00
    -2.052634954453e-06 2.867034636438e-04 5.776062607765e-06 5.440604352951e+03
     2.112000000000e+05-2.793967723846e-08 7.679848651723e-01-1.080334186554e-07
     9.974630475854e-01 2.322187500000e+02 2.329965112193e+00-5.476299538429e-09
    -1.907222300607e-10 1.000000000000e+00 1.404000000000e+03                   
     1.070000000000e+02 0.000000000000e+00-1.164153218269e-09-2.328306436539e-10
     2.120150000000e+05                                                         
G11 2026 07 21 10 53 36-2.678104792722e-04 1.223909862347e-11 0.000000000000e+00
    -9.360313415527e-04-2.354687500000e+01 4.523759861328e-09-3.067374537467e+00
    -1.215375959873e-06 2.486338082235e-03 5.622394382954e-06 5.153570937345e+03
     1.872000000000e+05-3.073364496231e-08 5.993054630438e-01-1.108273863792e-07
     9.627631054621e-01 2.717890625000e+02-2.355419437657e+00-8.195820623734e-09
    -1.960795960737e-10 4.523759861328e-09-2.000000000000e+00 3.000000000000e+00
     2.800000000000e+01 4.000000000000e+00-8.847564458847e-09 7.000000000000e+00
    -2.037268131971e-10 5.675246939063e-09 3.783497959375e-10 2.328306436539e-10
     2.120160000000e+05 2.428000000000e+03 0.000000000000e+00                   
G13 2026 07 21 10 53 36 4.184397403151e-04 5.229594535194e-12 8.673617379884e-19
     4.562377929688e-03 4.561328125000e+01 4.458221417103e-09 2.657256497513e-01
     2.283602952957e-06 2.268318727147e-03 8.784234523773e-06 5.153633150734e+03
     1.647000000000e+05-3.725290298462e-09-1.575934714635e+00-1.955777406693e-08
     9.588254551803e-01 2.099062500000e+02 1.820784640429e+00-8.351541395843e-09
     1.660783464012e-11 4.458221417103e-09-2.000000000000e+00 2.000000000000e+00
     3.000000000000e+01 7.000000000000e+00-8.381903171539e-09 7.000000000000e+00
    -1.164153218269e-10 5.267793312669e-09 1.658918336034e-09 1.949956640601e-09
     2.120160000000e+05 2.428000000000e+03 0.000000000000e+00                   
END OF FILE                                                 COMMENT
