     3.05           O: OBSERVATION      G: GPS              RINEX VERSION / TYPE
PYRINEXCONV 0.1.2 ALDELTUNES            20260721 160615 UTC PGM / RUN BY / DATE
UNKN                                                        MARKER NAME
NONE                                                        MARKER TYPE
                                                            OBSERVER / AGENCY
                                                            REC # / TYPE / VERS
                                                            ANT # / TYPE
   114750.2219 -5421540.4500  3559257.1055                  APPROX POSITION XYZ
        0.0000        0.0000        0.0000                  ANTENNA: DELTA H/E/N
G    8 C1C L1C D1C S1C C2L L2L D2L S2L                      SYS / # / OBS TYPES
DBHZ                                                        SIGNAL STRENGTH UNIT
3993638793.012                                                  INTERVAL
  2026     7    21    16     6   33.0120000     GPS         TIME OF FIRST OBS
  2026     7    21    16     6   33.0120000     GPS         TIME OF LAST OBS
                                                            GLONASS SLOT / FRQ
 C1C    0.000 C1P    0.000 C2C    0.000 C2P    0.000        GLONASS COD/PHS/BIS
          18  2428     2GPS                                 LEAPSECONDS
     7                                                      # OF SATELLITES
                                                            END OF HEADER
> 2026  7 21 16  6 33.0120000  0 7                            
G05  25448512.055   133732832.3550      -2594.053          34.000    25448505.026   104207373.1951      -2022.751          22.000  
G23  26127664.356   137301728.0800       1545.327          27.000    26127665.440   106988421.9271       1208.079          20.000  
G21  28171328.741   148041331.4921      -3238.645          21.000                                                                  
G15  23403625.692   122986796.8600        532.513          32.000    23403626.826    95833927.9930        414.920          34.000  
G29  24112731.849   126713260.9681      -1683.693          20.000    24112730.364    98737604.6090      -1308.312          31.000  
G20  24484074.761   128664680.2841      -1603.697          23.000    24484088.326   100258243.2110      -1249.829          32.000  
G18  25239248.810   132633107.5850       1823.370          36.000    25239249.237   103350486.8250       1420.784          34.000  
