     3.05           O: OBSERVATION      G: GPS              RINEX VERSION / TYPE
PYRINEXCONV 0.1.2 ALDELTUNES            20260721 160959 UTC PGM / RUN BY / DATE
UNKN                                                        MARKER NAME
NONE                                                        MARKER TYPE
                                                            OBSERVER / AGENCY
                                                            REC # / TYPE / VERS
                                                            ANT # / TYPE
   114751.9472 -5421643.8821  3559323.6656                  APPROX POSITION XYZ
        0.0000        0.0000        0.0000                  ANTENNA: DELTA H/E/N
G    8 C1C L1C D1C S1C C2L L2L D2L S2L                      SYS / # / OBS TYPES
DBHZ                                                        SIGNAL STRENGTH UNIT
     1.000                                                  INTERVAL
  2026     7    21    16     9   40.0120000     GPS         TIME OF FIRST OBS
  2026     7    21    16    10   17.0120000     GPS         TIME OF LAST OBS
                                                            GLONASS SLOT / FRQ
 C1C    0.000 C1P    0.000 C2C    0.000 C2P    0.000        GLONASS COD/PHS/BIS
    18        2428     2GPS                                 LEAPSECONDS
    10                                                      # OF SATELLITES
                                                            END OF HEADER
> 2026  7 21 16  9 40.0120000  0 8                            
G05  25541168.272   134219727.9940      -2613.678          37.000    25541167.583   104586802.7310      -2037.462          28.000  
G23  26073298.386   137016107.0721       1507.637          21.000    26073345.770   106765981.7990       1174.082          27.000  
G21  28286229.452   148645138.9181      -3226.413          18.000                                                                  
G15  23386921.023   122898979.7390        406.965          35.000    23386915.950    95765498.9110        317.207          37.000  
G29  24174573.400   127038240.2781      -1795.565          26.000    24174577.864    98990854.7251      -1400.147          25.000  
G20  24543113.662   128974836.0490      -1712.769          30.000    24543117.907   100499964.9311      -1334.068          25.000  
G18  25174841.444   132294639.4940       1796.361          39.000    25174835.474   103086745.5120       1399.496          29.000  
G24  28024597.298   147270252.4571       2747.767          22.000                                                                  
> 2026  7 21 16  9 41.0120000  0 8                            
G05  25541665.618   134222341.9080      -2613.566          36.000    25541664.980   104588839.4560      -2036.541          28.000  
G23  26073010.704   137014595.0581       1510.944          21.000    26073059.187   106764807.4150       1173.900          26.000  
G21  28286842.825   148648361.8661      -3221.095          17.000                                                                  
G15  23386843.633   122898573.0900        406.163          35.000    23386838.585    95765182.0460        316.557          37.000  
G29  24174916.301   127040042.1521      -1797.693          26.000    24174919.752    98992254.8951      -1400.166          25.000  
G20  24543439.885   128976549.5340      -1713.757          30.000    24543443.476   100501298.0481      -1334.756          24.000  
G18  25174499.692   132292843.5820       1795.819          39.000    25174493.430   103085346.0890       1399.376          29.000  
G24  28024074.154   147267503.2331       2755.953          21.000                                                                  
> 2026  7 21 16  9 42.0120000  0 8                            
G05  25542163.016   134224955.9320      -2614.364          36.000    25542162.320   104590876.3060      -2036.129          28.000  
G23  26072726.181   137013099.9601       1513.071          21.000    26072772.350   106763633.1340       1174.231          27.000  
G21  28287455.498   148651581.4621      -3215.066          18.000                                                                  
G15  23386766.441   122898167.0670        405.388          35.000    23386761.277    95764865.6670        315.795          37.000  
G29  24175259.697   127041846.6591      -1798.973          26.000    24175261.513    98993654.5431      -1403.459          25.000  
G20  24543765.997   128978263.5710      -1713.910          30.000    24543769.750   100502633.6751      -1336.497          24.000  
G18  25174157.966   132291047.7630       1795.454          39.000    25174151.544   103083946.7590       1399.017          30.000  
G24  28023549.113   147264743.6271       2754.409          21.000                                                                  
> 2026  7 21 16  9 43.0120000  0 8                            
G05  25542660.401   134227569.9200      -2613.566          36.000    25542659.468   104592913.2290      -2036.483          28.000  
G23  26072439.737   137011595.2771       1512.500          22.000    26072486.726   106762459.0390       1173.992          26.000  
G21  28288068.226   148654800.9141      -3211.468          18.000                                                                  
G15  23386689.145   122897761.6160        405.375          35.000    23386684.226    95764549.7450        315.356          37.000  
G29  24175600.774   127043638.6611      -1797.424          26.000    24175604.044    98995056.6231      -1401.327          24.000  
G20  24544092.157   128979978.1510      -1715.662          30.000    24544095.434   100503967.6511      -1333.958          23.000  
G18  25173816.246   132289251.9980       1795.674          39.000    25173809.786   103082547.4320       1399.262          29.000  
G24  28023024.746   147261988.2701       2753.672          21.000                                                                  
> 2026  7 21 16  9 44.0120000  0 9                            
G05  25543157.802   134230183.9990      -2614.378          36.000    25543156.930   104594950.1960      -2037.062          27.000  
G23  26072154.929   137010098.8071       1511.470          23.000    26072199.338   106761284.9960       1173.859          26.000  
G21  28288681.853   148658025.8451      -3224.124          18.000                                                                  
G15  23386612.281   122897356.7760        404.738          35.000    23386607.134    95764234.2970        315.000          36.000  
G30  29233984.114   153625623.0561       -909.227          18.000                                                                  
G29  24175943.530   127045440.2331      -1798.580          26.000    24175946.196    98996458.1151      -1401.945          24.000  
G20  24544418.541   128981693.1830      -1715.570          30.000    24544421.787   100505304.1441      -1331.781          22.000  
G18  25173474.567   132287456.3420       1795.480          40.000    25173467.865   103081148.2330       1399.000          28.000  
G24  28022501.305   147259237.5861       2756.185          21.000                                                                  
> 2026  7 21 16  9 45.0120000  0 8                            
G05  25543655.204   134232798.1230      -2614.036          36.000    25543654.471   104596987.1850      -2037.338          28.000  
G23  26071870.133   137008601.7391       1507.354          23.000    26071912.458   106760111.0900       1174.046          27.000  
G15  23386535.367   122896952.6260        403.576          35.000    23386530.209    95763919.3490        314.927          36.000  
G30  29234149.980   153626494.2851       -909.227          18.000                                                                  
G29  24176286.119   127047240.4581      -1799.009          26.000    24176288.597    98997860.0591      -1403.670          24.000  
G20  24544745.044   128983408.7300      -1715.658          29.000    24544747.908   100506638.9851      -1333.435          22.000  
G18  25173132.829   132285660.8160       1795.602          40.000    25173126.271   103079749.1130       1399.385          29.000  
G24  28021977.712   147256486.0651       2748.489          22.000                                                                  
> 2026  7 21 16  9 46.0120000  0 8                            
G05  25544152.648   134235412.5460      -2614.542          36.000    25544151.892   104599024.3900      -2037.394          28.000  
G23  26071587.815   137007118.0661       1513.273          24.000    26071625.650   106758937.5100       1173.618          27.000  
G15  23386458.577   122896549.2890        402.635          35.000    23386453.446    95763605.0470        314.204          36.000  
G30  29234319.764   153627386.5151       -909.227          18.000                                                                  
G29  24176628.625   127049040.4511      -1800.312          26.000    24176631.118    98999262.6751      -1402.169          24.000  
G20  24545071.708   128985125.0890      -1716.444          29.000    24545074.766   100507977.3741      -1335.504          22.000  
G18  25172791.282   132283865.6250       1795.074          40.000    25172784.575   103078350.2550       1398.950          28.000  
G24  28021453.894   147253733.7401       2753.612          22.000                                                                  
> 2026  7 21 16  9 47.0120000  0 8                            
G05  25544650.072   134238026.9930      -2614.342          36.000    25544649.504   104601061.6480      -2037.562          28.000  
G23  26071304.550   137005629.1321       1506.540          25.000    26071339.477   106757764.0150       1173.523          27.000  
G15  23386381.909   122896146.5130        402.409          35.000    23386376.729    95763291.2140        314.037          36.000  
G30  29234496.200   153628313.7441       -909.227          18.000                                                                  
G29  24176970.667   127050837.9761      -1800.841          26.000    24176973.533    99000664.7291      -1401.965          24.000  
G20  24545398.528   128986841.8890      -1716.046          30.000    24545400.880   100509313.0391      -1333.183          21.000  
G18  25172449.635   132282070.4950       1795.284          40.000    25172442.898   103076951.4650       1398.696          29.000  
G24  28020929.387   147250977.4531       2761.891          22.000                                                                  
> 2026  7 21 16  9 48.0120000  0 8                            
G05  25545147.543   134240641.4040      -2614.081          36.000    25545147.059   104603098.8220      -2037.179          28.000  
G23  26071020.708   137004138.0571       1504.973          26.000    26071053.096   106756590.6320       1172.570          27.000  
G15  23386305.303   122895744.3220        401.707          35.000    23386300.185    95762977.8400        312.811          37.000  
G30  29234664.486   153629197.9741       -909.227          17.000                                                                  
G29  24177313.203   127052638.0681      -1801.497          26.000    24177316.873    99002070.1451      -1403.982          24.000  
G20  24545725.332   128988559.2580      -1717.419          30.000    24545727.778   100510651.2981      -1340.750          21.000  
G18  25172108.079   132280275.4080       1794.894          40.000    25172101.323   103075552.6920       1398.506          29.000  
G24  28020404.383   147248218.5591       2755.034          22.000                                                                  
> 2026  7 21 16  9 49.0120000  0 8                            
G05  25545645.029   134243255.7560      -2614.349          36.000    25545644.261   104605136.0230      -2037.771          28.000  
G23  26070738.555   137002655.0980       1506.033          26.000    26070767.439   106755417.1500       1173.231          27.000  
G15  23386229.064   122895342.6260        401.140          35.000    23386223.771    95762664.8000        313.015          37.000  
G30  29234835.708   153630098.2031       -909.227          16.000                                                                  
G29  24177656.448   127054441.5411      -1801.878          26.000    24177659.310    99003472.9161      -1403.014          24.000  
G20  24546052.347   128990276.9940      -1718.240          29.000    24546054.613   100511989.4821      -1344.576          22.000  
G18  25171766.432   132278480.2810       1794.984          40.000    25171759.612   103074153.8840       1398.785          29.000  
G24  28019880.052   147245462.9221       2753.528          22.000                                                                  
> 2026  7 21 16  9 50.0120000  0 9                            
G05  25546142.345   134245870.0880      -2614.524          36.000    25546141.888   104607173.0460      -2036.457          29.000  
G23  26070454.743   137001149.3240       1505.350          27.000    26070481.732   106754243.8030       1172.666          28.000  
G10  29128039.501   153068879.7321       2001.266          23.000                                                                  
G15  23386152.807   122894941.4220        400.496          34.000    23386147.450    95762352.1820        312.594          37.000  
G30  29235009.074   153631009.4331       -909.227          17.000                                                                  
G29  24177999.988   127056246.5251      -1802.344          26.000    24178002.480    99004877.9951      -1404.329          24.000  
G20  24546379.251   128991995.1460      -1718.668          29.000    24546382.078   100513330.9871      -1332.397          22.000  
G18  25171424.855   132276685.1600       1795.103          40.000    25171417.585   103072755.0850       1399.430          29.000  
G24  28019354.260   147242699.8901       2750.146          22.000                                                                  
> 2026  7 21 16  9 51.0120000  0 8                            
G05  25546639.814   134248484.4220      -2613.884          36.000    25546639.479   104609210.2600      -2036.719          29.000  
G23  26070171.071   136999643.6220       1505.338          28.000    26070195.512   106753070.5580       1172.912          28.000  
G15  23386076.573   122894540.8720        400.273          35.000    23386071.232    95762040.0700        311.958          37.000  
G30  29235184.258   153631929.6621       -909.227          16.000                                                                  
G29  24178343.347   127058050.8850      -1803.581          27.000    24178346.307    99006285.6181      -1405.828          25.000  
G20  24546706.334   128993713.7330      -1718.440          29.000    24546707.261   100514662.1971      -1335.264          23.000  
G18  25171083.293   132274890.1370       1795.082          40.000    25171075.692   103071356.3750       1398.549          29.000  
G24  28018830.894   147239949.6931       2760.049          21.000                                                                  
> 2026  7 21 16  9 52.0120000  0 7                            
G05  25547137.373   134251098.9240      -2614.830          36.000    25547136.998   104611247.5180      -2037.443          30.000  
G23  26069887.632   136998138.0930       1505.333          28.000    26069908.763   106751897.4110       1173.328          28.000  
G15  23386000.454   122894140.9540        399.398          35.000    23385995.203    95761728.4540        311.385          37.000  
G29  24178684.724   127059854.0250      -1803.345          27.000    24178688.688    99007687.7291      -1405.020          25.000  
G20  24547033.379   128995433.0320      -1719.552          30.000    24547034.160   100516000.6301      -1343.297          23.000  
G18  25170741.703   132273095.2770       1794.693          40.000    25170734.219   103069957.7660       1398.233          29.000  
G24  28018306.878   147237196.0151       2753.091          21.000                                                                  
> 2026  7 21 16  9 53.0120000  0 7                            
G05  25547634.892   134253713.3530      -2614.717          36.000    25547634.453   104613284.7580      -2037.381          30.000  
G23  26069603.571   136996632.7350       1505.218          29.000    26069620.557   106750724.4110       1172.682          28.000  
G15  23385924.526   122893741.5650        399.856          35.000    23385919.220    95761417.2900        310.337          37.000  
G29  24179028.540   127061657.7110      -1804.078          27.000    24179032.852    99009097.0801      -1408.512          24.000  
G20  24547360.732   128997152.7280      -1720.004          30.000    24547361.524   100517341.5431      -1334.152          23.000  
G18  25170400.248   132271300.4350       1794.907          40.000    25170392.773   103068559.1650       1398.764          29.000  
G24  28017781.696   147234435.5831       2756.452          21.000                                                                  
> 2026  7 21 16  9 54.0120000  0 7                            
G05  25548132.408   134256327.7770      -2614.550          36.000    25548131.811   104615321.9100      -2037.237          29.000  
G23  26069321.178   136995127.4250       1504.664          29.000    26069334.011   106749551.4290       1172.779          28.000  
G15  23385848.638   122893342.7790        398.809          35.000    23385843.199    95761106.5180        310.267          37.000  
G29  24179371.897   127063461.8850      -1804.822          27.000    24179375.092    99010499.0001      -1405.721          24.000  
G20  24547687.877   128998872.8740      -1720.032          29.000    24547688.945   100518681.9821      -1344.985          23.000  
G18  25170058.659   132269505.6410       1794.543          40.000    25170051.211   103067160.6440       1398.107          29.000  
G24  28017257.179   147231680.1241       2758.589          22.000                                                                  
> 2026  7 21 16  9 55.0120000  0 7                            
G05  25548630.068   134258942.3840      -2615.168          36.000    25548629.291   104617359.3010      -2037.509          29.000  
G23  26069037.547   136993622.3450       1504.475          29.000    26069048.135   106748378.5960       1172.915          28.000  
G15  23385772.909   122892944.7170        397.745          34.000    23385767.424    95760796.3450        309.421          37.000  
G29  24179715.284   127065266.7280      -1805.469          27.000    24179718.441    99011904.3591      -1406.867          25.000  
G20  24548015.357   129000593.6910      -1721.567          29.000    24548016.896   100520024.7521      -1346.334          23.000  
G18  25169717.071   132267711.0480       1794.272          40.000    25169709.477   103065762.2760       1398.079          28.000  
G24  28016733.115   147228925.5231       2757.044          22.000                                                                  
> 2026  7 21 16  9 56.0120000  0 8                            
G05  25549127.661   134261557.2640      -2614.650          36.000    25549126.786   104619396.9220      -2038.124          28.000  
G23  26068752.095   136992117.6820       1505.019          30.000    26068761.169   106747206.2280       1171.975          27.000  
G21  28296034.758   148696665.6171      -3224.453          18.000                                                                  
G15  23385697.303   122892547.5390        396.368          35.000    23385691.847    95760486.8360        309.342          37.000  
G29  24180058.135   127067072.4210      -1806.056          27.000    24180062.274    99013312.4311      -1406.255          24.000  
G20  24548342.931   129002315.2620      -1721.648          29.000    24548343.293   100521362.0171      -1341.047          22.000  
G18  25169375.694   132265916.8350       1794.048          40.000    25169367.839   103064364.1870       1397.901          28.000  
G24  28016210.745   147226180.9741       2741.266          21.000                                                                  
> 2026  7 21 16  9 57.0120000  0 8                            
G05  25549625.063   134264172.3410      -2615.465          36.000    25549624.526   104621434.5820      -2037.814          28.000  
G23  26068469.556   136990613.3040       1503.983          30.000    26068474.435   106746033.9560       1172.109          27.000  
G21  28296646.983   148699883.0731      -3224.453          18.000                                                                  
G15  23385621.872   122892151.0450        396.277          34.000    23385616.328    95760177.8890        308.544          36.000  
G29  24180401.043   127068878.7750      -1806.488          27.000    24180404.621    99014713.9471      -1407.250          23.000  
G20  24548670.720   129004037.4810      -1722.551          28.000    24548671.205   100522703.8931      -1341.513          22.000  
G18  25169034.300   132264122.7980       1793.831          40.000    25169026.014   103062966.2020       1398.054          27.000  
G24  28015686.265   147223424.2451       2750.654          21.000                                                                  
> 2026  7 21 16  9 58.0120000  0 8                            
G05  25550122.712   134266787.3370      -2614.962          35.000    25550122.070   104623472.2850      -2038.204          27.000  
G23  26068187.895   136989108.9400       1504.460          29.000    26068188.293   106744861.7270       1172.407          26.000  
G21  28297261.163   148703110.5291      -3224.453          17.000                                                                  
G15  23385546.503   122891755.1060        395.451          34.000    23385540.895    95759869.3660        308.223          35.000  
G29  24180746.007   127070685.6170      -1807.036          27.000    24180748.474    99016122.6201      -1408.446          22.000  
G20  24548998.658   129005760.1290      -1723.066          28.000    24548999.391   100524048.4871      -1336.685          21.000  
G18  25168692.978   132262328.7950       1793.739          40.000    25168684.722   103061568.2900       1398.244          27.000  
G24  28015160.046   147220659.6321       2759.869          21.000                                                                  
> 2026  7 21 16  9 59.0120000  0 7                            
G05  25550620.424   134269402.4380      -2615.495          35.000    25550619.869   104625510.0190      -2037.950          27.000  
G23  26067901.041   136987604.7920       1504.129          29.000    26067901.954   106743689.6430       1171.906          26.000  
G15  23385471.217   122891359.8090        395.146          34.000    23385465.637    95759561.3220        307.823          35.000  
G29  24181089.546   127072493.1110      -1808.085          26.000    24181092.565    99017531.7101      -1408.547          21.000  
G20  24549326.462   129007483.3280      -1723.432          28.000    24549326.530   100525387.5361      -1341.979          20.000  
G18  25168351.626   132260534.9060       1793.585          39.000    25168343.419   103060170.4880       1397.510          27.000  
G24  28014636.819   147217909.7561       2749.648          20.000                                                                  
> 2026  7 21 16 10  0.0120000  0 7                            
G05  25551118.027   134272017.7340      -2615.545          35.000    25551117.435   104627547.8870      -2037.863          28.000  
G23  26067615.139   136986100.9040       1504.358          30.000    26067616.281   106742517.8270       1171.418          27.000  
G15  23385396.115   122890965.2640        393.929          34.000    23385390.552    95759253.8890        307.459          36.000  
G29  24181433.457   127074301.2390      -1808.690          26.000    24181436.515    99018939.2051      -1409.905          21.000  
G20  24549654.313   129009207.1590      -1724.010          28.000    24549654.052   100526729.2061      -1346.615          20.000  
G18  25168010.341   132258741.2520       1793.557          40.000    25168002.212   103058772.8120       1397.277          27.000  
G24  28014110.697   147215145.1971       2754.164          20.000                                                                  
> 2026  7 21 16 10  1.0120000  0 7                            
G05  25551615.702   134274633.0780      -2615.576          35.000    25551615.104   104629585.8190      -2037.899          27.000  
G23  26067329.875   136984597.1760       1504.100          30.000    26067331.354   106741346.1240       1171.531          27.000  
G15  23385321.181   122890571.3420        393.428          34.000    23385315.451    95758946.9370        306.810          36.000  
G29  24181776.319   127076109.9610      -1809.170          26.000    24181780.188    99020346.7131      -1403.206          21.000  
G20  24549982.462   129010931.5730      -1724.883          28.000    24549982.719   100528075.0881      -1337.191          21.000  
G18  25167669.011   132256947.7170       1793.424          40.000    25167660.968   103057375.2330       1397.467          27.000  
G24  28013587.552   147212395.2871       2753.248          21.000                                                                  
> 2026  7 21 16 10  2.0120000  0 7                            
G05  25552113.225   134277248.6120      -2615.360          35.000    25552112.993   104631623.8850      -2038.056          28.000  
G23  26067043.914   136983093.7640       1503.498          30.000    26067045.351   106740174.5880       1171.461          27.000  
G15  23385246.406   122890178.1530        393.292          34.000    23385240.631    95758640.5850        306.367          37.000  
G29  24182121.082   127077919.3690      -1809.715          26.000    24182124.081    99021754.9701      -1415.991          22.000  
G20  24550310.646   129012656.6450      -1725.567          28.000    24550310.869   100529418.8901      -1346.460          21.000  
G18  25167327.745   132255154.4250       1793.175          40.000    25167319.352   103055977.9040       1396.846          28.000  
G24  28013062.103   147209634.1741       2753.553          20.000                                                                  
> 2026  7 21 16 10  3.0120000  0 7                            
G05  25552610.972   134279864.3740      -2616.014          35.000    25552610.898   104633662.1520      -2038.339          28.000  
G23  26066758.250   136981590.6530       1503.435          31.000    26066759.602   106739003.3180       1171.283          28.000  
G15  23385171.831   122889785.7960        392.229          35.000    23385165.875    95758334.8260        305.855          37.000  
G29  24182464.862   127079710.5511      -1812.169          26.000    24182468.490    99023165.4391      -1404.875          22.000  
G20  24550638.736   129014382.3790      -1725.734          28.000    24550639.616   100530765.0521      -1350.034          22.000  
G18  25166986.509   132253361.3990       1793.114          41.000    25166978.215   103054580.7160       1396.673          28.000  
G24  28012536.096   147206870.0551       2752.568          20.000                                                                  
> 2026  7 21 16 10  4.0120000  0 7                            
G05  25553108.785   134282480.2020      -2616.013          35.000    25553108.565   104635700.4540      -2038.533          29.000  
G23  26066472.155   136980087.7000       1503.611          31.000    26066473.091   106737832.2640       1170.266          28.000  
G15  23385097.464   122889394.0260        391.655          35.000    23385091.191    95758029.5870        304.537          37.000  
G29  24182808.519   127081516.3691      -1810.927          27.000    24182813.357    99024577.5971      -1416.448          22.000  
G20  24550967.088   129016108.6760      -1726.829          28.000    24550969.080   100532114.2541      -1341.974          22.000  
G18  25166645.375   132251568.4750       1792.639          40.000    25166636.906   103053183.6170       1396.895          29.000  
G24  28012011.445   147204113.3701       2753.885          20.000                                                                  
> 2026  7 21 16 10  5.0120000  0 7                            
G05  25553606.629   134285096.3670      -2616.485          35.000    25553606.189   104637739.0330      -2038.695          28.000  
G23  26066186.028   136978585.2050       1502.626          31.000    26066187.885   106736661.4110       1170.640          28.000  
G15  23385023.112   122889003.1790        390.665          35.000    23385016.757    95757725.0350        304.184          37.000  
G29  24183152.303   127083322.4771      -1813.325          25.000    24183156.604    99025982.7821      -1403.719          22.000  
G20  24551295.699   129017835.7730      -1727.554          29.000    24551298.206   100533461.4361      -1354.502          21.000  
G18  25166304.249   132249775.9680       1792.479          40.000    25166296.040   103051786.8900       1396.633          28.000  
G24  28011485.758   147201351.1201       2754.554          20.000                                                                  
> 2026  7 21 16 10  6.0120000  0 7                            
G05  25554104.447   134287712.5570      -2615.739          35.000    25554104.205   104639777.6310      -2038.550          28.000  
G23  26065900.115   136977082.8100       1502.846          31.000    26065901.060   106735490.7910       1170.610          28.000  
G15  23384948.957   122888612.9600        389.922          35.000    23384942.457    95757420.9580        303.884          37.000  
G29  24183497.017   127085133.6971      -1811.762          25.000    24183502.177    99027397.8871      -1410.840          21.000  
G20  24551624.380   129019563.4370      -1728.436          28.000    24551626.854   100534807.2011      -1341.352          21.000  
G18  25165963.183   132247983.5410       1792.542          40.000    25165954.851   103050390.2080       1396.518          28.000  
G24  28010961.169   147198593.8451       2758.133          20.000                                                                  
> 2026  7 21 16 10  7.0120000  0 7                            
G05  25554602.273   134290328.6130      -2616.189          35.000    25554601.803   104641816.0360      -2037.812          28.000  
G23  26065614.327   136975580.3820       1502.420          32.000    26065615.014   106734320.0510       1170.422          28.000  
G15  23384875.020   122888223.0930        390.046          35.000    23384868.184    95757117.1530        304.295          37.000  
G29  24183839.739   127086935.1751      -1813.508          24.000    24183844.602    99028799.9661      -1401.813          21.000  
G20  24551952.910   129021291.2740      -1727.845          28.000    24551956.456   100536156.7381      -1345.142          21.000  
G18  25165621.950   132246190.9670       1792.860          40.000    25165613.536   103048993.3590       1397.021          28.000  
G24  28010435.011   147195829.0781       2755.051          20.000                                                                  
> 2026  7 21 16 10  8.0120000  0 7                            
G05  25555100.068   134292944.3910      -2615.868          35.000    25555099.609   104643854.3780      -2038.406          28.000  
G23  26065328.323   136974077.7810       1502.698          32.000    26065328.894   106733149.1510       1171.228          28.000  
G15  23384800.880   122887833.5900        388.715          34.000    23384794.011    95756813.6670        302.981          37.000  
G29  24184184.372   127088746.0151      -1814.019          24.000    24184188.868    99030209.7451      -1398.772          22.000  
G20  24552281.570   129023019.4320      -1728.473          28.000    24552285.508   100537504.3961      -1349.171          21.000  
G18  25165280.800   132244398.2350       1792.549          40.000    25165272.254   103047596.4330       1396.745          27.000  
G24  28009908.613   147193062.4421       2762.548          20.000                                                                  
> 2026  7 21 16 10  9.0120000  0 7                            
G05  25555597.806   134295560.3340      -2616.028          35.000    25555597.302   104645892.7510      -2038.097          28.000  
G23  26065042.497   136972575.4450       1502.320          32.000    26065042.800   106731978.5450       1170.296          28.000  
G15  23384726.952   122887444.7790        388.306          34.000    23384720.094    95756510.6950        302.631          37.000  
G29  24184529.212   127090558.5231      -1812.922          23.000    24184533.542    99031621.9051      -1408.412          22.000  
G20  24552610.491   129024748.1700      -1728.697          28.000    24552613.930   100538848.8151      -1355.770          21.000  
G18  25164939.706   132242605.6910       1792.454          40.000    25164931.128   103046199.6510       1396.463          27.000  
G24  28009384.058   147190306.1941       2757.354          20.000                                                                  
> 2026  7 21 16 10 10.0120000  0 7                            
G05  25556095.682   134298176.4470      -2616.245          35.000    25556095.187   104647931.2960      -2038.739          28.000  
G23  26064756.822   136971073.3330       1502.257          32.000    26064756.265   106730808.0720       1169.911          28.000  
G15  23384653.113   122887056.6880        388.127          35.000    23384646.185    95756208.2780        302.526          37.000  
G29  24184874.458   127092372.6891      -1813.877          23.000    24184879.395    99033038.1021      -1411.812          22.000  
G20  24552939.455   129026477.5760      -1729.661          28.000    24552943.681   100540199.6241      -1343.871          22.000  
G18  25164598.719   132240813.3380       1792.291          40.000    25164589.928   103044803.0040       1396.621          27.000  
G24  28008861.020   147187557.4841       2749.523          20.000                                                                  
> 2026  7 21 16 10 11.0120000  0 7                            
G05  25556593.458   134300792.7310      -2616.208          35.000    25556593.082   104649969.9530      -2038.697          28.000  
G23  26064471.255   136969571.5490       1501.631          32.000    26064470.528   106729637.7940       1170.624          28.000  
G15  23384579.523   122886669.3970        387.224          35.000    23384572.459    95755906.4800        301.847          37.000  
G29  24185219.587   127094186.5511      -1816.157          23.000    24185226.417    99034459.1801      -1421.848          21.000  
G20  24553268.540   129028207.6660      -1730.368          29.000    24553273.538   100541550.5131      -1353.182          21.000  
G18  25164257.783   132239021.2380       1792.152          40.000    25164248.854   103043406.5520       1396.474          27.000  
G24  28008336.579   147184801.2181       2763.656          20.000                                                                  
> 2026  7 21 16 10 12.0120000  0 8                            
G05  25557091.347   134303409.1330      -2616.463          36.000    25557091.178   104652008.6800      -2038.589          28.000  
G23  26064185.541   136968069.9070       1501.284          32.000    26064183.970   106728467.7090       1169.726          28.000  
G21  28305839.600   148748190.1651      -3215.727          19.000                                                                  
G15  23384505.987   122886282.6960        386.415          34.000    23384498.846    95755605.1750        301.251          37.000  
G29  24185566.364   127096009.0511      -1814.189          24.000    24185571.906    99035872.9431      -1416.339          21.000  
G20  24553597.709   129029938.2910      -1730.530          29.000    24553602.577   100542897.4821      -1350.765          22.000  
G18  25163916.769   132237229.2790       1791.562          40.000    25163907.887   103042010.2290       1396.231          28.000  
G24  28007809.336   147182030.8821       2758.583          20.000                                                                  
> 2026  7 21 16 10 13.0120000  0 8                            
G05  25557589.121   134306025.7220      -2617.015          36.000    25557589.128   104654047.5740      -2038.497          28.000  
G23  26063900.018   136966568.5980       1500.508          32.000    26063899.616   106727297.8310       1169.801          28.000  
G21  28306450.575   148751400.8931      -3215.727          19.000                                                                  
G15  23384432.580   122885896.8260        384.985          34.000    23384425.393    95755304.4710        300.667          37.000  
G29  24185912.812   127097829.2111      -1816.829          24.000    24185919.467    99037296.3431      -1415.005          21.000  
G20  24553927.135   129031669.5750      -1731.726          29.000    24553932.500   100544248.6011      -1357.033          21.000  
G18  25163575.769   132235437.5560       1791.526          40.000    25163566.993   103040614.0570       1396.397          28.000  
G24  28007283.912   147179269.5161       2756.851          20.000                                                                  
> 2026  7 21 16 10 14.0120000  0 8                            
G05  25558087.045   134308642.5170      -2616.882          35.000    25558087.294   104656086.7140      -2039.382          28.000  
G23  26063614.502   136965067.5910       1501.308          32.000    26063614.959   106726128.2460       1169.341          28.000  
G21  28307060.474   148754606.6211      -3215.727          20.000                                                                  
G15  23384359.233   122885511.7260        384.730          34.000    23384352.093    95755004.3940        299.466          36.000  
G29  24186258.592   127099646.1221      -1816.193          24.000    24186266.206    99038716.7341      -1424.623          20.000  
G20  24554256.548   129033401.5760      -1732.373          29.000    24554261.864   100545596.6731      -1349.906          21.000  
G18  25163234.895   132233646.1150       1791.438          40.000    25163226.124   103039218.1830       1395.533          27.000  
G24  28006760.156   147176517.3891       2756.173          21.000                                                                  
> 2026  7 21 16 10 15.0120000  0 8                            
G05  25558585.042   134311259.4450      -2616.896          35.000    25558585.217   104658125.8980      -2040.096          27.000  
G23  26063329.020   136963566.8050       1500.146          32.000    26063328.847   106724958.7460       1169.212          28.000  
G21  28307671.424   148757817.3491      -3215.727          19.000                                                                  
G15  23384286.123   122885127.2620        384.232          34.000    23384278.950    95754704.8550        298.695          36.000  
G29  24186605.104   127101466.7051      -1809.459          23.000    24186613.205    99040137.5401      -1421.328          20.000  
G20  24554585.878   129035134.1320      -1732.718          29.000    24554591.205   100546945.3971      -1342.094          20.000  
G18  25162894.082   132231854.8610       1790.712          40.000    25162885.324   103037822.3560       1395.446          28.000  
G24  28006237.002   147173768.2881       2761.147          20.000                                                                  
> 2026  7 21 16 10 16.0120000  0 8                            
G05  25559082.874   134313876.5840      -2617.216          36.000    25559083.637   104660165.2070      -2039.949          27.000  
G23  26063043.631   136962066.3380       1500.623          32.000    26063044.094   106723789.5880       1169.383          27.000  
G21  28308284.273   148761037.0771      -3215.727          19.000                                                                  
G15  23384213.059   122884743.6100        383.245          34.000    23384205.940    95754405.8950        298.504          35.000  
G29  24186951.833   127103288.9651      -1818.016          23.000    24186960.387    99041558.7891      -1428.940          19.000  
G20  24554915.177   129036867.3760      -1733.191          29.000    24554920.670   100548294.6511      -1353.525          19.000  
G18  25162553.291   132230063.8460       1790.856          40.000    25162544.564   103036426.7530       1395.707          27.000  
G24  28005712.060   147171009.2571       2758.670          20.000                                                                  
> 2026  7 21 16 10 17.0120000  0 7                            
G05  25559580.979   134316493.8420      -2617.436          36.000    25559581.609   104662204.6000      -2039.704          27.000  
G23  26062758.367   136960566.0860       1499.877          33.000    26062758.684   106722620.5830       1168.782          28.000  
G15  23384140.190   122884360.6570        382.569          34.000    23384132.976    95754107.4660        298.012          36.000  
G29  24187298.133   127105108.9821      -1818.693          23.000    24187306.470    99042975.8301      -1414.261          19.000  
G20  24555245.092   129038601.2490      -1734.222          29.000    24555251.086   100549647.4941      -1355.606          20.000  
G18  25162212.514   132228273.0110       1790.447          41.000    25162203.817   103035031.3140       1395.335          27.000  
G24  28005184.804   147168238.9301       2757.253          20.000                                                                  
