     3.05           N: NAVIGATION       M: MIXED            RINEX VERSION / TYPE
PYRINEXCONV 0.1.2 ALDELTUNES            20260721 151513 UTC PGM / RUN BY / DATE
GAL    9.2500e+01  2.3047e-01  2.8290e-02             P 10  IONOSPHERIC CORR
GPSA   1.1176e-08  2.2352e-08  1.5199e-05  1.5140e-05 P 05  IONOSPHERIC CORR
GPSB   1.0650e+05  1.4746e+05  1.6712e+07  1.6450e+07 P 05  IONOSPHERIC CORR
GAUT  6.5192580223e-09-2.664535259e-15 225000 1404   E10  0 TIME SYSTEM CORR
GPUT  1.3387762010e-09-4.578559754e-13 457500 2428   G05  0 TIME SYSTEM CORR
                                                            END OF HEADER
G21 2026 07 21 15 14 24 3.956333966926e-04-5.311306949807e-12 0.000000000000e+00
     9.450435638428e-03-5.273046875000e+01 4.486079720370e-09 2.075694246323e+00
    -2.602115273476e-06 7.890067063272e-04 7.591210305691e-06 5.153627612314e+03
     2.196000000000e+05 3.632158041000e-08 1.623459448791e+00 8.381903171539e-08
     9.641829596218e-01 2.340507812500e+02-8.772100725777e-02-8.300824997587e-09
     1.642925577302e-10 4.486079720370e-09-3.000000000000e+00 2.000000000000e+00
     2.700000000000e+01 4.000000000000e+00-9.778887033463e-09 7.000000000000e+00
    -8.731149137020e-11 6.199115887284e-09 1.746229827404e-10 1.455191522837e-10
     2.276640000000e+05 2.428000000000e+03 0.000000000000e+00                   
E02 2026 07 21 15 15 05 5.614658584818e-05 2.728484105319e-12 0.000000000000e+00
     1.240000000000e+02 8.496875000000e+01 2.965480667030e-09 2.445771511126e+00
     4.021450877190e-06 2.683155471459e-04 8.597970008850e-06 5.440624530792e+03
     2.268000000000e+05 2.793967723846e-08-1.325963000733e+00-7.450580596924e-09
     9.610047079206e-01 1.556562500000e+02-8.932860135195e-02-5.524158674811e-09
    -1.392915163365e-11 1.000000000000e+00 1.404000000000e+03                   
     1.070000000000e+02 0.000000000000e+00-2.328306436539e-09-3.026798367500e-09
     2.277050000000e+05                                                         
E09 2026 07 21 15 15 05-3.004157333635e-04 1.710986907710e-11 1.734723475977e-18
     1.190000000000e+02-3.487500000000e+01 3.140130799052e-09-1.002525757942e+00
    -1.782551407814e-06 4.982398822904e-04 6.152316927910e-06 5.440615571976e+03
     2.238000000000e+05-9.313225746155e-09 2.855395801599e+00-2.793967723846e-08
     9.750963921301e-01 2.140000000000e+02 3.879758985363e-01-5.525230148013e-09
     9.107522222000e-11 1.000000000000e+00 1.404000000000e+03                   
     1.070000000000e+02 0.000000000000e+00 4.656612873077e-10 6.984919309616e-10
     2.277050000000e+05                                                         
E36 2026 07 21 15 15 05-5.969929625280e-04-5.314859663486e-12 0.000000000000e+00
     1.240000000000e+02-5.171875000000e+01 2.648324599064e-09 4.816287335871e-01
    -2.600252628326e-06 8.669390808791e-05 4.731118679047e-06 5.440599889755e+03
     2.268000000000e+05 2.980232238770e-08 7.698536479288e-01-3.166496753693e-08
     9.976479926148e-01 2.557187500000e+02 5.619610573051e-01-5.472727961087e-09
    -5.643092200298e-11 1.000000000000e+00 1.404000000000e+03                   
     1.070000000000e+02 0.000000000000e+00 4.423782229424e-09 5.122274160385e-09
     2.277050000000e+05                                                         
G20 2026 07 21 15 15 12 2.372651943006e-04 1.183053655041e-11 0.000000000000e+00
    -1.479625701904e-03-2.466406250000e+01 4.678766317969e-09 2.356802793473e+00
    -1.228414475918e-06 1.908916747198e-03 6.722286343575e-06 5.153610237918e+03
     1.737000000000e+05-7.450580596924e-09 2.629475266988e+00-5.867332220078e-08
     9.620867962396e-01 2.494765625000e+02-1.761669008105e+00-8.288860213492e-09
     9.571827276455e-11 4.678766317969e-09-3.000000000000e+00 2.000000000000e+00
     3.000000000000e+01 4.000000000000e+00-6.984919309616e-09 7.000000000000e+00
    -1.455191522837e-10 4.220055416226e-09 2.095475792885e-09 2.066371962428e-09
     2.277120000000e+05 2.428000000000e+03 0.000000000000e+00                   
G05 2026 07 21 15 15 12-2.352888113819e-04-3.375077994860e-13 0.000000000000e+00
     2.565860748291e-03-4.619140625000e+01 4.156601710574e-09 1.813065473454e-02
    -2.316199243069e-06 5.603697441984e-03 7.780268788338e-06 5.153450394707e+03
     1.701000000000e+05-1.862645149231e-08 1.559802297741e+00 9.313225746155e-10
     9.811633233336e-01 2.414218750000e+02 1.482302350197e+00-8.397436164687e-09
     1.001827444420e-10 4.156601710574e-09-2.000000000000e+00 3.000000000000e+00
     3.000000000000e+01 4.000000000000e+00-1.071020960808e-08 7.000000000000e+00
    -3.783497959375e-10 5.733454599977e-09 0.000000000000e+00 0.000000000000e+00
     2.277120000000e+05 2.428000000000e+03 0.000000000000e+00                   
E18 2026 07 21 15 15 24 3.026167163625e-03 4.210676252114e-11 0.000000000000e+00
     1.190000000000e+02 2.634375000000e+01 7.649961508746e-09-6.286383720086e-01
     1.572072505951e-06 1.681467125891e-01 7.543712854385e-07 5.289314052582e+03
     2.238000000000e+05 2.404674887657e-06-4.309602616247e-01-6.537884473801e-07
     8.525067960899e-01 2.769375000000e+02-3.128891183357e+00-1.118725170822e-08
     3.578720496645e-10 5.160000000000e+02 1.404000000000e+03                   
     1.070000000000e+02 1.440000000000e+02-3.026798367500e-09-3.492459654808e-09
     2.277240000000e+05                                                         
E11 2026 07 21 15 15 24 5.519136495423e-03 6.730260793120e-11-3.469446951954e-18
     1.240000000000e+02-6.009375000000e+01 2.705112678801e-09 4.490085906444e-01
    -2.741813659668e-06 4.144974518567e-04 4.790723323822e-06 5.440606719971e+03
     2.268000000000e+05 5.029141902924e-08 7.693580478565e-01-5.587935447693e-09
     9.945433483682e-01 2.525000000000e+02 1.350061378150e+00-5.517729835595e-09
    -8.321775206769e-11 5.160000000000e+02 1.404000000000e+03                   
     1.070000000000e+02 0.000000000000e+00-1.490116119385e-08-1.583248376846e-08
     2.277240000000e+05                                                         
E28 2026 07 21 15 15 24-6.041297456250e-05-2.927436071332e-12 0.000000000000e+00
     1.190000000000e+02-3.481250000000e+01 3.644437519737e-09-1.437649787244e+00
    -1.521781086922e-06 2.857649233192e-04 5.839392542839e-06 5.440609514236e+03
     2.238000000000e+05 4.842877388000e-08 2.869927339925e+00-2.235174179077e-08
     9.490580185673e-01 2.054687500000e+02 1.968572139457e+00-5.814885070446e-09
     1.217907873609e-10 5.160000000000e+02 1.404000000000e+03                   
     1.070000000000e+02 0.000000000000e+00 4.656612873077e-10 1.629814505577e-09
     2.277240000000e+05                                                         
E04 2026 07 21 15 15 24-1.211088383570e-04 3.356603883731e-11 1.734723475977e-18
     1.200000000000e+02-3.718750000000e+01 3.314423773340e-09 3.097929803725e-01
    -1.670792698860e-06 2.910804469138e-04 5.975365638733e-06 5.440609210968e+03
     2.244000000000e+05 1.862645149231e-09 2.852235667407e+00-3.725290298462e-08
     9.693590600272e-01 2.107812500000e+02-7.033727826425e-02-5.619876947575e-09
     9.286101089098e-11 5.160000000000e+02 1.404000000000e+03                   
     1.070000000000e+02 0.000000000000e+00-4.656612873077e-09-5.122274160385e-09
     2.277240000000e+05                                                         
E06 2026 07 21 15 15 24-3.008195781149e-04-5.144329406903e-12 0.000000000000e+00
     1.240000000000e+02-3.671875000000e+01 3.421213935864e-09-1.245766083249e+00
    -1.663342118263e-06 5.042672855780e-04 5.953013896942e-06 5.440611028671e+03
     2.268000000000e+05-3.911554813385e-08 2.851870625459e+00-3.352761268616e-08
     9.626654022838e-01 2.080000000000e+02 1.389718835848e+00-5.667736083958e-09
     8.786080261224e-11 5.160000000000e+02 1.404000000000e+03                   
     1.070000000000e+02 0.000000000000e+00 1.862645149231e-09 3.259629011154e-09
     2.277240000000e+05                                                         
E10 2026 07 21 15 15 24-8.074801298790e-04-2.685851541173e-12 0.000000000000e+00
     1.210000000000e+02-6.571875000000e+01 2.680825952876e-09-3.342573169875e-01
    -2.965331077576e-06 2.866949653253e-04 4.820525646210e-06 5.440601678848e+03
     2.250000000000e+05 3.539025783539e-08 7.679086690841e-01 2.607703208923e-08
     9.974607932286e-01 2.541562500000e+02 2.338951853064e+00-5.513443942785e-09
    -9.893269237232e-11 5.160000000000e+02 1.404000000000e+03                   
     1.070000000000e+02 0.000000000000e+00-1.396983861923e-09-6.984919309616e-10
     2.277240000000e+05                                                         
END OF FILE                                                 COMMENT
