     3.05           N: NAVIGATION       M: MIXED            RINEX VERSION / TYPE
PYRINEXCONV 0.1.2 ALDELTUNES            20260721 151719 UTC PGM / RUN BY / DATE
GAL    9.2500e+01  2.3047e-01  2.8290e-02             P 09  IONOSPHERIC CORR
GPSA   1.1176e-08  2.2352e-08  1.5199e-05  1.5140e-05 P 20  IONOSPHERIC CORR
GPSB   1.0650e+05  1.4746e+05  1.6712e+07  1.6450e+07 P 20  IONOSPHERIC CORR
BDSA   2.1420e-08  7.4506e-08 -8.3447e-07  1.3709e-06 P 19  IONOSPHERIC CORR
BDSB   1.4131e+05 -6.3898e+05  5.1773e+06 -4.3909e+06 P 19  IONOSPHERIC CORR
GAUT  6.5192580223e-09-2.664535259e-15 223800 1404   E09  0 TIME SYSTEM CORR
GPUT  1.2805685401e-09 2.224886941e-13 457200 2428   G20  0 TIME SYSTEM CORR
BDUT  0.0000000000e+00 0.000000000e+00 226800 1072   C19  0 TIME SYSTEM CORR
                                                            END OF HEADER
G29 2026 07 21 15 16 24-2.776570618153e-04 7.389644451905e-12 0.000000000000e+00
     9.000000000000e+01 5.809375000000e+01 4.563404369823e-09-1.533519178715e-01
     3.034248948097e-06 3.656383254565e-03 4.969537258148e-06 5.153686916351e+03
     2.304000000000e+05 3.352761268616e-08-4.181125420085e-01-7.450580596924e-09
     9.601405388045e-01 2.798125000000e+02 2.869589316610e+00-8.243914820714e-09
     1.060758470562e-10 1.000000000000e+00 3.800000000000e+02 0.000000000000e+00
     2.000000000000e+00 0.000000000000e+00-9.778887033463e-09 9.000000000000e+01
     9.111360000000e+05 4.000000000000e+00                                      
G20 2026 07 21 15 16 24 2.372865565121e-04 1.182343112305e-11 0.000000000000e+00
     7.100000000000e+01-2.381250000000e+01 4.711981987249e-09 2.619551656555e+00
    -1.171603798866e-06 1.908528502099e-03 6.597489118576e-06 5.153612499237e+03
     2.304000000000e+05 9.313225746155e-09 2.629460637076e+00-9.872019290924e-08
     9.620869074214e-01 2.475937500000e+02-1.761861725619e+00-8.072121950566e-09
     1.110760553350e-10 1.000000000000e+00 3.800000000000e+02 0.000000000000e+00
     2.000000000000e+00 0.000000000000e+00-6.984919309616e-09 7.100000000000e+01
     9.111360000000e+05 4.000000000000e+00                                      
G15 2026 07 21 15 16 24 4.301615990698e-04 3.069544618484e-12 0.000000000000e+00
     9.400000000000e+01-1.437500000000e+01 5.143071372424e-09-1.023348202423e+00
    -5.289912223816e-07 1.703054609243e-02 7.145106792450e-06 5.153753536224e+03
     2.304000000000e+05-2.812594175339e-07 2.477172651247e+00 2.104789018631e-07
     9.447318040774e-01 2.346250000000e+02 1.537925166128e+00-8.521069222450e-09
     1.846505485794e-10 1.000000000000e+00 3.800000000000e+02 0.000000000000e+00
     2.800000000000e+00 0.000000000000e+00-1.071020960808e-08 9.400000000000e+01
     9.111360000000e+05 4.000000000000e+00                                      
G21 2026 07 21 15 16 24 3.956239670515e-04-5.343281372916e-12 0.000000000000e+00
     2.320000000000e+02-4.750000000000e+01 4.465900308388e-09 2.335570818242e+00
    -2.305954694748e-06 7.916963659227e-04 8.292496204376e-06 5.153596115112e+03
     2.304000000000e+05-1.862645149231e-08 1.623444848137e+00 9.313225746155e-08
     9.641833436378e-01 2.218437500000e+02-8.504653772967e-02-8.016762501765e-09
     1.950081228711e-10 1.000000000000e+00 3.800000000000e+02 0.000000000000e+00
     2.000000000000e+00 0.000000000000e+00-9.778887033463e-09 4.880000000000e+02
     9.111360000000e+05 4.000000000000e+00                                      
G23 2026 07 21 15 16 24 6.713280454278e-04 3.865352482535e-12 0.000000000000e+00
     2.330000000000e+02-4.190625000000e+01 3.838017011671e-09-2.656087962439e+00
    -2.184882760048e-06 6.448657601140e-03 8.199363946915e-06 5.153730514526e+03
     2.339840000000e+05-4.470348358154e-08 1.586090926116e+00-1.396983861923e-07
     9.892007247293e-01 2.383125000000e+02-2.742395103992e+00-7.622817520947e-09
     1.657211886670e-10 1.000000000000e+00 3.800000000000e+02 0.000000000000e+00
     2.000000000000e+00 0.000000000000e+00-8.381903171539e-09 4.890000000000e+02
     9.111360000000e+05 4.000000000000e+00                                      
G11 2026 07 21 15 16 24-2.676122821867e-04 1.227817847393e-11 0.000000000000e+00
     7.000000000000e+01-3.228125000000e+01 4.620192449561e-09-7.044492387270e-01
    -1.553446054459e-06 2.488303696737e-03 4.861503839493e-06 5.153649576187e+03
     2.304000000000e+05 2.421438694000e-08 5.991722043730e-01 6.891787052155e-08
     9.627611985484e-01 2.880937500000e+02-2.355401590056e+00-8.254986710474e-09
    -8.036049019412e-11 1.000000000000e+00 3.800000000000e+02 0.000000000000e+00
     2.000000000000e+00 0.000000000000e+00-8.847564458847e-09 8.380000000000e+02
     9.111360000000e+05 4.000000000000e+00                                      
G20 2026 07 21 15 16 48 2.372651943006e-04 1.183053655041e-11 0.000000000000e+00
    -1.479625701904e-03-2.466406250000e+01 4.678766317969e-09 2.356802793473e+00
    -1.228414475918e-06 1.908916747198e-03 6.722286343575e-06 5.153610237918e+03
     1.737000000000e+05-7.450580596924e-09 2.629475266988e+00-5.867332220078e-08
     9.620867962396e-01 2.494765625000e+02-1.761669008105e+00-8.288860213492e-09
     9.571827276455e-11 4.678766317969e-09-3.000000000000e+00 2.000000000000e+00
     3.000000000000e+01 4.000000000000e+00-6.984919309616e-09 7.000000000000e+00
    -1.455191522837e-10 4.220055416226e-09 2.095475792885e-09 2.066371962428e-09
     2.278080000000e+05 2.428000000000e+03 0.000000000000e+00                   
C31 2026 07 21 15 16 54 7.555967895314e-04-9.036327242029e-12 0.000000000000e+00
     1.000000000000e+00 2.823437500000e+01 4.319108479633e-09 1.019837140516e+00
     1.327600330114e-06 7.332909153774e-04 3.285706043243e-06 5.282664857864e+03
     2.268000000000e+05-6.519258022308e-09 3.184428872816e-02 2.865027636290e-05
     9.410537866447e-01 2.815468750000e+02 1.053555522394e+00 1.136485910628e-06
     1.964367538078e-11                    1.072000000000e+03                   
     0.000000000000e+00 0.000000000000e+00-6.519258022308e-09-6.519258022308e-09
     2.278140000000e+05 1.000000000000e+00                                      
C22 2026 07 21 15 16 54 4.575536586344e-04 2.806643806252e-13 0.000000000000e+00
     1.000000000000e+00-3.640625000000e+01 3.429785721485e-09-9.167121157106e-02
    -1.687556505203e-06 8.537262910977e-04 7.410533726215e-06 5.282631006241e+03
     2.268000000000e+05 1.490116119385e-08 2.185866892873e+00 8.287373930216e-06
     9.892422467332e-01 2.218906250000e+02 7.765723171827e-01 1.443653705400e-06
     1.814361289716e-10                    1.072000000000e+03                   
     0.000000000000e+00 0.000000000000e+00 6.239861249924e-08 6.239861249924e-08
     2.278140000000e+05 1.000000000000e+00                                      
C21 2026 07 21 15 16 54-8.454507915303e-04 1.081801315195e-12 0.000000000000e+00
     1.000000000000e+00-2.667187500000e+01 3.322638401226e-09-1.874511265833e-01
    -1.355074346066e-06 7.084667449817e-04 7.296912372112e-06 5.282635606766e+03
     2.268000000000e+05-6.519258022308e-09 2.185935527137e+00 2.212962135673e-05
     9.892332483241e-01 2.274687500000e+02 9.314678535464e-02 1.510993653236e-06
     2.082229590363e-10                    1.072000000000e+03                   
     0.000000000000e+00 0.000000000000e+00 5.168840289116e-08 5.168840289116e-08
     2.278140000000e+05 1.000000000000e+00                                      
C35 2026 07 21 15 16 54-4.785080673173e-04-1.603073229717e-11 0.000000000000e+00
     1.000000000000e+00 2.846875000000e+01 4.310536694013e-09 1.931562790235e+00
     1.444481313229e-06 8.112853392959e-04 3.417953848839e-06 5.282617630005e+03
     2.268000000000e+05 4.656612873077e-09 3.467315975056e-02 3.984896466136e-05
     9.437466048228e-01 2.826093750000e+02 8.851252844723e-01-2.093545776013e-06
     9.286101089098e-12                    1.072000000000e+03                   
     0.000000000000e+00 0.000000000000e+00-1.257285475731e-08-1.257285475731e-08
     2.278140000000e+05 1.000000000000e+00                                      
C14 2026 07 21 15 16 54-3.057799767703e-04 7.762679388179e-12 0.000000000000e+00
     1.000000000000e+00-2.575000000000e+01 3.611936165925e-09-1.314648618220e+00
    -1.267064362764e-06 3.322358243167e-04 7.124152034521e-06 5.282647661209e+03
     2.268000000000e+05-4.051253199577e-08 2.170650700109e+00-3.389082849026e-05
     9.735729399636e-01 2.245625000000e+02 8.509870568096e-01-1.432580744167e-06
     2.378670509746e-10                    1.072000000000e+03                   
     0.000000000000e+00 0.000000000000e+00 1.471489667892e-07 1.471489667892e-07
     2.278140000000e+05 1.000000000000e+00                                      
C19 2026 07 21 15 16 54-9.325984865427e-04 8.126832540256e-13 0.000000000000e+00
     1.000000000000e+00-3.334375000000e+01 3.432642983359e-09 1.801419893604e+00
    -1.478940248489e-06 7.835614960641e-04 7.794704288244e-06 5.282632587433e+03
     2.268000000000e+05 1.210719347000e-07 2.184769875475e+00 2.924352884293e-07
     9.899566393705e-01 2.162500000000e+02-3.190487343233e-01 3.724776580467e-07
     2.664396697103e-10                    1.072000000000e+03                   
     0.000000000000e+00 0.000000000000e+00 4.330649971962e-08 4.330649971962e-08
     2.278140000000e+05 1.000000000000e+00                                      
E36 2026 07 21 15 17 05-5.969929625280e-04-5.314859663486e-12 0.000000000000e+00
     1.240000000000e+02-5.171875000000e+01 2.648324599064e-09 4.816287335871e-01
    -2.600252628326e-06 8.669390808791e-05 4.731118679047e-06 5.440599889755e+03
     2.268000000000e+05 2.980232238770e-08 7.698536479288e-01-3.166496753693e-08
     9.976479926148e-01 2.557187500000e+02 5.619610573051e-01-5.472727961087e-09
    -5.643092200298e-11 1.000000000000e+00 1.404000000000e+03                   
     1.070000000000e+02 0.000000000000e+00 4.423782229424e-09 5.122274160385e-09
     2.278250000000e+05                                                         
E02 2026 07 21 15 17 05 5.614658584818e-05 2.728484105319e-12 0.000000000000e+00
     1.240000000000e+02 8.496875000000e+01 2.965480667030e-09 2.445771511126e+00
     4.021450877190e-06 2.683155471459e-04 8.597970008850e-06 5.440624530792e+03
     2.268000000000e+05 2.793967723846e-08-1.325963000733e+00-7.450580596924e-09
     9.610047079206e-01 1.556562500000e+02-8.932860135195e-02-5.524158674811e-09
    -1.392915163365e-11 1.000000000000e+00 1.404000000000e+03                   
     1.070000000000e+02 0.000000000000e+00-2.328306436539e-09-3.026798367500e-09
     2.278250000000e+05                                                         
E18 2026 07 21 15 17 24 3.026167163625e-03 4.210676252114e-11 0.000000000000e+00
     1.190000000000e+02 2.634375000000e+01 7.649961508746e-09-6.286383720086e-01
     1.572072505951e-06 1.681467125891e-01 7.543712854385e-07 5.289314052582e+03
     2.238000000000e+05 2.404674887657e-06-4.309602616247e-01-6.537884473801e-07
     8.525067960899e-01 2.769375000000e+02-3.128891183357e+00-1.118725170822e-08
     3.578720496645e-10 5.160000000000e+02 1.404000000000e+03                   
     1.070000000000e+02 1.440000000000e+02-3.026798367500e-09-3.492459654808e-09
     2.278440000000e+05                                                         
E28 2026 07 21 15 17 24-6.041297456250e-05-2.927436071332e-12 0.000000000000e+00
     1.190000000000e+02-3.481250000000e+01 3.644437519737e-09-1.437649787244e+00
    -1.521781086922e-06 2.857649233192e-04 5.839392542839e-06 5.440609514236e+03
     2.238000000000e+05 4.842877388000e-08 2.869927339925e+00-2.235174179077e-08
     9.490580185673e-01 2.054687500000e+02 1.968572139457e+00-5.814885070446e-09
     1.217907873609e-10 5.160000000000e+02 1.404000000000e+03                   
     1.070000000000e+02 0.000000000000e+00 4.656612873077e-10 1.629814505577e-09
     2.278440000000e+05                                                         
E04 2026 07 21 15 17 24-1.211088383570e-04 3.356603883731e-11 1.734723475977e-18
     1.200000000000e+02-3.718750000000e+01 3.314423773340e-09 3.097929803725e-01
    -1.670792698860e-06 2.910804469138e-04 5.975365638733e-06 5.440609210968e+03
     2.244000000000e+05 1.862645149231e-09 2.852235667407e+00-3.725290298462e-08
     9.693590600272e-01 2.107812500000e+02-7.033727826425e-02-5.619876947575e-09
     9.286101089098e-11 5.160000000000e+02 1.404000000000e+03                   
     1.070000000000e+02 0.000000000000e+00-4.656612873077e-09-5.122274160385e-09
     2.278440000000e+05                                                         
E06 2026 07 21 15 17 24-3.008195781149e-04-5.144329406903e-12 0.000000000000e+00
     1.240000000000e+02-3.671875000000e+01 3.421213935864e-09-1.245766083249e+00
    -1.663342118263e-06 5.042672855780e-04 5.953013896942e-06 5.440611028671e+03
     2.268000000000e+05-3.911554813385e-08 2.851870625459e+00-3.352761268616e-08
     9.626654022838e-01 2.080000000000e+02 1.389718835848e+00-5.667736083958e-09
     8.786080261224e-11 5.160000000000e+02 1.404000000000e+03                   
     1.070000000000e+02 0.000000000000e+00 1.862645149231e-09 3.259629011154e-09
     2.278440000000e+05                                                         
E10 2026 07 21 15 17 24-8.074801298790e-04-2.685851541173e-12 0.000000000000e+00
     1.210000000000e+02-6.571875000000e+01 2.680825952876e-09-3.342573169875e-01
    -2.965331077576e-06 2.866949653253e-04 4.820525646210e-06 5.440601678848e+03
     2.250000000000e+05 3.539025783539e-08 7.679086690841e-01 2.607703208923e-08
     9.974607932286e-01 2.541562500000e+02 2.338951853064e+00-5.513443942785e-09
    -9.893269237232e-11 5.160000000000e+02 1.404000000000e+03                   
     1.070000000000e+02 0.000000000000e+00-1.396983861923e-09-6.984919309616e-10
     2.278440000000e+05                                                         
E09 2026 07 21 15 17 24-3.004157333635e-04 1.710986907710e-11 1.734723475977e-18
     1.190000000000e+02-3.487500000000e+01 3.140130799052e-09-1.002525757942e+00
    -1.782551407814e-06 4.982398822904e-04 6.152316927910e-06 5.440615571976e+03
     2.238000000000e+05-9.313225746155e-09 2.855395801599e+00-2.793967723846e-08
     9.750963921301e-01 2.140000000000e+02 3.879758985363e-01-5.525230148013e-09
     9.107522222000e-11 5.160000000000e+02 1.404000000000e+03                   
     1.070000000000e+02 0.000000000000e+00 4.656612873077e-10 6.984919309616e-10
     2.278440000000e+05                                                         
E11 2026 07 21 15 17 24 5.519136495423e-03 6.730260793120e-11-3.469446951954e-18
     1.240000000000e+02-6.009375000000e+01 2.705112678801e-09 4.490085906444e-01
    -2.741813659668e-06 4.144974518567e-04 4.790723323822e-06 5.440606719971e+03
     2.268000000000e+05 5.029141902924e-08 7.693580478565e-01-5.587935447693e-09
     9.945433483682e-01 2.525000000000e+02 1.350061378150e+00-5.517729835595e-09
    -8.321775206769e-11 5.160000000000e+02 1.404000000000e+03                   
     1.070000000000e+02 0.000000000000e+00-1.490116119385e-08-1.583248376846e-08
     2.278440000000e+05                                                         
END OF FILE                                                 COMMENT
