     3.05           N: NAVIGATION       M: MIXED            RINEX VERSION / TYPE
PYRINEXCONV 0.1.2 ALDELTUNES            20260721 081116 UTC PGM / RUN BY / DATE
GAL    1.0175e+02  3.3203e-01  2.2858e-02             I 31  IONOSPHERIC CORR
GPSA   9.3132e-09  2.2352e-08 -5.9605e-08 -1.1921e-07 I 07  IONOSPHERIC CORR
GPSB   1.0035e+05  1.3107e+05 -6.5536e+04 -4.5875e+05 I 07  IONOSPHERIC CORR
BDSA   2.0489e-08  5.2154e-08 -6.5565e-07  1.1325e-06 I 39  IONOSPHERIC CORR
BDSB   1.3926e+05 -6.0621e+05  5.0463e+06 -4.3254e+06 I 39  IONOSPHERIC CORR
GAUT  6.5192580223e-09-2.664535259e-15 201600 1404   E31  0 TIME SYSTEM CORR
GPUT -3.5527136788e-15-2.793967724e-09 208800  380   G07  0 TIME SYSTEM CORR
BDUT  0.0000000000e+00 0.000000000e+00 201600 1072   C39  0 TIME SYSTEM CORR
                                                            END OF HEADER
C36 2026 07 21 08 04 54 2.596018603072e-04-4.320099833421e-12 0.000000000000e+00
     1.000000000000e+00 1.542187500000e+01 4.059097649138e-09-2.981974030616e+00
     7.343478500843e-07 8.160521974787e-04 9.567942470312e-06 5.282653308868e+03
     2.016000000000e+05 1.257285475731e-08-2.018576818193e+00 4.748487845063e-05
     9.451397651163e-01 1.568593750000e+02-1.024440970044e+00 1.387761377260e-07
    -3.714440435639e-11                    1.072000000000e+03                   
     0.000000000000e+00 0.000000000000e+00-9.639188647270e-08-9.639188647270e-08
     2.018940000000e+05 1.000000000000e+00                                      
C30 2026 07 21 08 04 54 4.927918780595e-04 7.474021401777e-12 0.000000000000e+00
     1.000000000000e+00 1.251562500000e+01 4.366253300547e-09 1.314716285496e-02
     7.352791726589e-07 4.701827419922e-04 3.719702363014e-06 5.282649618149e+03
     2.016000000000e+05 7.031485438347e-08 3.472310669963e-02 1.446064561605e-05
     9.455191568281e-01 2.751093750000e+02 9.821292742436e-01-2.044309439408e-06
    -2.150089559860e-10                    1.072000000000e+03                   
     0.000000000000e+00 0.000000000000e+00-4.516914486885e-08-4.516914486885e-08
     2.018940000000e+05 1.000000000000e+00                                      
C11 2026 07 21 08 04 54-7.890666602179e-04-2.155786660296e-11 0.000000000000e+00
     1.000000000000e+00 4.703125000000e+00 4.238390831705e-09 1.209906606655e+00
     2.686865627766e-07 1.699145650491e-04 3.708992153406e-06 5.282640985489e+03
     2.016000000000e+05-1.629814505577e-08 7.440371653916e-02 5.046837031841e-05
     9.504523535841e-01 2.779218750000e+02-6.662516928116e-01 7.528356443407e-07
    -2.492960984689e-10                    1.072000000000e+03                   
     0.000000000000e+00 0.000000000000e+00 1.350417733192e-08 1.350417733192e-08
     2.018940000000e+05 1.000000000000e+00                                      
C29 2026 07 21 08 04 54 6.338179809973e-04 5.240252676231e-12 0.000000000000e+00
     1.000000000000e+00 5.515625000000e+00 4.330537527128e-09-1.892395480313e+00
     2.798624336720e-07 2.190576633438e-04 3.743451088667e-06 5.282656152725e+03
     2.016000000000e+05-2.700835466385e-08 3.425795141547e-02 4.335166886449e-05
     9.455638621417e-01 2.762343750000e+02 2.117102114029e+00-2.497539746841e-06
    -2.225092684042e-10                    1.072000000000e+03                   
     0.000000000000e+00 0.000000000000e+00 9.313225746155e-10 9.313225746155e-10
     2.018940000000e+05 1.000000000000e+00                                      
C39 2026 07 21 08 04 54-9.576437296346e-04 8.848921595472e-12 0.000000000000e+00
     1.000000000000e+00 1.939062500000e+01 4.016238721035e-09 1.470108519121e+00
     7.110647857189e-07 5.727914394811e-04 9.650364518166e-06 5.282661041260e+03
     2.016000000000e+05 5.494803190231e-08-2.011473458538e+00 5.104346200824e-05
     9.490809205499e-01 1.586875000000e+02 5.823257035172e-02 1.083409771223e-06
    -8.464638300447e-11                    1.072000000000e+03                   
     0.000000000000e+00 0.000000000000e+00 8.987262845039e-08 8.987262845039e-08
     2.018940000000e+05 1.000000000000e+00                                      
G06 2026 07 21 08 06 24-5.693228158634e-04 7.972289495228e-12 0.000000000000e+00
     5.177974700928e-03-2.061328125000e+01 4.004452515806e-09 9.323627841724e-01
    -1.042149960995e-06 3.692717407830e-03 6.204470992088e-06 5.153498310652e+03
     1.845000000000e+05 1.676380634308e-08 5.836785092156e-01-2.700835466385e-08
     9.858739305207e-01 2.723945312500e+02-5.459911281849e-01-8.441009408259e-09
    -2.816188734136e-10 4.004452515806e-09-2.000000000000e+00 3.000000000000e+00
     2.800000000000e+01 4.000000000000e+00 3.725290298462e-09 7.000000000000e+00
     3.201421350241e-10-3.929017111659e-09 1.775333657861e-09 2.211891114712e-09
     2.019840000000e+05 2.428000000000e+03 0.000000000000e+00                   
E06 2026 07 21 08 08 24-3.006869228557e-04-5.044853423897e-12 0.000000000000e+00
     8.100000000000e+01-4.012500000000e+01 3.228705917133e-09 1.841539165281e+00
    -1.817941665649e-06 5.051374901086e-04 5.500391125679e-06 5.440612518311e+03
     2.010000000000e+05 6.332993507385e-08 2.852016004406e+00 3.352761268616e-08
     9.626622643245e-01 2.235000000000e+02 1.387025290599e+00-5.692379967617e-09
     1.821504444400e-10 5.160000000000e+02 1.404000000000e+03                   
     1.070000000000e+02 0.000000000000e+00 2.328306436539e-09 3.725290298462e-09
     2.021040000000e+05                                                         
E09 2026 07 21 08 08 54-3.008393687196e-04 1.796252036002e-11 3.469446951954e-18
     7.800000000000e+01-4.043750000000e+01 3.062627570731e-09 2.231102926804e+00
    -1.855194568634e-06 4.994859918952e-04 5.761161446571e-06 5.440615755081e+03
     1.992000000000e+05 5.774199962616e-08 2.855532483498e+00 1.117587089539e-08
     9.750928474796e-01 2.231875000000e+02 3.877405252578e-01-5.604876322739e-09
     1.696499237431e-10 5.160000000000e+02 1.404000000000e+03                   
     1.070000000000e+02 0.000000000000e+00 6.984919309616e-10 9.313225746155e-10
     2.021340000000e+05                                                         
E12 2026 07 21 08 09 05-5.898519884795e-05-2.557953848736e-12 0.000000000000e+00
     8.000000000000e+01-4.656250000000e+01 2.602251251353e-09-1.541989154015e+00
    -2.337619662285e-06 3.188102273270e-04 6.387010216713e-06 5.440606094360e+03
     2.004000000000e+05-3.166496753693e-08 7.695124734890e-01 1.490116119385e-08
     9.945614680715e-01 2.191875000000e+02 8.649107058597e-01-5.409153884400e-09
    -2.667968274445e-10 1.000000000000e+00 1.404000000000e+03                   
     1.070000000000e+02 0.000000000000e+00-1.187436282635e-08-1.164153218269e-08
     2.021450000000e+05                                                         
G01 2026 07 21 08 10 24 2.169621875510e-04-9.631406783228e-12 0.000000000000e+00
    -3.206253051758e-03-2.589062500000e+01 4.758055334960e-09 1.729607906140e+00
    -1.348555088043e-06 1.827456115279e-03 5.328096449375e-06 5.153621260026e+03
     1.746000000000e+05 2.887099981308e-08 6.292069738875e-01 6.984919309616e-08
     9.571096731739e-01 2.728906250000e+02 1.947120015536e-01-8.051886056853e-09
    -1.921508609975e-10 4.758055334960e-09-2.000000000000e+00 3.000000000000e+00
     2.900000000000e+01 4.000000000000e+00-8.847564458847e-09 7.000000000000e+00
    -2.910383045673e-10 5.646143108606e-09-5.529727786779e-10-6.693881005049e-10
     2.022240000000e+05 2.428000000000e+03 0.000000000000e+00                   
E26 2026 07 21 08 10 35 3.676266642287e-04 1.085709300241e-11 0.000000000000e+00
     8.100000000000e+01-5.512500000000e+01 2.793687796882e-09-2.727019573117e+00
    -2.484768629074e-06 9.274005424231e-05 5.247071385384e-06 5.440599826813e+03
     2.010000000000e+05 6.332993507385e-08 7.665305695321e-01-7.450580596924e-09
     9.909289005776e-01 2.409687500000e+02-2.575329873969e+00-5.547373927534e-09
    -2.085801167705e-10 1.000000000000e+00 1.404000000000e+03                   
     1.070000000000e+02 0.000000000000e+00-5.122274160385e-09-5.587935447693e-09
     2.022350000000e+05                                                         
E23 2026 07 21 08 10 35-4.270946374163e-05-1.321609488514e-12 0.000000000000e+00
     8.100000000000e+01 8.159375000000e+01 3.108700918443e-09-1.223149482388e+00
     3.967434167862e-06 1.747036585584e-04 8.624047040939e-06 5.440621135712e+03
     2.010000000000e+05-2.235174179077e-08-1.332308457641e+00-1.303851604462e-08
     9.625512741927e-01 1.564375000000e+02-2.757271675936e+00-5.513086785051e-09
     1.100045821324e-10 1.000000000000e+00 1.404000000000e+03                   
     1.070000000000e+02 0.000000000000e+00 4.656612873077e-10 1.862645149231e-09
     2.022350000000e+05                                                         
E16 2026 07 21 08 10 35-4.646781599149e-05-2.501110429876e-12 0.000000000000e+00
     8.100000000000e+01 1.001562500000e+02 3.139416483584e-09-3.101724718553e+00
     4.405155777931e-06 4.923009546474e-04 8.720904588699e-06 5.440617143631e+03
     2.010000000000e+05 1.862645149231e-09-1.332432891990e+00 9.313225746155e-09
     9.625723314356e-01 1.570937500000e+02-2.472761177891e+00-5.512015311848e-09
     8.500354073867e-11 1.000000000000e+00 1.404000000000e+03                   
     1.070000000000e+02 0.000000000000e+00-3.725290298462e-09-2.328306436539e-09
     2.022350000000e+05                                                         
E31 2026 07 21 08 10 54-1.581104006618e-04-2.955857780762e-12 0.000000000000e+00
     8.100000000000e+01 9.243750000000e+01 3.148702584673e-09 2.939899526501e+00
     4.280358552933e-06 3.426602343097e-04 8.525326848030e-06 5.440614398956e+03
     2.010000000000e+05-5.587935447693e-09-1.329195367968e+00 3.166496753693e-08
     9.605973773994e-01 1.549687500000e+02-1.403238166525e+00-5.546302454331e-09
     9.107522222000e-11 5.160000000000e+02 1.404000000000e+03                   
     1.070000000000e+02 0.000000000000e+00 3.492459654808e-09 4.190951585770e-09
     2.022540000000e+05                                                         
E26 2026 07 21 08 11 05 3.676331834868e-04 1.084288214770e-11 0.000000000000e+00
     8.200000000000e+01-5.512500000000e+01 2.793687796882e-09-2.727019573117e+00
    -2.484768629074e-06 9.274005424231e-05 5.247071385384e-06 5.440599826813e+03
     2.010000000000e+05 6.146728992462e-08 7.665272165239e-01-1.862645149231e-09
     9.909287586746e-01 2.409687500000e+02-2.573339319375e+00-5.547373927534e-09
    -2.050085394286e-10 1.000000000000e+00 1.404000000000e+03                   
     1.070000000000e+02 0.000000000000e+00-5.122274160385e-09-5.587935447693e-09
     2.022650000000e+05                                                         
E23 2026 07 21 08 11 05-4.271027864888e-05-1.307398633799e-12 0.000000000000e+00
     8.200000000000e+01 8.159375000000e+01 3.108700918443e-09-1.223149482388e+00
     3.967434167862e-06 1.747036585584e-04 8.624047040939e-06 5.440621135712e+03
     2.010000000000e+05-1.676380634308e-08-1.332311788705e+00-1.490116119385e-08
     9.625513575791e-01 1.564375000000e+02-2.756804339441e+00-5.513086785051e-09
     1.103617398666e-10 1.000000000000e+00 1.404000000000e+03                   
     1.070000000000e+02 0.000000000000e+00 4.656612873077e-10 1.862645149231e-09
     2.022650000000e+05                                                         
G14 2026 07 21 08 11 12 7.499798084609e-04 2.557953848736e-13 0.000000000000e+00
     2.571582794189e-03 4.542187500000e+01 4.906990110120e-09-7.620579498582e-01
     2.347864210606e-06 7.366530888248e-03 8.542090654373e-06 5.153562775333e+03
     1.152000000000e+05 1.285225152969e-07-1.524261908450e+00 5.494803190231e-08
     9.416386985972e-01 2.054804687500e+02-2.680603659182e+00-8.113317187134e-09
     7.214586230761e-11 4.906990110120e-09-2.000000000000e+00 3.000000000000e+00
     3.100000000000e+01 4.000000000000e+00-7.916241884232e-09 2.000000000000e+00
    -2.619344741106e-10 5.005858838558e-09-1.455191522837e-09-1.076841726899e-09
     2.022720000000e+05 2.428000000000e+03 0.000000000000e+00                   
G17 2026 07 21 08 11 12-1.762518950272e-04-6.032507826603e-12 0.000000000000e+00
     1.567840576172e-03 5.030078125000e+01 4.780913429949e-09 2.877903456025e+00
     2.684071660042e-06 1.261496293591e-02 4.846602678299e-06 5.153543879276e+03
     1.728000000000e+05 2.235174179077e-07-4.350272550770e-01 1.806765794754e-07
     9.574384859560e-01 2.814101562500e+02-1.098660480327e+00-8.214749983646e-09
    -3.142988060926e-11 4.780913429949e-09-2.000000000000e+00 3.000000000000e+00
     2.900000000000e+01 4.000000000000e+00-1.071020960808e-08 7.000000000000e+00
    -8.440110832453e-10 6.722984835505e-09 0.000000000000e+00 0.000000000000e+00
     2.022720000000e+05 2.428000000000e+03 0.000000000000e+00                   
G30 2026 07 21 08 11 12 3.027125785593e-04 1.329070187239e-11 0.000000000000e+00
    -3.137111663818e-03-2.747656250000e+01 5.088247660225e-09-2.093370342420e-01
    -1.356005668640e-06 8.217922528274e-03 7.663853466511e-06 5.153540602366e+03
     1.980000000000e+05 2.793967723846e-09-2.597253092622e+00 1.341104507446e-07
     9.366260646580e-01 2.200625000000e+02-2.259071140935e+00-7.910094436377e-09
    -4.678766317969e-11 5.088247660225e-09-2.000000000000e+00 2.000000000000e+00
     2.700000000000e+01 4.000000000000e+00 4.190951585770e-09 7.000000000000e+00
    -1.513399183750e-09-3.259629011154e-09 2.328306436539e-09 3.230525180697e-09
     2.022720000000e+05 2.428000000000e+03 0.000000000000e+00                   
E33 2026 07 21 08 11 24-2.518517430872e-05-1.918465386552e-12 0.000000000000e+00
     7.800000000000e+01-4.137500000000e+01 2.569749897541e-09 3.016262805716e+00
    -2.013519406319e-06 1.653057988733e-04 5.841255187988e-06 5.440609649658e+03
     1.992000000000e+05-6.146728992462e-08 7.699806233665e-01-5.587935447693e-08
     9.976668979051e-01 2.278750000000e+02-3.028942813478e+00-5.452727127972e-09
    -2.860833450911e-10 5.160000000000e+02 1.404000000000e+03                   
     1.070000000000e+02 0.000000000000e+00-4.423782229424e-09-4.889443516731e-09
     2.022840000000e+05                                                         
E31 2026 07 21 08 11 24-1.581120886840e-04-2.955857780762e-12 0.000000000000e+00
     8.200000000000e+01 9.012500000000e+01 3.136202063976e-09 3.014690369200e+00
     4.196539521217e-06 3.424104070291e-04 8.543953299522e-06 5.440614961624e+03
     2.016000000000e+05-9.313225746155e-09-1.329198719513e+00 2.980232238770e-08
     9.605974286015e-01 1.544375000000e+02-1.403643403610e+00-5.544159507926e-09
     9.321816862518e-11 5.160000000000e+02 1.404000000000e+03                   
     1.070000000000e+02 0.000000000000e+00 3.492459654808e-09 4.190951585770e-09
     2.022840000000e+05                                                         
G14 2026 07 21 08 11 24 7.499800994992e-04 2.273736754432e-13 0.000000000000e+00
     2.290000000000e+02 4.337500000000e+01 4.915204738007e-09-4.994391438508e-01
     2.400949597359e-06 7.365750148892e-03 8.681789040565e-06 5.153659568787e+03
     2.088000000000e+05 1.043081283569e-07-1.524276699283e+00 8.754432201385e-08
     9.416386949399e-01 2.021875000000e+02-2.680676208215e+00-8.252486606335e-09
     6.464554988949e-11 1.000000000000e+00 3.800000000000e+02 0.000000000000e+00
     2.800000000000e+00 0.000000000000e+00-7.916241884232e-09 9.970000000000e+02
     8.091360000000e+05 4.000000000000e+00                                      
G17 2026 07 21 08 11 24-1.762625761330e-04-6.025402399246e-12 0.000000000000e+00
     6.600000000000e+01 5.268750000000e+01 4.767698593784e-09 3.140405416571e+00
     2.849847078323e-06 1.261520700064e-02 4.867091774940e-06 5.153678655624e+03
     2.088000000000e+05 1.322478055954e-07-4.350422214605e-01 2.756714820862e-07
     9.574385934805e-01 2.811875000000e+02-1.098618294159e+00-8.097122991959e-09
     4.500187450871e-11 1.000000000000e+00 3.800000000000e+02 0.000000000000e+00
     2.000000000000e+00 0.000000000000e+00-1.071020960808e-08 6.600000000000e+01
     8.091360000000e+05 4.000000000000e+00                                      
G22 2026 07 21 08 11 24 4.060100764036e-05 8.071765478235e-12 0.000000000000e+00
     9.200000000000e+01 5.381250000000e+01 4.444113686602e-09-2.529953664691e+00
     2.978369593620e-06 1.184459077194e-02 8.782371878624e-06 5.153724548340e+03
     2.088000000000e+05 1.490116119385e-08-1.447237888387e+00 1.899898052216e-07
     9.568470245193e-01 2.051562500000e+02-9.877956796893e-01-7.783895659069e-09
     9.107522222000e-11 1.000000000000e+00 3.800000000000e+02 0.000000000000e+00
     2.000000000000e+00 0.000000000000e+00-1.117587089539e-08 9.200000000000e+01
     8.091360000000e+05 4.000000000000e+00                                      
G30 2026 07 21 08 11 24 3.027403727174e-04 1.330136001343e-11 0.000000000000e+00
     1.600000000000e+01-3.006250000000e+01 5.080925926673e-09 9.449358577428e-02
    -1.473352313042e-06 8.217709721066e-03 7.897615432739e-06 5.153681278229e+03
     2.087840000000e+05-4.656612873077e-08-2.597270394554e+00 1.881271600723e-07
     9.366260412513e-01 2.157187500000e+02-2.258931051900e+00-8.386777914392e-09
    -7.750322832055e-11 1.000000000000e+00 3.800000000000e+02 0.000000000000e+00
     2.000000000000e+00 0.000000000000e+00 4.190951585770e-09 1.600000000000e+01
     8.091360000000e+05 4.000000000000e+00                                      
G19 2026 07 21 08 11 24 7.038190960884e-04 4.547473508865e-13 0.000000000000e+00
     5.000000000000e+01 4.206250000000e+01 4.855916554130e-09-1.509985941181e+00
     2.097338438034e-06 1.176493673120e-02 4.887580871582e-06 5.153760034561e+03
     2.088000000000e+05 5.774199962616e-08-3.912794762350e-01-1.620501279831e-07
     9.566052816954e-01 2.842500000000e+02 3.029474768527e+00-8.343918986289e-09
     1.535778257043e-10 1.000000000000e+00 3.800000000000e+02 0.000000000000e+00
     2.000000000000e+00 0.000000000000e+00-1.536682248116e-08 5.000000000000e+01
     8.091360000000e+05 4.000000000000e+00                                      
G06 2026 07 21 08 11 24-5.693081766367e-04 7.958078640513e-12 0.000000000000e+00
     1.400000000000e+01-2.406250000000e+01 4.019095982909e-09 1.195134823534e+00
    -1.270323991776e-06 3.694361192174e-03 5.714595317841e-06 5.153724903107e+03
     2.088000000000e+05 1.303851604462e-08 5.836642618564e-01-3.911554813385e-08
     9.858733950927e-01 2.786875000000e+02-5.462298515458e-01-7.903543500025e-09
    -2.785830326729e-10 1.000000000000e+00 3.800000000000e+02 0.000000000000e+00
     2.000000000000e+00 0.000000000000e+00 3.725290298462e-09 1.400000000000e+01
     8.091360000000e+05 4.000000000000e+00                                      
G03 2026 07 21 08 11 24 3.636339679360e-04-1.898570189951e-11 0.000000000000e+00
     8.200000000000e+01-3.375000000000e+01 3.739084319299e-09-1.083895783581e-01
    -1.739710569382e-06 6.974412710406e-03 8.106231689453e-06 5.153764785767e+03
     2.088000000000e+05-4.842877388000e-08 1.621571901916e+00 8.381903171539e-08
     9.947640617446e-01 2.412812500000e+02 1.276641118530e+00-7.759608933144e-09
     4.785913638228e-11 1.000000000000e+00 3.800000000000e+02 0.000000000000e+00
     2.000000000000e+00 0.000000000000e+00 1.396983861923e-09 8.200000000000e+01
     8.091360000000e+05 4.000000000000e+00                                      
G07 2026 07 21 08 11 24-2.079643309116e-04-3.751665644813e-12 0.000000000000e+00
     1.040000000000e+02-3.087500000000e+01 4.850559188117e-09 4.047406807882e-01
    -1.532956957817e-06 2.093691704795e-02 7.981434464455e-06 5.153583614349e+03
     2.088000000000e+05-4.116445779800e-07-2.586202999427e+00 7.450580596924e-08
     9.513182123706e-01 2.262187500000e+02-1.955204820597e+00-8.427493896091e-09
    -2.260808457461e-10 1.000000000000e+00 3.800000000000e+02 0.000000000000e+00
     2.000000000000e+00 0.000000000000e+00-1.071020960808e-08 1.040000000000e+02
     8.091360000000e+05 4.000000000000e+00                                      
END OF FILE                                                 COMMENT
