     3.05           N: NAVIGATION       M: MIXED            RINEX VERSION / TYPE
PYRINEXCONV 0.1.2 ALDELTUNES            20260721 022006 UTC PGM / RUN BY / DATE
GAL    1.0175e+02  3.3203e-01  2.2858e-02             C 27  IONOSPHERIC CORR
GPSA   9.3132e-09  2.2352e-08  1.5199e-05  1.5140e-05 C 08  IONOSPHERIC CORR
GPSB   1.0035e+05  1.3107e+05  1.6712e+07  1.6318e+07 C 08  IONOSPHERIC CORR
BDSA   2.0489e-08  2.2352e-08 -5.3644e-07  9.5367e-07 C 19  IONOSPHERIC CORR
BDSB   1.3722e+05 -5.4067e+05  4.7841e+06 -4.1943e+06 C 19  IONOSPHERIC CORR
GAUT  6.5192580223e-09-2.664535259e-15 180000 1404   E27  0 TIME SYSTEM CORR
GPUT  5.5297277868e-10 1.361133428e-12 370800 2428   G08  0 TIME SYSTEM CORR
BDUT  0.0000000000e+00 0.000000000e+00 180000 1072   C19  0 TIME SYSTEM CORR
                                                            END OF HEADER
E29 2026 07 21 02 10 54-2.271633129567e-04-3.609557097661e-12 0.000000000000e+00
     4.500000000000e+01-4.787500000000e+01 3.379783638698e-09 1.095270474892e+00
    -2.112239599228e-06 2.009894233197e-04 5.504116415977e-06 5.440612264633e+03
     1.794000000000e+05 1.862645149231e-09 2.852170187194e+00 0.000000000000e+00
     9.627391114112e-01 2.226250000000e+02 1.419882480399e+00-5.733453107050e-09
     2.153661137202e-10 5.160000000000e+02 1.404000000000e+03                   
     1.070000000000e+02 0.000000000000e+00-3.259629011154e-09-2.793967723846e-09
     1.806540000000e+05                                                         
E23 2026 07 21 02 10 54-4.268065094948e-05-1.350031197944e-12 0.000000000000e+00
     4.500000000000e+01 1.195937500000e+02 3.122987227811e-09 2.381541460875e+00
     5.448237061501e-06 1.718227285892e-04 9.160488843918e-06 5.440622501373e+03
     1.794000000000e+05-1.117587089539e-08-1.332187600127e+00 0.000000000000e+00
     9.625506817109e-01 1.442187500000e+02-2.756642193989e+00-5.537373510976e-09
    -4.643050544549e-12 5.160000000000e+02 1.404000000000e+03                   
     1.070000000000e+02 0.000000000000e+00 4.656612873077e-10 1.862645149231e-09
     1.806540000000e+05                                                         
E28 2026 07 21 02 10 54-6.028404459357e-05-2.884803507186e-12 0.000000000000e+00
     4.500000000000e+01-3.975000000000e+01 3.591935332810e-09-6.491376710524e-01
    -2.017244696617e-06 2.848037984222e-04 5.392357707024e-06 5.440608516693e+03
     1.794000000000e+05 3.725290298462e-09 2.870184465332e+00-1.490116119385e-08
     9.490509921718e-01 2.158437500000e+02 1.958703751988e+00-5.845243477853e-09
     2.146517982518e-10 5.160000000000e+02 1.404000000000e+03                   
     1.070000000000e+02 0.000000000000e+00 9.313225746155e-10 1.862645149231e-09
     1.806540000000e+05                                                         
E27 2026 07 21 02 10 54-1.049776561558e-03-1.060129761754e-11 0.000000000000e+00
     4.500000000000e+01 1.008437500000e+02 3.327995767239e-09 2.099464162789e+00
     4.824250936508e-06 2.450812608004e-04 8.203089237213e-06 5.440613143921e+03
     1.794000000000e+05 4.470348358154e-08-1.329034890244e+00 7.078051567078e-08
     9.605915476708e-01 1.644687500000e+02-8.830087682424e-01-5.628448733196e-09
     2.035799084918e-11 5.160000000000e+02 1.404000000000e+03                   
     1.070000000000e+02 0.000000000000e+00 2.328306436539e-10 2.328306436539e-10
     1.806540000000e+05                                                         
G09 2026 07 21 02 15 12 7.171775796451e-04-6.988187806201e-12 0.000000000000e+00
     1.067161560059e-03-1.843359375000e+01 4.531081594879e-09 3.367306725841e-01
    -1.054257154465e-06 3.669601399451e-03 6.325542926788e-06 5.153528200759e+03
     1.395000000000e+05 1.117587089539e-08 2.624931008947e+00-4.284083843231e-08
     9.667048365538e-01 2.602773437500e+02 2.038101396132e+00-8.187427416980e-09
     2.962623405157e-10 4.531081594879e-09-2.000000000000e+00 3.000000000000e+00
     3.000000000000e+01 4.000000000000e+00 4.656612873077e-10 7.000000000000e+00
    -5.820766091347e-10-7.275957614183e-10 5.064066499472e-09 5.617039278150e-09
     1.809120000000e+05 2.428000000000e+03 0.000000000000e+00                   
G31 2026 07 21 02 15 12-1.340829476248e-04 2.749800387392e-12 0.000000000000e+00
     2.740859985352e-03-3.194531250000e+01 4.758591071562e-09 2.174917327019e+00
    -1.617707312107e-06 1.091402047314e-02 8.659437298775e-06 5.153587051564e+03
     1.377000000000e+05-9.313225746155e-08-2.561187010302e+00-1.918524503708e-07
     9.550186183017e-01 2.107617187500e+02 9.766057095821e-01-8.404757898238e-09
    -8.839653921353e-11 4.758591071562e-09-2.000000000000e+00 3.000000000000e+00
     3.000000000000e+01 4.000000000000e+00-1.350417733192e-08 7.000000000000e+00
    -2.619344741106e-10 8.265487849712e-09 0.000000000000e+00 0.000000000000e+00
     1.809120000000e+05 2.428000000000e+03 0.000000000000e+00                   
G07 2026 07 21 02 15 12-2.078761754092e-04-3.755218358492e-12 0.000000000000e+00
     4.545211791992e-03-3.667578125000e+01 4.786092217095e-09-3.008415293281e+00
    -1.901760697365e-06 2.093720907578e-02 8.634291589260e-06 5.153634460868e+03
     1.161000000000e+05 3.129243850708e-07-2.586013350385e+00-2.095475792885e-07
     9.513214732150e-01 2.023242187500e+02-1.955314085949e+00-8.547620991917e-09
    -1.098260032653e-10 4.786092217095e-09-2.000000000000e+00 3.000000000000e+00
     3.100000000000e+01 4.000000000000e+00-1.071020960808e-08 7.000000000000e+00
    -9.313225746155e-10 6.984919309616e-09 0.000000000000e+00 0.000000000000e+00
     1.809120000000e+05 2.428000000000e+03 0.000000000000e+00                   
C37 2026 07 21 02 16 54-9.073468390852e-04 6.906475391588e-12 0.000000000000e+00
     1.000000000000e+00 2.159375000000e+01 4.168030758068e-09 1.318396348088e+00
     1.094769686460e-06 7.139594526961e-04 1.041404902935e-05 5.282672914505e+03
     1.800000000000e+05 5.820766091347e-08-2.018563687040e+00 2.591079100966e-05
     9.451562024639e-01 1.407343750000e+02-3.718439980522e-01 1.505251985501e-07
    -2.100087477073e-10                    1.072000000000e+03                   
     0.000000000000e+00 0.000000000000e+00-7.823109626770e-08-7.823109626770e-08
     1.810140000000e+05 1.000000000000e+00                                      
C20 2026 07 21 02 16 54-8.893292397261e-04 3.034017481696e-12 0.000000000000e+00
     1.000000000000e+00-1.612500000000e+01 3.261207270944e-09 1.869068479119e+00
    -8.479692041874e-07 8.088096510619e-04 7.340684533119e-06 5.282636199951e+03
     1.800000000000e+05 3.725290298462e-08 2.185703265486e+00 2.882443368435e-06
     9.899286683768e-01 2.235156250000e+02 2.747255788288e-01 1.282366987161e-06
     4.343038047824e-10                    1.072000000000e+03                   
     0.000000000000e+00 0.000000000000e+00 5.541369318962e-08 5.541369318962e-08
     1.810140000000e+05 1.000000000000e+00                                      
C32 2026 07 21 02 16 54-9.033276000991e-04 1.869615573469e-12 0.000000000000e+00
     1.000000000000e+00-1.375000000000e+01 3.292637151554e-09 3.046972079212e+00
    -6.118789315224e-07 5.073867505416e-04 7.334630936384e-06 5.282631561279e+03
     1.800000000000e+05 2.188608050346e-08 2.177622104553e+00-8.298549801111e-06
     9.887623949740e-01 2.259531250000e+02-4.941728347964e-02-6.162267397458e-07
     4.500187450871e-10                    1.072000000000e+03                   
     0.000000000000e+00 0.000000000000e+00-3.818422555923e-08-3.818422555923e-08
     1.810140000000e+05 1.000000000000e+00                                      
C12 2026 07 21 02 16 54 6.158137694001e-04-5.061728813871e-12 0.000000000000e+00
     1.000000000000e+00-1.621875000000e+01 3.562648398606e-09 1.140585206501e+00
    -9.192153811455e-07 1.762434840202e-04 7.262453436852e-06 5.282644620895e+03
     1.800000000000e+05 4.237517714500e-08 2.170730136560e+00-4.934612661600e-05
     9.735949100674e-01 2.175000000000e+02 7.099622908591e-01-1.353354586936e-06
     4.325180161115e-10                    1.072000000000e+03                   
     0.000000000000e+00 0.000000000000e+00 3.725290298462e-09 3.725290298462e-09
     1.810140000000e+05 1.000000000000e+00                                      
C23 2026 07 21 02 16 54-4.541797097772e-04-2.842170943040e-14 0.000000000000e+00
     1.000000000000e+00 2.107812500000e+01 4.309822378544e-09 2.611351945130e+00
     1.139473170042e-06 3.800286212936e-04 9.831041097641e-06 5.282649385452e+03
     1.800000000000e+05 7.124617695808e-08-2.018337720325e+00 1.247553154826e-05
     9.436841791825e-01 1.535937500000e+02-8.795293068288e-01 3.724773008890e-07
    -1.042900583853e-10                    1.072000000000e+03                   
     0.000000000000e+00 0.000000000000e+00 1.024454832077e-07 1.024454832077e-07
     1.810140000000e+05 1.000000000000e+00                                      
C38 2026 07 21 02 16 54 1.427439274266e-04 7.469580509678e-13 0.000000000000e+00
     1.000000000000e+00-1.250000000000e-01 4.351609833445e-09-7.266668520883e-01
    -6.239861249924e-08 5.158096319064e-04 3.781169652939e-06 5.282661584854e+03
     1.800000000000e+05 9.778887033463e-09 3.149622686999e-02 2.191867679358e-05
     9.405929747643e-01 2.719062500000e+02 1.108350625858e+00 7.970432000485e-07
    -2.846547141543e-10                    1.072000000000e+03                   
     0.000000000000e+00 0.000000000000e+00-1.536682248116e-08-1.536682248116e-08
     1.810140000000e+05 1.000000000000e+00                                      
C19 2026 07 21 02 16 54-9.326373692602e-04 8.526512829121e-13 0.000000000000e+00
     1.000000000000e+00-1.701562500000e+01 3.280493788591e-09 1.745778331109e+00
    -9.867362678051e-07 7.842045743018e-04 7.356051355600e-06 5.282631557465e+03
     1.800000000000e+05 5.075708031654e-08 2.185075699962e+00 8.344184607267e-06
     9.899435916041e-01 2.260468750000e+02-3.185402547202e-01 6.711872433571e-07
     4.057311860468e-10                    1.072000000000e+03                   
     0.000000000000e+00 0.000000000000e+00 4.330649971962e-08 4.330649971962e-08
     1.810140000000e+05 1.000000000000e+00                                      
E19 2026 07 21 02 19 55 3.108187054750e-03 2.442845925543e-11 0.000000000000e+00
     4.300000000000e+01-4.293750000000e+01 3.184418358092e-09 1.857914075476e+00
    -2.041459083557e-06 2.441270044073e-04 5.668029189110e-06 5.440616420746e+03
     1.782000000000e+05 9.313225746155e-09 2.860593357893e+00 3.725290298462e-09
     9.747208976321e-01 2.213437500000e+02-2.395825224766e-01-5.625948629057e-09
     2.128660095809e-10 1.000000000000e+00 1.404000000000e+03                   
     1.070000000000e+02 0.000000000000e+00-4.423782229424e-09-4.423782229424e-09
     1.811950000000e+05                                                         
G04 2026 07 21 02 20 00 6.273915641941e-05 6.998845947237e-13 0.000000000000e+00
     2.199172973633e-03-2.011328125000e+01 4.413219542594e-09-5.311305949440e-01
    -1.107342541218e-06 3.822266007774e-03 6.177462637424e-06 5.153549172013e+03
     1.233000000000e+05 8.102506399155e-08 2.690104707190e+00 1.955777406693e-08
     9.724425592559e-01 2.658359375000e+02-2.901889416965e+00-8.267966486041e-09
     2.787616115400e-10 4.413219542594e-09-2.000000000000e+00 3.000000000000e+00
     3.000000000000e+01 4.000000000000e+00-4.656612873077e-09 7.000000000000e+00
    -2.037268131971e-10 3.317836672068e-09-1.426087692380e-09-1.396983861923e-09
     1.812000000000e+05 2.428000000000e+03 0.000000000000e+00                   
G27 2026 07 21 02 20 00 5.350739229470e-07-3.552713678801e-14 0.000000000000e+00
    -5.846023559570e-04 4.455078125000e+01 5.107712756738e-09-1.338434422709e-01
     2.496875822544e-06 1.432877802290e-02 4.680827260017e-06 5.153549875791e+03
     1.341000000000e+05 1.490116119385e-08-5.084130234774e-01 1.629814505577e-07
     9.508939266288e-01 2.831289062500e+02 9.005609361606e-01-7.654905235294e-09
    -1.462560921533e-10 5.107712756738e-09-3.000000000000e+00 1.000000000000e+00
     3.000000000000e+01 4.000000000000e+00 2.328306436539e-09 7.000000000000e+00
    -9.022187441587e-10-1.688022166491e-09 6.664777174592e-09 5.326000973582e-09
     1.812000000000e+05 2.428000000000e+03 0.000000000000e+00                   
G26 2026 07 21 02 20 00-3.841202706099e-04-2.508215857233e-12 0.000000000000e+00
     7.158279418945e-03 4.062109375000e+01 5.435583556730e-09 1.548188613161e+00
     2.224929630756e-06 1.116253604414e-02 8.788891136646e-06 5.153641337269e+03
     1.152000000000e+05-1.965090632439e-07-1.639818282979e+00 1.387670636177e-07
     9.274881041395e-01 1.920351562500e+02 7.148623232623e-01-7.856163618513e-09
    -8.607501394126e-11 5.435583556730e-09-2.000000000000e+00 3.000000000000e+00
     3.100000000000e+01 4.000000000000e+00 6.519258022308e-09 7.000000000000e+00
    -8.440110832453e-10-4.190951585770e-09 5.820766091347e-09 5.878973752260e-09
     1.812000000000e+05 2.428000000000e+03 0.000000000000e+00                   
G03 2026 07 21 02 20 00 3.640828654170e-04-1.893241119433e-11 0.000000000000e+00
     4.499912261963e-03-1.825390625000e+01 3.420499620396e-09 2.718458534824e+00
    -9.397044777870e-07 6.973543670028e-03 9.281560778618e-06 5.153452977927e+03
     1.737000000000e+05 4.190951585770e-08 1.621750464965e+00 1.396983861923e-08
     9.947625227548e-01 2.169296875000e+02 1.276347371894e+00-8.868884373826e-09
     2.535819912792e-10 3.420499620396e-09-2.000000000000e+00 2.000000000000e+00
     2.800000000000e+01 4.000000000000e+00 1.396983861923e-09 7.000000000000e+00
     5.529727786779e-10-2.008164301515e-09 1.862645149231e-09 5.005858838558e-09
     1.812000000000e+05 2.428000000000e+03 0.000000000000e+00                   
G08 2026 07 21 02 20 00 3.940675815102e-04-9.229950137524e-12 0.000000000000e+00
    -4.871368408203e-03 4.580078125000e+01 5.255933216430e-09-2.816418393074e-01
     2.566725015640e-06 1.168359367875e-02 4.413537681103e-06 5.153474009747e+03
     1.413000000000e+05 9.685754776001e-08-5.416278236015e-01 9.406358003616e-08
     9.417702434594e-01 2.839804687500e+02 5.446378214371e-01-7.618653725273e-09
    -1.383986220010e-10 5.255933216430e-09-2.000000000000e+00 3.000000000000e+00
     2.900000000000e+01 4.000000000000e+00 4.656612873077e-09 7.000000000000e+00
    -1.047737896442e-09-4.685716703534e-09 6.257323548198e-09 6.839400157332e-09
     1.812000000000e+05 2.428000000000e+03 0.000000000000e+00                   
E21 2026 07 21 02 20 05-7.585358689539e-04-2.799538378895e-12 0.000000000000e+00
     4.300000000000e+01 1.138125000000e+02 3.210490872689e-09 1.815999025043e+00
     5.297362804413e-06 1.703940797597e-04 8.758157491684e-06 5.440617902756e+03
     1.782000000000e+05 1.117587089539e-08-1.328987503401e+00-3.725290298462e-08
     9.606206260935e-01 1.490625000000e+02-1.547821414872e+00-5.602733376334e-09
    -3.321566928024e-11 1.000000000000e+00 1.404000000000e+03                   
     1.070000000000e+02 0.000000000000e+00 6.984919309616e-10 9.313225746155e-10
     1.812050000000e+05                                                         
E29 2026 07 21 02 20 05-2.271654084325e-04-3.609557097661e-12 0.000000000000e+00
     4.600000000000e+01-4.778125000000e+01 3.361925751988e-09 1.168849522566e+00
    -2.108514308929e-06 2.009578747675e-04 5.468726158142e-06 5.440612588882e+03
     1.800000000000e+05 2.235174179077e-08 2.852166682042e+00 3.725290298462e-09
     9.627393191456e-01 2.240000000000e+02 1.420689184630e+00-5.718809639948e-09
     2.146517982518e-10 1.000000000000e+00 1.404000000000e+03                   
     1.070000000000e+02 0.000000000000e+00-3.259629011154e-09-2.793967723846e-09
     1.812050000000e+05                                                         
E23 2026 07 21 02 20 05-4.268152406439e-05-1.364242052659e-12 0.000000000000e+00
     4.600000000000e+01 1.209062500000e+02 3.119058492734e-09 2.455873203308e+00
     5.509704351425e-06 1.715758116916e-04 9.087845683098e-06 5.440622989655e+03
     1.800000000000e+05-1.303851604462e-08-1.332190918025e+00-3.725290298462e-09
     9.625506641559e-01 1.457812500000e+02-2.756588749203e+00-5.539516457381e-09
    -3.928735076157e-12 1.000000000000e+00 1.404000000000e+03                   
     1.070000000000e+02 0.000000000000e+00 4.656612873077e-10 1.862645149231e-09
     1.812050000000e+05                                                         
E28 2026 07 21 02 20 05-6.028567440808e-05-2.870592652471e-12 0.000000000000e+00
     4.600000000000e+01-4.006250000000e+01 3.585863651329e-09-5.747620542437e-01
    -2.009794116020e-06 2.848494332284e-04 5.386769771576e-06 5.440608604431e+03
     1.800000000000e+05 5.587935447693e-09 2.870180970421e+00-1.490116119385e-08
     9.490511252973e-01 2.155937500000e+02 1.958714037765e+00-5.846314951056e-09
     2.132231673151e-10 1.000000000000e+00 1.404000000000e+03                   
     1.070000000000e+02 0.000000000000e+00 9.313225746155e-10 1.862645149231e-09
     1.812050000000e+05                                                         
E27 2026 07 21 02 20 05-1.049782847986e-03-1.060129761754e-11 0.000000000000e+00
     4.600000000000e+01 9.993750000000e+01 3.323709874429e-09 2.173601462928e+00
     4.775822162628e-06 2.449139719829e-04 8.262693881989e-06 5.440613496780e+03
     1.800000000000e+05 3.166496753693e-08-1.329038335416e+00 7.823109626770e-08
     9.605915286529e-01 1.633437500000e+02-8.827604027884e-01-5.624877155854e-09
     2.821546100149e-11 1.000000000000e+00 1.404000000000e+03                   
     1.070000000000e+02 0.000000000000e+00 2.328306436539e-10 2.328306436539e-10
     1.812050000000e+05                                                         
END OF FILE                                                 COMMENT
