     3.05           N: NAVIGATION       M: MIXED            RINEX VERSION / TYPE
PYRINEXCONV 0.1.2 ALDELTUNES            20260721 072106 UTC PGM / RUN BY / DATE
GAL    1.0175e+02  3.3203e-01  2.2858e-02             H 26  IONOSPHERIC CORR
GPSA   9.3132e-09  2.2352e-08  1.5199e-05  1.5140e-05 H 14  IONOSPHERIC CORR
GPSB   1.0035e+05  1.3107e+05  1.6712e+07  1.6318e+07 H 14  IONOSPHERIC CORR
BDSA   2.0489e-08  3.7253e-08 -5.9605e-07  1.0133e-06 H 27  IONOSPHERIC CORR
BDSB   1.3722e+05 -4.9152e+05  4.5875e+06 -4.0632e+06 H 27  IONOSPHERIC CORR
GAUT  6.5192580223e-09-2.664535259e-15 195000 1404   E26  0 TIME SYSTEM CORR
GPUT -3.2887328416e-09 5.373479439e-14 399600 2428   G14  0 TIME SYSTEM CORR
BDUT  0.0000000000e+00 0.000000000e+00 198000 1072   C27  0 TIME SYSTEM CORR
                                                            END OF HEADER
G30 2026 07 21 07 13 36 3.026208723895e-04 1.329070187239e-11 0.000000000000e+00
     3.701686859131e-03-2.192968750000e+01 5.097712340181e-09-1.216021699316e+00
    -1.246109604836e-06 8.218937087804e-03 7.903203368187e-06 5.153542055023e+03
     1.107000000000e+05 1.452863216400e-07-2.597195307358e+00 1.229345798492e-07
     9.366270645625e-01 2.134453125000e+02-2.258804522652e+00-8.059743527005e-09
    -4.518045337580e-11 5.097712340181e-09-2.000000000000e+00 3.000000000000e+00
     3.100000000000e+01 4.000000000000e+00 4.190951585770e-09 7.000000000000e+00
    -1.513399183750e-09-3.259629011154e-09 2.328306436539e-09 3.230525180697e-09
     1.988160000000e+05 2.428000000000e+03 0.000000000000e+00                   
G20 2026 07 21 07 16 00 2.369242138229e-04 1.185185283248e-11 0.000000000000e+00
     1.869201660156e-04-1.651953125000e+01 4.574119101849e-09-1.844025056622e+00
    -8.940696716309e-07 1.907585363369e-03 6.382353603840e-06 5.153610573317e+03
     1.737000000000e+05 8.195638656616e-08 2.629707711504e+00 1.769512891769e-08
     9.620821917050e-01 2.575312500000e+02-1.761713138492e+00-8.229572029615e-09
     2.514390448740e-10 4.574119101849e-09-3.000000000000e+00 2.000000000000e+00
     2.800000000000e+01 4.000000000000e+00-6.984919309616e-09 7.000000000000e+00
    -1.455191522837e-10 4.220055416226e-09 2.095475792885e-09 2.066371962428e-09
     1.989600000000e+05 2.428000000000e+03 0.000000000000e+00                   
C30 2026 07 21 07 16 54 4.927649861202e-04 7.471356866517e-12 0.000000000000e+00
     1.000000000000e+00 5.906250000000e+00 4.344109521027e-09-4.744772058916e-01
     3.268942236900e-07 4.692104412243e-04 3.573484718800e-06 5.282647708893e+03
     1.980000000000e+05-1.955777406693e-08 3.474949774178e-02 2.949638292193e-05
     9.455202759604e-01 2.774218750000e+02 9.821908894273e-01-2.017474035892e-06
    -2.700112470522e-10                    1.072000000000e+03                   
     0.000000000000e+00 0.000000000000e+00-4.516914486885e-08-4.516914486885e-08
     1.990140000000e+05 1.000000000000e+00                                      
C36 2026 07 21 07 16 54 2.596172271296e-04-4.344080650753e-12 0.000000000000e+00
     1.000000000000e+00 2.029687500000e+01 4.116242886610e-09 2.813483846701e+00
     8.526258170605e-07 8.166865445673e-04 9.575858712196e-06 5.282652051926e+03
     1.980000000000e+05 4.330649971962e-08-2.018552131450e+00 4.177447408438e-05
     9.451398982419e-01 1.571406250000e+02-1.024274214938e+00 1.619542460444e-07
    -5.571660653459e-11                    1.072000000000e+03                   
     0.000000000000e+00 0.000000000000e+00-9.639188647270e-08-9.639188647270e-08
     1.990140000000e+05 1.000000000000e+00                                      
C11 2026 07 21 07 16 54-7.889897096902e-04-2.163691448231e-11 0.000000000000e+00
     1.000000000000e+00-1.296875000000e+00 4.219104314058e-09 7.275531449145e-01
    -9.778887033463e-08 1.695689279586e-04 3.912486135960e-06 5.282639120102e+03
     1.980000000000e+05-1.490116119385e-08 7.442952387699e-02-5.724234506488e-05
     9.504535049007e-01 2.746093750000e+02-6.714628264476e-01 7.793967507174e-07
    -2.692969315838e-10                    1.072000000000e+03                   
     0.000000000000e+00 0.000000000000e+00 1.350417733192e-08 1.350417733192e-08
     1.990140000000e+05 1.000000000000e+00                                      
C29 2026 07 21 07 16 54 6.337993545458e-04 5.261568958304e-12 0.000000000000e+00
     1.000000000000e+00 5.093750000000e+00 4.320179952836e-09-2.379960859814e+00
     2.305023372173e-07 2.190225059167e-04 3.799330443144e-06 5.282656166077e+03
     1.980000000000e+05-4.516914486885e-08 3.428384652839e-02 3.858096897602e-05
     9.455645950636e-01 2.766093750000e+02 2.117107303000e+00-2.474407354713e-06
    -2.221521106700e-10                    1.072000000000e+03                   
     0.000000000000e+00 0.000000000000e+00 9.313225746155e-10 9.313225746155e-10
     1.990140000000e+05 1.000000000000e+00                                      
C27 2026 07 21 07 16 54 6.609214469790e-04 4.802380715319e-12 0.000000000000e+00
     1.000000000000e+00 6.687500000000e+00 4.325894476583e-09-3.716233607475e-01
     4.447065293789e-07 6.354914512485e-04 3.829598426819e-06 5.282660697937e+03
     1.980000000000e+05 1.117587089539e-07 7.562960531663e-02 1.548742875457e-05
     9.479096922435e-01 2.743593750000e+02 1.689972229830e+00 1.952565617910e-06
    -2.017941198208e-10                    1.072000000000e+03                   
     0.000000000000e+00 0.000000000000e+00-2.002343535423e-08-2.002343535423e-08
     1.990140000000e+05 1.000000000000e+00                                      
G07 2026 07 21 07 18 24-2.079302503262e-04-3.755218358492e-12 0.000000000000e+00
     3.500461578369e-03-1.714453125000e+01 4.861273920143e-09-9.080759807124e-01
    -9.061768651009e-07 2.093952696305e-02 8.038245141506e-06 5.153635794120e+03
     1.161000000000e+05-8.288770914078e-08-2.586127494568e+00 4.023313522339e-07
     9.513190345306e-01 2.189101562500e+02-1.955181803776e+00-7.933309689100e-09
    -3.875161416028e-11 4.861273920143e-09-2.000000000000e+00 3.000000000000e+00
     3.100000000000e+01 4.000000000000e+00-1.071020960808e-08 7.000000000000e+00
    -9.313225746155e-10 6.984919309616e-09 0.000000000000e+00 0.000000000000e+00
     1.991040000000e+05 2.428000000000e+03 0.000000000000e+00                   
G30 2026 07 21 07 20 00 3.026168851648e-04 1.329070187239e-11 0.000000000000e+00
     3.701686859131e-03-2.192968750000e+01 5.104498337130e-09-1.259778767688e+00
    -1.246109604836e-06 8.218940289225e-03 7.903203368187e-06 5.153542171372e+03
     1.980000000000e+05 1.452863216400e-07-2.597192824786e+00 1.229345798492e-07
     9.366270726085e-01 2.134453125000e+02-2.258804938121e+00-8.059743527005e-09
    -4.518045337580e-11 5.104498337130e-09-2.000000000000e+00 2.000000000000e+00
     2.600000000000e+01 4.000000000000e+00 4.190951585770e-09 7.000000000000e+00
    -1.513399183750e-09-3.259629011154e-09 2.328306436539e-09 3.230525180697e-09
     1.992000000000e+05 2.428000000000e+03 0.000000000000e+00                   
G17 2026 07 21 07 20 00-1.762084430084e-04-6.036060540282e-12 0.000000000000e+00
     3.508567810059e-03 4.568359375000e+01 4.778770483544e-09 1.827803561184e+00
     2.356246113777e-06 1.261504000286e-02 4.746951162815e-06 5.153547111464e+03
     1.728000000000e+05 2.263113856316e-07-4.349681466035e-01-3.166496753693e-08
     9.574394507505e-01 2.844765625000e+02-1.098740390765e+00-8.205106724823e-09
    -1.607209803882e-10 4.778770483544e-09-2.000000000000e+00 3.000000000000e+00
     2.800000000000e+01 4.000000000000e+00-1.071020960808e-08 7.000000000000e+00
    -8.440110832453e-10 6.722984835505e-09 0.000000000000e+00 0.000000000000e+00
     1.992000000000e+05 2.428000000000e+03 0.000000000000e+00                   
E09 2026 07 21 07 20 35-3.008607891388e-04 1.794830950530e-11 3.469446951954e-18
     7.600000000000e+01-4.050000000000e+01 3.090485873999e-09 2.082473674222e+00
    -1.855194568634e-06 4.996695788577e-04 5.798414349556e-06 5.440615369797e+03
     1.980000000000e+05 2.048909664154e-08 2.855539350436e+00 5.587935447693e-09
     9.750924993051e-01 2.215312500000e+02 3.875990201178e-01-5.631305995070e-09
     1.707213969457e-10 1.000000000000e+00 1.404000000000e+03                   
     1.070000000000e+02 0.000000000000e+00 6.984919309616e-10 9.313225746155e-10
     1.992350000000e+05                                                         
G14 2026 07 21 07 20 48 7.499779458158e-04 2.557953848736e-13 0.000000000000e+00
    -3.282070159912e-03 5.808593750000e+01 4.971457081142e-09-1.812418756870e+00
     2.956017851830e-06 7.364144199528e-03 8.785165846348e-06 5.153566057914e+03
     1.152000000000e+05 6.984919309616e-08-1.524203728198e+00-6.146728992462e-08
     9.416382626476e-01 2.006640625000e+02-2.680439830644e+00-8.221535980596e-09
     1.428630936784e-10 4.971457081142e-09-2.000000000000e+00 3.000000000000e+00
     3.100000000000e+01 4.000000000000e+00-7.916241884232e-09 7.000000000000e+00
    -2.619344741106e-10 5.005858838558e-09-1.455191522837e-09-1.076841726899e-09
     1.992480000000e+05 2.428000000000e+03 0.000000000000e+00                   
G01 2026 07 21 07 20 48 2.170315419789e-04-9.634959496907e-12 0.000000000000e+00
    -1.117229461670e-03-2.564843750000e+01 4.646443543024e-09 6.786723551877e-01
    -1.356936991215e-06 1.827183994465e-03 5.745328962803e-06 5.153617600205e+03
     1.746000000000e+05-9.313225746155e-10 6.292672102708e-01-3.259629011154e-08
     9.571115413203e-01 2.650117187500e+02 1.954233154798e-01-8.066708102822e-09
    -3.005482333260e-10 4.646443543024e-09-2.000000000000e+00 3.000000000000e+00
     2.900000000000e+01 4.000000000000e+00-8.847564458847e-09 7.000000000000e+00
    -2.910383045673e-10 5.646143108606e-09-5.529727786779e-10-6.693881005049e-10
     1.992480000000e+05 2.428000000000e+03 0.000000000000e+00                   
E06 2026 07 21 07 20 54-3.006716142409e-04-5.016431714466e-12 0.000000000000e+00
     7.600000000000e+01-3.900000000000e+01 3.220848446980e-09 1.469405663055e+00
    -1.803040504456e-06 5.050321342424e-04 5.496665835381e-06 5.440612813950e+03
     1.980000000000e+05 6.891787052155e-08 2.852033101529e+00 1.862645149231e-08
     9.626616513618e-01 2.239375000000e+02 1.387231703952e+00-5.700237437769e-09
     1.871506527187e-10 5.160000000000e+02 1.404000000000e+03                   
     1.070000000000e+02 0.000000000000e+00 2.328306436539e-09 3.725290298462e-09
     1.992540000000e+05                                                         
E33 2026 07 21 07 20 54-2.518284600228e-05-1.918465386552e-12 0.000000000000e+00
     7.600000000000e+01-4.221875000000e+01 2.552249168565e-09 2.867148831320e+00
    -2.104789018631e-06 1.654082443565e-04 5.872920155525e-06 5.440609413147e+03
     1.980000000000e+05-6.705522537231e-08 7.699871435923e-01-2.793967723846e-08
     9.976673733535e-01 2.275937500000e+02-3.028599247167e+00-5.435940714464e-09
    -2.953694461802e-10 5.160000000000e+02 1.404000000000e+03                   
     1.070000000000e+02 0.000000000000e+00-4.423782229424e-09-4.889443516731e-09
     1.992540000000e+05                                                         
E31 2026 07 21 07 21 05-1.580996904522e-04-2.941646926047e-12 0.000000000000e+00
     7.500000000000e+01 1.003437500000e+02 3.213348134562e-09 2.492595178366e+00
     4.539266228676e-06 3.438881831244e-04 8.312985301018e-06 5.440611875534e+03
     1.974000000000e+05 2.048909664154e-08-1.329175236752e+00 2.235174179077e-08
     9.605971389437e-01 1.615312500000e+02-1.402247648100e+00-5.554159924483e-09
     7.571743964957e-11 1.000000000000e+00 1.404000000000e+03                   
     1.070000000000e+02 0.000000000000e+00 3.492459654808e-09 4.190951585770e-09
     1.992650000000e+05                                                         
E26 2026 07 21 07 21 05 3.675618208945e-04 1.091393642128e-11 0.000000000000e+00
     7.100000000000e+01-4.368750000000e+01 2.673325640458e-09 2.832396220489e+00
    -2.060085535049e-06 9.068509098142e-05 5.930662155151e-06 5.440605382919e+03
     1.950000000000e+05-1.303851604462e-08 7.665640615787e-01-6.146728992462e-08
     9.909307497061e-01 2.230000000000e+02-2.595413566764e+00-5.522730043874e-09
    -2.710827202548e-10 1.000000000000e+00 1.404000000000e+03                   
     1.070000000000e+02 0.000000000000e+00-5.122274160385e-09-5.587935447693e-09
     1.992650000000e+05                                                         
E23 2026 07 21 07 21 05-4.270131466910e-05-1.293187779083e-12 0.000000000000e+00
     7.100000000000e+01 9.150000000000e+01 3.186918462232e-09-1.973245510259e+00
     4.315748810768e-06 1.742112217471e-04 8.603557944298e-06 5.440618791580e+03
     1.950000000000e+05-1.490116119385e-08-1.332274857338e+00 4.284083843231e-08
     9.625505924729e-01 1.557812500000e+02-2.751027767486e+00-5.553445609015e-09
     8.857511808063e-11 1.000000000000e+00 1.404000000000e+03                   
     1.070000000000e+02 0.000000000000e+00 4.656612873077e-10 1.862645149231e-09
     1.992650000000e+05                                                         
E04 2026 07 21 07 21 05-1.219931873493e-04 3.358024969202e-11 0.000000000000e+00
     7.600000000000e+01-4.125000000000e+01 3.120129965937e-09-2.965667034930e+00
    -1.860782504082e-06 2.925973385572e-04 5.532056093216e-06 5.440610670090e+03
     1.980000000000e+05 5.029141902924e-08 2.852383076884e+00 3.539025783539e-08
     9.693557114077e-01 2.262500000000e+02-6.783678846310e-02-5.638806307488e-09
     1.964367538078e-10 1.000000000000e+00 1.404000000000e+03                   
     1.070000000000e+02 0.000000000000e+00-4.190951585770e-09-4.656612873077e-09
     1.992650000000e+05                                                         
E33 2026 07 21 07 21 05-2.518401015550e-05-1.918465386552e-12 0.000000000000e+00
     7.700000000000e+01-4.221875000000e+01 2.552249168565e-09 2.867148831320e+00
    -2.104789018631e-06 1.654082443565e-04 5.872920155525e-06 5.440609413147e+03
     1.980000000000e+05-6.519258022308e-08 7.699838885996e-01-4.097819328308e-08
     9.976671348979e-01 2.275937500000e+02-3.028832284165e+00-5.435940714464e-09
    -2.910835533698e-10 1.000000000000e+00 1.404000000000e+03                   
     1.070000000000e+02 0.000000000000e+00-4.423782229424e-09-4.889443516731e-09
     1.992650000000e+05                                                         
E09 2026 07 21 07 21 05-3.008500789292e-04 1.794830950530e-11 3.469446951954e-18
     7.700000000000e+01-4.050000000000e+01 3.090485873999e-09 2.082473674222e+00
    -1.855194568634e-06 4.996695788577e-04 5.798414349556e-06 5.440615369797e+03
     1.980000000000e+05 3.911554813385e-08 2.855535906727e+00 5.587935447693e-09
     9.750926733923e-01 2.215312500000e+02 3.876626351105e-01-5.631305995070e-09
     1.707213969457e-10 1.000000000000e+00 1.404000000000e+03                   
     1.070000000000e+02 0.000000000000e+00 6.984919309616e-10 9.313225746155e-10
     1.992650000000e+05                                                         
END OF FILE                                                 COMMENT
