     3.05           N: NAVIGATION       M: MIXED            RINEX VERSION / TYPE
PYRINEXCONV 0.1.2 ALDELTUNES            20260721 003946 UTC PGM / RUN BY / DATE
GAL    1.0175e+02  3.3203e-01  2.2858e-02             A 07  IONOSPHERIC CORR
GPSA   9.3132e-09  2.2352e-08  1.5199e-05  1.5140e-05 A 28  IONOSPHERIC CORR
GPSB   1.0035e+05  1.3107e+05  1.6712e+07  1.6318e+07 A 28  IONOSPHERIC CORR
GAUT  6.5192580223e-09-2.664535259e-15 174000 1404   E07  0 TIME SYSTEM CORR
GPUT -3.3469405025e-09-7.989164885e-13 356700 2428   G28  0 TIME SYSTEM CORR
                                                            END OF HEADER
E27 2026 07 21 00 30 54-1.049713348038e-03-1.062971932697e-11 0.000000000000e+00
     3.500000000000e+01 1.068125000000e+02 3.254421273995e-09 1.351064698571e+00
     5.055218935013e-06 2.443334087729e-04 8.461996912956e-06 5.440615758896e+03
     1.734000000000e+05 4.097819328308e-08-1.329000728181e+00-2.048909664154e-08
     9.605919894721e-01 1.549375000000e+02-8.784627883469e-01-5.627020102259e-09
    -4.393040130612e-11 5.160000000000e+02 1.404000000000e+03                   
     1.070000000000e+02 0.000000000000e+00 2.328306436539e-10 2.328306436539e-10
     1.746540000000e+05                                                         
E29 2026 07 21 00 30 54-2.271416597068e-04-3.623767952377e-12 0.000000000000e+00
     3.500000000000e+01-4.503125000000e+01 3.429785721485e-09 3.541882240812e-01
    -2.052634954453e-06 2.008775481954e-04 5.563721060753e-06 5.440611127853e+03
     1.734000000000e+05-9.313225746155e-09 2.852204767651e+00 1.117587089539e-08
     9.627377626007e-01 2.192500000000e+02 1.417108027003e+00-5.750239520557e-09
     2.114373786441e-10 5.160000000000e+02 1.404000000000e+03                   
     1.070000000000e+02 0.000000000000e+00-3.259629011154e-09-2.793967723846e-09
     1.746540000000e+05                                                         
E07 2026 07 21 00 30 54-7.846829248592e-05-2.543742994021e-12 0.000000000000e+00
     3.500000000000e+01-4.984375000000e+01 3.343353549810e-09 2.379629005625e+00
    -2.190470695496e-06 4.220121772960e-04 5.545094609261e-06 5.440617073059e+03
     1.734000000000e+05-1.862645149231e-09 2.852470811007e+00-1.862645149231e-09
     9.693520555754e-01 2.261250000000e+02 1.827766117795e-01-5.668807557160e-09
     1.953652806053e-10 5.160000000000e+02 1.404000000000e+03                   
     1.070000000000e+02 0.000000000000e+00 4.423782229424e-09 4.889443516731e-09
     1.746540000000e+05                                                         
G26 2026 07 21 00 39 12-3.841021971311e-04-2.511768570912e-12 0.000000000000e+00
    -6.264209747314e-03 5.512890625000e+01 5.416118460217e-09 4.981622482401e-01
     3.001652657986e-06 1.116635178914e-02 9.015202522278e-06 5.153641958227e+03
     1.152000000000e+05-2.700835466385e-08-1.639756209171e+00 1.173466444016e-07
     9.274891442743e-01 1.881914062500e+02 7.146350318747e-01-7.784374913940e-09
    -1.928651764659e-10 5.416118460217e-09-2.000000000000e+00 3.000000000000e+00
     3.000000000000e+01 4.000000000000e+00 6.519258022308e-09 7.000000000000e+00
    -8.440110832453e-10-4.190951585770e-09 5.820766091347e-09 5.878973752260e-09
     1.751520000000e+05 2.428000000000e+03 0.000000000000e+00                   
G03 2026 07 21 00 39 12 3.642191586550e-04-1.892885848065e-11 0.000000000000e+00
    -5.082130432129e-03-3.272656250000e+01 3.511932000350e-09 1.668182751148e+00
    -1.699663698673e-06 6.976965523791e-03 9.193085134029e-06 5.153454907572e+03
     1.737000000000e+05-4.470348358154e-08 1.621804437133e+00-1.080334186554e-07
     9.947597490621e-01 2.185000000000e+02 1.276501399613e+00-8.703163185159e-09
     2.996553389905e-10 3.511932000350e-09-2.000000000000e+00 2.000000000000e+00
     2.700000000000e+01 4.000000000000e+00 1.396983861923e-09 7.000000000000e+00
     5.529727786779e-10-2.008164301515e-09 1.862645149231e-09 5.005858838558e-09
     1.751520000000e+05 2.428000000000e+03 0.000000000000e+00                   
G31 2026 07 21 00 39 12-1.341027382296e-04 2.749800387392e-12 0.000000000000e+00
     3.767967224121e-03-2.978515625000e+01 4.925383733431e-09 1.124739852169e+00
    -1.469627022743e-06 1.091369451024e-02 8.693896234035e-06 5.153589886929e+03
     1.377000000000e+05-1.257285475731e-07-2.561127504646e+00 1.275911927223e-07
     9.550183023114e-01 2.105351562500e+02 9.765758682477e-01-8.064922314151e-09
    -2.403671551140e-10 4.925383733431e-09-2.000000000000e+00 3.000000000000e+00
     2.900000000000e+01 4.000000000000e+00-1.350417733192e-08 7.000000000000e+00
    -2.619344741106e-10 8.265487849712e-09 0.000000000000e+00 0.000000000000e+00
     1.751520000000e+05 2.428000000000e+03 0.000000000000e+00                   
E21 2026 07 21 00 39 54-7.585140410811e-04-2.827960088325e-12 0.000000000000e+00
     3.000000000000e+01 1.150937500000e+02 3.159774474433e-09 8.572248956120e-01
     5.146488547325e-06 1.701257424429e-04 9.587034583092e-06 5.440615518570e+03
     1.704000000000e+05 1.303851604462e-08-1.328944024013e+00 7.450580596924e-09
     9.606212609999e-01 1.338125000000e+02-1.556055263490e+00-5.563446025572e-09
    -5.143071372424e-11 5.160000000000e+02 1.404000000000e+03                   
     1.070000000000e+02 0.000000000000e+00 1.164153218269e-09 1.164153218269e-09
     1.751940000000e+05                                                         
E30 2026 07 21 00 39 54-1.275924907532e-03-3.971933892899e-11 0.000000000000e+00
     2.500000000000e+01 1.072812500000e+02 3.258350009071e-09-4.525046708073e-02
     5.045905709267e-06 2.124481834471e-04 8.385628461838e-06 5.440624414444e+03
     1.674000000000e+05 2.980232238770e-08-1.327277429701e+00 1.676380634308e-08
     9.583802767739e-01 1.559687500000e+02 5.253313294728e-01-5.640592096159e-09
    -4.107313943255e-11 5.160000000000e+02 1.404000000000e+03                   
     1.070000000000e+02 0.000000000000e+00 6.984919309616e-10 9.313225746155e-10
     1.751940000000e+05                                                         
E27 2026 07 21 00 39 54-1.049719750881e-03-1.062971932697e-11 0.000000000000e+00
     3.600000000000e+01 1.047812500000e+02 3.269779056565e-09 1.426731172349e+00
     4.980713129044e-06 2.445023274049e-04 8.383765816689e-06 5.440615058899e+03
     1.740000000000e+05 4.842877388000e-08-1.329004120688e+00-1.676380634308e-08
     9.605919368070e-01 1.570312500000e+02-8.797442270497e-01-5.629163048664e-09
    -3.964450849577e-11 5.160000000000e+02 1.404000000000e+03                   
     1.070000000000e+02 0.000000000000e+00 2.328306436539e-10 2.328306436539e-10
     1.751940000000e+05                                                         
E07 2026 07 21 00 39 54-7.846980588511e-05-2.543742994021e-12 0.000000000000e+00
     3.600000000000e+01-4.956250000000e+01 3.326209978568e-09 2.453975359684e+00
    -2.181157469749e-06 4.218232352287e-04 5.505979061127e-06 5.440617444992e+03
     1.740000000000e+05 1.303851604462e-08 2.852467367298e+00 3.725290298462e-09
     9.693522355144e-01 2.276875000000e+02 1.828158018920e-01-5.658092825134e-09
     1.939366496685e-10 5.160000000000e+02 1.404000000000e+03                   
     1.070000000000e+02 0.000000000000e+00 4.423782229424e-09 4.889443516731e-09
     1.751940000000e+05                                                         
E29 2026 07 21 00 39 54-2.271438715979e-04-3.623767952377e-12 0.000000000000e+00
     3.600000000000e+01-4.568750000000e+01 3.423714040004e-09 4.282154059876e-01
    -2.067536115646e-06 2.009181771427e-04 5.559995770454e-06 5.440611289978e+03
     1.740000000000e+05-1.117587089539e-08 2.852201300535e+00 9.313225746155e-09
     9.627378913375e-01 2.194062500000e+02 1.417466575058e+00-5.748453731886e-09
     2.125088518467e-10 5.160000000000e+02 1.404000000000e+03                   
     1.070000000000e+02 0.000000000000e+00-3.259629011154e-09-2.793967723846e-09
     1.751940000000e+05                                                         
E19 2026 07 21 00 39 54 3.107951488346e-03 2.410160959698e-11 0.000000000000e+00
     2.700000000000e+01-4.056250000000e+01 3.285493996870e-09 6.700663307008e-01
    -1.993030309677e-06 2.444363199174e-04 5.826354026794e-06 5.440615125656e+03
     1.686000000000e+05-4.284083843231e-08 2.860647537064e+00-4.097819328308e-08
     9.747192006471e-01 2.257500000000e+02-2.419013792948e-01-5.610948004220e-09
     1.692927660089e-10 5.160000000000e+02 1.404000000000e+03                   
     1.070000000000e+02 0.000000000000e+00-4.190951585770e-09-4.423782229424e-09
     1.751940000000e+05                                                         
G28 2026 07 21 00 40 00-4.659118421841e-04 1.087130385713e-11 0.000000000000e+00
     2.033233642578e-03-2.901953125000e+01 4.716982195528e-09 2.882508508552e+00
    -1.423060894012e-06 5.171530065127e-04 8.507631719112e-06 5.153601420328e+03
     1.107000000000e+05-4.470348358154e-08-2.610097487026e+00 4.563480615616e-08
     9.622426723554e-01 2.161601562500e+02-3.132190035830e-01-8.347434081900e-09
    -1.016113753788e-10 4.716982195528e-09-2.000000000000e+00 3.000000000000e+00
     3.000000000000e+01 4.000000000000e+00-9.313225746155e-09 7.000000000000e+00
    -3.492459654808e-10 5.966285243630e-09-7.566995918751e-10-6.693881005049e-10
     1.752000000000e+05 2.428000000000e+03 0.000000000000e+00                   
G04 2026 07 21 00 40 00 6.273412145674e-05 6.998845947237e-13 0.000000000000e+00
    -5.631446838379e-04-2.111328125000e+01 4.452149735621e-09-1.581149703060e+00
    -1.121312379837e-06 3.821527818218e-03 6.383284926414e-06 5.153549399026e+03
     1.233000000000e+05 2.700835466385e-08 2.690162137697e+00-4.377216100693e-08
     9.724406055288e-01 2.625976562500e+02-2.902052367753e+00-8.337076507608e-09
     3.330495871378e-10 4.452149735621e-09-2.000000000000e+00 3.000000000000e+00
     3.000000000000e+01 4.000000000000e+00-4.656612873077e-09 7.000000000000e+00
    -2.037268131971e-10 3.317836672068e-09-1.426087692380e-09-1.396983861923e-09
     1.752000000000e+05 2.428000000000e+03 0.000000000000e+00                   
END OF FILE                                                 COMMENT
