     3.05           N: NAVIGATION       M: MIXED            RINEX VERSION / TYPE
PYRINEXCONV 0.1.2 ALDELTUNES            20260721 031016 UTC PGM / RUN BY / DATE
GAL    1.0175e+02  3.3203e-01  2.2858e-02             D 27  IONOSPHERIC CORR
GPSA   9.3132e-09  2.2352e-08  1.5199e-05  1.5140e-05 D 04  IONOSPHERIC CORR
GPSB   1.0035e+05  1.3107e+05  1.6712e+07  1.6318e+07 D 04  IONOSPHERIC CORR
BDSA   2.0489e-08  2.2352e-08 -5.3644e-07  9.5367e-07 D 13  IONOSPHERIC CORR
BDSB   1.3722e+05 -5.4067e+05  4.7841e+06 -4.1943e+06 D 13  IONOSPHERIC CORR
GAUT  6.5192580223e-09-2.664535259e-15 183000 1404   E27  0 TIME SYSTEM CORR
GPUT -3.2014213502e-09 1.588507104e-12 370800 2428   G04  0 TIME SYSTEM CORR
BDUT  0.0000000000e+00 0.000000000e+00 183600 1072   C13  0 TIME SYSTEM CORR
                                                            END OF HEADER
C37 2026 07 21 03 04 54-9.073218097910e-04 6.912692640526e-12 0.000000000000e+00
     1.000000000000e+00 1.870312500000e+01 4.227318941945e-09 1.807858117073e+00
     9.704381227493e-07 7.142786635086e-04 9.984243661165e-06 5.282670188904e+03
     1.836000000000e+05 1.033768057823e-07-2.018588858008e+00 2.123694866896e-05
     9.451554168769e-01 1.506406250000e+02-3.737505255582e-01 1.271642254718e-07
    -1.353627812603e-10                    1.072000000000e+03                   
     0.000000000000e+00 0.000000000000e+00-7.823109626770e-08-7.823109626770e-08
     1.838940000000e+05 1.000000000000e+00                                      
C20 2026 07 21 03 04 54-8.893182966858e-04 3.042899265893e-12 0.000000000000e+00
     1.000000000000e+00-1.395312500000e+01 3.250849696653e-09 2.356942117403e+00
    -6.514601409435e-07 8.090336341411e-04 7.441267371178e-06 5.282635536194e+03
     1.836000000000e+05 3.539025783539e-08 2.185679637896e+00-6.793998181820e-07
     9.899301839599e-01 2.225312500000e+02 2.744138148940e-01 1.258868508355e-06
     4.293035965037e-10                    1.072000000000e+03                   
     0.000000000000e+00 0.000000000000e+00 5.541369318962e-08 5.541369318962e-08
     1.838940000000e+05 1.000000000000e+00                                      
C12 2026 07 21 03 04 54 6.157959578559e-04-5.023537141824e-12 0.000000000000e+00
     1.000000000000e+00-1.328125000000e+01 3.553719455251e-09 1.630469720774e+00
    -6.719492375851e-07 1.762796891853e-04 7.256865501404e-06 5.282643817902e+03
     1.836000000000e+05 5.168840289116e-08 2.170705963302e+00-5.243392661214e-05
     9.735964315022e-01 2.174062500000e+02 7.076383474747e-01-1.376624127635e-06
     4.250177036933e-10                    1.072000000000e+03                   
     0.000000000000e+00 0.000000000000e+00 3.725290298462e-09 3.725290298462e-09
     1.838940000000e+05 1.000000000000e+00                                      
C28 2026 07 21 03 04 54 5.406640702859e-04 3.917755009297e-12 0.000000000000e+00
     1.000000000000e+00-7.296875000000e+00 4.239819462642e-09 2.203730723053e+00
    -4.931353032589e-07 1.239192206413e-04 4.018656909466e-06 5.282629848480e+03
     1.836000000000e+05-9.778887033463e-09 7.541098683887e-02 4.550768062472e-05
     9.477883490405e-01 2.703437500000e+02-2.184625124120e+00 1.738979578337e-06
    -3.267993267894e-10                    1.072000000000e+03                   
     0.000000000000e+00 0.000000000000e+00-2.002343535423e-08-2.002343535423e-08
     1.838940000000e+05 1.000000000000e+00                                      
C19 2026 07 21 03 04 54-9.326343424618e-04 8.508749260727e-13 0.000000000000e+00
     1.000000000000e+00-1.856250000000e+01 3.239420649158e-09 2.232843650100e+00
    -9.979121387005e-07 7.839655736461e-04 7.412862032652e-06 5.282632442474e+03
     1.836000000000e+05 4.284083843231e-08 2.185052050428e+00 9.068287909031e-06
     9.899450632997e-01 2.229531250000e+02-3.180424017541e-01 6.475976893289e-07
     4.132314984649e-10                    1.072000000000e+03                   
     0.000000000000e+00 0.000000000000e+00 4.330649971962e-08 4.330649971962e-08
     1.838940000000e+05 1.000000000000e+00                                      
C23 2026 07 21 03 04 54-4.541795933619e-04-1.243449787580e-14 0.000000000000e+00
     1.000000000000e+00 1.723437500000e+01 4.276606709264e-09 3.098962318139e+00
     9.154900908470e-07 3.794998629019e-04 9.872019290924e-06 5.282650421143e+03
     1.836000000000e+05-1.816079020500e-08-2.018362960050e+00 2.842675894499e-05
     9.436839758369e-01 1.531406250000e+02-8.795774148899e-01 3.466933697419e-07
    -4.964492505326e-11                    1.072000000000e+03                   
     0.000000000000e+00 0.000000000000e+00 1.024454832077e-07 1.024454832077e-07
     1.838940000000e+05 1.000000000000e+00                                      
C13 2026 07 21 03 04 54-9.457473643124e-04-8.419931418757e-12 0.000000000000e+00
     1.000000000000e+00-1.578125000000e+00 4.175888228221e-09-8.741915093567e-01
    -1.285225152969e-07 2.800482325256e-04 3.865920007229e-06 5.282640714645e+03
     1.836000000000e+05 4.656612873077e-10 7.423414385292e-02 5.146814510226e-05
     9.503765583355e-01 2.743125000000e+02 1.336830496882e+00 5.889888194628e-07
    -3.067984936744e-10                    1.072000000000e+03                   
     0.000000000000e+00 0.000000000000e+00 6.519258022308e-09 6.519258022308e-09
     1.838940000000e+05 1.000000000000e+00                                      
G07 2026 07 21 03 08 00-2.078761754092e-04-3.755218358492e-12 0.000000000000e+00
     4.545211791992e-03-3.667578125000e+01 4.786092217095e-09-3.008415293281e+00
    -1.901760697365e-06 2.093720907578e-02 8.634291589260e-06 5.153634460868e+03
     1.161000000000e+05 3.129243850708e-07-2.586013350385e+00-2.095475792885e-07
     9.513214732150e-01 2.023242187500e+02-1.955314085949e+00-8.547620991917e-09
    -1.098260032653e-10 4.786092217095e-09-2.000000000000e+00 3.000000000000e+00
     3.100000000000e+01 4.000000000000e+00-1.071020960808e-08 7.000000000000e+00
    -9.313225746155e-10 6.984919309616e-09 0.000000000000e+00 0.000000000000e+00
     1.840800000000e+05 2.428000000000e+03 0.000000000000e+00                   
G09 2026 07 21 03 09 36 7.171775796451e-04-6.988187806201e-12 0.000000000000e+00
     1.067161560059e-03-1.843359375000e+01 4.531081594879e-09 3.367306725841e-01
    -1.054257154465e-06 3.669601399451e-03 6.325542926788e-06 5.153528200759e+03
     1.395000000000e+05 1.117587089539e-08 2.624931008947e+00-4.284083843231e-08
     9.667048365538e-01 2.602773437500e+02 2.038101396132e+00-8.187427416980e-09
     2.962623405157e-10 4.531081594879e-09-2.000000000000e+00 3.000000000000e+00
     3.000000000000e+01 4.000000000000e+00 4.656612873077e-10 7.000000000000e+00
    -5.820766091347e-10-7.275957614183e-10 5.064066499472e-09 5.617039278150e-09
     1.841760000000e+05 2.428000000000e+03 0.000000000000e+00                   
G27 2026 07 21 03 09 36 5.350739229470e-07-3.552713678801e-14 0.000000000000e+00
    -5.846023559570e-04 4.455078125000e+01 5.107712756738e-09-1.338434422709e-01
     2.496875822544e-06 1.432877802290e-02 4.680827260017e-06 5.153549875791e+03
     1.341000000000e+05 1.490116119385e-08-5.084130234774e-01 1.629814505577e-07
     9.508939266288e-01 2.831289062500e+02 9.005609361606e-01-7.654905235294e-09
    -1.462560921533e-10 5.107712756738e-09-3.000000000000e+00 1.000000000000e+00
     3.000000000000e+01 4.000000000000e+00 2.328306436539e-09 7.000000000000e+00
    -9.022187441587e-10-1.688022166491e-09 6.664777174592e-09 5.326000973582e-09
     1.841760000000e+05 2.428000000000e+03 0.000000000000e+00                   
G08 2026 07 21 03 09 36 3.940675815102e-04-9.229950137524e-12 0.000000000000e+00
    -4.871368408203e-03 4.580078125000e+01 5.255933216430e-09-2.816418393074e-01
     2.566725015640e-06 1.168359367875e-02 4.413537681103e-06 5.153474009747e+03
     1.413000000000e+05 9.685754776001e-08-5.416278236015e-01 9.406358003616e-08
     9.417702434594e-01 2.839804687500e+02 5.446378214371e-01-7.618653725273e-09
    -1.383986220010e-10 5.255933216430e-09-2.000000000000e+00 3.000000000000e+00
     2.900000000000e+01 4.000000000000e+00 4.656612873077e-09 7.000000000000e+00
    -1.047737896442e-09-4.685716703534e-09 6.257323548198e-09 6.839400157332e-09
     1.841760000000e+05 2.428000000000e+03 0.000000000000e+00                   
G26 2026 07 21 03 09 36-3.841202706099e-04-2.508215857233e-12 0.000000000000e+00
     7.158279418945e-03 4.062109375000e+01 5.435583556730e-09 1.548188613161e+00
     2.224929630756e-06 1.116253604414e-02 8.788891136646e-06 5.153641337269e+03
     1.152000000000e+05-1.965090632439e-07-1.639818282979e+00 1.387670636177e-07
     9.274881041395e-01 1.920351562500e+02 7.148623232623e-01-7.856163618513e-09
    -8.607501394126e-11 5.435583556730e-09-2.000000000000e+00 3.000000000000e+00
     3.100000000000e+01 4.000000000000e+00 6.519258022308e-09 7.000000000000e+00
    -8.440110832453e-10-4.190951585770e-09 5.820766091347e-09 5.878973752260e-09
     1.841760000000e+05 2.428000000000e+03 0.000000000000e+00                   
G04 2026 07 21 03 10 00 6.273915641941e-05 6.998845947237e-13 0.000000000000e+00
     2.199172973633e-03-2.011328125000e+01 4.413219542594e-09-5.311305949440e-01
    -1.107342541218e-06 3.822266007774e-03 6.177462637424e-06 5.153549172013e+03
     1.233000000000e+05 8.102506399155e-08 2.690104707190e+00 1.955777406693e-08
     9.724425592559e-01 2.658359375000e+02-2.901889416965e+00-8.267966486041e-09
     2.787616115400e-10 4.413219542594e-09-2.000000000000e+00 3.000000000000e+00
     3.000000000000e+01 4.000000000000e+00-4.656612873077e-09 7.000000000000e+00
    -2.037268131971e-10 3.317836672068e-09-1.426087692380e-09-1.396983861923e-09
     1.842000000000e+05 2.428000000000e+03 0.000000000000e+00                   
E29 2026 07 21 03 10 05-2.271759440191e-04-3.581135388231e-12 0.000000000000e+00
     5.100000000000e+01-4.381250000000e+01 3.311209353732e-09 1.536857246170e+00
    -2.002343535423e-06 2.005832502618e-04 5.308538675308e-06 5.440614316940e+03
     1.830000000000e+05 2.607703208923e-08 2.852149523476e+00 3.725290298462e-09
     9.627399716070e-01 2.299062500000e+02 1.424609793379e+00-5.717023851277e-09
     2.153661137202e-10 1.000000000000e+00 1.404000000000e+03                   
     1.070000000000e+02 0.000000000000e+00-3.259629011154e-09-2.793967723846e-09
     1.842050000000e+05                                                         
E04 2026 07 21 03 10 05-1.227791071869e-04 3.326761088829e-11 0.000000000000e+00
     3.700000000000e+01-3.965625000000e+01 3.340496287936e-09 4.185966625626e-01
    -1.952052116394e-06 2.935096854344e-04 5.800276994705e-06 5.440607788086e+03
     1.746000000000e+05 2.235174179077e-08 2.852515250070e+00 9.313225746155e-09
     9.693503337209e-01 2.247187500000e+02-6.995501191847e-02-5.659878613805e-09
     2.450102056585e-10 1.000000000000e+00 1.404000000000e+03                   
     1.070000000000e+02 0.000000000000e+00-4.190951585770e-09-4.656612873077e-09
     1.842050000000e+05                                                         
E28 2026 07 21 03 10 05-6.029428914189e-05-2.856381797756e-12 0.000000000000e+00
     5.100000000000e+01-4.225000000000e+01 3.556933874859e-09-2.030944329098e-01
    -1.991167664528e-06 2.851025201380e-04 5.381181836128e-06 5.440609119415e+03
     1.830000000000e+05 1.490116119385e-08 2.870163484161e+00-1.117587089539e-08
     9.490517675184e-01 2.150937500000e+02 1.958975821103e+00-5.850958001600e-09
     2.082229590363e-10 1.000000000000e+00 1.404000000000e+03                   
     1.070000000000e+02 0.000000000000e+00 9.313225746155e-10 1.862645149231e-09
     1.842050000000e+05                                                         
E21 2026 07 21 03 10 05-7.585358689539e-04-2.799538378895e-12 0.000000000000e+00
     4.300000000000e+01 1.138125000000e+02 3.210490872689e-09 1.815999025043e+00
     5.297362804413e-06 1.703940797597e-04 8.758157491684e-06 5.440617902756e+03
     1.782000000000e+05 1.117587089539e-08-1.328987503401e+00-3.725290298462e-08
     9.606206260935e-01 1.490625000000e+02-1.547821414872e+00-5.602733376334e-09
    -3.321566928024e-11 1.000000000000e+00 1.404000000000e+03                   
     1.070000000000e+02 0.000000000000e+00 6.984919309616e-10 9.313225746155e-10
     1.842050000000e+05                                                         
E23 2026 07 21 03 10 05-4.268554039299e-05-1.350031197944e-12 0.000000000000e+00
     5.100000000000e+01 1.205000000000e+02 3.133701959836e-09 2.827574824321e+00
     5.528330802917e-06 1.715832622722e-04 9.056180715561e-06 5.440622964859e+03
     1.830000000000e+05-9.313225746155e-09-1.332207541163e+00-2.235174179077e-08
     9.625505705291e-01 1.462500000000e+02-2.756365629327e+00-5.552016978078e-09
     2.500104139373e-12 1.000000000000e+00 1.404000000000e+03                   
     1.070000000000e+02 0.000000000000e+00 4.656612873077e-10 1.862645149231e-09
     1.842050000000e+05                                                         
E19 2026 07 21 03 10 24 3.108187054750e-03 2.442845925543e-11 0.000000000000e+00
     4.300000000000e+01-4.293750000000e+01 3.184418358092e-09 1.857914075476e+00
    -2.041459083557e-06 2.441270044073e-04 5.668029189110e-06 5.440616420746e+03
     1.782000000000e+05 9.313225746155e-09 2.860593357893e+00 3.725290298462e-09
     9.747208976321e-01 2.213437500000e+02-2.395825224766e-01-5.625948629057e-09
     2.128660095809e-10 5.160000000000e+02 1.404000000000e+03                   
     1.070000000000e+02 0.000000000000e+00-4.423782229424e-09-4.423782229424e-09
     1.842240000000e+05                                                         
E27 2026 07 21 03 10 24-1.049814338330e-03-1.055866505340e-11 0.000000000000e+00
     5.100000000000e+01 9.118750000000e+01 3.282993892730e-09 2.544990920630e+00
     4.349276423454e-06 2.437243238091e-04 8.452683687210e-06 5.440615879059e+03
     1.830000000000e+05-3.911554813385e-08-1.329055586146e+00 6.705522537231e-08
     9.605915725404e-01 1.594687500000e+02-8.822215208218e-01-5.595590221650e-09
     6.500270762369e-11 5.160000000000e+02 1.404000000000e+03                   
     1.070000000000e+02 0.000000000000e+00 2.328306436539e-10 2.328306436539e-10
     1.842240000000e+05                                                         
E14 2026 07 21 03 10 24 3.963486989960e-03 1.529940618639e-10 5.204170427930e-18
     4.200000000000e+01 1.089062500000e+02 4.705553148033e-09 2.709859608416e+00
     4.321336746216e-06 1.682690713787e-01 4.561617970467e-06 5.289380823135e+03
     1.776000000000e+05-2.350658178329e-06-4.465402704118e-01-2.328306436539e-07
     8.527911273849e-01 2.521875000000e+02-3.116702408857e+00-6.132041138413e-09
    -1.889364413897e-10 5.160000000000e+02 1.404000000000e+03                   
     1.070000000000e+02 2.160000000000e+02-2.793967723846e-09-3.492459654808e-09
     1.842240000000e+05                                                         
END OF FILE                                                 COMMENT
