     3.05           N: NAVIGATION       M: MIXED            RINEX VERSION / TYPE
PYRINEXCONV 0.1.2 ALDELTUNES            20260721 043032 UTC PGM / RUN BY / DATE
GAL    1.0175e+02  3.3203e-01  2.2858e-02             E 28  IONOSPHERIC CORR
GPSA   9.3132e-09  2.2352e-08  1.5199e-05  1.5140e-05 E 04  IONOSPHERIC CORR
GPSB   1.0035e+05  1.3107e+05  1.6712e+07  1.6318e+07 E 04  IONOSPHERIC CORR
BDSA   2.0489e-08  2.2352e-08 -5.3644e-07  9.5367e-07 E 13  IONOSPHERIC CORR
BDSB   1.3722e+05 -4.4237e+05  4.3254e+06 -3.8666e+06 E 13  IONOSPHERIC CORR
GAUT  6.5192580223e-09-2.664535259e-15 187800 1404   E28  0 TIME SYSTEM CORR
GPUT -3.2014213502e-09 1.588507104e-12 385200 2428   G04  0 TIME SYSTEM CORR
BDUT  0.0000000000e+00 0.000000000e+00 187200 1072   C13  0 TIME SYSTEM CORR
                                                            END OF HEADER
E29 2026 07 21 04 21 35-2.271780977026e-04-3.581135388231e-12 0.000000000000e+00
     5.200000000000e+01-4.337500000000e+01 3.311209353732e-09 1.611081664544e+00
    -1.994892954826e-06 2.005466958508e-04 5.308538675308e-06 5.440614410400e+03
     1.836000000000e+05 2.793967723846e-08 2.852146098785e+00-7.450580596924e-09
     9.627400564563e-01 2.299687500000e+02 1.424770870900e+00-5.723095532758e-09
     2.185805333280e-10 1.000000000000e+00 1.404000000000e+03                   
     1.070000000000e+02 0.000000000000e+00-3.259629011154e-09-2.793967723846e-09
     1.884950000000e+05                                                         
E23 2026 07 21 04 23 24-4.268635530025e-05-1.350031197944e-12 0.000000000000e+00
     5.200000000000e+01 1.184062500000e+02 3.143702376394e-09 2.901419929980e+00
     5.444511771202e-06 1.718186540529e-04 9.061768651009e-06 5.440622465134e+03
     1.836000000000e+05-7.450580596924e-09-1.332210876616e+00-2.607703208923e-08
     9.625505500483e-01 1.461250000000e+02-2.755825969088e+00-5.554517082217e-09
     4.643050544549e-12 5.160000000000e+02 1.404000000000e+03                   
     1.070000000000e+02 0.000000000000e+00 4.656612873077e-10 1.862645149231e-09
     1.886040000000e+05                                                         
E04 2026 07 21 04 23 24-1.224564621225e-04 3.342393029016e-11 0.000000000000e+00
     5.300000000000e+01-4.006250000000e+01 3.221562762449e-09 1.606854570068e+00
    -1.966953277588e-06 2.934384392574e-04 5.589798092842e-06 5.440608936310e+03
     1.842000000000e+05 1.676380634308e-08 2.852461152822e+00-1.862645149231e-08
     9.693526890190e-01 2.203750000000e+02-6.804140827777e-02-5.659164298337e-09
     2.132231673151e-10 5.160000000000e+02 1.404000000000e+03                   
     1.070000000000e+02 0.000000000000e+00-4.190951585770e-09-4.656612873077e-09
     1.886040000000e+05                                                         
E28 2026 07 21 04 24 24-6.029597716406e-05-2.856381797756e-12 0.000000000000e+00
     5.200000000000e+01-4.278125000000e+01 3.551219351112e-09-1.288110472343e-01
    -1.991167664528e-06 2.851557219401e-04 5.381181836128e-06 5.440609237671e+03
     1.836000000000e+05 1.490116119385e-08 2.870159980472e+00-9.313225746155e-09
     9.490518918664e-01 2.151875000000e+02 1.959078299978e+00-5.851672317069e-09
     2.078658013021e-10 5.160000000000e+02 1.404000000000e+03                   
     1.070000000000e+02 0.000000000000e+00 9.313225746155e-10 1.862645149231e-09
     1.886640000000e+05                                                         
E31 2026 07 21 04 25 35-1.580716343597e-04-2.984279490192e-12 0.000000000000e+00
     5.900000000000e+01 1.233125000000e+02 3.150488373344e-09 1.295640980670e+00
     5.668029189110e-06 3.408213378862e-04 9.192153811455e-06 5.440619762421e+03
     1.878000000000e+05 0.000000000000e+00-1.329121822687e+00-3.725290298462e-09
     9.605967498075e-01 1.453125000000e+02-1.395455464287e+00-5.546659612065e-09
     4.893060958486e-11 1.000000000000e+00 1.404000000000e+03                   
     1.070000000000e+02 0.000000000000e+00 3.492459654808e-09 4.190951585770e-09
     1.887350000000e+05                                                         
G08 2026 07 21 04 26 24 3.939843736589e-04-9.208633855451e-12 0.000000000000e+00
     8.200000000000e+01 5.553125000000e+01 5.257361847366e-09 1.030811823210e+00
     3.173947334290e-06 1.168476371095e-02 5.075708031654e-06 5.153750621796e+03
     1.944000000000e+05 5.587935447693e-09-5.417054526179e-01 1.657754182816e-07
     9.417689063523e-01 2.702812500000e+02 5.448627546008e-01-8.641074221140e-09
    -2.032227507576e-10 1.000000000000e+00 3.800000000000e+02 0.000000000000e+00
     2.000000000000e+00 0.000000000000e+00 4.656612873077e-09 8.200000000000e+01
     7.551360000000e+05 4.000000000000e+00                                      
G09 2026 07 21 04 26 24 7.171146571636e-04-7.048583938740e-12 0.000000000000e+00
     7.400000000000e+01-1.984375000000e+01 4.403754862638e-09 1.649337004501e+00
    -1.048669219017e-06 3.670229576528e-03 6.090849637985e-06 5.153696254730e+03
     1.944000000000e+05 1.378357410431e-07 2.624858163673e+00 3.166496753693e-08
     9.667080432703e-01 2.642812500000e+02 2.038203357865e+00-8.018548290436e-09
     2.792973481413e-10 1.000000000000e+00 3.800000000000e+02 0.000000000000e+00
     2.000000000000e+00 0.000000000000e+00 4.656612873077e-10 7.400000000000e+01
     7.551360000000e+05 4.000000000000e+00                                      
G07 2026 07 21 04 26 24-2.079098485410e-04-3.751665644813e-12 0.000000000000e+00
     9.700000000000e+01-2.071875000000e+01 4.741626079187e-09-1.695767174572e+00
    -9.015202522278e-07 2.093818434514e-02 7.875263690948e-06 5.153584897995e+03
     1.944000000000e+05 4.228204488754e-07-2.586084121241e+00 1.657754182816e-07
     9.513214629746e-01 2.134062500000e+02-1.955170504928e+00-7.871042146213e-09
     1.142904749427e-11 1.000000000000e+00 3.800000000000e+02 0.000000000000e+00
     2.000000000000e+00 0.000000000000e+00-1.071020960808e-08 9.700000000000e+01
     7.551360000000e+05 4.000000000000e+00                                      
G04 2026 07 21 04 26 24 6.274553015828e-05 6.821210263297e-13 0.000000000000e+00
     6.000000000000e+00-2.050000000000e+01 4.324823003380e-09 7.817716787169e-01
    -9.983777999878e-07 3.822581376880e-03 6.087124347687e-06 5.153674917221e+03
     1.944000000000e+05 7.450580596924e-09 2.690032590449e+00 1.415610313416e-07
     9.724451661759e-01 2.685000000000e+02-2.902069181801e+00-7.997118826385e-09
     2.214377952016e-10 1.000000000000e+00 3.800000000000e+02 0.000000000000e+00
     2.000000000000e+00 0.000000000000e+00-4.656612873077e-09 5.180000000000e+02
     7.551360000000e+05 4.000000000000e+00                                      
G16 2026 07 21 04 26 24 3.020484000444e-04 6.480149750132e-12 0.000000000000e+00
     8.900000000000e+01 4.853125000000e+01 4.642693386815e-09 2.105151411892e+00
     2.397224307060e-06 1.503457129002e-02 9.205192327499e-06 5.153716499329e+03
     1.944000000000e+05-1.955777406693e-07-1.450509815853e+00-3.371387720108e-07
     9.573759908271e-01 2.015312500000e+02 9.376100657827e-01-7.891400137062e-09
     8.928943354902e-11 1.000000000000e+00 3.800000000000e+02 0.000000000000e+00
     2.000000000000e+00 0.000000000000e+00-1.024454832077e-08 8.900000000000e+01
     7.551360000000e+05 4.000000000000e+00                                      
G09 2026 07 21 04 28 48 7.171272591222e-04-6.991740519879e-12 0.000000000000e+00
     3.526687622070e-03-1.656250000000e+01 4.419469802942e-09 1.386780316189e+00
    -9.629875421524e-07 3.668958088383e-03 6.236135959625e-06 5.153526767805e+03
     1.395000000000e+05 1.192092895508e-07 2.624872550741e+00 7.450580596924e-09
     9.667074427424e-01 2.606484375000e+02 2.038220855097e+00-8.294574737239e-09
     2.851904507556e-10 4.419469802942e-09-2.000000000000e+00 3.000000000000e+00
     3.000000000000e+01 4.000000000000e+00 4.656612873077e-10 7.000000000000e+00
    -5.820766091347e-10-7.275957614183e-10 5.064066499472e-09 5.617039278150e-09
     1.889280000000e+05 2.428000000000e+03 0.000000000000e+00                   
G07 2026 07 21 04 28 48-2.079032128677e-04-3.755218358492e-12 0.000000000000e+00
    -5.875587463379e-03-2.107812500000e+01 4.738947396181e-09-1.958368274151e+00
    -1.118518412113e-06 2.093622175744e-02 8.556991815567e-06 5.153637853118e+03
     1.161000000000e+05 3.129243850708e-07-2.586070385172e+00 6.239861249924e-08
     9.513216685146e-01 2.053984375000e+02-1.955131948259e+00-8.543692256841e-09
     7.393165097859e-11 4.738947396181e-09-2.000000000000e+00 3.000000000000e+00
     3.100000000000e+01 4.000000000000e+00-1.071020960808e-08 7.000000000000e+00
    -9.313225746155e-10 6.984919309616e-09 0.000000000000e+00 0.000000000000e+00
     1.889280000000e+05 2.428000000000e+03 0.000000000000e+00                   
G27 2026 07 21 04 28 48 5.348119884729e-07-3.552713678801e-14 0.000000000000e+00
     3.029346466064e-03 4.581250000000e+01 5.056639200748e-09 9.162267355840e-01
     2.438202500343e-06 1.432959164958e-02 5.176290869713e-06 5.153546291716e+03
     1.341000000000e+05-9.406358003616e-08-5.084749144212e-01 1.536682248116e-07
     9.508926451126e-01 2.732187500000e+02 9.006771942604e-01-7.703300108277e-09
    -2.121516941125e-10 5.056639200748e-09-3.000000000000e+00 1.000000000000e+00
     3.000000000000e+01 4.000000000000e+00 2.328306436539e-09 7.000000000000e+00
    -9.022187441587e-10-1.688022166491e-09 6.664777174592e-09 5.326000973582e-09
     1.889280000000e+05 2.428000000000e+03 0.000000000000e+00                   
C27 2026 07 21 04 28 54 6.608702242374e-04 4.930278407755e-12 0.000000000000e+00
     1.000000000000e+00-6.140625000000e+00 4.238390831705e-09-1.837001772715e+00
    -4.330649971962e-07 6.344947032630e-04 4.049390554428e-06 5.282656711578e+03
     1.872000000000e+05-1.955777406693e-08 7.570823277464e-02 4.718964919448e-05
     9.479133787971e-01 2.709531250000e+02 1.692672247028e+00 2.028957371361e-06
    -3.285851154604e-10                    1.072000000000e+03                   
     0.000000000000e+00 0.000000000000e+00-2.002343535423e-08-2.002343535423e-08
     1.889340000000e+05 1.000000000000e+00                                      
C37 2026 07 21 04 28 54-9.072970133275e-04 6.910916283687e-12 0.000000000000e+00
     1.000000000000e+00 2.026562500000e+01 4.228033257413e-09 2.295978763223e+00
     1.037959009409e-06 7.145488634706e-04 9.840819984674e-06 5.282669256210e+03
     1.872000000000e+05 1.862645149231e-08-2.018614065550e+00 3.083236515522e-05
     9.451550262778e-01 1.539531250000e+02-3.743148959465e-01 1.002831057653e-07
    -6.500270762369e-11                    1.072000000000e+03                   
     0.000000000000e+00 0.000000000000e+00-7.823109626770e-08-7.823109626770e-08
     1.889340000000e+05 1.000000000000e+00                                      
C28 2026 07 21 04 28 54 5.406786222011e-04 3.956834859764e-12 0.000000000000e+00
     1.000000000000e+00-6.562500000000e-01 4.248391248262e-09 2.687206855923e+00
    -6.472691893578e-08 1.229300396517e-04 3.729481250048e-06 5.282632028580e+03
     1.872000000000e+05-5.587935447693e-09 7.538509172594e-02 4.095863550901e-05
     9.477871114118e-01 2.748125000000e+02-2.180534098581e+00 1.712418471960e-06
    -3.192990143713e-10                    1.072000000000e+03                   
     0.000000000000e+00 0.000000000000e+00-2.002343535423e-08-2.002343535423e-08
     1.889340000000e+05 1.000000000000e+00                                      
C12 2026 07 21 04 28 54 6.157784955576e-04-4.963141009284e-12 0.000000000000e+00
     1.000000000000e+00-1.239062500000e+01 3.542647565491e-09 2.118773301904e+00
    -5.620531737804e-07 1.763218315318e-04 7.363036274910e-06 5.282643545151e+03
     1.872000000000e+05 3.911554813385e-08 2.170681746156e+00-5.932617932558e-05
     9.735978636990e-01 2.170000000000e+02 7.068955990963e-01-1.400076533093e-06
     4.185888644778e-10                    1.072000000000e+03                   
     0.000000000000e+00 0.000000000000e+00 3.725290298462e-09 3.725290298462e-09
     1.889340000000e+05 1.000000000000e+00                                      
C20 2026 07 21 04 28 54-8.893072372302e-04 3.047340157991e-12 0.000000000000e+00
     1.000000000000e+00-1.387500000000e+01 3.215133923233e-09 2.844340348272e+00
    -6.393529474735e-07 8.085493464023e-04 7.359310984612e-06 5.282636501312e+03
     1.872000000000e+05 3.026798367500e-08 2.185655931308e+00-2.343673259020e-06
     9.899317068577e-01 2.263125000000e+02 2.745776207572e-01 1.235644683847e-06
     4.285892810353e-10                    1.072000000000e+03                   
     0.000000000000e+00 0.000000000000e+00 5.541369318962e-08 5.541369318962e-08
     1.889340000000e+05 1.000000000000e+00                                      
C13 2026 07 21 04 28 54-9.457778651267e-04-8.430589559794e-12 0.000000000000e+00
     1.000000000000e+00 4.843750000000e+00 4.178388332360e-09-3.852531900160e-01
     2.416782081127e-07 2.808745484799e-04 3.956258296967e-06 5.282642501831e+03
     1.872000000000e+05 4.190951585770e-08 7.420819314911e-02 4.406599327922e-05
     9.503753777606e-01 2.728125000000e+02 1.335456135086e+00 5.632048883157e-07
    -2.814402945465e-10                    1.072000000000e+03                   
     0.000000000000e+00 0.000000000000e+00 6.519258022308e-09 6.519258022308e-09
     1.889340000000e+05 1.000000000000e+00                                      
E21 2026 07 21 04 30 24-7.585562416352e-04-2.813749233610e-12 0.000000000000e+00
     5.500000000000e+01 1.006875000000e+02 3.320138297087e-09 2.714061811340e+00
     4.794448614120e-06 1.726628979668e-04 8.253380656242e-06 5.440613023758e+03
     1.854000000000e+05 5.029141902924e-08-1.329028293946e+00 4.842877388000e-08
     9.606201886810e-01 1.634687500000e+02-1.553261353284e+00-5.615233897031e-09
     3.821587755898e-11 5.160000000000e+02 1.404000000000e+03                   
     1.070000000000e+02 0.000000000000e+00 6.984919309616e-10 9.313225746155e-10
     1.890240000000e+05                                                         
G08 2026 07 21 04 30 24 3.940011374652e-04-9.233502851203e-12 0.000000000000e+00
     7.883071899414e-03 4.416406250000e+01 5.259861951506e-09 7.681529164237e-01
     2.468004822731e-06 1.168233255157e-02 5.070120096207e-06 5.153473407719e+03
     1.413000000000e+05-2.793967723846e-09-5.416898440134e-01 1.452863216400e-07
     9.417692845166e-01 2.700625000000e+02 5.449917495968e-01-7.697228426796e-09
    -2.157232714544e-10 5.259861951506e-09-2.000000000000e+00 3.000000000000e+00
     3.000000000000e+01 4.000000000000e+00 4.656612873077e-09 7.000000000000e+00
    -1.047737896442e-09-4.685716703534e-09 6.257323548198e-09 6.839400157332e-09
     1.890240000000e+05 2.428000000000e+03 0.000000000000e+00                   
G04 2026 07 21 04 30 24 6.274419138208e-05 6.998845947237e-13 0.000000000000e+00
    -2.377986907959e-03-2.073046875000e+01 4.331073263729e-09 5.194197053099e-01
    -1.036562025547e-06 3.823000355624e-03 5.988404154778e-06 5.153547799324e+03
     1.233000000000e+05 4.097819328308e-08 2.690046872918e+00 1.136213541031e-07
     9.724446958477e-01 2.717421875000e+02-2.902263436110e+00-8.317611411095e-09
     2.407243128482e-10 4.331073263729e-09-2.000000000000e+00 3.000000000000e+00
     3.100000000000e+01 4.000000000000e+00-4.656612873077e-09 7.000000000000e+00
    -2.037268131971e-10 3.317836672068e-09-1.426087692380e-09-1.396983861923e-09
     1.890240000000e+05 2.428000000000e+03 0.000000000000e+00                   
E19 2026 07 21 04 30 35 3.108420118224e-03 2.441424840072e-11 0.000000000000e+00
     5.900000000000e+01-4.403125000000e+01 3.094771766809e-09 3.048866073898e+00
    -1.968815922737e-06 2.429059240967e-04 5.505979061127e-06 5.440619012833e+03
     1.878000000000e+05-1.676380634308e-08 2.860539399622e+00-2.235174179077e-08
     9.747228433132e-01 2.296250000000e+02-2.403696938254e-01-5.641306411627e-09
     2.182233755938e-10 1.000000000000e+00 1.404000000000e+03                   
     1.070000000000e+02 0.000000000000e+00-4.423782229424e-09-4.423782229424e-09
     1.890350000000e+05                                                         
E14 2026 07 21 04 30 35 3.965047071688e-03 1.531219595563e-10 5.204170427930e-18
     5.900000000000e+01 7.875000000000e+00 5.651663985919e-09-2.197200958948e+00
    -5.457550287247e-07 1.682773553766e-01 6.295740604401e-06 5.289364934921e+03
     1.878000000000e+05-3.350898623466e-06-4.466092572396e-01-2.322718501091e-06
     8.527859428032e-01 2.118437500000e+02-3.116659150369e+00-7.160655412897e-09
    -5.357366012941e-11 1.000000000000e+00 1.404000000000e+03                   
     1.070000000000e+02 1.440000000000e+02-2.793967723846e-09-3.492459654808e-09
     1.890350000000e+05                                                         
E06 2026 07 21 04 30 35-3.006202750839e-04-5.073275133327e-12 0.000000000000e+00
     5.900000000000e+01-3.921875000000e+01 3.311566511466e-09 2.063342610273e-01
    -1.912936568260e-06 5.051671760157e-04 5.543231964111e-06 5.440611204147e+03
     1.878000000000e+05 2.048909664154e-08 2.852091490979e+00-3.352761268616e-08
     9.626594760026e-01 2.188125000000e+02 1.385748185060e+00-5.719523955416e-09
     2.021512775550e-10 1.000000000000e+00 1.404000000000e+03                   
     1.070000000000e+02 0.000000000000e+00 2.328306436539e-09 3.725290298462e-09
     1.890350000000e+05                                                         
E23 2026 07 21 04 30 35-4.269165219739e-05-1.307398633799e-12 0.000000000000e+00
     5.900000000000e+01 1.015000000000e+02 3.228705917133e-09-2.870481112934e+00
     4.718080163002e-06 1.738001592457e-04 8.579343557358e-06 5.440617355347e+03
     1.878000000000e+05 3.539025783539e-08-1.332234318415e+00-2.235174179077e-08
     9.625504374036e-01 1.573125000000e+02-2.746416561925e+00-5.569517707054e-09
     2.821546100149e-11 1.000000000000e+00 1.404000000000e+03                   
     1.070000000000e+02 0.000000000000e+00 4.656612873077e-10 1.862645149231e-09
     1.890350000000e+05                                                         
E04 2026 07 21 04 30 35-1.223351573572e-04 3.349498456373e-11 0.000000000000e+00
     5.900000000000e+01-4.234375000000e+01 3.191204355042e-09 2.052627675999e+00
    -1.937150955200e-06 2.932238858193e-04 5.593523383141e-06 5.440609460831e+03
     1.878000000000e+05 2.607703208923e-08 2.852440853371e+00-7.450580596924e-09
     9.693534453476e-01 2.207812500000e+02-6.750068596023e-02-5.667021768489e-09
     2.071514858337e-10 1.000000000000e+00 1.404000000000e+03                   
     1.070000000000e+02 0.000000000000e+00-4.190951585770e-09-4.656612873077e-09
     1.890350000000e+05                                                         
E28 2026 07 21 04 30 35-6.030808435753e-05-2.842170943040e-12 0.000000000000e+00
     5.900000000000e+01-4.393750000000e+01 3.534075779870e-09 3.915325917840e-01
    -1.965090632439e-06 2.852822653949e-04 5.422160029411e-06 5.440609550476e+03
     1.878000000000e+05-5.587935447693e-09 2.870135517556e+00 7.450580596924e-09
     9.490526906197e-01 2.159687500000e+02 1.959435247600e+00-5.869530203778e-09
     2.046513816944e-10 1.000000000000e+00 1.404000000000e+03                   
     1.070000000000e+02 0.000000000000e+00 9.313225746155e-10 1.862645149231e-09
     1.890350000000e+05                                                         
END OF FILE                                                 COMMENT
