     3.05           N: NAVIGATION       M: MIXED            RINEX VERSION / TYPE
PYRINEXCONV 0.1.2 ALDELTUNES            20260721 113156 UTC PGM / RUN BY / DATE
GAL    1.0175e+02  3.3203e-01  2.2858e-02             L 11  IONOSPHERIC CORR
GPSA   9.3132e-09  2.2352e-08  1.5199e-05  1.5140e-05 L 21  IONOSPHERIC CORR
GPSB   1.0035e+05  1.3107e+05  1.6712e+07  1.6318e+07 L 21  IONOSPHERIC CORR
BDSA   2.1420e-08  5.9605e-08 -7.7486e-07  1.2517e-06 L 11  IONOSPHERIC CORR
BDSB   1.4131e+05 -7.0451e+05  5.6361e+06 -4.6531e+06 L 11  IONOSPHERIC CORR
GAUT  6.5192580223e-09-2.664535259e-15 211800 1404   E11  0 TIME SYSTEM CORR
GPUT -3.1141098589e-09-1.736388811e-13 428400 2428   G21  0 TIME SYSTEM CORR
BDUT  0.0000000000e+00 0.000000000e+00 212400 1072   C11  0 TIME SYSTEM CORR
                                                            END OF HEADER
E33 2026 07 21 11 24 24-2.520804991946e-05-2.003730514843e-12 0.000000000000e+00
     9.700000000000e+01-5.331250000000e+01 2.756900550260e-09-1.872639609905e+00
    -2.408400177956e-06 1.665498130023e-04 5.079433321953e-06 5.440602670670e+03
     2.106000000000e+05 3.539025783539e-08 7.699172731619e-01 1.862645149231e-08
     9.976635273419e-01 2.492812500000e+02-3.009906117986e+00-5.500943422088e-09
    -1.392915163365e-10 5.160000000000e+02 1.404000000000e+03                   
     1.070000000000e+02 0.000000000000e+00-4.423782229424e-09-4.889443516731e-09
     2.138640000000e+05                                                         
G17 2026 07 21 11 28 48-1.762953179423e-04-6.028955112924e-12 0.000000000000e+00
    -4.621982574463e-03 5.543359375000e+01 4.725018244547e-09-2.355282543635e+00
     2.962537109852e-06 1.261504628928e-02 5.379319190979e-06 5.153546196969e+03
     1.728000000000e+05-1.862645149231e-09-4.350860929107e-01 2.123415470123e-07
     9.574392693486e-01 2.749804687500e+02-1.098483249997e+00-8.300824997587e-09
     1.114332130692e-10 4.725018244547e-09-2.000000000000e+00 3.000000000000e+00
     2.900000000000e+01 4.000000000000e+00-1.071020960808e-08 7.000000000000e+00
    -8.440110832453e-10 6.722984835505e-09 0.000000000000e+00 0.000000000000e+00
     2.141280000000e+05 2.428000000000e+03 0.000000000000e+00                   
C29 2026 07 21 11 28 54 6.338730454445e-04 5.153211191100e-12 0.000000000000e+00
     1.000000000000e+00 1.675000000000e+01 4.365538985079e-09-4.245128246974e-01
     8.842907845974e-07 2.189400838688e-04 3.635883331299e-06 5.282657833099e+03
     2.124000000000e+05 6.426125764847e-08 3.417893335834e-02 2.294359728694e-05
     9.455616853196e-01 2.790156250000e+02 2.111899364377e+00-2.576765904071e-06
    -5.535944880039e-11                    1.072000000000e+03                   
     0.000000000000e+00 0.000000000000e+00 9.313225746155e-10 9.313225746155e-10
     2.141340000000e+05 1.000000000000e+00                                      
C35 2026 07 21 11 28 54-4.782762844115e-04-1.604139043820e-11 0.000000000000e+00
     1.000000000000e+00 1.640625000000e+01 4.353395622116e-09-2.054039094973e-02
     7.916241884232e-07 8.117869729176e-04 3.815162926912e-06 5.282620409012e+03
     2.124000000000e+05 2.421438694000e-08 3.477810364190e-02 2.688728272915e-05
     9.437471197699e-01 2.762343750000e+02 8.869464068208e-01-1.991598672365e-06
    -1.192906832215e-10                    1.072000000000e+03                   
     0.000000000000e+00 0.000000000000e+00-1.257285475731e-08-1.257285475731e-08
     2.141340000000e+05 1.000000000000e+00                                      
C26 2026 07 21 11 28 54-6.724876584485e-04-5.552003301545e-12 0.000000000000e+00
     1.000000000000e+00 1.518750000000e+01 4.022667560250e-09 1.425399953469e+00
     6.621703505516e-07 9.378691902384e-04 9.299721568823e-06 5.282658828735e+03
     2.124000000000e+05 2.048909664154e-08-2.040567908930e+00 4.292931407690e-05
     9.453572571472e-01 1.624062500000e+02 7.291255785041e-01 2.631679977177e-06
    -1.053615315878e-10                    1.072000000000e+03                   
     0.000000000000e+00 0.000000000000e+00-2.328306436539e-08-2.328306436539e-08
     2.141340000000e+05 1.000000000000e+00                                      
C11 2026 07 21 11 28 54-7.892992580310e-04-2.154987299718e-11 0.000000000000e+00
     1.000000000000e+00 1.748437500000e+01 4.303393539329e-09 2.672535099826e+00
     9.336508810520e-07 1.711775548756e-04 3.513880074024e-06 5.282639570236e+03
     2.124000000000e+05-7.450580596924e-09 7.432467653825e-02 4.751002416015e-05
     9.504503654785e-01 2.843125000000e+02-6.661877837724e-01 6.772210661186e-07
    -3.214419607765e-11                    1.072000000000e+03                   
     0.000000000000e+00 0.000000000000e+00 1.350417733192e-08 1.350417733192e-08
     2.141340000000e+05 1.000000000000e+00                                      
G06 2026 07 21 11 30 24-5.692653940059e-04 7.975842208907e-12 0.000000000000e+00
    -7.128715515137e-03-1.784765625000e+01 4.109635468527e-09 1.982657061328e+00
    -8.838251233101e-07 3.696886647958e-03 5.481764674187e-06 5.153499173991e+03
     1.845000000000e+05 1.052394509315e-07 5.836211130877e-01-1.303851604462e-08
     9.858719241286e-01 2.858281250000e+02-5.461467665764e-01-8.395114639415e-09
    -2.101873265744e-10 4.109635468527e-09-2.000000000000e+00 3.000000000000e+00
     2.900000000000e+01 4.000000000000e+00 3.725290298462e-09 7.000000000000e+00
     3.201421350241e-10-3.929017111659e-09 1.775333657861e-09 2.211891114712e-09
     2.142240000000e+05 2.428000000000e+03 0.000000000000e+00                   
E10 2026 07 21 11 30 54-8.074481156655e-04-2.657429831743e-12 0.000000000000e+00
     1.010000000000e+02-4.896875000000e+01 2.665111012571e-09-1.815614043521e+00
    -2.279877662659e-06 2.864605048671e-04 5.630776286125e-06 5.440602790833e+03
     2.130000000000e+05 2.421438694000e-08 7.679749085518e-01-1.024454832077e-07
     9.974625253236e-01 2.357187500000e+02 2.332595428660e+00-5.493800267404e-09
    -1.635782422618e-10 5.160000000000e+02 1.404000000000e+03                   
     1.070000000000e+02 0.000000000000e+00-1.164153218269e-09-2.328306436539e-10
     2.142540000000e+05                                                         
E12 2026 07 21 11 30 54-5.901977419853e-05-2.614797267597e-12 0.000000000000e+00
     1.010000000000e+02-5.450000000000e+01 2.771901175096e-09 2.581576424449e-02
    -2.466142177582e-06 3.175763413310e-04 5.150213837624e-06 5.440603870392e+03
     2.130000000000e+05 7.450580596924e-08 7.694432482055e-01-3.725290298462e-08
     9.945574465097e-01 2.451875000000e+02 8.591963401077e-01-5.534159091368e-09
    -1.457203555520e-10 5.160000000000e+02 1.404000000000e+03                   
     1.070000000000e+02 0.000000000000e+00-1.187436282635e-08-1.164153218269e-08
     2.142540000000e+05                                                         
E33 2026 07 21 11 30 54-2.521264832467e-05-1.989519660128e-12 0.000000000000e+00
     1.010000000000e+02-5.812500000000e+01 2.741899925423e-09-1.571865254703e+00
    -2.648681402206e-06 1.668599434197e-04 5.146488547325e-06 5.440603906631e+03
     2.130000000000e+05 1.862645149231e-08 7.699039825512e-01 1.303851604462e-08
     9.976631879449e-01 2.479687500000e+02-3.013137693782e+00-5.493443109670e-09
    -1.307197307158e-10 5.160000000000e+02 1.404000000000e+03                   
     1.070000000000e+02 0.000000000000e+00-4.423782229424e-09-4.889443516731e-09
     2.142540000000e+05                                                         
G11 2026 07 21 11 31 24-2.677883021533e-04 1.227817847393e-11 0.000000000000e+00
     6.800000000000e+01-2.675000000000e+01 4.559118477013e-09-2.804708465308e+00
    -1.342967152596e-06 2.486749202944e-03 5.591660737991e-06 5.153651065826e+03
     2.160000000000e+05 3.166496753693e-08 5.992905602973e-01-1.396983861923e-07
     9.627627141315e-01 2.712500000000e+02-2.355535992729e+00-8.172126116141e-09
    -1.628639267934e-10 1.000000000000e+00 3.800000000000e+02 0.000000000000e+00
     2.000000000000e+00 0.000000000000e+00-8.847564458847e-09 8.360000000000e+02
     8.571360000000e+05 4.000000000000e+00                                      
G19 2026 07 21 11 31 24 7.038223557174e-04 4.547473508865e-13 0.000000000000e+00
     5.300000000000e+01 4.746875000000e+01 4.857345185067e-09-4.598883036224e-01
     2.514570951462e-06 1.176441437565e-02 4.749745130539e-06 5.153758861542e+03
     2.160000000000e+05 1.527369022369e-07-3.913393739529e-01-8.195638656616e-08
     9.566062033338e-01 2.841562500000e+02 3.029507515948e+00-8.400707066026e-09
     1.114332130692e-10 1.000000000000e+00 3.800000000000e+02 0.000000000000e+00
     2.000000000000e+00 0.000000000000e+00-1.536682248116e-08 5.300000000000e+01
     8.571360000000e+05 4.000000000000e+00                                      
G06 2026 07 21 11 31 24-5.692509002984e-04 7.958078640513e-12 0.000000000000e+00
     1.800000000000e+01-2.809375000000e+01 4.137315192927e-09 2.245621032615e+00
    -1.301988959312e-06 3.694797749631e-03 5.392357707024e-06 5.153722442627e+03
     2.160000000000e+05 1.192092895508e-07 5.836067018817e-01 2.235174179077e-08
     9.858715825372e-01 2.878437500000e+02-5.465688886624e-01-7.944973797192e-09
    -1.864363372504e-10 1.000000000000e+00 3.800000000000e+02 0.000000000000e+00
     2.000000000000e+00 0.000000000000e+00 3.725290298462e-09 1.800000000000e+01
     8.571360000000e+05 4.000000000000e+00                                      
G13 2026 07 21 11 31 24 4.184492863715e-04 5.229594535194e-12 0.000000000000e+00
     4.200000000000e+01 4.490625000000e+01 4.425184326689e-09 5.289023622435e-01
     2.237036824226e-06 2.269272110425e-03 8.974224328995e-06 5.153590568542e+03
     2.160000000000e+05 0.000000000000e+00-1.575949081222e+00-2.048909664154e-08
     9.588254793184e-01 2.026875000000e+02 1.820162606930e+00-7.985689778890e-09
     1.535778257043e-11 1.000000000000e+00 3.800000000000e+02 0.000000000000e+00
     2.000000000000e+00 6.300000000000e+01-8.381903171539e-09 4.200000000000e+01
     8.571360000000e+05 4.000000000000e+00                                      
G12 2026 07 21 11 31 24-6.054616533220e-04 5.684341886081e-13 0.000000000000e+00
     1.000000000000e+01 4.975000000000e+01 4.497330188997e-09 6.626313143511e-01
     2.460554242134e-06 8.705397252925e-03 8.864328265190e-06 5.153704523087e+03
     2.159840000000e+05-9.313225746155e-08-1.467432603498e+00-5.587935447693e-08
     9.583090209601e-01 2.066250000000e+02 1.587346449225e+00-8.132481607645e-09
     3.571577341961e-12 1.000000000000e+00 3.800000000000e+02 0.000000000000e+00
     2.000000000000e+00 0.000000000000e+00-1.257285475731e-08 1.000000000000e+01
     8.571360000000e+05 4.000000000000e+00                                      
G21 2026 07 21 11 31 24 3.957003355026e-04-5.343281372916e-12 0.000000000000e+00
     2.290000000000e+02-2.828125000000e+01 4.340180785951e-09 2.357513989635e-01
    -1.603737473488e-06 7.935260655358e-04 7.549300789833e-06 5.153595853806e+03
     2.160000000000e+05 1.862645149231e-09 1.623561403209e+00-9.313225746155e-09
     9.641823035031e-01 2.349687500000e+02-8.568574369230e-02-7.997475984119e-09
     1.642925577302e-11 1.000000000000e+00 3.800000000000e+02 0.000000000000e+00
     2.000000000000e+00 0.000000000000e+00-9.778887033463e-09 4.850000000000e+02
     8.571360000000e+05 4.000000000000e+00                                      
G17 2026 07 21 11 31 24-1.763063482940e-04-6.025402399246e-12 0.000000000000e+00
     6.800000000000e+01 6.150000000000e+01 4.742340394656e-09-2.092653234607e+00
     3.531575202942e-06 1.261637313291e-02 5.248934030533e-06 5.153676143646e+03
     2.160000000000e+05-6.332993507385e-08-4.351005245976e-01 2.942979335785e-07
     9.574391420748e-01 2.772187500000e+02-1.098564580196e+00-8.106766250783e-09
     9.357532635937e-11 1.000000000000e+00 3.800000000000e+02 0.000000000000e+00
     2.000000000000e+00 0.000000000000e+00-1.071020960808e-08 6.800000000000e+01
     8.571360000000e+05 4.000000000000e+00                                      
E33 2026 07 21 11 31 54-2.521387068555e-05-2.003730514843e-12 0.000000000000e+00
     1.020000000000e+02-5.996875000000e+01 2.737614032613e-09-1.496451678499e+00
    -2.732500433922e-06 1.670053461567e-04 5.139037966728e-06 5.440604347229e+03
     2.136000000000e+05 2.235174179077e-08 7.699007143922e-01 1.676380634308e-08
     9.976631104102e-01 2.481250000000e+02-3.014165579524e+00-5.495943213809e-09
    -1.325055193867e-10 5.160000000000e+02 1.404000000000e+03                   
     1.070000000000e+02 0.000000000000e+00-4.423782229424e-09-4.889443516731e-09
     2.143140000000e+05                                                         
G11 2026 07 21 11 32 00-2.678104792722e-04 1.223909862347e-11 0.000000000000e+00
    -9.360313415527e-04-2.354687500000e+01 4.523759861328e-09-3.067374537467e+00
    -1.215375959873e-06 2.486338082235e-03 5.622394382954e-06 5.153570937345e+03
     1.872000000000e+05-3.073364496231e-08 5.993054630438e-01-1.108273863792e-07
     9.627631054621e-01 2.717890625000e+02-2.355419437657e+00-8.195820623734e-09
    -1.960795960737e-10 4.523759861328e-09-2.000000000000e+00 3.000000000000e+00
     2.800000000000e+01 4.000000000000e+00-8.847564458847e-09 7.000000000000e+00
    -2.037268131971e-10 5.675246939063e-09 3.783497959375e-10 2.328306436539e-10
     2.143200000000e+05 2.428000000000e+03 0.000000000000e+00                   
G13 2026 07 21 11 32 00 4.184397403151e-04 5.229594535194e-12 8.673617379884e-19
     4.562377929688e-03 4.561328125000e+01 4.458221417103e-09 2.657256497513e-01
     2.283602952957e-06 2.268318727147e-03 8.784234523773e-06 5.153633150734e+03
     1.647000000000e+05-3.725290298462e-09-1.575934714635e+00-1.955777406693e-08
     9.588254551803e-01 2.099062500000e+02 1.820784640429e+00-8.351541395843e-09
     1.660783464012e-11 4.458221417103e-09-2.000000000000e+00 2.000000000000e+00
     3.000000000000e+01 7.000000000000e+00-8.381903171539e-09 7.000000000000e+00
    -1.164153218269e-10 5.267793312669e-09 1.658918336034e-09 1.949956640601e-09
     2.143200000000e+05 2.428000000000e+03 0.000000000000e+00                   
G12 2026 07 21 11 32 00-6.054627010599e-04 5.542233338929e-13 0.000000000000e+00
     5.886554718018e-03 4.863281250000e+01 4.535903224290e-09 3.584829002517e-01
     2.461485564709e-06 8.703983854502e-03 8.565373718739e-06 5.153519584271e+03
     2.025000000000e+05-8.940696716309e-08-1.467415643889e+00-5.122274160385e-08
     9.583090143770e-01 2.155156250000e+02 1.587535177361e+00-8.202070884082e-09
     2.857261873569e-12 4.535903224290e-09-2.000000000000e+00 2.000000000000e+00
     2.700000000000e+01 4.000000000000e+00-1.257285475731e-08 7.000000000000e+00
    -6.984919309616e-10 7.072230800986e-09 0.000000000000e+00 0.000000000000e+00
     2.143200000000e+05 2.428000000000e+03 0.000000000000e+00                   
G21 2026 07 21 11 32 00 3.957099397667e-04-5.300648808770e-12 0.000000000000e+00
     5.232810974121e-03-2.124218750000e+01 4.319287058500e-09-2.916990990098e-02
    -1.072883605957e-06 7.935005123727e-04 7.556751370430e-06 5.153627001018e+03
     1.332000000000e+05 8.381903171539e-09 1.623575795397e+00-1.024454832077e-08
     9.641822917997e-01 2.359882812500e+02-8.331798883724e-02-8.343148189090e-09
     1.678641350722e-11 4.319287058500e-09-2.000000000000e+00 3.000000000000e+00
     3.100000000000e+01 4.000000000000e+00-9.778887033463e-09 7.000000000000e+00
    -8.731149137020e-11 6.199115887284e-09 1.746229827404e-10 1.455191522837e-10
     2.143200000000e+05 2.428000000000e+03 0.000000000000e+00                   
E16 2026 07 21 11 32 05-4.648976027966e-05-2.472688720445e-12 0.000000000000e+00
     9.600000000000e+01 8.443750000000e+01 3.004053702323e-09-1.982710376646e+00
     3.952533006668e-06 4.925740649924e-04 8.465722203255e-06 5.440620019913e+03
     2.100000000000e+05 9.313225746155e-09-1.332482449802e+00 3.725290298462e-09
     9.625730936159e-01 1.559062500000e+02-2.475996013070e+00-5.514515415988e-09
     7.857470152314e-11 1.000000000000e+00 1.404000000000e+03                   
     1.070000000000e+02 0.000000000000e+00-3.725290298462e-09-2.328306436539e-09
     2.143250000000e+05                                                         
E25 2026 07 21 11 32 05 2.174236578867e-05-7.105427357601e-14 0.000000000000e+00
     9.900000000000e+01 9.740625000000e+01 3.073342302757e-09 2.624236618057e+00
     4.328787326813e-06 2.982205478474e-04 8.316710591316e-06 5.440612489700e+03
     2.118000000000e+05 1.862645149231e-09-1.329174281467e+00-1.117587089539e-08
     9.606289369311e-01 1.592812500000e+02-1.309165599796e+00-5.515229731456e-09
     5.321650239522e-11 1.000000000000e+00 1.404000000000e+03                   
     1.070000000000e+02 0.000000000000e+00 2.328306436539e-09 2.561137080193e-09
     2.143250000000e+05                                                         
E11 2026 07 21 11 32 05 5.518126708921e-03 6.747313818778e-11-3.469446951954e-18
     9.900000000000e+01-3.928125000000e+01 2.638681340241e-09-1.408247597405e+00
    -1.888722181320e-06 4.173512570560e-04 5.777925252914e-06 5.440611831665e+03
     2.118000000000e+05-7.823109626770e-08 7.694409879970e-01-4.470348358154e-08
     9.945458133851e-01 2.324062500000e+02 1.347685586023e+00-5.458798809453e-09
    -1.860791795162e-10 1.000000000000e+00 1.404000000000e+03                   
     1.070000000000e+02 0.000000000000e+00-1.466833055019e-08-1.583248376846e-08
     2.143250000000e+05                                                         
E31 2026 07 21 11 32 05-1.581464312039e-04-2.984279490192e-12 0.000000000000e+00
     1.010000000000e+02 7.603125000000e+01 3.063341886200e-09-1.859423090104e+00
     3.661960363388e-06 3.415956161916e-04 9.361654520035e-06 5.440612691879e+03
     2.130000000000e+05 2.793967723846e-08-1.329261976091e+00 2.793967723846e-08
     9.605988725017e-01 1.409687500000e+02-1.399396088681e+00-5.481299746707e-09
     9.643258823294e-11 1.000000000000e+00 1.404000000000e+03                   
     1.070000000000e+02 0.000000000000e+00 3.492459654808e-09 4.190951585770e-09
     2.143250000000e+05                                                         
E10 2026 07 21 11 32 05-8.074495708570e-04-2.643218977028e-12 0.000000000000e+00
     1.020000000000e+02-5.062500000000e+01 2.676540060065e-09-1.742219497612e+00
    -2.352520823479e-06 2.863210393116e-04 5.545094609261e-06 5.440602169037e+03
     2.136000000000e+05 3.911554813385e-08 7.679715760244e-01-9.499490261078e-08
     9.974623687914e-01 2.376875000000e+02 2.333586160670e+00-5.497729002480e-09
    -1.542921411727e-10 1.000000000000e+00 1.404000000000e+03                   
     1.070000000000e+02 0.000000000000e+00-1.164153218269e-09-2.328306436539e-10
     2.143250000000e+05                                                         
E12 2026 07 21 11 32 05-5.902128759772e-05-2.614797267597e-12 0.000000000000e+00
     1.020000000000e+02-5.437500000000e+01 2.780472960717e-09 1.007443465321e-01
    -2.460554242134e-06 3.173889126629e-04 5.066394805908e-06 5.440603368759e+03
     2.136000000000e+05 7.264316082001e-08 7.694398747164e-01-2.048909664154e-08
     9.945573133842e-01 2.472812500000e+02 8.586531044969e-01-5.533801933634e-09
    -1.360770967287e-10 1.000000000000e+00 1.404000000000e+03                   
     1.070000000000e+02 0.000000000000e+00-1.187436282635e-08-1.164153218269e-08
     2.143250000000e+05                                                         
END OF FILE                                                 COMMENT
