     3.05           N: NAVIGATION       M: MIXED            RINEX VERSION / TYPE
PYRINEXCONV 0.1.2 ALDELTUNES            20260721 015000 UTC PGM / RUN BY / DATE
GAL    1.0175e+02  3.3203e-01  2.2858e-02             B 28  IONOSPHERIC CORR
BDSA   1.9558e-08  2.9802e-08 -5.9605e-07  1.0133e-06 B 12  IONOSPHERIC CORR
BDSB   1.4131e+05 -7.8643e+05  6.0293e+06 -4.9807e+06 B 12  IONOSPHERIC CORR
GPSA   9.3132e-09  2.2352e-08  1.5199e-05  1.5140e-05 B 31  IONOSPHERIC CORR
GPSB   1.0035e+05  1.3107e+05  1.6712e+07  1.6318e+07 B 31  IONOSPHERIC CORR
GAUT  6.5192580223e-09-2.664535259e-15 178200 1404   E28  0 TIME SYSTEM CORR
BDUT  0.0000000000e+00 0.000000000e+00 176400 1072   C12  0 TIME SYSTEM CORR
GPUT -3.0850060284e-09 6.790124019e-13 356700 2428   G31  0 TIME SYSTEM CORR
                                                            END OF HEADER
E21 2026 07 21 01 40 35-7.585341809317e-04-2.799538378895e-12 0.000000000000e+00
     4.200000000000e+01 1.164375000000e+02 3.195490247852e-09 1.740378555650e+00
     5.394220352173e-06 1.701455330476e-04 8.776783943176e-06 5.440618543625e+03
     1.776000000000e+05 5.587935447693e-09-1.328984135764e+00-3.352761268616e-08
     9.606206758327e-01 1.485000000000e+02-1.546585854743e+00-5.599518956726e-09
    -3.643008888800e-11 1.000000000000e+00 1.404000000000e+03                   
     1.070000000000e+02 0.000000000000e+00 6.984919309616e-10 9.313225746155e-10
     1.788350000000e+05                                                         
E07 2026 07 21 01 40 54-7.847853703424e-05-2.515321284591e-12 0.000000000000e+00
     4.200000000000e+01-4.515625000000e+01 3.286565470072e-09 2.900623270145e+00
    -2.089887857437e-06 4.210077458993e-04 5.388632416725e-06 5.440619085312e+03
     1.776000000000e+05 5.587935447693e-09 2.852447012256e+00-2.980232238770e-08
     9.693527636278e-01 2.327812500000e+02 1.824803459989e-01-5.683451024262e-09
     2.042942239602e-10 5.160000000000e+02 1.404000000000e+03                   
     1.070000000000e+02 0.000000000000e+00 4.423782229424e-09 4.889443516731e-09
     1.788540000000e+05                                                         
E19 2026 07 21 01 40 54 3.108172270004e-03 2.441424840072e-11 0.000000000000e+00
     4.200000000000e+01-4.243750000000e+01 3.190490039574e-09 1.783681548147e+00
    -2.039596438408e-06 2.441761316732e-04 5.666166543961e-06 5.440616302490e+03
     1.776000000000e+05 9.313225746155e-09 2.860596731382e+00 3.725290298462e-09
     9.747207703582e-01 2.214687500000e+02-2.397353506025e-01-5.625948629057e-09
     2.128660095809e-10 5.160000000000e+02 1.404000000000e+03                   
     1.070000000000e+02 0.000000000000e+00-4.423782229424e-09-4.423782229424e-09
     1.788540000000e+05                                                         
C37 2026 07 21 01 40 54-9.073717519641e-04 6.894929072132e-12 0.000000000000e+00
     1.000000000000e+00 1.954687500000e+01 4.141601085738e-09 8.311552507124e-01
     9.462237358093e-07 7.138121873140e-04 1.042569056153e-05 5.282672407150e+03
     1.764000000000e+05-5.122274160385e-09-2.018538811581e+00 3.761239349842e-05
     9.451572162661e-01 1.400781250000e+02-3.721579578270e-01 1.764005620772e-07
    -2.492960984689e-10                    1.072000000000e+03                   
     0.000000000000e+00 0.000000000000e+00-7.823109626770e-08-7.823109626770e-08
     1.788540000000e+05 1.000000000000e+00                                      
C32 2026 07 21 01 40 54-9.033344686031e-04 1.854516540334e-12 0.000000000000e+00
     1.000000000000e+00-1.312500000000e+01 3.323709874429e-09 2.559447414184e+00
    -6.132759153843e-07 5.078297108412e-04 7.395632565022e-06 5.282630712509e+03
     1.764000000000e+05 3.306195139885e-08 2.177645836010e+00-4.491303116083e-06
     9.887608252629e-01 2.226406250000e+02-4.945625415436e-02-5.925457533376e-07
     4.518045337580e-10                    1.072000000000e+03                   
     0.000000000000e+00 0.000000000000e+00-3.818422555923e-08-3.818422555923e-08
     1.788540000000e+05 1.000000000000e+00                                      
C23 2026 07 21 01 40 54-4.541795933619e-04-3.108624468950e-14 0.000000000000e+00
     1.000000000000e+00 1.907812500000e+01 4.261606084428e-09 2.122035657497e+00
     1.065898686647e-06 3.790127811953e-04 1.015933230519e-05 5.282651744843e+03
     1.764000000000e+05 1.220032572746e-07-2.018312272865e+00 7.591675966978e-06
     9.436848199406e-01 1.447968750000e+02-8.777745760915e-01 3.959754225372e-07
    -1.946509651369e-10                    1.072000000000e+03                   
     0.000000000000e+00 0.000000000000e+00 1.024454832077e-07 1.024454832077e-07
     1.788540000000e+05 1.000000000000e+00                                      
C20 2026 07 21 01 40 54-8.893401827663e-04 3.032241124856e-12 0.000000000000e+00
     1.000000000000e+00-1.635937500000e+01 3.292994309288e-09 1.381506767154e+00
    -9.723007678986e-07 8.087712340057e-04 7.377937436104e-06 5.282636220932e+03
     1.764000000000e+05 4.423782229424e-08 2.185726955981e+00 2.164393663406e-06
     9.899271118320e-01 2.240156250000e+02 2.747253579282e-01 1.305682244049e-06
     4.300179119721e-10                    1.072000000000e+03                   
     0.000000000000e+00 0.000000000000e+00 5.541369318962e-08 5.541369318962e-08
     1.788540000000e+05 1.000000000000e+00                                      
C12 2026 07 21 01 40 54 6.158314645290e-04-5.119460411152e-12 0.000000000000e+00
     1.000000000000e+00-1.454687500000e+01 3.619436478343e-09 6.559349926339e-01
    -9.150244295597e-07 1.759527949616e-04 7.207971066236e-06 5.282643482208e+03
     1.764000000000e+05 5.215406417847e-08 2.170754432704e+00-5.007488653064e-05
     9.735933813180e-01 2.216250000000e+02 7.070514042605e-01-1.330130762428e-06
     4.214461263514e-10                    1.072000000000e+03                   
     0.000000000000e+00 0.000000000000e+00 3.725290298462e-09 3.725290298462e-09
     1.788540000000e+05 1.000000000000e+00                                      
E07 2026 07 21 01 43 04-7.847999222577e-05-2.515321284591e-12 0.000000000000e+00
     4.300000000000e+01-4.534375000000e+01 3.286208312338e-09 2.974990260126e+00
    -2.106651663780e-06 4.210327751935e-04 5.396082997322e-06 5.440619033813e+03
     1.782000000000e+05 9.313225746155e-09 2.852443602194e+00-3.352761268616e-08
     9.693528660320e-01 2.326875000000e+02 1.824985768840e-01-5.685593970667e-09
     2.064371703653e-10 5.160000000000e+02 1.404000000000e+03                   
     1.070000000000e+02 0.000000000000e+00 4.423782229424e-09 4.889443516731e-09
     1.789840000000e+05                                                         
E23 2026 07 21 01 43 24-4.267256008461e-05-1.364242052659e-12 0.000000000000e+00
     3.500000000000e+01 1.190312500000e+02 3.168346260053e-09 1.642696728638e+00
     5.446374416351e-06 1.740632578731e-04 1.006387174129e-05 5.440617679596e+03
     1.734000000000e+05-3.725290298462e-09-1.332154426996e+00 5.587935447693e-09
     9.625507490051e-01 1.256562500000e+02-2.761650789543e+00-5.532016144963e-09
    -5.714523747137e-12 5.160000000000e+02 1.404000000000e+03                   
     1.070000000000e+02 0.000000000000e+00 4.656612873077e-10 1.862645149231e-09
     1.790040000000e+05                                                         
G16 2026 07 21 01 43 54 3.019548021257e-04 6.480149750132e-12 0.000000000000e+00
     8.700000000000e+01 6.278125000000e+01 4.749840707074e-09 4.905484698842e-03
     3.473833203316e-06 1.503468246665e-02 8.979812264442e-06 5.153715620041e+03
     1.800000000000e+05-4.656612873077e-08-1.450390116970e+00 1.844018697739e-07
     9.573753442173e-01 2.042187500000e+02 9.375411286941e-01-8.338561620276e-09
    -8.571785620706e-11 1.000000000000e+00 3.800000000000e+02 0.000000000000e+00
     2.000000000000e+00 0.000000000000e+00-1.024454832077e-08 8.700000000000e+01
     7.161360000000e+05 4.000000000000e+00                                      
G04 2026 07 21 01 43 54 6.273528560996e-05 6.821210263297e-13 0.000000000000e+00
     4.000000000000e+00-2.156250000000e+01 4.435899058715e-09-1.318618189375e+00
    -1.283362507820e-06 3.821728983894e-03 6.174668669701e-06 5.153673210144e+03
     1.800000000000e+05 4.470348358154e-08 2.690147796711e+00-5.960464477539e-08
     9.724411767983e-01 2.633125000000e+02-2.902038596573e+00-8.003904823334e-09
     3.196561721055e-10 1.000000000000e+00 3.800000000000e+02 0.000000000000e+00
     2.000000000000e+00 0.000000000000e+00-4.656612873077e-09 5.160000000000e+02
     7.161360000000e+05 4.000000000000e+00                                      
G26 2026 07 21 01 43 54-3.841067664325e-04-2.501110429876e-12 0.000000000000e+00
     8.200000000000e+01 4.721875000000e+01 5.441655238212e-09 7.605690042719e-01
     2.747401595116e-06 1.116497931071e-02 9.160488843918e-06 5.153580068588e+03
     1.800000000000e+05-3.352761268616e-08-1.639771574199e+00 1.136213541031e-07
     9.274887924425e-01 1.850000000000e+02 7.147935705013e-01-8.549641841186e-09
    -1.971510692762e-10 1.000000000000e+00 3.800000000000e+02 0.000000000000e+00
     2.000000000000e+00 0.000000000000e+00 6.519258022308e-09 8.200000000000e+01
     7.161360000000e+05 4.000000000000e+00                                      
G03 2026 07 21 01 43 54 3.641797229648e-04-1.898570189951e-11 0.000000000000e+00
     3.900000000000e+01-2.587500000000e+01 3.495145586843e-09 1.972188565113e+00
    -1.396983861923e-06 6.975172669627e-03 9.100884199142e-06 5.153767438889e+03
     1.799840000000e+05 2.980232238770e-08 1.621788574712e+00-1.285225152969e-07
     9.947606312017e-01 2.198125000000e+02 1.276449267064e+00-7.577458488704e-09
     3.042983895351e-10 1.000000000000e+00 3.800000000000e+02 0.000000000000e+00
     2.000000000000e+00 0.000000000000e+00 1.396983861923e-09 3.900000000000e+01
     7.161360000000e+05 4.000000000000e+00                                      
G31 2026 07 21 01 43 54-1.340978778899e-04 2.728484105319e-12 0.000000000000e+00
     4.600000000000e+01-3.046875000000e+01 4.896989693563e-09 1.387305427708e+00
    -1.519918441772e-06 1.091507845558e-02 9.141862392426e-06 5.153633649826e+03
     1.800000000000e+05-2.589076757431e-07-2.561142719726e+00 8.940696716309e-08
     9.550181209095e-01 2.048125000000e+02 9.765602962162e-01-8.211770624636e-09
    -1.703642392115e-10 1.000000000000e+00 3.800000000000e+02 0.000000000000e+00
     2.000000000000e+00 0.000000000000e+00-1.350417733192e-08 4.600000000000e+01
     7.161360000000e+05 4.000000000000e+00                                      
G27 2026 07 21 01 43 54 5.350448191166e-07 0.000000000000e+00 0.000000000000e+00
     8.700000000000e+01 4.993750000000e+01 4.967349767199e-09-9.214576464096e-01
     2.695247530937e-06 1.432977337390e-02 4.462897777557e-06 5.153674970627e+03
     1.800000000000e+05 1.713633537292e-07-5.083661844978e-01 2.682209014893e-07
     9.508953529740e-01 2.880625000000e+02 9.005370079411e-01-8.538212793692e-09
    -1.700070814773e-10 1.000000000000e+00 3.800000000000e+02 0.000000000000e+00
     2.000000000000e+00 0.000000000000e+00 2.328306436539e-09 8.700000000000e+01
     7.161360000000e+05 4.000000000000e+00                                      
G09 2026 07 21 01 43 54 7.172152400017e-04-6.934897101019e-12 0.000000000000e+00
     6.700000000000e+01-1.775000000000e+01 4.581619414267e-09-4.508002746923e-01
    -1.188367605209e-06 3.669588360935e-03 6.427988409996e-06 5.153694242477e+03
     1.800000000000e+05-4.097819328308e-08 2.624974743614e+00-1.303851604462e-08
     9.667031907710e-01 2.595312500000e+02 2.038005290461e+00-8.129624345771e-09
     3.371569010811e-10 1.000000000000e+00 3.800000000000e+02 0.000000000000e+00
     2.000000000000e+00 0.000000000000e+00 4.656612873077e-10 6.700000000000e+01
     7.161360000000e+05 4.000000000000e+00                                      
E28 2026 07 21 01 44 05-6.027094786987e-05-2.927436071332e-12 0.000000000000e+00
     3.700000000000e+01-3.906250000000e+01 3.651580674421e-09-1.244498328682e+00
    -2.037733793259e-06 2.845055423677e-04 5.515292286873e-06 5.440607912064e+03
     1.746000000000e+05-1.862645149231e-09 2.870212497768e+00-1.117587089539e-08
     9.490499403337e-01 2.184687500000e+02 1.958976890496e+00-5.843814846916e-09
     2.167947446570e-10 1.000000000000e+00 1.404000000000e+03                   
     1.070000000000e+02 0.000000000000e+00 9.313225746155e-10 1.862645149231e-09
     1.790450000000e+05                                                         
E27 2026 07 21 01 44 24-1.049726095516e-03-1.062971932697e-11 0.000000000000e+00
     3.700000000000e+01 1.031875000000e+02 3.284065365933e-09 1.502247616563e+00
     4.922971129417e-06 2.446804428473e-04 8.303672075272e-06 5.440614410400e+03
     1.746000000000e+05 5.401670932770e-08-1.329007517583e+00-1.303851604462e-08
     9.605918841420e-01 1.592500000000e+02-8.808755747463e-01-5.630948837335e-09
    -3.500145795122e-11 5.160000000000e+02 1.404000000000e+03                   
     1.070000000000e+02 0.000000000000e+00 2.328306436539e-10 2.328306436539e-10
     1.790640000000e+05                                                         
G03 2026 07 21 01 45 36 3.642191586550e-04-1.892885848065e-11 0.000000000000e+00
    -5.082130432129e-03-3.272656250000e+01 3.511932000350e-09 1.668182751148e+00
    -1.699663698673e-06 6.976965523791e-03 9.193085134029e-06 5.153454907572e+03
     1.737000000000e+05-4.470348358154e-08 1.621804437133e+00-1.080334186554e-07
     9.947597490621e-01 2.185000000000e+02 1.276501399613e+00-8.703163185159e-09
     2.996553389905e-10 3.511932000350e-09-2.000000000000e+00 2.000000000000e+00
     2.700000000000e+01 4.000000000000e+00 1.396983861923e-09 7.000000000000e+00
     5.529727786779e-10-2.008164301515e-09 1.862645149231e-09 5.005858838558e-09
     1.791360000000e+05 2.428000000000e+03 0.000000000000e+00                   
G26 2026 07 21 01 47 12-3.841021971311e-04-2.511768570912e-12 0.000000000000e+00
    -6.264209747314e-03 5.512890625000e+01 5.416118460217e-09 4.981622482401e-01
     3.001652657986e-06 1.116635178914e-02 9.015202522278e-06 5.153641958227e+03
     1.152000000000e+05-2.700835466385e-08-1.639756209171e+00 1.173466444016e-07
     9.274891442743e-01 1.881914062500e+02 7.146350318747e-01-7.784374913940e-09
    -1.928651764659e-10 5.416118460217e-09-2.000000000000e+00 3.000000000000e+00
     3.000000000000e+01 4.000000000000e+00 6.519258022308e-09 7.000000000000e+00
    -8.440110832453e-10-4.190951585770e-09 5.820766091347e-09 5.878973752260e-09
     1.792320000000e+05 2.428000000000e+03 0.000000000000e+00                   
E29 2026 07 21 01 48 24-2.271460252814e-04-3.623767952377e-12 0.000000000000e+00
     3.700000000000e+01-4.634375000000e+01 3.417642358522e-09 5.022229145717e-01
    -2.084299921989e-06 2.009533345699e-04 5.552545189857e-06 5.440611452103e+03
     1.746000000000e+05-1.117587089539e-08 2.852197831957e+00 5.587935447693e-09
     9.627380215372e-01 2.196875000000e+02 1.417844790584e+00-5.746310785481e-09
     2.139374827835e-10 5.160000000000e+02 1.404000000000e+03                   
     1.070000000000e+02 0.000000000000e+00-3.259629011154e-09-2.793967723846e-09
     1.793040000000e+05                                                         
G04 2026 07 21 01 48 48 6.273412145674e-05 6.998845947237e-13 0.000000000000e+00
    -5.631446838379e-04-2.111328125000e+01 4.452149735621e-09-1.581149703060e+00
    -1.121312379837e-06 3.821527818218e-03 6.383284926414e-06 5.153549399026e+03
     1.233000000000e+05 2.700835466385e-08 2.690162137697e+00-4.377216100693e-08
     9.724406055288e-01 2.625976562500e+02-2.902052367753e+00-8.337076507608e-09
     3.330495871378e-10 4.452149735621e-09-2.000000000000e+00 3.000000000000e+00
     3.000000000000e+01 4.000000000000e+00-4.656612873077e-09 7.000000000000e+00
    -2.037268131971e-10 3.317836672068e-09-1.426087692380e-09-1.396983861923e-09
     1.793280000000e+05 2.428000000000e+03 0.000000000000e+00                   
G31 2026 07 21 01 49 36-1.341027382296e-04 2.749800387392e-12 0.000000000000e+00
     3.767967224121e-03-2.978515625000e+01 4.925383733431e-09 1.124739852169e+00
    -1.469627022743e-06 1.091369451024e-02 8.693896234035e-06 5.153589886929e+03
     1.377000000000e+05-1.257285475731e-07-2.561127504646e+00 1.275911927223e-07
     9.550183023114e-01 2.105351562500e+02 9.765758682477e-01-8.064922314151e-09
    -2.403671551140e-10 4.925383733431e-09-2.000000000000e+00 3.000000000000e+00
     2.900000000000e+01 4.000000000000e+00-1.350417733192e-08 7.000000000000e+00
    -2.619344741106e-10 8.265487849712e-09 0.000000000000e+00 0.000000000000e+00
     1.793760000000e+05 2.428000000000e+03 0.000000000000e+00                   
G09 2026 07 21 01 49 36 7.172278710641e-04-6.984635092522e-12 0.000000000000e+00
     1.339435577393e-03-1.959375000000e+01 4.615192241282e-09-7.134542236493e-01
    -1.024454832077e-06 3.669837024063e-03 6.437301635742e-06 5.153528615372e+03
     1.395000000000e+05-5.587935447693e-09 2.624989215532e+00 3.166496753693e-08
     9.667025587904e-01 2.592617187500e+02 2.038118201404e+00-8.197427833538e-09
     3.714440435639e-10 4.615192241282e-09-2.000000000000e+00 3.000000000000e+00
     2.900000000000e+01 4.000000000000e+00 4.656612873077e-10 7.000000000000e+00
    -5.820766091347e-10-7.275957614183e-10 5.064066499472e-09 5.617039278150e-09
     1.793760000000e+05 2.428000000000e+03 0.000000000000e+00                   
E19 2026 07 21 01 49 54 3.108187054750e-03 2.442845925543e-11 0.000000000000e+00
     4.300000000000e+01-4.293750000000e+01 3.184418358092e-09 1.857914075476e+00
    -2.041459083557e-06 2.441270044073e-04 5.668029189110e-06 5.440616420746e+03
     1.782000000000e+05 9.313225746155e-09 2.860593357893e+00 3.725290298462e-09
     9.747208976321e-01 2.213437500000e+02-2.395825224766e-01-5.625948629057e-09
     2.128660095809e-10 5.160000000000e+02 1.404000000000e+03                   
     1.070000000000e+02 0.000000000000e+00-4.423782229424e-09-4.423782229424e-09
     1.793940000000e+05                                                         
E21 2026 07 21 01 50 05-7.585358689539e-04-2.799538378895e-12 0.000000000000e+00
     4.300000000000e+01 1.138125000000e+02 3.210490872689e-09 1.815999025043e+00
     5.297362804413e-06 1.703940797597e-04 8.758157491684e-06 5.440617902756e+03
     1.782000000000e+05 1.117587089539e-08-1.328987503401e+00-3.725290298462e-08
     9.606206260935e-01 1.490625000000e+02-1.547821414872e+00-5.602733376334e-09
    -3.321566928024e-11 1.000000000000e+00 1.404000000000e+03                   
     1.070000000000e+02 0.000000000000e+00 6.984919309616e-10 9.313225746155e-10
     1.794050000000e+05                                                         
E23 2026 07 21 01 50 05-4.267896292731e-05-1.350031197944e-12 0.000000000000e+00
     4.300000000000e+01 1.172812500000e+02 3.135844906242e-09 2.233374775675e+00
     5.338340997696e-06 1.724698813632e-04 9.385868906975e-06 5.440621208191e+03
     1.782000000000e+05-5.587935447693e-09-1.332180971645e+00 1.862645149231e-09
     9.625507095064e-01 1.394375000000e+02-2.757246102665e+00-5.533801933634e-09
    -5.357366012941e-12 1.000000000000e+00 1.404000000000e+03                   
     1.070000000000e+02 0.000000000000e+00 4.656612873077e-10 1.862645149231e-09
     1.794050000000e+05                                                         
E27 2026 07 21 01 50 05-1.049763988703e-03-1.061550847226e-11 0.000000000000e+00
     4.300000000000e+01 1.015312500000e+02 3.330495871378e-09 1.951076800786e+00
     4.867091774940e-06 2.452664775774e-04 8.108094334602e-06 5.440612731934e+03
     1.782000000000e+05 6.332993507385e-08-1.329028011603e+00 5.029141902924e-08
     9.605916061876e-01 1.660000000000e+02-8.833926277059e-01-5.633091783741e-09
     4.285892810353e-12 1.000000000000e+00 1.404000000000e+03                   
     1.070000000000e+02 0.000000000000e+00 2.328306436539e-10 2.328306436539e-10
     1.794050000000e+05                                                         
E29 2026 07 21 01 50 05-2.271589473821e-04-3.609557097661e-12 0.000000000000e+00
     4.300000000000e+01-4.765625000000e+01 3.404784680091e-09 9.473817719221e-01
    -2.106651663780e-06 2.010028110817e-04 5.532056093216e-06 5.440611917496e+03
     1.782000000000e+05-2.793967723846e-08 2.852177204812e+00 9.313225746155e-09
     9.627387471446e-01 2.211250000000e+02 1.418999777574e+00-5.755596886570e-09
     2.135803250493e-10 1.000000000000e+00 1.404000000000e+03                   
     1.070000000000e+02 0.000000000000e+00-3.259629011154e-09-2.793967723846e-09
     1.794050000000e+05                                                         
E28 2026 07 21 01 50 05-6.028090137988e-05-2.913225216616e-12 0.000000000000e+00
     4.300000000000e+01-3.925000000000e+01 3.605507326709e-09-7.979217954570e-01
    -2.032145857811e-06 2.847170690075e-04 5.409121513367e-06 5.440608346939e+03
     1.782000000000e+05 0.000000000000e+00 2.870191459544e+00-1.117587089539e-08
     9.490507229949e-01 2.164687500000e+02 1.958716047814e+00-5.844529162385e-09
     2.167947446570e-10 1.000000000000e+00 1.404000000000e+03                   
     1.070000000000e+02 0.000000000000e+00 9.313225746155e-10 1.862645149231e-09
     1.794050000000e+05                                                         
END OF FILE                                                 COMMENT
