     3.05           N: NAVIGATION       M: MIXED            RINEX VERSION / TYPE
PYRINEXCONV 0.1.2 ALDELTUNES            20260721 050038 UTC PGM / RUN BY / DATE
GPSA   9.3132e-09  2.2352e-08  1.5199e-05  1.5140e-05 E 27  IONOSPHERIC CORR
GPSB   1.0035e+05  1.3107e+05  1.6712e+07  1.6318e+07 E 27  IONOSPHERIC CORR
GAL    1.0175e+02  3.3203e-01  2.2858e-02             F 21  IONOSPHERIC CORR
BDSA   2.0489e-08  2.2352e-08 -5.3644e-07  9.5367e-07 E 13  IONOSPHERIC CORR
BDSB   1.3722e+05 -4.4237e+05  4.3254e+06 -3.8666e+06 E 13  IONOSPHERIC CORR
GPUT -3.1141098589e-09-5.329070518e-15 385200 2428   G27  0 TIME SYSTEM CORR
GAUT  6.5192580223e-09-2.664535259e-15 189600 1404   E21  0 TIME SYSTEM CORR
BDUT  0.0000000000e+00 0.000000000e+00 187200 1072   C13  0 TIME SYSTEM CORR
                                                            END OF HEADER
G08 2026 07 21 04 51 24 3.939843736589e-04-9.208633855451e-12 0.000000000000e+00
     8.200000000000e+01 5.553125000000e+01 5.257361847366e-09 1.030811823210e+00
     3.173947334290e-06 1.168476371095e-02 5.075708031654e-06 5.153750621796e+03
     1.944000000000e+05 5.587935447693e-09-5.417054526179e-01 1.657754182816e-07
     9.417689063523e-01 2.702812500000e+02 5.448627546008e-01-8.641074221140e-09
    -2.032227507576e-10 1.000000000000e+00 3.800000000000e+02 0.000000000000e+00
     2.000000000000e+00 0.000000000000e+00 4.656612873077e-09 8.200000000000e+01
     7.611360000000e+05 4.000000000000e+00                                      
G07 2026 07 21 04 51 24-2.079098485410e-04-3.751665644813e-12 0.000000000000e+00
     9.700000000000e+01-2.071875000000e+01 4.741626079187e-09-1.695767174572e+00
    -9.015202522278e-07 2.093818434514e-02 7.875263690948e-06 5.153584897995e+03
     1.944000000000e+05 4.228204488754e-07-2.586084121241e+00 1.657754182816e-07
     9.513214629746e-01 2.134062500000e+02-1.955170504928e+00-7.871042146213e-09
     1.142904749427e-11 1.000000000000e+00 3.800000000000e+02 0.000000000000e+00
     2.000000000000e+00 0.000000000000e+00-1.071020960808e-08 9.700000000000e+01
     7.611360000000e+05 4.000000000000e+00                                      
G09 2026 07 21 04 51 24 7.171146571636e-04-7.048583938740e-12 0.000000000000e+00
     7.400000000000e+01-1.984375000000e+01 4.403754862638e-09 1.649337004501e+00
    -1.048669219017e-06 3.670229576528e-03 6.090849637985e-06 5.153696254730e+03
     1.944000000000e+05 1.378357410431e-07 2.624858163673e+00 3.166496753693e-08
     9.667080432703e-01 2.642812500000e+02 2.038203357865e+00-8.018548290436e-09
     2.792973481413e-10 1.000000000000e+00 3.800000000000e+02 0.000000000000e+00
     2.000000000000e+00 0.000000000000e+00 4.656612873077e-10 7.400000000000e+01
     7.611360000000e+05 4.000000000000e+00                                      
G02 2026 07 21 04 51 24 1.419312320650e-04 7.275957614183e-12 0.000000000000e+00
     1.300000000000e+01-2.415625000000e+01 4.525188492264e-09 1.292985379128e+00
    -1.484528183937e-06 1.689662365243e-02 4.813075065613e-06 5.153731765747e+03
     1.944000000000e+05 3.483146429062e-07 4.674341725895e-01 1.862645149231e-09
     9.620966197345e-01 2.790000000000e+02-7.358926908272e-01-8.126767083898e-09
    -4.053740283126e-10 1.000000000000e+00 3.800000000000e+02 0.000000000000e+00
     2.000000000000e+00 0.000000000000e+00-1.722946763039e-08 1.300000000000e+01
     7.611360000000e+05 4.000000000000e+00                                      
G30 2026 07 21 04 51 24 3.025494515896e-04 1.330136001343e-11 0.000000000000e+00
     9.900000000000e+01-2.796875000000e+01 5.111641491814e-09-2.003574362149e+00
    -1.674517989159e-06 8.217569906265e-03 7.912516593933e-06 5.153681093216e+03
     1.944000000000e+05 1.247972249985e-07-2.597151349596e+00 5.587935447693e-09
     9.366274792998e-01 2.088437500000e+02-2.258889940976e+00-8.182126532698e-09
     3.928735076157e-12 1.000000000000e+00 3.800000000000e+02 0.000000000000e+00
     2.000000000000e+00 0.000000000000e+00 4.190951585770e-09 9.900000000000e+01
     7.611360000000e+05 4.000000000000e+00                                      
G27 2026 07 21 04 51 24 5.345791578293e-07 0.000000000000e+00 0.000000000000e+00
     9.200000000000e+01 4.981250000000e+01 5.066996775040e-09 1.178820661012e+00
     2.728775143623e-06 1.433041493874e-02 5.435198545456e-06 5.153676309586e+03
     1.944000000000e+05-1.974403858185e-07-5.084907592869e-01 2.197921276093e-07
     9.508924168974e-01 2.717500000000e+02 9.006274967388e-01-8.603929816784e-09
    -1.414344627416e-10 1.000000000000e+00 3.800000000000e+02 0.000000000000e+00
     2.800000000000e+00 0.000000000000e+00 2.328306436539e-09 9.200000000000e+01
     7.611360000000e+05 4.000000000000e+00                                      
G14 2026 07 21 04 51 42 7.499763742089e-04 2.273736754432e-13 0.000000000000e+00
     2.270000000000e+02 6.125000000000e+01 4.906990110120e-09-2.599717998404e+00
     3.017485141754e-06 7.363637676463e-03 9.743496775627e-06 5.153661857605e+03
     1.944000000000e+05-2.048909664154e-08-1.524159444936e+00-1.657754182816e-07
     9.416377923194e-01 1.834687500000e+02-2.680783462054e+00-8.087836890870e-09
     4.500187450871e-11 1.000000000000e+00 3.800000000000e+02 0.000000000000e+00
     2.000000000000e+00 0.000000000000e+00-7.916241884232e-09 9.950000000000e+02
     7.612080000000e+05 4.000000000000e+00                                      
G14 2026 07 21 04 52 00 7.499761122745e-04 2.593480985524e-13 0.000000000000e+00
    -2.451896667480e-03 6.748828125000e+01 4.874488756308e-09-2.862347758742e+00
     3.377906978130e-06 7.362615899183e-03 9.466893970966e-06 5.153559374317e+03
     1.152000000000e+05-6.146728992462e-08-1.524144717008e+00-1.182779669762e-07
     9.416378201149e-01 1.868945312500e+02-2.680703005217e+00-8.281895637675e-09
     1.892935991239e-11 4.874488756308e-09-2.000000000000e+00 3.000000000000e+00
     3.100000000000e+01 4.000000000000e+00-7.916241884232e-09 7.000000000000e+00
    -2.619344741106e-10 5.005858838558e-09-1.455191522837e-09-1.076841726899e-09
     1.903200000000e+05 2.428000000000e+03 0.000000000000e+00                   
C27 2026 07 21 04 52 54 6.608702242374e-04 4.930278407755e-12 0.000000000000e+00
     1.000000000000e+00-6.140625000000e+00 4.238390831705e-09-1.837001772715e+00
    -4.330649971962e-07 6.344947032630e-04 4.049390554428e-06 5.282656711578e+03
     1.872000000000e+05-1.955777406693e-08 7.570823277464e-02 4.718964919448e-05
     9.479133787971e-01 2.709531250000e+02 1.692672247028e+00 2.028957371361e-06
    -3.285851154604e-10                    1.072000000000e+03                   
     0.000000000000e+00 0.000000000000e+00-2.002343535423e-08-2.002343535423e-08
     1.903740000000e+05 1.000000000000e+00                                      
C28 2026 07 21 04 52 54 5.406786222011e-04 3.956834859764e-12 0.000000000000e+00
     1.000000000000e+00-6.562500000000e-01 4.248391248262e-09 2.687206855923e+00
    -6.472691893578e-08 1.229300396517e-04 3.729481250048e-06 5.282632028580e+03
     1.872000000000e+05-5.587935447693e-09 7.538509172594e-02 4.095863550901e-05
     9.477871114118e-01 2.748125000000e+02-2.180534098581e+00 1.712418471960e-06
    -3.192990143713e-10                    1.072000000000e+03                   
     0.000000000000e+00 0.000000000000e+00-2.002343535423e-08-2.002343535423e-08
     1.903740000000e+05 1.000000000000e+00                                      
C37 2026 07 21 04 52 54-9.072970133275e-04 6.910916283687e-12 0.000000000000e+00
     1.000000000000e+00 2.026562500000e+01 4.228033257413e-09 2.295978763223e+00
     1.037959009409e-06 7.145488634706e-04 9.840819984674e-06 5.282669256210e+03
     1.872000000000e+05 1.862645149231e-08-2.018614065550e+00 3.083236515522e-05
     9.451550262778e-01 1.539531250000e+02-3.743148959465e-01 1.002831057653e-07
    -6.500270762369e-11                    1.072000000000e+03                   
     0.000000000000e+00 0.000000000000e+00-7.823109626770e-08-7.823109626770e-08
     1.903740000000e+05 1.000000000000e+00                                      
C12 2026 07 21 04 52 54 6.157784955576e-04-4.963141009284e-12 0.000000000000e+00
     1.000000000000e+00-1.239062500000e+01 3.542647565491e-09 2.118773301904e+00
    -5.620531737804e-07 1.763218315318e-04 7.363036274910e-06 5.282643545151e+03
     1.872000000000e+05 3.911554813385e-08 2.170681746156e+00-5.932617932558e-05
     9.735978636990e-01 2.170000000000e+02 7.068955990963e-01-1.400076533093e-06
     4.185888644778e-10                    1.072000000000e+03                   
     0.000000000000e+00 0.000000000000e+00 3.725290298462e-09 3.725290298462e-09
     1.903740000000e+05 1.000000000000e+00                                      
C19 2026 07 21 04 52 54-9.326311992481e-04 8.615330671091e-13 0.000000000000e+00
     1.000000000000e+00-1.514062500000e+01 3.240849280095e-09 2.720649106161e+00
    -7.529743015766e-07 7.844039937481e-04 7.436610758305e-06 5.282631511688e+03
     1.872000000000e+05 5.355104804039e-08 2.185028522317e+00 4.794448614120e-06
     9.899464984224e-01 2.225468750000e+02-3.182850749938e-01 6.245567295804e-07
     4.035882396416e-10                    1.072000000000e+03                   
     0.000000000000e+00 0.000000000000e+00 4.330649971962e-08 4.330649971962e-08
     1.903740000000e+05 1.000000000000e+00                                      
C30 2026 07 21 04 52 54 4.926846595481e-04 7.584155525819e-12 0.000000000000e+00
     1.000000000000e+00-7.343750000000e-01 4.256605876149e-09-1.936813892256e+00
    -8.381903171539e-09 4.687095060945e-04 3.837514668703e-06 5.282647251129e+03
     1.872000000000e+05-3.399327397346e-08 3.482757514259e-02 2.789497375488e-05
     9.455233685693e-01 2.782187500000e+02 9.818395169855e-01-1.941859457669e-06
    -2.957266039144e-10                    1.072000000000e+03                   
     0.000000000000e+00 0.000000000000e+00-4.516914486885e-08-4.516914486885e-08
     1.903740000000e+05 1.000000000000e+00                                      
C36 2026 07 21 04 52 54 2.596642589197e-04-4.286349053473e-12 0.000000000000e+00
     1.000000000000e+00 1.617187500000e+01 4.173030966347e-09 1.350311617602e+00
     8.125789463520e-07 8.151222718880e-04 1.054210588336e-05 5.282654645920e+03
     1.872000000000e+05 2.235174179077e-08-2.018477895672e+00 4.573911428452e-05
     9.451413392162e-01 1.424218750000e+02-1.023781818656e+00 2.355115957176e-07
    -1.492919328940e-10                    1.072000000000e+03                   
     0.000000000000e+00 0.000000000000e+00-9.639188647270e-08-9.639188647270e-08
     1.903740000000e+05 1.000000000000e+00                                      
C20 2026 07 21 04 52 54-8.893072372302e-04 3.047340157991e-12 0.000000000000e+00
     1.000000000000e+00-1.387500000000e+01 3.215133923233e-09 2.844340348272e+00
    -6.393529474735e-07 8.085493464023e-04 7.359310984612e-06 5.282636501312e+03
     1.872000000000e+05 3.026798367500e-08 2.185655931308e+00-2.343673259020e-06
     9.899317068577e-01 2.263125000000e+02 2.745776207572e-01 1.235644683847e-06
     4.285892810353e-10                    1.072000000000e+03                   
     0.000000000000e+00 0.000000000000e+00 5.541369318962e-08 5.541369318962e-08
     1.903740000000e+05 1.000000000000e+00                                      
C13 2026 07 21 04 52 54-9.457778651267e-04-8.430589559794e-12 0.000000000000e+00
     1.000000000000e+00 4.843750000000e+00 4.178388332360e-09-3.852531900160e-01
     2.416782081127e-07 2.808745484799e-04 3.956258296967e-06 5.282642501831e+03
     1.872000000000e+05 4.190951585770e-08 7.420819314911e-02 4.406599327922e-05
     9.503753777606e-01 2.728125000000e+02 1.335456135086e+00 5.632048883157e-07
    -2.814402945465e-10                    1.072000000000e+03                   
     0.000000000000e+00 0.000000000000e+00 6.519258022308e-09 6.519258022308e-09
     1.903740000000e+05 1.000000000000e+00                                      
G04 2026 07 21 04 54 12 6.274419138208e-05 6.998845947237e-13 0.000000000000e+00
    -2.377986907959e-03-2.073046875000e+01 4.331073263729e-09 5.194197053099e-01
    -1.036562025547e-06 3.823000355624e-03 5.988404154778e-06 5.153547799324e+03
     1.233000000000e+05 4.097819328308e-08 2.690046872918e+00 1.136213541031e-07
     9.724446958477e-01 2.717421875000e+02-2.902263436110e+00-8.317611411095e-09
     2.407243128482e-10 4.331073263729e-09-2.000000000000e+00 3.000000000000e+00
     3.100000000000e+01 4.000000000000e+00-4.656612873077e-09 7.000000000000e+00
    -2.037268131971e-10 3.317836672068e-09-1.426087692380e-09-1.396983861923e-09
     1.904520000000e+05 2.428000000000e+03 0.000000000000e+00                   
E13 2026 07 21 04 56 05-5.992525257170e-05-9.094947017729e-13 0.000000000000e+00
     6.200000000000e+01-4.553125000000e+01 2.519747814753e-09 1.131777194720e-01
    -2.149492502213e-06 5.543476436287e-05 6.251037120819e-06 5.440607624054e+03
     1.896000000000e+05-3.725290298462e-09 7.700605162486e-01-1.303851604462e-08
     9.976524077015e-01 2.210937500000e+02 2.342681565633e-01-5.439512291806e-09
    -2.442958901901e-10 1.000000000000e+00 1.404000000000e+03                   
     1.070000000000e+02 0.000000000000e+00 3.958120942116e-09 4.190951585770e-09
     1.905650000000e+05                                                         
G08 2026 07 21 04 59 12 3.940011374652e-04-9.233502851203e-12 0.000000000000e+00
     7.883071899414e-03 4.416406250000e+01 5.259861951506e-09 7.681529164237e-01
     2.468004822731e-06 1.168233255157e-02 5.070120096207e-06 5.153473407719e+03
     1.413000000000e+05-2.793967723846e-09-5.416898440134e-01 1.452863216400e-07
     9.417692845166e-01 2.700625000000e+02 5.449917495968e-01-7.697228426796e-09
    -2.157232714544e-10 5.259861951506e-09-2.000000000000e+00 3.000000000000e+00
     3.000000000000e+01 4.000000000000e+00 4.656612873077e-09 7.000000000000e+00
    -1.047737896442e-09-4.685716703534e-09 6.257323548198e-09 6.839400157332e-09
     1.907520000000e+05 2.428000000000e+03 0.000000000000e+00                   
G09 2026 07 21 04 59 12 7.171272591222e-04-6.991740519879e-12 0.000000000000e+00
     3.526687622070e-03-1.656250000000e+01 4.419469802942e-09 1.386780316189e+00
    -9.629875421524e-07 3.668958088383e-03 6.236135959625e-06 5.153526767805e+03
     1.395000000000e+05 1.192092895508e-07 2.624872550741e+00 7.450580596924e-09
     9.667074427424e-01 2.606484375000e+02 2.038220855097e+00-8.294574737239e-09
     2.851904507556e-10 4.419469802942e-09-2.000000000000e+00 3.000000000000e+00
     3.000000000000e+01 4.000000000000e+00 4.656612873077e-10 7.000000000000e+00
    -5.820766091347e-10-7.275957614183e-10 5.064066499472e-09 5.617039278150e-09
     1.907520000000e+05 2.428000000000e+03 0.000000000000e+00                   
G30 2026 07 21 04 59 12 3.025251789950e-04 1.329425458607e-11 0.000000000000e+00
    -3.261566162109e-03-2.504296875000e+01 5.127356432119e-09-2.266179138040e+00
    -1.365318894386e-06 8.216449525207e-03 8.302740752697e-06 5.153540978890e+03
     1.107000000000e+05 1.396983861923e-07-2.597136550716e+00-1.210719347000e-08
     9.366274697908e-01 2.046562500000e+02-2.258832282254e+00-8.150104433757e-09
    -9.464679956196e-12 5.127356432119e-09-2.000000000000e+00 3.000000000000e+00
     3.100000000000e+01 4.000000000000e+00 4.190951585770e-09 7.000000000000e+00
    -1.513399183750e-09-3.259629011154e-09 2.328306436539e-09 3.230525180697e-09
     1.907520000000e+05 2.428000000000e+03 0.000000000000e+00                   
G27 2026 07 21 04 59 12 5.348119884729e-07-3.552713678801e-14 0.000000000000e+00
     3.029346466064e-03 4.581250000000e+01 5.056639200748e-09 9.162267355840e-01
     2.438202500343e-06 1.432959164958e-02 5.176290869713e-06 5.153546291716e+03
     1.341000000000e+05-9.406358003616e-08-5.084749144212e-01 1.536682248116e-07
     9.508926451126e-01 2.732187500000e+02 9.006771942604e-01-7.703300108277e-09
    -2.121516941125e-10 5.056639200748e-09-3.000000000000e+00 1.000000000000e+00
     3.000000000000e+01 4.000000000000e+00 2.328306436539e-09 7.000000000000e+00
    -9.022187441587e-10-1.688022166491e-09 6.664777174592e-09 5.326000973582e-09
     1.907520000000e+05 2.428000000000e+03 0.000000000000e+00                   
G07 2026 07 21 04 59 12-2.079032128677e-04-3.755218358492e-12 0.000000000000e+00
    -5.875587463379e-03-2.107812500000e+01 4.738947396181e-09-1.958368274151e+00
    -1.118518412113e-06 2.093622175744e-02 8.556991815567e-06 5.153637853118e+03
     1.161000000000e+05 3.129243850708e-07-2.586070385172e+00 6.239861249924e-08
     9.513216685146e-01 2.053984375000e+02-1.955131948259e+00-8.543692256841e-09
     7.393165097859e-11 4.738947396181e-09-2.000000000000e+00 3.000000000000e+00
     3.100000000000e+01 4.000000000000e+00-1.071020960808e-08 7.000000000000e+00
    -9.313225746155e-10 6.984919309616e-09 0.000000000000e+00 0.000000000000e+00
     1.907520000000e+05 2.428000000000e+03 0.000000000000e+00                   
E04 2026 07 21 05 00 24-1.222750288434e-04 3.352340627316e-11 0.000000000000e+00
     6.200000000000e+01-4.240625000000e+01 3.182632569421e-09 2.275777712214e+00
    -1.907348632812e-06 2.932072384283e-04 5.621463060379e-06 5.440609487534e+03
     1.896000000000e+05 2.235174179077e-08 2.852430671461e+00-3.725290298462e-09
     9.693538081513e-01 2.209375000000e+02-6.749398433250e-02-5.669521872629e-09
     2.067943280995e-10 5.160000000000e+02 1.404000000000e+03                   
     1.070000000000e+02 0.000000000000e+00-4.190951585770e-09-4.656612873077e-09
     1.908240000000e+05                                                         
E31 2026 07 21 05 00 24-1.580716343597e-04-2.984279490192e-12 0.000000000000e+00
     5.900000000000e+01 1.233125000000e+02 3.150488373344e-09 1.295640980670e+00
     5.668029189110e-06 3.408213378862e-04 9.192153811455e-06 5.440619762421e+03
     1.878000000000e+05 0.000000000000e+00-1.329121822687e+00-3.725290298462e-09
     9.605967498075e-01 1.453125000000e+02-1.395455464287e+00-5.546659612065e-09
     4.893060958486e-11 5.160000000000e+02 1.404000000000e+03                   
     1.070000000000e+02 0.000000000000e+00 3.492459654808e-09 4.190951585770e-09
     1.908240000000e+05                                                         
E28 2026 07 21 05 00 35-6.031326483935e-05-2.842170943040e-12 0.000000000000e+00
     6.200000000000e+01-4.412500000000e+01 3.493716955906e-09 6.139247223261e-01
    -1.968815922737e-06 2.853820333257e-04 5.394220352173e-06 5.440610017776e+03
     1.896000000000e+05 4.470348358154e-08 2.870124782663e+00-1.862645149231e-09
     9.490532465286e-01 2.180000000000e+02 1.960200735577e+00-5.832028641688e-09
     2.064371703653e-10 1.000000000000e+00 1.404000000000e+03                   
     1.070000000000e+02 0.000000000000e+00 9.313225746155e-10 1.862645149231e-09
     1.908350000000e+05                                                         
E06 2026 07 21 05 00 35-3.006262704730e-04-5.059064278612e-12 0.000000000000e+00
     6.100000000000e+01-3.984375000000e+01 3.304423356782e-09 3.549919878469e-01
    -1.901760697365e-06 5.052095511928e-04 5.543231964111e-06 5.440611343384e+03
     1.890000000000e+05 2.793967723846e-08 2.852084682558e+00-2.607703208923e-08
     9.626597203099e-01 2.187812500000e+02 1.385861648986e+00-5.724167005961e-09
     1.982225424788e-10 1.000000000000e+00 1.404000000000e+03                   
     1.070000000000e+02 0.000000000000e+00 2.328306436539e-09 3.725290298462e-09
     1.908350000000e+05                                                         
E14 2026 07 21 05 00 35 3.965047071688e-03 1.531219595563e-10 5.204170427930e-18
     5.900000000000e+01 7.875000000000e+00 5.651663985919e-09-2.197200958948e+00
    -5.457550287247e-07 1.682773553766e-01 6.295740604401e-06 5.289364934921e+03
     1.878000000000e+05-3.350898623466e-06-4.466092572396e-01-2.322718501091e-06
     8.527859428032e-01 2.118437500000e+02-3.116659150369e+00-7.160655412897e-09
    -5.357366012941e-11 1.000000000000e+00 1.404000000000e+03                   
     1.070000000000e+02 1.440000000000e+02-2.793967723846e-09-3.492459654808e-09
     1.908350000000e+05                                                         
E23 2026 07 21 05 00 35-4.269339842722e-05-1.307398633799e-12 0.000000000000e+00
     6.100000000000e+01 1.003125000000e+02 3.242992226500e-09-2.724192371284e+00
     4.665926098824e-06 1.740616280586e-04 8.402392268181e-06 5.440616353989e+03
     1.890000000000e+05 4.284083843231e-08-1.332241047839e+00-7.450580596924e-09
     9.625504257002e-01 1.612500000000e+02-2.743935148576e+00-5.571303495725e-09
     3.785871982478e-11 1.000000000000e+00 1.404000000000e+03                   
     1.070000000000e+02 0.000000000000e+00 4.656612873077e-10 1.862645149231e-09
     1.908350000000e+05                                                         
E21 2026 07 21 05 00 35-7.585681159981e-04-2.813749233610e-12 0.000000000000e+00
     6.200000000000e+01 8.884375000000e+01 3.259778640008e-09-3.043479722175e+00
     4.248693585396e-06 1.711809309199e-04 8.555129170418e-06 5.440616434097e+03
     1.896000000000e+05-3.352761268616e-08-1.329052306283e+00 5.029141902924e-08
     9.606203071773e-01 1.570312500000e+02-1.558205467798e+00-5.583089700953e-09
     8.464638300447e-11 1.000000000000e+00 1.404000000000e+03                   
     1.070000000000e+02 0.000000000000e+00 6.984919309616e-10 9.313225746155e-10
     1.908350000000e+05                                                         
E19 2026 07 21 05 00 35 3.108420118224e-03 2.441424840072e-11 0.000000000000e+00
     5.900000000000e+01-4.403125000000e+01 3.094771766809e-09 3.048866073898e+00
    -1.968815922737e-06 2.429059240967e-04 5.505979061127e-06 5.440619012833e+03
     1.878000000000e+05-1.676380634308e-08 2.860539399622e+00-2.235174179077e-08
     9.747228433132e-01 2.296250000000e+02-2.403696938254e-01-5.641306411627e-09
     2.182233755938e-10 1.000000000000e+00 1.404000000000e+03                   
     1.070000000000e+02 0.000000000000e+00-4.423782229424e-09-4.423782229424e-09
     1.908350000000e+05                                                         
END OF FILE                                                 COMMENT
