     3.05           N: NAVIGATION       M: MIXED            RINEX VERSION / TYPE
PYRINEXCONV 0.1.2 ALDELTUNES            20260721 104146 UTC PGM / RUN BY / DATE
GAL    1.0175e+02  3.3203e-01  2.2858e-02             K 33  IONOSPHERIC CORR
GPSA   9.3132e-09  2.2352e-08  1.5199e-05  1.5140e-05 K 21  IONOSPHERIC CORR
GPSB   1.0035e+05  1.3107e+05  1.6712e+07  1.6318e+07 K 21  IONOSPHERIC CORR
BDSA   2.1420e-08  5.9605e-08 -7.7486e-07  1.2517e-06 K 20  IONOSPHERIC CORR
BDSB   1.4131e+05 -7.0451e+05  5.6361e+06 -4.6531e+06 K 20  IONOSPHERIC CORR
GAUT  6.5192580223e-09-2.664535259e-15 210600 1404   E33  0 TIME SYSTEM CORR
GPUT -3.1141098589e-09-1.736388811e-13 428400 2428   G21  0 TIME SYSTEM CORR
BDUT  0.0000000000e+00 0.000000000e+00 208800 1072   C20  0 TIME SYSTEM CORR
                                                            END OF HEADER
G12 2026 07 21 10 33 36-6.054627010599e-04 5.542233338929e-13 0.000000000000e+00
     5.886554718018e-03 4.863281250000e+01 4.535903224290e-09 3.584829002517e-01
     2.461485564709e-06 8.703983854502e-03 8.565373718739e-06 5.153519584271e+03
     2.025000000000e+05-8.940696716309e-08-1.467415643889e+00-5.122274160385e-08
     9.583090143770e-01 2.155156250000e+02 1.587535177361e+00-8.202070884082e-09
     2.857261873569e-12 4.535903224290e-09-2.000000000000e+00 2.000000000000e+00
     2.700000000000e+01 4.000000000000e+00-1.257285475731e-08 7.000000000000e+00
    -6.984919309616e-10 7.072230800986e-09 0.000000000000e+00 0.000000000000e+00
     2.108160000000e+05 2.428000000000e+03 0.000000000000e+00                   
G24 2026 07 21 10 33 36 1.224652514793e-04 1.861266696324e-11 0.000000000000e+00
     3.237724304199e-04-3.702734375000e+01 4.960206612515e-09 2.151533203994e+00
    -1.907348632812e-06 1.843404141255e-02 7.623806595802e-06 5.153591472595e+03
     1.980000000000e+05 5.774199962616e-08-2.697239305266e+00-3.175809979439e-07
     9.355030438911e-01 2.200507812500e+02 1.162171590460e+00-8.262251962294e-09
    -1.050043738536e-10 4.960206612515e-09-2.000000000000e+00 2.000000000000e+00
     2.800000000000e+01 4.000000000000e+00 2.328306436539e-09 7.000000000000e+00
     2.910383045673e-11-1.426087692380e-09 1.484295353293e-09 2.764863893390e-09
     2.108160000000e+05 2.428000000000e+03 0.000000000000e+00                   
G14 2026 07 21 10 36 48 7.499813509639e-04 2.557953848736e-13 0.000000000000e+00
    -2.215385437012e-03 3.589843750000e+01 4.917883421013e-09 2.882963822787e-01
     1.963227987289e-06 7.364568125922e-03 8.944422006607e-06 5.153565822943e+03
     2.016000000000e+05 6.519258022308e-08-1.524321114939e+00 1.452863216400e-07
     9.416391257692e-01 1.980859375000e+02-2.680768347185e+00-8.114745818071e-09
     3.964450849577e-11 4.917883421013e-09-3.000000000000e+00 2.000000000000e+00
     2.700000000000e+01 4.000000000000e+00-7.916241884232e-09 7.000000000000e+00
    -2.619344741106e-10 5.005858838558e-09-1.455191522837e-09-1.076841726899e-09
     2.110080000000e+05 2.428000000000e+03 0.000000000000e+00                   
G17 2026 07 21 10 37 36-1.762953179423e-04-6.028955112924e-12 0.000000000000e+00
    -4.621982574463e-03 5.543359375000e+01 4.725018244547e-09-2.355282543635e+00
     2.962537109852e-06 1.261504628928e-02 5.379319190979e-06 5.153546196969e+03
     1.728000000000e+05-1.862645149231e-09-4.350860929107e-01 2.123415470123e-07
     9.574392693486e-01 2.749804687500e+02-1.098483249997e+00-8.300824997587e-09
     1.114332130692e-10 4.725018244547e-09-2.000000000000e+00 3.000000000000e+00
     2.900000000000e+01 4.000000000000e+00-1.071020960808e-08 7.000000000000e+00
    -8.440110832453e-10 6.722984835505e-09 0.000000000000e+00 0.000000000000e+00
     2.110560000000e+05 2.428000000000e+03 0.000000000000e+00                   
G13 2026 07 21 10 40 00 4.184397403151e-04 5.229594535194e-12 8.673617379884e-19
     4.562377929688e-03 4.561328125000e+01 4.458221417103e-09 2.657256497513e-01
     2.283602952957e-06 2.268318727147e-03 8.784234523773e-06 5.153633150734e+03
     1.647000000000e+05-3.725290298462e-09-1.575934714635e+00-1.955777406693e-08
     9.588254551803e-01 2.099062500000e+02 1.820784640429e+00-8.351541395843e-09
     1.660783464012e-11 4.458221417103e-09-2.000000000000e+00 2.000000000000e+00
     3.000000000000e+01 7.000000000000e+00-8.381903171539e-09 7.000000000000e+00
    -1.164153218269e-10 5.267793312669e-09 1.658918336034e-09 1.949956640601e-09
     2.112000000000e+05 2.428000000000e+03 0.000000000000e+00                   
E11 2026 07 21 10 40 05 5.517843528651e-03 6.752998160664e-11-3.469446951954e-18
     9.200000000000e+01-4.434375000000e+01 2.638681340241e-09-1.931308183972e+00
    -2.140179276466e-06 4.167810548097e-04 6.133690476418e-06 5.440609558105e+03
     2.076000000000e+05-5.029141902924e-08 7.694637115036e-01 1.117587089539e-08
     9.945469295916e-01 2.250312500000e+02 1.350049069157e+00-5.415225565881e-09
    -2.003654888840e-10 1.000000000000e+00 1.404000000000e+03                   
     1.070000000000e+02 0.000000000000e+00-1.466833055019e-08-1.583248376846e-08
     2.112050000000e+05                                                         
G06 2026 07 21 10 40 48-5.692653940059e-04 7.975842208907e-12 0.000000000000e+00
    -7.128715515137e-03-1.784765625000e+01 4.109635468527e-09 1.982657061328e+00
    -8.838251233101e-07 3.696886647958e-03 5.481764674187e-06 5.153499173991e+03
     1.845000000000e+05 1.052394509315e-07 5.836211130877e-01-1.303851604462e-08
     9.858719241286e-01 2.858281250000e+02-5.461467665764e-01-8.395114639415e-09
    -2.101873265744e-10 4.109635468527e-09-2.000000000000e+00 3.000000000000e+00
     2.900000000000e+01 4.000000000000e+00 3.725290298462e-09 7.000000000000e+00
     3.201421350241e-10-3.929017111659e-09 1.775333657861e-09 2.211891114712e-09
     2.112480000000e+05 2.428000000000e+03 0.000000000000e+00                   
E31 2026 07 21 10 40 54-1.581373508088e-04-2.970068635477e-12 0.000000000000e+00
     9.600000000000e+01 8.171875000000e+01 3.060841782060e-09-2.228184288202e+00
     3.965571522713e-06 3.417965490371e-04 9.013339877129e-06 5.440614883423e+03
     2.100000000000e+05 1.490116119385e-08-1.329245445117e+00-1.862645149231e-09
     9.605984204600e-01 1.476250000000e+02-1.402560594073e+00-5.503800683962e-09
     1.035757429169e-10 5.160000000000e+02 1.404000000000e+03                   
     1.070000000000e+02 0.000000000000e+00 3.492459654808e-09 4.190951585770e-09
     2.112540000000e+05                                                         
E33 2026 07 21 10 40 54-2.520676935092e-05-1.989519660128e-12 0.000000000000e+00
     9.600000000000e+01-5.309375000000e+01 2.757972023462e-09-1.947275999176e+00
    -2.387911081314e-06 1.665403833613e-04 5.060806870461e-06 5.440602584839e+03
     2.100000000000e+05 4.842877388000e-08 7.699206407994e-01 1.676380634308e-08
     9.976636385236e-01 2.495312500000e+02-3.009655366512e+00-5.504872157164e-09
    -1.460775132862e-10 5.160000000000e+02 1.404000000000e+03                   
     1.070000000000e+02 0.000000000000e+00-4.423782229424e-09-4.889443516731e-09
     2.112540000000e+05                                                         
E10 2026 07 21 10 40 54-8.074400830083e-04-2.643218977028e-12 0.000000000000e+00
     9.600000000000e+01-4.093750000000e+01 2.610823036973e-09-2.183788171131e+00
    -1.950189471245e-06 2.867415314540e-04 5.792826414108e-06 5.440604991913e+03
     2.100000000000e+05-5.960464477539e-08 7.679914600070e-01-9.126961231232e-08
     9.974634308699e-01 2.317500000000e+02 2.328843229577e+00-5.460941755858e-09
    -2.067943280995e-10 5.160000000000e+02 1.404000000000e+03                   
     1.070000000000e+02 0.000000000000e+00-1.164153218269e-09-2.328306436539e-10
     2.112540000000e+05                                                         
C29 2026 07 21 10 40 54 6.338543025777e-04 5.135447622706e-12 0.000000000000e+00
     1.000000000000e+00 1.521875000000e+01 4.349109729306e-09-9.110447593682e-01
     8.149072527885e-07 2.195158740506e-04 3.830529749393e-06 5.282659032822e+03
     2.088000000000e+05 9.220093488693e-08 3.420547946980e-02 2.021994441748e-05
     9.455621198063e-01 2.746562500000e+02 2.110871622002e+00-2.550433378645e-06
    -1.310768884500e-10                    1.072000000000e+03                   
     0.000000000000e+00 0.000000000000e+00 9.313225746155e-10 9.313225746155e-10
     2.112540000000e+05 1.000000000000e+00                                      
C39 2026 07 21 10 40 54-9.575803996995e-04 8.823164421301e-12 0.000000000000e+00
     1.000000000000e+00 1.242187500000e+01 3.910162873979e-09 2.444445175468e+00
     6.249174475670e-07 5.720010958612e-04 9.388197213411e-06 5.282662654877e+03
     2.088000000000e+05 1.350417733192e-08-2.011522527736e+00 5.819834768772e-05
     9.490804787486e-01 1.627031250000e+02 5.901150839762e-02 1.033624840338e-06
    -5.464513333200e-11                    1.072000000000e+03                   
     0.000000000000e+00 0.000000000000e+00 8.987262845039e-08 8.987262845039e-08
     2.112540000000e+05 1.000000000000e+00                                      
C35 2026 07 21 10 40 54-4.782178439200e-04-1.597300069989e-11 0.000000000000e+00
     1.000000000000e+00 1.009375000000e+01 4.378396663510e-09-5.081559909653e-01
     5.466863512993e-07 8.109206100926e-04 3.785360604525e-06 5.282618713379e+03
     2.088000000000e+05-1.071020960808e-08 3.480422404420e-02 3.429735079408e-05
     9.437477107888e-01 2.770156250000e+02 8.869912028353e-01-1.965403295508e-06
    -1.414344627416e-10                    1.072000000000e+03                   
     0.000000000000e+00 0.000000000000e+00-1.257285475731e-08-1.257285475731e-08
     2.112540000000e+05 1.000000000000e+00                                      
C11 2026 07 21 10 40 54-7.892216090113e-04-2.153743849931e-11 0.000000000000e+00
     1.000000000000e+00 1.068750000000e+01 4.286249968087e-09 2.181656967204e+00
     6.291083991528e-07 1.700917491689e-04 3.776513040066e-06 5.282641948700e+03
     2.088000000000e+05 1.024454832077e-07 7.435111731962e-02 3.341073170304e-05
     9.504506200262e-01 2.783906250000e+02-6.628739129820e-01 7.034621591654e-07
    -1.071473202588e-10                    1.072000000000e+03                   
     0.000000000000e+00 0.000000000000e+00 1.350417733192e-08 1.350417733192e-08
     2.112540000000e+05 1.000000000000e+00                                      
C26 2026 07 21 10 40 54-6.724677514285e-04-5.570655048359e-12 0.000000000000e+00
     1.000000000000e+00 1.592187500000e+01 4.055883229531e-09 9.379059658339e-01
     5.918554961681e-07 9.379084222019e-04 9.368173778057e-06 5.282658725739e+03
     2.088000000000e+05 3.539025783539e-08-2.040543279241e+00 4.078308120370e-05
     9.453576448205e-01 1.619687500000e+02 7.290609804305e-01 2.654492355976e-06
    -1.142904749427e-10                    1.072000000000e+03                   
     0.000000000000e+00 0.000000000000e+00-2.328306436539e-08-2.328306436539e-08
     2.112540000000e+05 1.000000000000e+00                                      
C36 2026 07 21 10 40 54 2.595708938316e-04-4.316547119743e-12 0.000000000000e+00
     1.000000000000e+00 7.937500000000e+00 3.982665894021e-09-2.005987403096e+00
     4.461035132408e-07 8.149804780260e-04 9.412411600351e-06 5.282655750275e+03
     2.088000000000e+05-4.656612873077e-10-2.018625833263e+00 4.414888098836e-05
     9.451394505890e-01 1.634375000000e+02-1.025308603350e+00 9.214562394939e-08
    -3.714440435639e-11                    1.072000000000e+03                   
     0.000000000000e+00 0.000000000000e+00-9.639188647270e-08-9.639188647270e-08
     2.112540000000e+05 1.000000000000e+00                                      
C30 2026 07 21 10 40 54 4.928457783535e-04 7.467804152839e-12 0.000000000000e+00
     1.000000000000e+00 1.957812500000e+01 4.425184326689e-09 9.906994872274e-01
     1.045409590006e-06 4.694041563198e-04 3.477092832327e-06 5.282646955490e+03
     2.088000000000e+05 9.778887033463e-09 3.466977163229e-02 2.225162461400e-05
     9.455180172149e-01 2.827500000000e+02 9.797018908476e-01-2.096608760742e-06
    -5.607376426879e-11                    1.072000000000e+03                   
     0.000000000000e+00 0.000000000000e+00-4.516914486885e-08-4.516914486885e-08
     2.112540000000e+05 1.000000000000e+00                                      
C20 2026 07 21 10 40 54-8.892425103113e-04 3.002931237006e-12 0.000000000000e+00
     1.000000000000e+00-2.231250000000e+01 3.268350425628e-09-5.126750473164e-01
    -1.237262040377e-06 8.088409667835e-04 7.103197276592e-06 5.282638822556e+03
     2.088000000000e+05 1.490116119385e-08 2.185516090969e+00 6.643589586020e-06
     9.899384450583e-01 2.320000000000e+02 2.737749512542e-01 1.101330874852e-06
     1.710785546799e-10                    1.072000000000e+03                   
     0.000000000000e+00 0.000000000000e+00 5.541369318962e-08 5.541369318962e-08
     2.112540000000e+05 1.000000000000e+00                                      
G19 2026 07 21 10 41 24 7.038223557174e-04 4.547473508865e-13 0.000000000000e+00
     5.300000000000e+01 4.746875000000e+01 4.857345185067e-09-4.598883036224e-01
     2.514570951462e-06 1.176441437565e-02 4.749745130539e-06 5.153758861542e+03
     2.160000000000e+05 1.527369022369e-07-3.913393739529e-01-8.195638656616e-08
     9.566062033338e-01 2.841562500000e+02 3.029507515948e+00-8.400707066026e-09
     1.114332130692e-10 1.000000000000e+00 3.800000000000e+02 0.000000000000e+00
     2.000000000000e+00 0.000000000000e+00-1.536682248116e-08 5.300000000000e+01
     8.451360000000e+05 4.000000000000e+00                                      
G11 2026 07 21 10 41 24-2.677883021533e-04 1.227817847393e-11 0.000000000000e+00
     6.800000000000e+01-2.675000000000e+01 4.559118477013e-09-2.804708465308e+00
    -1.342967152596e-06 2.486749202944e-03 5.591660737991e-06 5.153651065826e+03
     2.160000000000e+05 3.166496753693e-08 5.992905602973e-01-1.396983861923e-07
     9.627627141315e-01 2.712500000000e+02-2.355535992729e+00-8.172126116141e-09
    -1.628639267934e-10 1.000000000000e+00 3.800000000000e+02 0.000000000000e+00
     2.000000000000e+00 0.000000000000e+00-8.847564458847e-09 8.360000000000e+02
     8.451360000000e+05 4.000000000000e+00                                      
G22 2026 07 21 10 41 24 4.065874963999e-05 8.071765478235e-12 0.000000000000e+00
     9.400000000000e+01 4.831250000000e+01 4.525188492264e-09-1.479895405961e+00
     2.605840563774e-06 1.184484281112e-02 9.551644325256e-06 5.153722507477e+03
     2.160000000000e+05-2.440065145493e-07-1.447295157241e+00 5.960464477539e-08
     9.568465549226e-01 1.985000000000e+02-9.877039313190e-01-8.056764167995e-09
     1.267909956396e-10 1.000000000000e+00 3.800000000000e+02 0.000000000000e+00
     2.800000000000e+00 0.000000000000e+00-1.117587089539e-08 9.400000000000e+01
     8.451360000000e+05 4.000000000000e+00                                      
G17 2026 07 21 10 41 24-1.763063482940e-04-6.025402399246e-12 0.000000000000e+00
     6.800000000000e+01 6.150000000000e+01 4.742340394656e-09-2.092653234607e+00
     3.531575202942e-06 1.261637313291e-02 5.248934030533e-06 5.153676143646e+03
     2.160000000000e+05-6.332993507385e-08-4.351005245976e-01 2.942979335785e-07
     9.574391420748e-01 2.772187500000e+02-1.098564580196e+00-8.106766250783e-09
     9.357532635937e-11 1.000000000000e+00 3.800000000000e+02 0.000000000000e+00
     2.000000000000e+00 0.000000000000e+00-1.071020960808e-08 6.800000000000e+01
     8.451360000000e+05 4.000000000000e+00                                      
G13 2026 07 21 10 41 24 4.184492863715e-04 5.229594535194e-12 0.000000000000e+00
     4.200000000000e+01 4.490625000000e+01 4.425184326689e-09 5.289023622435e-01
     2.237036824226e-06 2.269272110425e-03 8.974224328995e-06 5.153590568542e+03
     2.160000000000e+05 0.000000000000e+00-1.575949081222e+00-2.048909664154e-08
     9.588254793184e-01 2.026875000000e+02 1.820162606930e+00-7.985689778890e-09
     1.535778257043e-11 1.000000000000e+00 3.800000000000e+02 0.000000000000e+00
     2.000000000000e+00 6.300000000000e+01-8.381903171539e-09 4.200000000000e+01
     8.451360000000e+05 4.000000000000e+00                                      
G12 2026 07 21 10 41 24-6.054616533220e-04 5.684341886081e-13 0.000000000000e+00
     1.000000000000e+01 4.975000000000e+01 4.497330188997e-09 6.626313143511e-01
     2.460554242134e-06 8.705397252925e-03 8.864328265190e-06 5.153704523087e+03
     2.159840000000e+05-9.313225746155e-08-1.467432603498e+00-5.587935447693e-08
     9.583090209601e-01 2.066250000000e+02 1.587346449225e+00-8.132481607645e-09
     3.571577341961e-12 1.000000000000e+00 3.800000000000e+02 0.000000000000e+00
     2.000000000000e+00 0.000000000000e+00-1.257285475731e-08 1.000000000000e+01
     8.451360000000e+05 4.000000000000e+00                                      
G14 2026 07 21 10 41 24 7.499819621444e-04 2.273736754432e-13 0.000000000000e+00
     2.310000000000e+02 3.900000000000e+01 4.873060125371e-09 5.507265106212e-01
     2.102926373482e-06 7.364687393419e-03 9.117648005486e-06 5.153657560349e+03
     2.160000000000e+05-7.450580596924e-09-1.524335562718e+00 2.086162567139e-07
     9.416392830329e-01 1.950000000000e+02-2.680648863351e+00-8.170697485204e-09
    -3.214419607765e-12 1.000000000000e+00 3.800000000000e+02 0.000000000000e+00
     2.000000000000e+00 0.000000000000e+00-7.916241884232e-09 9.990000000000e+02
     8.451360000000e+05 4.000000000000e+00                                      
G11 2026 07 21 10 41 36-2.678104792722e-04 1.223909862347e-11 0.000000000000e+00
    -9.360313415527e-04-2.354687500000e+01 4.523759861328e-09-3.067374537467e+00
    -1.215375959873e-06 2.486338082235e-03 5.622394382954e-06 5.153570937345e+03
     1.872000000000e+05-3.073364496231e-08 5.993054630438e-01-1.108273863792e-07
     9.627631054621e-01 2.717890625000e+02-2.355419437657e+00-8.195820623734e-09
    -1.960795960737e-10 4.523759861328e-09-2.000000000000e+00 3.000000000000e+00
     2.800000000000e+01 4.000000000000e+00-8.847564458847e-09 7.000000000000e+00
    -2.037268131971e-10 5.675246939063e-09 3.783497959375e-10 2.328306436539e-10
     2.112960000000e+05 2.428000000000e+03 0.000000000000e+00                   
G21 2026 07 21 10 41 36 3.957099397667e-04-5.300648808770e-12 0.000000000000e+00
     5.232810974121e-03-2.124218750000e+01 4.319287058500e-09-2.916990990098e-02
    -1.072883605957e-06 7.935005123727e-04 7.556751370430e-06 5.153627001018e+03
     1.332000000000e+05 8.381903171539e-09 1.623575795397e+00-1.024454832077e-08
     9.641822917997e-01 2.359882812500e+02-8.331798883724e-02-8.343148189090e-09
     1.678641350722e-11 4.319287058500e-09-2.000000000000e+00 3.000000000000e+00
     3.100000000000e+01 4.000000000000e+00-9.778887033463e-09 7.000000000000e+00
    -8.731149137020e-11 6.199115887284e-09 1.746229827404e-10 1.455191522837e-10
     2.112960000000e+05 2.428000000000e+03 0.000000000000e+00                   
E16 2026 07 21 10 41 54-4.648976027966e-05-2.472688720445e-12 0.000000000000e+00
     9.600000000000e+01 8.443750000000e+01 3.004053702323e-09-1.982710376646e+00
     3.952533006668e-06 4.925740649924e-04 8.465722203255e-06 5.440620019913e+03
     2.100000000000e+05 9.313225746155e-09-1.332482449802e+00 3.725290298462e-09
     9.625730936159e-01 1.559062500000e+02-2.475996013070e+00-5.514515415988e-09
     7.857470152314e-11 5.160000000000e+02 1.404000000000e+03                   
     1.070000000000e+02 0.000000000000e+00-3.725290298462e-09-2.328306436539e-09
     2.113140000000e+05                                                         
E12 2026 07 21 10 41 54-5.901011172682e-05-2.600586412882e-12 0.000000000000e+00
     9.500000000000e+01-4.771875000000e+01 2.700826785991e-09-4.231112028856e-01
    -2.194195985794e-06 3.192125586793e-04 5.677342414856e-06 5.440607519150e+03
     2.094000000000e+05 1.303851604462e-08 7.694633838099e-01-1.043081283569e-07
     9.945584091098e-01 2.321562500000e+02 8.618121883140e-01-5.518086993329e-09
    -2.003654888840e-10 5.160000000000e+02 1.404000000000e+03                   
     1.070000000000e+02 0.000000000000e+00-1.187436282635e-08-1.164153218269e-08
     2.113140000000e+05                                                         
E10 2026 07 21 10 41 54-8.074418292381e-04-2.657429831743e-12 0.000000000000e+00
     9.700000000000e+01-4.209375000000e+01 2.620466295797e-09-2.109880581315e+00
    -1.993030309677e-06 2.867316361517e-04 5.790963768959e-06 5.440604721069e+03
     2.106000000000e+05-4.470348358154e-08 7.679881669784e-01-1.005828380585e-07
     9.974632363018e-01 2.318437500000e+02 2.329320929384e+00-5.468799226010e-09
    -1.992940156814e-10 5.160000000000e+02 1.404000000000e+03                   
     1.070000000000e+02 0.000000000000e+00-1.164153218269e-09-2.328306436539e-10
     2.113140000000e+05                                                         
E31 2026 07 21 10 41 54-1.581392134540e-04-2.970068635477e-12 0.000000000000e+00
     9.700000000000e+01 8.084375000000e+01 3.062270412997e-09-2.154568832886e+00
     3.917142748833e-06 3.417842090130e-04 9.113922715187e-06 5.440614362717e+03
     2.106000000000e+05 1.862645149231e-08-1.329248761552e+00 1.862645149231e-09
     9.605985067721e-01 1.456875000000e+02-1.401790977741e+00-5.499871948885e-09
     1.028614274485e-10 5.160000000000e+02 1.404000000000e+03                   
     1.070000000000e+02 0.000000000000e+00 3.492459654808e-09 4.190951585770e-09
     2.113140000000e+05                                                         
E33 2026 07 21 10 41 54-2.520804991946e-05-2.003730514843e-12 0.000000000000e+00
     9.700000000000e+01-5.331250000000e+01 2.756900550260e-09-1.872639609905e+00
    -2.408400177956e-06 1.665498130023e-04 5.079433321953e-06 5.440602670670e+03
     2.106000000000e+05 3.539025783539e-08 7.699172731619e-01 1.862645149231e-08
     9.976635273419e-01 2.492812500000e+02-3.009906117986e+00-5.500943422088e-09
    -1.392915163365e-10 5.160000000000e+02 1.404000000000e+03                   
     1.070000000000e+02 0.000000000000e+00-4.423782229424e-09-4.889443516731e-09
     2.113140000000e+05                                                         
END OF FILE                                                 COMMENT
