     3.05           N: NAVIGATION       M: MIXED            RINEX VERSION / TYPE
PYRINEXCONV 0.1.2 ALDELTUNES            20260721 105148 UTC PGM / RUN BY / DATE
GAL    1.0175e+02  3.3203e-01  2.2858e-02             K 33  IONOSPHERIC CORR
GPSA   9.3132e-09  2.2352e-08  1.5199e-05  1.5140e-05 K 21  IONOSPHERIC CORR
GPSB   1.0035e+05  1.3107e+05  1.6712e+07  1.6318e+07 K 21  IONOSPHERIC CORR
GAUT  6.5192580223e-09-2.664535259e-15 210600 1404   E33  0 TIME SYSTEM CORR
GPUT -3.1141098589e-09-1.736388811e-13 428400 2428   G21  0 TIME SYSTEM CORR
                                                            END OF HEADER
E10 2026 07 21 10 50 54-8.074418292381e-04-2.657429831743e-12 0.000000000000e+00
     9.700000000000e+01-4.209375000000e+01 2.620466295797e-09-2.109880581315e+00
    -1.993030309677e-06 2.867316361517e-04 5.790963768959e-06 5.440604721069e+03
     2.106000000000e+05-4.470348358154e-08 7.679881669784e-01-1.005828380585e-07
     9.974632363018e-01 2.318437500000e+02 2.329320929384e+00-5.468799226010e-09
    -1.992940156814e-10 5.160000000000e+02 1.404000000000e+03                   
     1.070000000000e+02 0.000000000000e+00-1.164153218269e-09-2.328306436539e-10
     2.118540000000e+05                                                         
E31 2026 07 21 10 50 54-1.581392134540e-04-2.970068635477e-12 0.000000000000e+00
     9.700000000000e+01 8.084375000000e+01 3.062270412997e-09-2.154568832886e+00
     3.917142748833e-06 3.417842090130e-04 9.113922715187e-06 5.440614362717e+03
     2.106000000000e+05 1.862645149231e-08-1.329248761552e+00 1.862645149231e-09
     9.605985067721e-01 1.456875000000e+02-1.401790977741e+00-5.499871948885e-09
     1.028614274485e-10 5.160000000000e+02 1.404000000000e+03                   
     1.070000000000e+02 0.000000000000e+00 3.492459654808e-09 4.190951585770e-09
     2.118540000000e+05                                                         
G06 2026 07 21 10 51 12-5.692653940059e-04 7.975842208907e-12 0.000000000000e+00
    -7.128715515137e-03-1.784765625000e+01 4.109635468527e-09 1.982657061328e+00
    -8.838251233101e-07 3.696886647958e-03 5.481764674187e-06 5.153499173991e+03
     1.845000000000e+05 1.052394509315e-07 5.836211130877e-01-1.303851604462e-08
     9.858719241286e-01 2.858281250000e+02-5.461467665764e-01-8.395114639415e-09
    -2.101873265744e-10 4.109635468527e-09-2.000000000000e+00 3.000000000000e+00
     2.900000000000e+01 4.000000000000e+00 3.725290298462e-09 7.000000000000e+00
     3.201421350241e-10-3.929017111659e-09 1.775333657861e-09 2.211891114712e-09
     2.118720000000e+05 2.428000000000e+03 0.000000000000e+00                   
G12 2026 07 21 10 51 12-6.054627010599e-04 5.542233338929e-13 0.000000000000e+00
     5.886554718018e-03 4.863281250000e+01 4.535903224290e-09 3.584829002517e-01
     2.461485564709e-06 8.703983854502e-03 8.565373718739e-06 5.153519584271e+03
     2.025000000000e+05-8.940696716309e-08-1.467415643889e+00-5.122274160385e-08
     9.583090143770e-01 2.155156250000e+02 1.587535177361e+00-8.202070884082e-09
     2.857261873569e-12 4.535903224290e-09-2.000000000000e+00 2.000000000000e+00
     2.700000000000e+01 4.000000000000e+00-1.257285475731e-08 7.000000000000e+00
    -6.984919309616e-10 7.072230800986e-09 0.000000000000e+00 0.000000000000e+00
     2.118720000000e+05 2.428000000000e+03 0.000000000000e+00                   
G17 2026 07 21 10 51 12-1.762953179423e-04-6.028955112924e-12 0.000000000000e+00
    -4.621982574463e-03 5.543359375000e+01 4.725018244547e-09-2.355282543635e+00
     2.962537109852e-06 1.261504628928e-02 5.379319190979e-06 5.153546196969e+03
     1.728000000000e+05-1.862645149231e-09-4.350860929107e-01 2.123415470123e-07
     9.574392693486e-01 2.749804687500e+02-1.098483249997e+00-8.300824997587e-09
     1.114332130692e-10 4.725018244547e-09-2.000000000000e+00 3.000000000000e+00
     2.900000000000e+01 4.000000000000e+00-1.071020960808e-08 7.000000000000e+00
    -8.440110832453e-10 6.722984835505e-09 0.000000000000e+00 0.000000000000e+00
     2.118720000000e+05 2.428000000000e+03 0.000000000000e+00                   
E11 2026 07 21 10 51 35 5.517843528651e-03 6.752998160664e-11-3.469446951954e-18
     9.200000000000e+01-4.434375000000e+01 2.638681340241e-09-1.931308183972e+00
    -2.140179276466e-06 4.167810548097e-04 6.133690476418e-06 5.440609558105e+03
     2.076000000000e+05-5.029141902924e-08 7.694637115036e-01 1.117587089539e-08
     9.945469295916e-01 2.250312500000e+02 1.350049069157e+00-5.415225565881e-09
    -2.003654888840e-10 1.000000000000e+00 1.404000000000e+03                   
     1.070000000000e+02 0.000000000000e+00-1.466833055019e-08-1.583248376846e-08
     2.118950000000e+05                                                         
E25 2026 07 21 10 51 35 2.174236578867e-05-8.526512829121e-14 0.000000000000e+00
     9.200000000000e+01 9.915625000000e+01 3.123344385545e-09 2.103223217106e+00
     4.330649971962e-06 2.982923761010e-04 8.534640073776e-06 5.440612390518e+03
     2.076000000000e+05-1.117587089539e-08-1.329151256599e+00 1.676380634308e-08
     9.606285785162e-01 1.595000000000e+02-1.308850285359e+00-5.512015311848e-09
     7.214586230761e-11 1.000000000000e+00 1.404000000000e+03                   
     1.070000000000e+02 0.000000000000e+00 2.328306436539e-09 2.561137080193e-09
     2.118950000000e+05                                                         
E16 2026 07 21 10 51 54-4.648976027966e-05-2.472688720445e-12 0.000000000000e+00
     9.600000000000e+01 8.443750000000e+01 3.004053702323e-09-1.982710376646e+00
     3.952533006668e-06 4.925740649924e-04 8.465722203255e-06 5.440620019913e+03
     2.100000000000e+05 9.313225746155e-09-1.332482449802e+00 3.725290298462e-09
     9.625730936159e-01 1.559062500000e+02-2.475996013070e+00-5.514515415988e-09
     7.857470152314e-11 5.160000000000e+02 1.404000000000e+03                   
     1.070000000000e+02 0.000000000000e+00-3.725290298462e-09-2.328306436539e-09
     2.119140000000e+05                                                         
E12 2026 07 21 10 51 54-5.901011172682e-05-2.600586412882e-12 0.000000000000e+00
     9.500000000000e+01-4.771875000000e+01 2.700826785991e-09-4.231112028856e-01
    -2.194195985794e-06 3.192125586793e-04 5.677342414856e-06 5.440607519150e+03
     2.094000000000e+05 1.303851604462e-08 7.694633838099e-01-1.043081283569e-07
     9.945584091098e-01 2.321562500000e+02 8.618121883140e-01-5.518086993329e-09
    -2.003654888840e-10 5.160000000000e+02 1.404000000000e+03                   
     1.070000000000e+02 0.000000000000e+00-1.187436282635e-08-1.164153218269e-08
     2.119140000000e+05                                                         
E33 2026 07 21 10 51 54-2.520804991946e-05-2.003730514843e-12 0.000000000000e+00
     9.700000000000e+01-5.331250000000e+01 2.756900550260e-09-1.872639609905e+00
    -2.408400177956e-06 1.665498130023e-04 5.079433321953e-06 5.440602670670e+03
     2.106000000000e+05 3.539025783539e-08 7.699172731619e-01 1.862645149231e-08
     9.976635273419e-01 2.492812500000e+02-3.009906117986e+00-5.500943422088e-09
    -1.392915163365e-10 5.160000000000e+02 1.404000000000e+03                   
     1.070000000000e+02 0.000000000000e+00-4.423782229424e-09-4.889443516731e-09
     2.119140000000e+05                                                         
E10 2026 07 21 10 51 54-8.074434008449e-04-2.657429831743e-12 0.000000000000e+00
     9.800000000000e+01-4.356250000000e+01 2.631181027823e-09-2.036139497909e+00
    -2.052634954453e-06 2.867034636438e-04 5.776062607765e-06 5.440604352951e+03
     2.112000000000e+05-2.793967723846e-08 7.679848651723e-01-1.080334186554e-07
     9.974630475854e-01 2.322187500000e+02 2.329965112193e+00-5.476299538429e-09
    -1.907222300607e-10 5.160000000000e+02 1.404000000000e+03                   
     1.070000000000e+02 0.000000000000e+00-1.164153218269e-09-2.328306436539e-10
     2.119140000000e+05                                                         
E31 2026 07 21 10 51 54-1.581410178915e-04-2.970068635477e-12 0.000000000000e+00
     9.800000000000e+01 7.968750000000e+01 3.063699043934e-09-2.080923355565e+00
     3.857538104057e-06 3.417525440454e-04 9.203329682350e-06 5.440613857269e+03
     2.112000000000e+05 2.421438694000e-08-1.329252072136e+00 7.450580596924e-09
     9.605985960101e-01 1.439687500000e+02-1.401051358544e+00-5.495586056075e-09
     1.017899542459e-10 5.160000000000e+02 1.404000000000e+03                   
     1.070000000000e+02 0.000000000000e+00 3.492459654808e-09 4.190951585770e-09
     2.119140000000e+05                                                         
G11 2026 07 21 10 52 00-2.678104792722e-04 1.223909862347e-11 0.000000000000e+00
    -9.360313415527e-04-2.354687500000e+01 4.523759861328e-09-3.067374537467e+00
    -1.215375959873e-06 2.486338082235e-03 5.622394382954e-06 5.153570937345e+03
     1.872000000000e+05-3.073364496231e-08 5.993054630438e-01-1.108273863792e-07
     9.627631054621e-01 2.717890625000e+02-2.355419437657e+00-8.195820623734e-09
    -1.960795960737e-10 4.523759861328e-09-2.000000000000e+00 3.000000000000e+00
     2.800000000000e+01 4.000000000000e+00-8.847564458847e-09 7.000000000000e+00
    -2.037268131971e-10 5.675246939063e-09 3.783497959375e-10 2.328306436539e-10
     2.119200000000e+05 2.428000000000e+03 0.000000000000e+00                   
G21 2026 07 21 10 52 00 3.957099397667e-04-5.300648808770e-12 0.000000000000e+00
     5.232810974121e-03-2.124218750000e+01 4.319287058500e-09-2.916990990098e-02
    -1.072883605957e-06 7.935005123727e-04 7.556751370430e-06 5.153627001018e+03
     1.332000000000e+05 8.381903171539e-09 1.623575795397e+00-1.024454832077e-08
     9.641822917997e-01 2.359882812500e+02-8.331798883724e-02-8.343148189090e-09
     1.678641350722e-11 4.319287058500e-09-2.000000000000e+00 3.000000000000e+00
     3.100000000000e+01 4.000000000000e+00-9.778887033463e-09 7.000000000000e+00
    -8.731149137020e-11 6.199115887284e-09 1.746229827404e-10 1.455191522837e-10
     2.119200000000e+05 2.428000000000e+03 0.000000000000e+00                   
G13 2026 07 21 10 52 00 4.184397403151e-04 5.229594535194e-12 8.673617379884e-19
     4.562377929688e-03 4.561328125000e+01 4.458221417103e-09 2.657256497513e-01
     2.283602952957e-06 2.268318727147e-03 8.784234523773e-06 5.153633150734e+03
     1.647000000000e+05-3.725290298462e-09-1.575934714635e+00-1.955777406693e-08
     9.588254551803e-01 2.099062500000e+02 1.820784640429e+00-8.351541395843e-09
     1.660783464012e-11 4.458221417103e-09-2.000000000000e+00 2.000000000000e+00
     3.000000000000e+01 7.000000000000e+00-8.381903171539e-09 7.000000000000e+00
    -1.164153218269e-10 5.267793312669e-09 1.658918336034e-09 1.949956640601e-09
     2.119200000000e+05 2.428000000000e+03 0.000000000000e+00                   
END OF FILE                                                 COMMENT
