     3.05           N: NAVIGATION       M: MIXED            RINEX VERSION / TYPE
PYRINEXCONV 0.1.2 ALDELTUNES            20260721 114158 UTC PGM / RUN BY / DATE
GAL    1.0175e+02  3.3203e-01  2.2858e-02             L 11  IONOSPHERIC CORR
GPSA   9.3132e-09  2.2352e-08  1.5199e-05  1.5140e-05 L 21  IONOSPHERIC CORR
GPSB   1.0035e+05  1.3107e+05  1.6712e+07  1.6318e+07 L 21  IONOSPHERIC CORR
BDSA   2.1420e-08  5.9605e-08 -7.7486e-07  1.2517e-06 L 11  IONOSPHERIC CORR
BDSB   1.4131e+05 -7.0451e+05  5.6361e+06 -4.6531e+06 L 11  IONOSPHERIC CORR
GAUT  6.5192580223e-09-2.664535259e-15 211800 1404   E11  0 TIME SYSTEM CORR
GPUT -3.1141098589e-09-1.736388811e-13 428400 2428   G21  0 TIME SYSTEM CORR
BDUT  0.0000000000e+00 0.000000000e+00 212400 1072   C11  0 TIME SYSTEM CORR
                                                            END OF HEADER
G17 2026 07 21 11 37 36-1.762953179423e-04-6.028955112924e-12 0.000000000000e+00
    -4.621982574463e-03 5.543359375000e+01 4.725018244547e-09-2.355282543635e+00
     2.962537109852e-06 1.261504628928e-02 5.379319190979e-06 5.153546196969e+03
     1.728000000000e+05-1.862645149231e-09-4.350860929107e-01 2.123415470123e-07
     9.574392693486e-01 2.749804687500e+02-1.098483249997e+00-8.300824997587e-09
     1.114332130692e-10 4.725018244547e-09-2.000000000000e+00 3.000000000000e+00
     2.900000000000e+01 4.000000000000e+00-1.071020960808e-08 7.000000000000e+00
    -8.440110832453e-10 6.722984835505e-09 0.000000000000e+00 0.000000000000e+00
     2.146560000000e+05 2.428000000000e+03 0.000000000000e+00                   
G06 2026 07 21 11 39 12-5.692653940059e-04 7.975842208907e-12 0.000000000000e+00
    -7.128715515137e-03-1.784765625000e+01 4.109635468527e-09 1.982657061328e+00
    -8.838251233101e-07 3.696886647958e-03 5.481764674187e-06 5.153499173991e+03
     1.845000000000e+05 1.052394509315e-07 5.836211130877e-01-1.303851604462e-08
     9.858719241286e-01 2.858281250000e+02-5.461467665764e-01-8.395114639415e-09
    -2.101873265744e-10 4.109635468527e-09-2.000000000000e+00 3.000000000000e+00
     2.900000000000e+01 4.000000000000e+00 3.725290298462e-09 7.000000000000e+00
     3.201421350241e-10-3.929017111659e-09 1.775333657861e-09 2.211891114712e-09
     2.147520000000e+05 2.428000000000e+03 0.000000000000e+00                   
E16 2026 07 21 11 40 24-4.648976027966e-05-2.472688720445e-12 0.000000000000e+00
     9.600000000000e+01 8.443750000000e+01 3.004053702323e-09-1.982710376646e+00
     3.952533006668e-06 4.925740649924e-04 8.465722203255e-06 5.440620019913e+03
     2.100000000000e+05 9.313225746155e-09-1.332482449802e+00 3.725290298462e-09
     9.625730936159e-01 1.559062500000e+02-2.475996013070e+00-5.514515415988e-09
     7.857470152314e-11 5.160000000000e+02 1.404000000000e+03                   
     1.070000000000e+02 0.000000000000e+00-3.725290298462e-09-2.328306436539e-09
     2.148240000000e+05                                                         
G12 2026 07 21 11 40 48-6.054627010599e-04 5.542233338929e-13 0.000000000000e+00
     5.886554718018e-03 4.863281250000e+01 4.535903224290e-09 3.584829002517e-01
     2.461485564709e-06 8.703983854502e-03 8.565373718739e-06 5.153519584271e+03
     2.025000000000e+05-8.940696716309e-08-1.467415643889e+00-5.122274160385e-08
     9.583090143770e-01 2.155156250000e+02 1.587535177361e+00-8.202070884082e-09
     2.857261873569e-12 4.535903224290e-09-2.000000000000e+00 2.000000000000e+00
     2.700000000000e+01 4.000000000000e+00-1.257285475731e-08 7.000000000000e+00
    -6.984919309616e-10 7.072230800986e-09 0.000000000000e+00 0.000000000000e+00
     2.148480000000e+05 2.428000000000e+03 0.000000000000e+00                   
E12 2026 07 21 11 40 54-5.902128759772e-05-2.614797267597e-12 0.000000000000e+00
     1.020000000000e+02-5.437500000000e+01 2.780472960717e-09 1.007443465321e-01
    -2.460554242134e-06 3.173889126629e-04 5.066394805908e-06 5.440603368759e+03
     2.136000000000e+05 7.264316082001e-08 7.694398747164e-01-2.048909664154e-08
     9.945573133842e-01 2.472812500000e+02 8.586531044969e-01-5.533801933634e-09
    -1.360770967287e-10 5.160000000000e+02 1.404000000000e+03                   
     1.070000000000e+02 0.000000000000e+00-1.187436282635e-08-1.164153218269e-08
     2.148540000000e+05                                                         
E33 2026 07 21 11 40 54-2.521387068555e-05-2.003730514843e-12 0.000000000000e+00
     1.020000000000e+02-5.996875000000e+01 2.737614032613e-09-1.496451678499e+00
    -2.732500433922e-06 1.670053461567e-04 5.139037966728e-06 5.440604347229e+03
     2.136000000000e+05 2.235174179077e-08 7.699007143922e-01 1.676380634308e-08
     9.976631104102e-01 2.481250000000e+02-3.014165579524e+00-5.495943213809e-09
    -1.325055193867e-10 5.160000000000e+02 1.404000000000e+03                   
     1.070000000000e+02 0.000000000000e+00-4.423782229424e-09-4.889443516731e-09
     2.148540000000e+05                                                         
E16 2026 07 21 11 40 54-4.649872425944e-05-2.458477865730e-12 0.000000000000e+00
     1.020000000000e+02 8.218750000000e+01 2.964052036093e-09-1.535874669928e+00
     3.963708877563e-06 4.926549736410e-04 8.516013622284e-06 5.440620538712e+03
     2.136000000000e+05 1.303851604462e-08-1.332502335248e+00-1.862645149231e-09
     9.625733979028e-01 1.568437500000e+02-2.476521401080e+00-5.509158049975e-09
     8.000333245992e-11 5.160000000000e+02 1.404000000000e+03                   
     1.070000000000e+02 0.000000000000e+00-3.725290298462e-09-2.328306436539e-09
     2.148540000000e+05                                                         
C35 2026 07 21 11 40 54-4.782762844115e-04-1.604139043820e-11 0.000000000000e+00
     1.000000000000e+00 1.640625000000e+01 4.353395622116e-09-2.054039094973e-02
     7.916241884232e-07 8.117869729176e-04 3.815162926912e-06 5.282620409012e+03
     2.124000000000e+05 2.421438694000e-08 3.477810364190e-02 2.688728272915e-05
     9.437471197699e-01 2.762343750000e+02 8.869464068208e-01-1.991598672365e-06
    -1.192906832215e-10                    1.072000000000e+03                   
     0.000000000000e+00 0.000000000000e+00-1.257285475731e-08-1.257285475731e-08
     2.148540000000e+05 1.000000000000e+00                                      
C29 2026 07 21 11 40 54 6.338730454445e-04 5.153211191100e-12 0.000000000000e+00
     1.000000000000e+00 1.675000000000e+01 4.365538985079e-09-4.245128246974e-01
     8.842907845974e-07 2.189400838688e-04 3.635883331299e-06 5.282657833099e+03
     2.124000000000e+05 6.426125764847e-08 3.417893335834e-02 2.294359728694e-05
     9.455616853196e-01 2.790156250000e+02 2.111899364377e+00-2.576765904071e-06
    -5.535944880039e-11                    1.072000000000e+03                   
     0.000000000000e+00 0.000000000000e+00 9.313225746155e-10 9.313225746155e-10
     2.148540000000e+05 1.000000000000e+00                                      
C12 2026 07 21 11 40 54 6.156516028568e-04-5.013767179207e-12 0.000000000000e+00
     1.000000000000e+00-2.292187500000e+01 3.593721121481e-09-7.487750669728e-01
    -1.263804733753e-06 1.759165897965e-04 7.048249244690e-06 5.282646144867e+03
     2.124000000000e+05 7.450580596924e-09 2.170514287387e+00-4.056189209223e-05
     9.736055030572e-01 2.234531250000e+02 7.041801773709e-01-1.564334803681e-06
     1.582208762489e-10                    1.072000000000e+03                   
     0.000000000000e+00 0.000000000000e+00 3.725290298462e-09 3.725290298462e-09
     2.148540000000e+05 1.000000000000e+00                                      
C26 2026 07 21 11 40 54-6.724876584485e-04-5.552003301545e-12 0.000000000000e+00
     1.000000000000e+00 1.518750000000e+01 4.022667560250e-09 1.425399953469e+00
     6.621703505516e-07 9.378691902384e-04 9.299721568823e-06 5.282658828735e+03
     2.124000000000e+05 2.048909664154e-08-2.040567908930e+00 4.292931407690e-05
     9.453572571472e-01 1.624062500000e+02 7.291255785041e-01 2.631679977177e-06
    -1.053615315878e-10                    1.072000000000e+03                   
     0.000000000000e+00 0.000000000000e+00-2.328306436539e-08-2.328306436539e-08
     2.148540000000e+05 1.000000000000e+00                                      
C39 2026 07 21 11 40 54-9.575489675626e-04 8.791189998192e-12 0.000000000000e+00
     1.000000000000e+00 1.012500000000e+01 3.866946788141e-09 2.931656340077e+00
     5.550682544708e-07 5.713555729017e-04 9.272247552872e-06 5.282663963318e+03
     2.124000000000e+05 1.117587089539e-08-2.011546913117e+00 5.748448893428e-05
     9.490802724772e-01 1.672031250000e+02 5.935714034886e-02 1.010812461539e-06
    -5.500229106620e-11                    1.072000000000e+03                   
     0.000000000000e+00 0.000000000000e+00 8.987262845039e-08 8.987262845039e-08
     2.148540000000e+05 1.000000000000e+00                                      
C19 2026 07 21 11 40 54-9.326101280749e-04 8.162359677044e-13 0.000000000000e+00
     1.000000000000e+00-2.510937500000e+01 3.255492747197e-09-1.491880682704e-01
    -1.363456249237e-06 7.851601112634e-04 7.190275937319e-06 5.282634328842e+03
     2.124000000000e+05-1.862645149231e-09 2.184864912485e+00 9.261071681976e-06
     9.899543835508e-01 2.319375000000e+02-3.186941507763e-01 4.634985922911e-07
     1.492919328940e-10                    1.072000000000e+03                   
     0.000000000000e+00 0.000000000000e+00 4.330649971962e-08 4.330649971962e-08
     2.148540000000e+05 1.000000000000e+00                                      
C20 2026 07 21 11 40 54-8.892318001017e-04 3.005595772265e-12 0.000000000000e+00
     1.000000000000e+00-2.598437500000e+01 3.324424189897e-09-2.513853704097e-02
    -1.348555088043e-06 8.078168611974e-04 7.292255759239e-06 5.282636833191e+03
     2.124000000000e+05 2.700835466385e-08 2.185492488249e+00 1.142406836152e-05
     9.899391297040e-01 2.253281250000e+02 2.737995970351e-01 1.077558456063e-06
     1.678641350722e-10                    1.072000000000e+03                   
     0.000000000000e+00 0.000000000000e+00 5.541369318962e-08 5.541369318962e-08
     2.148540000000e+05 1.000000000000e+00                                      
C11 2026 07 21 11 40 54-7.892992580310e-04-2.154987299718e-11 0.000000000000e+00
     1.000000000000e+00 1.748437500000e+01 4.303393539329e-09 2.672535099826e+00
     9.336508810520e-07 1.711775548756e-04 3.513880074024e-06 5.282639570236e+03
     2.124000000000e+05-7.450580596924e-09 7.432467653825e-02 4.751002416015e-05
     9.504503654785e-01 2.843125000000e+02-6.661877837724e-01 6.772210661186e-07
    -3.214419607765e-11                    1.072000000000e+03                   
     0.000000000000e+00 0.000000000000e+00 1.350417733192e-08 1.350417733192e-08
     2.148540000000e+05 1.000000000000e+00                                      
G11 2026 07 21 11 41 36-2.678104792722e-04 1.223909862347e-11 0.000000000000e+00
    -9.360313415527e-04-2.354687500000e+01 4.523759861328e-09-3.067374537467e+00
    -1.215375959873e-06 2.486338082235e-03 5.622394382954e-06 5.153570937345e+03
     1.872000000000e+05-3.073364496231e-08 5.993054630438e-01-1.108273863792e-07
     9.627631054621e-01 2.717890625000e+02-2.355419437657e+00-8.195820623734e-09
    -1.960795960737e-10 4.523759861328e-09-2.000000000000e+00 3.000000000000e+00
     2.800000000000e+01 4.000000000000e+00-8.847564458847e-09 7.000000000000e+00
    -2.037268131971e-10 5.675246939063e-09 3.783497959375e-10 2.328306436539e-10
     2.148960000000e+05 2.428000000000e+03 0.000000000000e+00                   
G13 2026 07 21 11 41 36 4.184397403151e-04 5.229594535194e-12 8.673617379884e-19
     4.562377929688e-03 4.561328125000e+01 4.458221417103e-09 2.657256497513e-01
     2.283602952957e-06 2.268318727147e-03 8.784234523773e-06 5.153633150734e+03
     1.647000000000e+05-3.725290298462e-09-1.575934714635e+00-1.955777406693e-08
     9.588254551803e-01 2.099062500000e+02 1.820784640429e+00-8.351541395843e-09
     1.660783464012e-11 4.458221417103e-09-2.000000000000e+00 2.000000000000e+00
     3.000000000000e+01 7.000000000000e+00-8.381903171539e-09 7.000000000000e+00
    -1.164153218269e-10 5.267793312669e-09 1.658918336034e-09 1.949956640601e-09
     2.148960000000e+05 2.428000000000e+03 0.000000000000e+00                   
G21 2026 07 21 11 41 36 3.957099397667e-04-5.300648808770e-12 0.000000000000e+00
     5.232810974121e-03-2.124218750000e+01 4.319287058500e-09-2.916990990098e-02
    -1.072883605957e-06 7.935005123727e-04 7.556751370430e-06 5.153627001018e+03
     1.332000000000e+05 8.381903171539e-09 1.623575795397e+00-1.024454832077e-08
     9.641822917997e-01 2.359882812500e+02-8.331798883724e-02-8.343148189090e-09
     1.678641350722e-11 4.319287058500e-09-2.000000000000e+00 3.000000000000e+00
     3.100000000000e+01 4.000000000000e+00-9.778887033463e-09 7.000000000000e+00
    -8.731149137020e-11 6.199115887284e-09 1.746229827404e-10 1.455191522837e-10
     2.148960000000e+05 2.428000000000e+03 0.000000000000e+00                   
E33 2026 07 21 11 41 54-2.521497663110e-05-1.989519660128e-12 0.000000000000e+00
     1.030000000000e+02-6.175000000000e+01 2.733328139803e-09-1.421096951101e+00
    -2.812594175339e-06 1.671655336395e-04 5.118548870087e-06 5.440604799271e+03
     2.142000000000e+05 2.421438694000e-08 7.698974520849e-01 2.421438694000e-08
     9.976630270239e-01 2.485625000000e+02-3.015134638403e+00-5.499514791151e-09
    -1.346484657919e-10 5.160000000000e+02 1.404000000000e+03                   
     1.070000000000e+02 0.000000000000e+00-4.423782229424e-09-4.889443516731e-09
     2.149140000000e+05                                                         
E25 2026 07 21 11 42 05 2.174236578867e-05-7.105427357601e-14 0.000000000000e+00
     9.900000000000e+01 9.740625000000e+01 3.073342302757e-09 2.624236618057e+00
     4.328787326813e-06 2.982205478474e-04 8.316710591316e-06 5.440612489700e+03
     2.118000000000e+05 1.862645149231e-09-1.329174281467e+00-1.117587089539e-08
     9.606289369311e-01 1.592812500000e+02-1.309165599796e+00-5.515229731456e-09
     5.321650239522e-11 1.000000000000e+00 1.404000000000e+03                   
     1.070000000000e+02 0.000000000000e+00 2.328306436539e-09 2.561137080193e-09
     2.149250000000e+05                                                         
E10 2026 07 21 11 42 05-8.074495708570e-04-2.643218977028e-12 0.000000000000e+00
     1.020000000000e+02-5.062500000000e+01 2.676540060065e-09-1.742219497612e+00
    -2.352520823479e-06 2.863210393116e-04 5.545094609261e-06 5.440602169037e+03
     2.136000000000e+05 3.911554813385e-08 7.679715760244e-01-9.499490261078e-08
     9.974623687914e-01 2.376875000000e+02 2.333586160670e+00-5.497729002480e-09
    -1.542921411727e-10 1.000000000000e+00 1.404000000000e+03                   
     1.070000000000e+02 0.000000000000e+00-1.164153218269e-09-2.328306436539e-10
     2.149250000000e+05                                                         
E31 2026 07 21 11 42 05-1.581464312039e-04-2.984279490192e-12 0.000000000000e+00
     1.010000000000e+02 7.603125000000e+01 3.063341886200e-09-1.859423090104e+00
     3.661960363388e-06 3.415956161916e-04 9.361654520035e-06 5.440612691879e+03
     2.130000000000e+05 2.793967723846e-08-1.329261976091e+00 2.793967723846e-08
     9.605988725017e-01 1.409687500000e+02-1.399396088681e+00-5.481299746707e-09
     9.643258823294e-11 1.000000000000e+00 1.404000000000e+03                   
     1.070000000000e+02 0.000000000000e+00 3.492459654808e-09 4.190951585770e-09
     2.149250000000e+05                                                         
E11 2026 07 21 11 42 05 5.518126708921e-03 6.747313818778e-11-3.469446951954e-18
     9.900000000000e+01-3.928125000000e+01 2.638681340241e-09-1.408247597405e+00
    -1.888722181320e-06 4.173512570560e-04 5.777925252914e-06 5.440611831665e+03
     2.118000000000e+05-7.823109626770e-08 7.694409879970e-01-4.470348358154e-08
     9.945458133851e-01 2.324062500000e+02 1.347685586023e+00-5.458798809453e-09
    -1.860791795162e-10 1.000000000000e+00 1.404000000000e+03                   
     1.070000000000e+02 0.000000000000e+00-1.466833055019e-08-1.583248376846e-08
     2.149250000000e+05                                                         
E16 2026 07 21 11 42 05-4.650017945096e-05-2.458477865730e-12 0.000000000000e+00
     1.030000000000e+02 8.262500000000e+01 2.962623405157e-09-1.461712353890e+00
     3.989785909653e-06 4.925592802465e-04 8.584931492805e-06 5.440620250702e+03
     2.142000000000e+05 1.676380634308e-08-1.332505654609e+00-3.725290298462e-09
     9.625734549566e-01 1.557500000000e+02-2.476298829797e+00-5.507015103569e-09
     8.036049019412e-11 1.000000000000e+00 1.404000000000e+03                   
     1.070000000000e+02 0.000000000000e+00-3.725290298462e-09-2.328306436539e-09
     2.149250000000e+05                                                         
E12 2026 07 21 11 42 05-5.902285920456e-05-2.614797267597e-12 0.000000000000e+00
     1.030000000000e+02-5.396875000000e+01 2.787258957666e-09 1.756224420539e-01
    -2.445653080940e-06 3.172440920025e-04 4.999339580536e-06 5.440602949142e+03
     2.142000000000e+05 6.891787052155e-08 7.694364939127e-01-5.587935447693e-09
     9.945571846474e-01 2.489687500000e+02 8.581604185574e-01-5.532730460432e-09
    -1.267909956396e-10 1.000000000000e+00 1.404000000000e+03                   
     1.070000000000e+02 0.000000000000e+00-1.187436282635e-08-1.164153218269e-08
     2.149250000000e+05                                                         
END OF FILE                                                 COMMENT
