     3.05           N: NAVIGATION       M: MIXED            RINEX VERSION / TYPE
PYRINEXCONV 0.1.2 ALDELTUNES            20260720 232932 UTC PGM / RUN BY / DATE
GAL    1.0300e+02  3.0469e-01  2.1057e-02             X 30  IONOSPHERIC CORR
GPSA   9.3132e-09  2.2352e-08  1.5199e-05  1.5140e-05 X 28  IONOSPHERIC CORR
GPSB   1.0035e+05  1.3107e+05  1.6712e+07  1.6318e+07 X 28  IONOSPHERIC CORR
BDSA   1.9558e-08  2.9802e-08 -5.9605e-07  1.0133e-06 X 32  IONOSPHERIC CORR
BDSB   1.4131e+05 -7.5366e+05  5.9638e+06 -4.9152e+06 X 32  IONOSPHERIC CORR
GAUT  7.4505805969e-09-2.664535259e-15 167400 1404   E30  0 TIME SYSTEM CORR
GPUT -3.3469405025e-09-7.989164885e-13 342300 2428   G28  0 TIME SYSTEM CORR
BDUT  0.0000000000e+00 0.000000000e+00 169200 1072   C32  0 TIME SYSTEM CORR
                                                            END OF HEADER
E07 2026 07 20 23 20 35-7.845723303035e-05-2.557953848736e-12 0.000000000000e+00
     2.800000000000e+01-4.934375000000e+01 3.377640692292e-09 1.859150750348e+00
    -2.179294824600e-06 4.223425639793e-04 5.606561899185e-06 5.440616403580e+03
     1.692000000000e+05-3.166496753693e-08 2.852494810178e+00-1.862645149231e-09
     9.693511222337e-01 2.233125000000e+02 1.825567995606e-01-5.690237021212e-09
     1.953652806053e-10 1.000000000000e+00 1.404000000000e+03                   
     1.070000000000e+02 0.000000000000e+00 4.423782229424e-09 4.889443516731e-09
     1.704350000000e+05                                                         
E27 2026 07 20 23 20 54-1.049668760970e-03-1.061550847226e-11 0.000000000000e+00
     2.800000000000e+01 1.213125000000e+02 3.154774266154e-09 8.228897460095e-01
     5.515292286873e-06 2.439131494612e-04 8.605420589447e-06 5.440619482040e+03
     1.692000000000e+05 9.313225746155e-09-1.328977093276e+00-7.450580596924e-09
     9.605923625162e-01 1.508437500000e+02-8.709825546623e-01-5.610948004220e-09
    -6.035965707914e-11 5.160000000000e+02 1.404000000000e+03                   
     1.070000000000e+02 0.000000000000e+00 6.984919309616e-10 9.313225746155e-10
     1.704540000000e+05                                                         
E33 2026 07 20 23 20 54-2.512673381716e-05-1.989519660128e-12 0.000000000000e+00
     2.800000000000e+01-6.806250000000e+01 2.419029333710e-09-7.061774204269e-01
    -3.118067979813e-06 1.669526100159e-04 6.726011633873e-06 5.440606302261e+03
     1.692000000000e+05 7.636845111847e-08 7.701425640091e-01 1.862645149231e-08
     9.976743617132e-01 2.128125000000e+02-3.025765390519e+00-5.480585431239e-09
    -1.835790753768e-10 5.160000000000e+02 1.404000000000e+03                   
     1.070000000000e+02 0.000000000000e+00-4.190951585770e-09-4.656612873077e-09
     1.704540000000e+05                                                         
E26 2026 07 20 23 21 05 3.672810853459e-04 1.081446043827e-11 0.000000000000e+00
     2.800000000000e+01-6.909375000000e+01 2.491889511486e-09-3.663996899035e-01
    -3.106892108917e-06 9.150046389550e-05 7.072463631630e-06 5.440601486206e+03
     1.692000000000e+05 5.215406417847e-08 7.667038828999e-01 9.313225746155e-08
     9.909375610527e-01 2.016250000000e+02-2.595191412413e+00-5.461656071327e-09
    -1.732215010851e-10 1.000000000000e+00 1.404000000000e+03                   
     1.070000000000e+02 0.000000000000e+00-4.889443516731e-09-5.355104804039e-09
     1.704650000000e+05                                                         
G01 2026 07 20 23 24 00 2.173086104449e-04-9.638512210586e-12 0.000000000000e+00
     2.908706665039e-05-3.956640625000e+01 4.438220583988e-09 2.760973339245e+00
    -2.084299921989e-06 1.825133396778e-03 6.031244993210e-06 5.153618823177e+03
     8.550000000000e+04 2.980232238770e-08 6.295022200142e-01 4.656612873077e-09
     9.571191572718e-01 2.614335937500e+02 1.954132462146e-01-8.128853548572e-09
    -1.601852437869e-10 4.438220583988e-09-2.000000000000e+00 3.000000000000e+00
     3.100000000000e+01 4.000000000000e+00-8.847564458847e-09 7.000000000000e+00
    -2.910383045673e-10 5.646143108606e-09-5.529727786779e-10-6.693881005049e-10
     1.706400000000e+05 2.428000000000e+03 0.000000000000e+00                   
G31 2026 07 20 23 26 24-1.341179013252e-04 2.728484105319e-12 0.000000000000e+00
     4.400000000000e+01-2.543750000000e+01 4.918776315348e-09 3.371780548765e-01
    -1.119449734688e-06 1.091442990582e-02 8.637085556984e-06 5.153631544113e+03
     1.728000000000e+05-4.656612873077e-08-2.561082422631e+00 9.685754776001e-08
     9.550197725440e-01 2.106562500000e+02 9.764782499186e-01-8.298917111780e-09
    -2.953694461802e-10 1.000000000000e+00 3.800000000000e+02 0.000000000000e+00
     2.000000000000e+00 0.000000000000e+00-1.350417733192e-08 4.400000000000e+01
     6.831360000000e+05 4.000000000000e+00                                      
G26 2026 07 20 23 26 24-3.840886056423e-04-2.501110429876e-12 0.000000000000e+00
     8.100000000000e+01 5.143750000000e+01 5.349508542789e-09-2.897121153982e-01
     2.676621079445e-06 1.116570027079e-02 9.324401617050e-06 5.153581596375e+03
     1.728000000000e+05 9.313225746155e-09-1.639710070197e+00 1.341104507446e-07
     9.274900724958e-01 1.798125000000e+02 7.148310607029e-01-8.559999415478e-09
    -1.735786588193e-10 1.000000000000e+00 3.800000000000e+02 0.000000000000e+00
     2.000000000000e+00 0.000000000000e+00 6.519258022308e-09 8.100000000000e+01
     6.831360000000e+05 4.000000000000e+00                                      
G28 2026 07 20 23 26 24-4.659704864025e-04 1.091393642128e-11 0.000000000000e+00
     9.400000000000e+01-3.040625000000e+01 4.736268713174e-09 2.093372286638e+00
    -1.404434442520e-06 5.173209356144e-04 8.644536137581e-06 5.153621377945e+03
     1.728000000000e+05 1.061707735062e-07-2.610053545355e+00 7.636845111847e-08
     9.622432289957e-01 2.130312500000e+02-3.117452708818e-01-8.068907530958e-09
    -1.967939115420e-10 1.000000000000e+00 3.800000000000e+02 0.000000000000e+00
     2.000000000000e+00 0.000000000000e+00-9.313225746155e-09 3.500000000000e+02
     6.831360000000e+05 4.000000000000e+00                                      
G03 2026 07 20 23 26 24 3.643161617219e-04-1.887201506179e-11 0.000000000000e+00
     3.800000000000e+01-2.650000000000e+01 3.571934499695e-09 9.220084394552e-01
    -1.473352313042e-06 6.975050549954e-03 8.925795555115e-06 5.153768224716e+03
     1.727840000000e+05-7.450580596924e-08 1.621844139267e+00 1.303851604462e-08
     9.947579043224e-01 2.238750000000e+02 1.276513170252e+00-7.735322207219e-09
     2.585821995580e-10 1.000000000000e+00 3.800000000000e+02 0.000000000000e+00
     2.000000000000e+00 0.000000000000e+00 1.396983861923e-09 3.800000000000e+01
     6.831360000000e+05 4.000000000000e+00                                      
G32 2026 07 20 23 26 24 1.745685003698e-04 2.023625711445e-11 0.000000000000e+00
     8.300000000000e+01-2.106250000000e+01 4.618763818624e-09-1.466529608536e+00
    -8.679926395416e-07 9.457790991291e-03 6.109476089478e-06 5.153570587158e+03
     1.728000000000e+05 1.620501279831e-07 2.642504108297e+00 1.732259988785e-07
     9.696742530420e-01 2.640937500000e+02-1.972830629617e+00-8.052478275185e-09
     2.821546100149e-10 1.000000000000e+00 3.800000000000e+02 0.000000000000e+00
     2.000000000000e+00 0.000000000000e+00 9.313225746155e-10 8.300000000000e+01
     6.831360000000e+05 4.000000000000e+00                                      
G32 2026 07 20 23 27 12 1.745324698277e-04 2.020072997766e-11 0.000000000000e+00
     2.517700195312e-04-2.041406250000e+01 4.596977196838e-09-1.729096652845e+00
    -9.573996067047e-07 9.457893262152e-03 6.184913218021e-06 5.153652258123e+03
     9.540000000000e+04 1.620501279831e-07 2.642518317620e+00 5.867332220078e-08
     9.696740006886e-01 2.641601562500e+02-1.972824286405e+00-8.356541604122e-09
     3.162631736306e-10 4.596977196838e-09-2.000000000000e+00 3.000000000000e+00
     3.100000000000e+01 4.000000000000e+00 9.313225746155e-10 7.000000000000e+00
    -2.910383045673e-10-1.891748979688e-09 8.614733815193e-09 9.051291272044e-09
     1.708320000000e+05 2.428000000000e+03 0.000000000000e+00                   
G03 2026 07 20 23 27 12 3.643557138275e-04-1.891464762593e-11 0.000000000000e+00
     1.033020019531e-02-3.304687500000e+01 3.616579216470e-09 6.177080208528e-01
    -1.737847924232e-06 6.972287141252e-03 8.434988558292e-06 5.153456002673e+03
     1.620000000000e+05-5.308538675308e-08 1.621860325724e+00 8.381903171539e-09
     9.947573608484e-01 2.366328125000e+02 1.276869954759e+00-8.594051497362e-09
     2.469745731966e-10 3.616579216470e-09-2.000000000000e+00 2.000000000000e+00
     2.700000000000e+01 4.000000000000e+00 1.396983861923e-09 7.000000000000e+00
     5.529727786779e-10-2.008164301515e-09 1.862645149231e-09 5.005858838558e-09
     1.708320000000e+05 2.428000000000e+03 0.000000000000e+00                   
G26 2026 07 20 23 27 12-3.840841236524e-04-2.511768570912e-12 0.000000000000e+00
     8.203029632568e-03 6.044531250000e+01 5.322543133857e-09-5.525110636750e-01
     3.195367753506e-06 1.116683072178e-02 9.777024388313e-06 5.153641954247e+03
     1.152000000000e+05 5.401670932770e-08-1.639694619588e+00 1.639127731323e-07
     9.274905596475e-01 1.729140625000e+02 7.150743388593e-01-7.818126319821e-09
    -1.801860769019e-10 5.322543133857e-09-2.000000000000e+00 3.000000000000e+00
     3.000000000000e+01 4.000000000000e+00 6.519258022308e-09 7.000000000000e+00
    -8.440110832453e-10-4.190951585770e-09 5.820766091347e-09 5.878973752260e-09
     1.708320000000e+05 2.428000000000e+03 0.000000000000e+00                   
G31 2026 07 20 23 28 48-1.341225288343e-04 2.749800387392e-12 0.000000000000e+00
     2.326011657715e-03-2.828515625000e+01 4.916097632342e-09 7.455362175474e-02
    -1.364387571812e-06 1.091416960116e-02 8.775852620602e-06 5.153591537401e+03
     1.377000000000e+05-2.514570951462e-08-2.561067546217e+00 9.965151548386e-08
     9.550202831024e-01 2.088867187500e+02 9.765517140072e-01-8.029742277332e-09
    -2.834046620846e-10 4.916097632342e-09-2.000000000000e+00 3.000000000000e+00
     2.900000000000e+01 4.000000000000e+00-1.350417733192e-08 7.000000000000e+00
    -2.619344741106e-10 8.265487849712e-09 0.000000000000e+00 0.000000000000e+00
     1.709280000000e+05 2.428000000000e+03 0.000000000000e+00                   
C23 2026 07 20 23 28 54-4.541791277006e-04 3.907985046681e-14 0.000000000000e+00
     1.000000000000e+00 1.429687500000e+01 4.164459180726e-09 1.148017000042e+00
     6.360933184624e-07 3.784405998886e-04 1.046480610967e-05 5.282651235580e+03
     1.692000000000e+05-1.769512891769e-08-2.018262075757e+00 3.285286948085e-05
     9.436871459804e-01 1.366406250000e+02-8.788774861236e-01 4.459432181822e-07
    -3.046555472693e-10                    1.072000000000e+03                   
     0.000000000000e+00 0.000000000000e+00 1.024454832077e-07 1.024454832077e-07
     1.709340000000e+05 1.000000000000e+00                                      
C41 2026 07 20 23 28 54-9.488258510828e-04-2.057909398445e-12 0.000000000000e+00
     1.000000000000e+00-1.204687500000e+01 3.425142670940e-09-2.877475890421e+00
    -5.415640771389e-07 1.458183396608e-03 7.334165275097e-06 5.282628391266e+03
     1.692000000000e+05 2.887099981308e-08 2.179947349934e+00-5.907379090786e-06
     9.876127929856e-01 2.237656250000e+02-1.038442234213e+00 1.654496416417e-06
     4.603763193788e-10                    1.072000000000e+03                   
     0.000000000000e+00 0.000000000000e+00-1.117587089539e-07-1.117587089539e-07
     1.709340000000e+05 1.000000000000e+00                                      
C25 2026 07 20 23 28 54 8.136995602399e-04-9.107381515605e-12 0.000000000000e+00
     1.000000000000e+00 1.839062500000e+01 4.185531487044e-09 3.842627637551e-01
     1.010484993458e-06 5.762433866039e-04 1.037493348122e-05 5.282667985916e+03
     1.692000000000e+05 7.962808012962e-08-2.040907958386e+00 1.375516876578e-05
     9.453155990920e-01 1.392812500000e+02 6.206429717224e-01 2.297997506534e-06
    -2.632252501025e-10                    1.072000000000e+03                   
     0.000000000000e+00 0.000000000000e+00 1.862645149231e-09 1.862645149231e-09
     1.709340000000e+05 1.000000000000e+00                                      
C32 2026 07 20 23 28 54-9.033475071192e-04 1.912248137614e-12 0.000000000000e+00
     1.000000000000e+00-1.401562500000e+01 3.381926585103e-09 1.584489422882e+00
    -8.521601557732e-07 5.076674278826e-04 7.350929081440e-06 5.282630786896e+03
     1.692000000000e+05 5.774199962616e-08 2.177693411569e+00-5.939975380898e-06
     9.887576039173e-01 2.250312500000e+02-4.962554157157e-02-5.456866586111e-07
     4.364467511876e-10                    1.072000000000e+03                   
     0.000000000000e+00 0.000000000000e+00-3.818422555923e-08-3.818422555923e-08
     1.709340000000e+05 1.000000000000e+00                                      
E33 2026 07 20 23 29 24-2.512801438570e-05-1.989519660128e-12 0.000000000000e+00
     2.900000000000e+01-6.843750000000e+01 2.424386699723e-09-6.317954121292e-01
    -3.134831786156e-06 1.667501637712e-04 6.798654794693e-06 5.440605901718e+03
     1.698000000000e+05 7.636845111847e-08 7.701392782951e-01 1.676380634308e-08
     9.976742476056e-01 2.112187500000e+02-3.025762333021e+00-5.481299746707e-09
    -1.832219176426e-10 5.160000000000e+02 1.404000000000e+03                   
     1.070000000000e+02 0.000000000000e+00-4.190951585770e-09-4.656612873077e-09
     1.709640000000e+05                                                         
E27 2026 07 20 23 29 25-1.049675105605e-03-1.061550847226e-11 0.000000000000e+00
     2.900000000000e+01 1.205312500000e+02 3.164774682711e-09 8.976772005900e-01
     5.511566996574e-06 2.439039526507e-04 8.611008524895e-06 5.440619291306e+03
     1.698000000000e+05 1.117587089539e-08-1.328980460913e+00-1.117587089539e-08
     9.605923098511e-01 1.505625000000e+02-8.713849844080e-01-5.613090950626e-09
    -5.928818387655e-11 1.000000000000e+00 1.404000000000e+03                   
     1.070000000000e+02 0.000000000000e+00 6.984919309616e-10 9.313225746155e-10
     1.709650000000e+05                                                         
E30 2026 07 20 23 29 35-1.275924907532e-03-3.971933892899e-11 0.000000000000e+00
     2.500000000000e+01 1.072812500000e+02 3.258350009071e-09-4.525046708073e-02
     5.045905709267e-06 2.124481834471e-04 8.385628461838e-06 5.440624414444e+03
     1.674000000000e+05 2.980232238770e-08-1.327277429701e+00 1.676380634308e-08
     9.583802767739e-01 1.559687500000e+02 5.253313294728e-01-5.640592096159e-09
    -4.107313943255e-11 1.000000000000e+00 1.404000000000e+03                   
     1.070000000000e+02 0.000000000000e+00 6.984919309616e-10 9.313225746155e-10
     1.709750000000e+05                                                         
E29 2026 07 20 23 29 35-2.271159319207e-04-3.680611371237e-12 0.000000000000e+00
     2.300000000000e+01-4.028125000000e+01 3.495145586843e-09-5.361748937451e-01
    -1.955777406693e-06 2.002498367801e-04 5.513429641724e-06 5.440609569550e+03
     1.662000000000e+05 3.166496753693e-08 2.852246529574e+00-1.303851604462e-08
     9.627364781586e-01 2.227500000000e+02 1.414841759164e+00-5.765240145393e-09
     1.767930784271e-10 1.000000000000e+00 1.404000000000e+03                   
     1.070000000000e+02 0.000000000000e+00-3.259629011154e-09-3.026798367500e-09
     1.709750000000e+05                                                         
E07 2026 07 20 23 29 35-7.845880463719e-05-2.557953848736e-12 0.000000000000e+00
     2.900000000000e+01-4.956250000000e+01 3.371569010811e-09 1.933486272961e+00
    -2.184882760048e-06 4.223064752296e-04 5.599111318588e-06 5.440616483688e+03
     1.698000000000e+05-2.793967723846e-08 2.852491335748e+00-1.117587089539e-08
     9.693512612109e-01 2.235625000000e+02 1.826067421209e-01-5.683093866528e-09
     1.978653847446e-10 1.000000000000e+00 1.404000000000e+03                   
     1.070000000000e+02 0.000000000000e+00 4.423782229424e-09 4.889443516731e-09
     1.709750000000e+05                                                         
E26 2026 07 20 23 29 35 3.672876628116e-04 1.081446043827e-11 0.000000000000e+00
     2.900000000000e+01-6.718750000000e+01 2.483317725865e-09-2.928609353820e-01
    -3.015622496605e-06 9.172561112791e-05 7.089227437973e-06 5.440601959229e+03
     1.698000000000e+05 3.911554813385e-08 7.667006220555e-01 1.005828380585e-07
     9.909375200910e-01 2.012500000000e+02-2.594344518897e+00-5.454870074377e-09
    -1.803646557690e-10 1.000000000000e+00 1.404000000000e+03                   
     1.070000000000e+02 0.000000000000e+00-4.889443516731e-09-5.355104804039e-09
     1.709750000000e+05                                                         
G28 2026 07 20 23 29 36-4.659901314881e-04 1.087130385713e-11 0.000000000000e+00
     4.796981811523e-04-3.102343750000e+01 4.722696719275e-09 1.830788510936e+00
    -1.540407538414e-06 5.171363591217e-04 8.629634976387e-06 5.153601217573e+03
     1.107000000000e+05 1.061707735062e-07-2.610038813039e+00 1.862645149231e-09
     9.622435991140e-01 2.124648437500e+02-3.117150096899e-01-8.267430749440e-09
    -2.426886803862e-10 4.722696719275e-09-2.000000000000e+00 3.000000000000e+00
     3.000000000000e+01 4.000000000000e+00-9.313225746155e-09 7.000000000000e+00
    -3.492459654808e-10 5.966285243630e-09-7.566995918751e-10-6.693881005049e-10
     1.709760000000e+05 2.428000000000e+03 0.000000000000e+00                   
END OF FILE                                                 COMMENT
