     3.05           N: NAVIGATION       M: MIXED            RINEX VERSION / TYPE
PYRINEXCONV 0.1.2 ALDELTUNES            20260721 033020 UTC PGM / RUN BY / DATE
GAL    1.0175e+02  3.3203e-01  2.2858e-02             D 04  IONOSPHERIC CORR
GPSA   9.3132e-09  2.2352e-08  1.5199e-05  1.5140e-05 D 27  IONOSPHERIC CORR
GPSB   1.0035e+05  1.3107e+05  1.6712e+07  1.6318e+07 D 27  IONOSPHERIC CORR
BDSA   2.0489e-08  2.2352e-08 -5.3644e-07  9.5367e-07 D 32  IONOSPHERIC CORR
BDSB   1.3722e+05 -5.4067e+05  4.7841e+06 -4.1943e+06 D 32  IONOSPHERIC CORR
GAUT  6.5192580223e-09-2.664535259e-15 184200 1404   E04  0 TIME SYSTEM CORR
GPUT -3.1141098589e-09-5.329070518e-15 370800 2428   G27  0 TIME SYSTEM CORR
BDUT  0.0000000000e+00 0.000000000e+00 183600 1072   C32  0 TIME SYSTEM CORR
                                                            END OF HEADER
G07 2026 07 21 03 23 12-2.078761754092e-04-3.755218358492e-12 0.000000000000e+00
     4.545211791992e-03-3.667578125000e+01 4.786092217095e-09-3.008415293281e+00
    -1.901760697365e-06 2.093720907578e-02 8.634291589260e-06 5.153634460868e+03
     1.161000000000e+05 3.129243850708e-07-2.586013350385e+00-2.095475792885e-07
     9.513214732150e-01 2.023242187500e+02-1.955314085949e+00-8.547620991917e-09
    -1.098260032653e-10 4.786092217095e-09-2.000000000000e+00 3.000000000000e+00
     3.100000000000e+01 4.000000000000e+00-1.071020960808e-08 7.000000000000e+00
    -9.313225746155e-10 6.984919309616e-09 0.000000000000e+00 0.000000000000e+00
     1.849920000000e+05 2.428000000000e+03 0.000000000000e+00                   
G09 2026 07 21 03 23 54 7.171649485826e-04-6.934897101019e-12 0.000000000000e+00
     7.100000000000e+01-1.996875000000e+01 4.513402287036e-09 5.993508851872e-01
    -1.080334186554e-06 3.669901983812e-03 6.292015314102e-06 5.153694850922e+03
     1.872000000000e+05 7.450580596924e-09 2.624916329296e+00-4.842877388000e-08
     9.667053836852e-01 2.590312500000e+02 2.038022418306e+00-8.145339286076e-09
     2.985838657879e-10 1.000000000000e+00 3.800000000000e+02 0.000000000000e+00
     2.000000000000e+00 0.000000000000e+00 4.656612873077e-10 7.100000000000e+01
     7.401360000000e+05 4.000000000000e+00                                      
G04 2026 07 21 03 23 54 6.274040788412e-05 6.821210263297e-13 0.000000000000e+00
     5.000000000000e+00-2.315625000000e+01 4.401611916233e-09-2.683905027874e-01
    -1.115724444389e-06 3.822015016340e-03 6.172806024551e-06 5.153673837662e+03
     1.872000000000e+05 6.891787052155e-08 2.690090186997e+00 2.793967723846e-08
     9.724430142234e-01 2.653750000000e+02-2.902086066802e+00-8.078550789781e-09
     2.771544017362e-10 1.000000000000e+00 3.800000000000e+02 0.000000000000e+00
     2.000000000000e+00 0.000000000000e+00-4.656612873077e-09 5.170000000000e+02
     7.401360000000e+05 4.000000000000e+00                                      
G08 2026 07 21 03 23 54 3.940509632230e-04-9.208633855451e-12 0.000000000000e+00
     8.100000000000e+01 5.003125000000e+01 5.274505418608e-09-1.925180004046e-02
     2.689659595490e-06 1.168377755675e-02 4.528090357780e-06 5.153748132706e+03
     1.872000000000e+05 1.080334186554e-07-5.416434614643e-01 1.136213541031e-07
     9.417700488913e-01 2.788125000000e+02 5.447862220414e-01-8.702148193688e-09
    -1.428630936784e-10 1.000000000000e+00 3.800000000000e+02 0.000000000000e+00
     2.000000000000e+00 0.000000000000e+00 4.656612873077e-09 8.100000000000e+01
     7.401360000000e+05 4.000000000000e+00                                      
G27 2026 07 21 03 23 54 5.350448191166e-07 0.000000000000e+00 0.000000000000e+00
     9.100000000000e+01 4.712500000000e+01 5.086283292686e-09 1.286910908776e-01
     2.648681402206e-06 1.432913157623e-02 4.682689905167e-06 5.153673446655e+03
     1.872000000000e+05-2.793967723846e-08-5.084284536059e-01 1.974403858185e-07
     9.508937086540e-01 2.822500000000e+02 9.005730337617e-01-8.652860426369e-09
    -1.710785546799e-10 1.000000000000e+00 3.800000000000e+02 0.000000000000e+00
     2.800000000000e+00 0.000000000000e+00 2.328306436539e-09 9.100000000000e+01
     7.401360000000e+05 4.000000000000e+00                                      
G16 2026 07 21 03 23 54 3.020018339157e-04 6.480149750132e-12 0.000000000000e+00
     8.800000000000e+01 5.556250000000e+01 4.796985527988e-09 1.055045791189e+00
     3.138557076454e-06 1.503419992514e-02 9.190291166306e-06 5.153715074539e+03
     1.872000000000e+05-1.788139343262e-07-1.450449842064e+00 1.583248376846e-07
     9.573745001136e-01 2.048437500000e+02 9.375586091022e-01-8.299274269514e-09
    -1.175048945505e-10 1.000000000000e+00 3.800000000000e+02 0.000000000000e+00
     2.000000000000e+00 0.000000000000e+00-1.024454832077e-08 8.800000000000e+01
     7.401360000000e+05 4.000000000000e+00                                      
G07 2026 07 21 03 23 54-2.078828401864e-04-3.751665644813e-12 0.000000000000e+00
     9.600000000000e+01-3.100000000000e+01 4.775913221670e-09-2.745939998806e+00
    -1.866370439529e-06 2.093705639709e-02 8.448958396912e-06 5.153588115692e+03
     1.872000000000e+05 4.041939973831e-07-2.586027851560e+00-8.754432201385e-08
     9.513213634962e-01 2.061250000000e+02-1.955233648861e+00-7.812111120071e-09
    -2.071514858337e-11 1.000000000000e+00 3.800000000000e+02 0.000000000000e+00
     2.000000000000e+00 0.000000000000e+00-1.071020960808e-08 9.600000000000e+01
     7.401360000000e+05 4.000000000000e+00                                      
C37 2026 07 21 03 28 54-9.073218097910e-04 6.912692640526e-12 0.000000000000e+00
     1.000000000000e+00 1.870312500000e+01 4.227318941945e-09 1.807858117073e+00
     9.704381227493e-07 7.142786635086e-04 9.984243661165e-06 5.282670188904e+03
     1.836000000000e+05 1.033768057823e-07-2.018588858008e+00 2.123694866896e-05
     9.451554168769e-01 1.506406250000e+02-3.737505255582e-01 1.271642254718e-07
    -1.353627812603e-10                    1.072000000000e+03                   
     0.000000000000e+00 0.000000000000e+00-7.823109626770e-08-7.823109626770e-08
     1.853340000000e+05 1.000000000000e+00                                      
C20 2026 07 21 03 28 54-8.893182966858e-04 3.042899265893e-12 0.000000000000e+00
     1.000000000000e+00-1.395312500000e+01 3.250849696653e-09 2.356942117403e+00
    -6.514601409435e-07 8.090336341411e-04 7.441267371178e-06 5.282635536194e+03
     1.836000000000e+05 3.539025783539e-08 2.185679637896e+00-6.793998181820e-07
     9.899301839599e-01 2.225312500000e+02 2.744138148940e-01 1.258868508355e-06
     4.293035965037e-10                    1.072000000000e+03                   
     0.000000000000e+00 0.000000000000e+00 5.541369318962e-08 5.541369318962e-08
     1.853340000000e+05 1.000000000000e+00                                      
C12 2026 07 21 03 28 54 6.157959578559e-04-5.023537141824e-12 0.000000000000e+00
     1.000000000000e+00-1.328125000000e+01 3.553719455251e-09 1.630469720774e+00
    -6.719492375851e-07 1.762796891853e-04 7.256865501404e-06 5.282643817902e+03
     1.836000000000e+05 5.168840289116e-08 2.170705963302e+00-5.243392661214e-05
     9.735964315022e-01 2.174062500000e+02 7.076383474747e-01-1.376624127635e-06
     4.250177036933e-10                    1.072000000000e+03                   
     0.000000000000e+00 0.000000000000e+00 3.725290298462e-09 3.725290298462e-09
     1.853340000000e+05 1.000000000000e+00                                      
C28 2026 07 21 03 28 54 5.406640702859e-04 3.917755009297e-12 0.000000000000e+00
     1.000000000000e+00-7.296875000000e+00 4.239819462642e-09 2.203730723053e+00
    -4.931353032589e-07 1.239192206413e-04 4.018656909466e-06 5.282629848480e+03
     1.836000000000e+05-9.778887033463e-09 7.541098683887e-02 4.550768062472e-05
     9.477883490405e-01 2.703437500000e+02-2.184625124120e+00 1.738979578337e-06
    -3.267993267894e-10                    1.072000000000e+03                   
     0.000000000000e+00 0.000000000000e+00-2.002343535423e-08-2.002343535423e-08
     1.853340000000e+05 1.000000000000e+00                                      
C19 2026 07 21 03 28 54-9.326343424618e-04 8.508749260727e-13 0.000000000000e+00
     1.000000000000e+00-1.856250000000e+01 3.239420649158e-09 2.232843650100e+00
    -9.979121387005e-07 7.839655736461e-04 7.412862032652e-06 5.282632442474e+03
     1.836000000000e+05 4.284083843231e-08 2.185052050428e+00 9.068287909031e-06
     9.899450632997e-01 2.229531250000e+02-3.180424017541e-01 6.475976893289e-07
     4.132314984649e-10                    1.072000000000e+03                   
     0.000000000000e+00 0.000000000000e+00 4.330649971962e-08 4.330649971962e-08
     1.853340000000e+05 1.000000000000e+00                                      
C27 2026 07 21 03 28 54 6.608521798626e-04 4.879652237832e-12 0.000000000000e+00
     1.000000000000e+00-7.343750000000e+00 4.175173912752e-09-2.323725907026e+00
    -4.265457391739e-07 6.343512795866e-04 4.060566425323e-06 5.282657773972e+03
     1.836000000000e+05-2.002343535423e-08 7.573407814834e-02 4.576845094562e-05
     9.479145505944e-01 2.749375000000e+02 1.691837188518e+00 2.052135479680e-06
    -3.314423773340e-10                    1.072000000000e+03                   
     0.000000000000e+00 0.000000000000e+00-2.002343535423e-08-2.002343535423e-08
     1.853340000000e+05 1.000000000000e+00                                      
C13 2026 07 21 03 28 54-9.457473643124e-04-8.419931418757e-12 0.000000000000e+00
     1.000000000000e+00-1.578125000000e+00 4.175888228221e-09-8.741915093567e-01
    -1.285225152969e-07 2.800482325256e-04 3.865920007229e-06 5.282640714645e+03
     1.836000000000e+05 4.656612873077e-10 7.423414385292e-02 5.146814510226e-05
     9.503765583355e-01 2.743125000000e+02 1.336830496882e+00 5.889888194628e-07
    -3.067984936744e-10                    1.072000000000e+03                   
     0.000000000000e+00 0.000000000000e+00 6.519258022308e-09 6.519258022308e-09
     1.853340000000e+05 1.000000000000e+00                                      
C32 2026 07 21 03 28 54-9.033202659339e-04 1.918465386552e-12 0.000000000000e+00
     1.000000000000e+00-9.968750000000e+00 3.248706750248e-09-2.748041318243e+00
    -4.665926098824e-07 5.065618315712e-04 7.136724889278e-06 5.282633277893e+03
     1.836000000000e+05 2.468004822731e-08 2.177598330671e+00-6.384681910276e-06
     9.887640422197e-01 2.312343750000e+02-5.002597882282e-02-6.399991585338e-07
     4.482329564161e-10                    1.072000000000e+03                   
     0.000000000000e+00 0.000000000000e+00-3.818422555923e-08-3.818422555923e-08
     1.853340000000e+05 1.000000000000e+00                                      
E29 2026 07 21 03 30 24-2.271780977026e-04-3.581135388231e-12 0.000000000000e+00
     5.200000000000e+01-4.337500000000e+01 3.311209353732e-09 1.611081664544e+00
    -1.994892954826e-06 2.005466958508e-04 5.308538675308e-06 5.440614410400e+03
     1.836000000000e+05 2.793967723846e-08 2.852146098785e+00-7.450580596924e-09
     9.627400564563e-01 2.299687500000e+02 1.424770870900e+00-5.723095532758e-09
     2.185805333280e-10 5.160000000000e+02 1.404000000000e+03                   
     1.070000000000e+02 0.000000000000e+00-3.259629011154e-09-2.793967723846e-09
     1.854240000000e+05                                                         
E23 2026 07 21 03 30 24-4.268635530025e-05-1.350031197944e-12 0.000000000000e+00
     5.200000000000e+01 1.184062500000e+02 3.143702376394e-09 2.901419929980e+00
     5.444511771202e-06 1.718186540529e-04 9.061768651009e-06 5.440622465134e+03
     1.836000000000e+05-7.450580596924e-09-1.332210876616e+00-2.607703208923e-08
     9.625505500483e-01 1.461250000000e+02-2.755825969088e+00-5.554517082217e-09
     4.643050544549e-12 5.160000000000e+02 1.404000000000e+03                   
     1.070000000000e+02 0.000000000000e+00 4.656612873077e-10 1.862645149231e-09
     1.854240000000e+05                                                         
G08 2026 07 21 03 30 24 3.940675815102e-04-9.229950137524e-12 0.000000000000e+00
    -4.871368408203e-03 4.580078125000e+01 5.255933216430e-09-2.816418393074e-01
     2.566725015640e-06 1.168359367875e-02 4.413537681103e-06 5.153474009747e+03
     1.413000000000e+05 9.685754776001e-08-5.416278236015e-01 9.406358003616e-08
     9.417702434594e-01 2.839804687500e+02 5.446378214371e-01-7.618653725273e-09
    -1.383986220010e-10 5.255933216430e-09-2.000000000000e+00 3.000000000000e+00
     2.900000000000e+01 4.000000000000e+00 4.656612873077e-09 7.000000000000e+00
    -1.047737896442e-09-4.685716703534e-09 6.257323548198e-09 6.839400157332e-09
     1.854240000000e+05 2.428000000000e+03 0.000000000000e+00                   
G09 2026 07 21 03 30 24 7.171775796451e-04-6.988187806201e-12 0.000000000000e+00
     1.067161560059e-03-1.843359375000e+01 4.531081594879e-09 3.367306725841e-01
    -1.054257154465e-06 3.669601399451e-03 6.325542926788e-06 5.153528200759e+03
     1.395000000000e+05 1.117587089539e-08 2.624931008947e+00-4.284083843231e-08
     9.667048365538e-01 2.602773437500e+02 2.038101396132e+00-8.187427416980e-09
     2.962623405157e-10 4.531081594879e-09-2.000000000000e+00 3.000000000000e+00
     3.000000000000e+01 4.000000000000e+00 4.656612873077e-10 7.000000000000e+00
    -5.820766091347e-10-7.275957614183e-10 5.064066499472e-09 5.617039278150e-09
     1.854240000000e+05 2.428000000000e+03 0.000000000000e+00                   
G04 2026 07 21 03 30 24 6.273915641941e-05 6.998845947237e-13 0.000000000000e+00
     2.199172973633e-03-2.011328125000e+01 4.413219542594e-09-5.311305949440e-01
    -1.107342541218e-06 3.822266007774e-03 6.177462637424e-06 5.153549172013e+03
     1.233000000000e+05 8.102506399155e-08 2.690104707190e+00 1.955777406693e-08
     9.724425592559e-01 2.658359375000e+02-2.901889416965e+00-8.267966486041e-09
     2.787616115400e-10 4.413219542594e-09-2.000000000000e+00 3.000000000000e+00
     3.000000000000e+01 4.000000000000e+00-4.656612873077e-09 7.000000000000e+00
    -2.037268131971e-10 3.317836672068e-09-1.426087692380e-09-1.396983861923e-09
     1.854240000000e+05 2.428000000000e+03 0.000000000000e+00                   
G27 2026 07 21 03 30 24 5.350739229470e-07-3.552713678801e-14 0.000000000000e+00
    -5.846023559570e-04 4.455078125000e+01 5.107712756738e-09-1.338434422709e-01
     2.496875822544e-06 1.432877802290e-02 4.680827260017e-06 5.153549875791e+03
     1.341000000000e+05 1.490116119385e-08-5.084130234774e-01 1.629814505577e-07
     9.508939266288e-01 2.831289062500e+02 9.005609361606e-01-7.654905235294e-09
    -1.462560921533e-10 5.107712756738e-09-3.000000000000e+00 1.000000000000e+00
     3.000000000000e+01 4.000000000000e+00 2.328306436539e-09 7.000000000000e+00
    -9.022187441587e-10-1.688022166491e-09 6.664777174592e-09 5.326000973582e-09
     1.854240000000e+05 2.428000000000e+03 0.000000000000e+00                   
E19 2026 07 21 03 30 35 3.108332632110e-03 2.444267011015e-11 0.000000000000e+00
     5.300000000000e+01-4.615625000000e+01 3.113701126721e-09 2.601157714602e+00
    -2.032145857811e-06 2.437434159219e-04 5.710870027542e-06 5.440617225647e+03
     1.842000000000e+05 5.029141902924e-08 2.860559381620e+00-2.980232238770e-08
     9.747223327547e-01 2.225937500000e+02-2.389731073777e-01-5.589875697903e-09
     2.192948487964e-10 1.000000000000e+00 1.404000000000e+03                   
     1.070000000000e+02 0.000000000000e+00-4.423782229424e-09-4.423782229424e-09
     1.854350000000e+05                                                         
E04 2026 07 21 03 30 35-1.224564621225e-04 3.342393029016e-11 0.000000000000e+00
     5.300000000000e+01-4.006250000000e+01 3.221562762449e-09 1.606854570068e+00
    -1.966953277588e-06 2.934384392574e-04 5.589798092842e-06 5.440608936310e+03
     1.842000000000e+05 1.676380634308e-08 2.852461152822e+00-1.862645149231e-08
     9.693526890190e-01 2.203750000000e+02-6.804140827777e-02-5.659164298337e-09
     2.132231673151e-10 1.000000000000e+00 1.404000000000e+03                   
     1.070000000000e+02 0.000000000000e+00-4.190951585770e-09-4.656612873077e-09
     1.854350000000e+05                                                         
E21 2026 07 21 03 30 35-7.585528655909e-04-2.813749233610e-12 0.000000000000e+00
     5.300000000000e+01 1.010000000000e+02 3.322281243492e-09 2.565190772046e+00
     4.813075065613e-06 1.728069037199e-04 8.186325430870e-06 5.440612735748e+03
     1.842000000000e+05 6.332993507385e-08-1.329021446026e+00 2.607703208923e-08
     9.606202223281e-01 1.645937500000e+02-1.553161481330e+00-5.618805474373e-09
     2.321525272275e-11 1.000000000000e+00 1.404000000000e+03                   
     1.070000000000e+02 0.000000000000e+00 6.984919309616e-10 9.313225746155e-10
     1.854350000000e+05                                                         
E14 2026 07 21 03 30 35 3.964496485423e-03 1.530935378469e-10 5.204170427930e-18
     5.300000000000e+01 7.378125000000e+01 5.133428113600e-09-2.682880887203e+00
     2.697110176086e-06 1.682719065575e-01 5.837529897690e-06 5.289376207352e+03
     1.842000000000e+05-2.888962626457e-06-4.465826716294e-01-9.033828973770e-07
     8.527868439608e-01 2.306562500000e+02-3.116689208947e+00-6.662063215960e-09
    -4.714482091388e-11 1.000000000000e+00 1.404000000000e+03                   
     1.070000000000e+02 1.440000000000e+02-2.793967723846e-09-3.492459654808e-09
     1.854350000000e+05                                                         
E28 2026 07 21 03 30 35-6.029597716406e-05-2.856381797756e-12 0.000000000000e+00
     5.200000000000e+01-4.278125000000e+01 3.551219351112e-09-1.288110472343e-01
    -1.991167664528e-06 2.851557219401e-04 5.381181836128e-06 5.440609237671e+03
     1.836000000000e+05 1.490116119385e-08 2.870159980472e+00-9.313225746155e-09
     9.490518918664e-01 2.151875000000e+02 1.959078299978e+00-5.851672317069e-09
     2.078658013021e-10 1.000000000000e+00 1.404000000000e+03                   
     1.070000000000e+02 0.000000000000e+00 9.313225746155e-10 1.862645149231e-09
     1.854350000000e+05                                                         
E27 2026 07 21 03 30 35-1.049820624758e-03-1.055866505340e-11 0.000000000000e+00
     5.200000000000e+01 8.940625000000e+01 3.273350633907e-09 2.619482434198e+00
     4.265457391739e-06 2.435067435727e-04 8.448958396912e-06 5.440616310120e+03
     1.836000000000e+05-4.842877388000e-08-1.329059028392e+00 5.587935447693e-08
     9.605916105763e-01 1.595312500000e+02-8.823274492570e-01-5.588447066966e-09
     7.071723137082e-11 1.000000000000e+00 1.404000000000e+03                   
     1.070000000000e+02 0.000000000000e+00 2.328306436539e-10 2.328306436539e-10
     1.854350000000e+05                                                         
END OF FILE                                                 COMMENT
