     3.05           N: NAVIGATION       M: MIXED            RINEX VERSION / TYPE
PYRINEXCONV 0.1.2 ALDELTUNES            20260721 115200 UTC PGM / RUN BY / DATE
GAL    1.0175e+02  3.3203e-01  2.2858e-02             L 33  IONOSPHERIC CORR
GPSA   9.3132e-09  2.2352e-08  1.5199e-05  1.5140e-05 L 21  IONOSPHERIC CORR
GPSB   1.0035e+05  1.3107e+05  1.6712e+07  1.6318e+07 L 21  IONOSPHERIC CORR
GAUT  6.5192580223e-09-2.664535259e-15 214800 1404   E33  0 TIME SYSTEM CORR
GPUT -3.1141098589e-09-1.736388811e-13 428400 2428   G21  0 TIME SYSTEM CORR
                                                            END OF HEADER
G11 2026 07 21 11 43 54-2.677883021533e-04 1.227817847393e-11 0.000000000000e+00
     6.800000000000e+01-2.675000000000e+01 4.559118477013e-09-2.804708465308e+00
    -1.342967152596e-06 2.486749202944e-03 5.591660737991e-06 5.153651065826e+03
     2.160000000000e+05 3.166496753693e-08 5.992905602973e-01-1.396983861923e-07
     9.627627141315e-01 2.712500000000e+02-2.355535992729e+00-8.172126116141e-09
    -1.628639267934e-10 1.000000000000e+00 3.800000000000e+02 0.000000000000e+00
     2.000000000000e+00 0.000000000000e+00-8.847564458847e-09 8.360000000000e+02
     8.601360000000e+05 4.000000000000e+00                                      
G19 2026 07 21 11 43 54 7.038223557174e-04 4.547473508865e-13 0.000000000000e+00
     5.300000000000e+01 4.746875000000e+01 4.857345185067e-09-4.598883036224e-01
     2.514570951462e-06 1.176441437565e-02 4.749745130539e-06 5.153758861542e+03
     2.160000000000e+05 1.527369022369e-07-3.913393739529e-01-8.195638656616e-08
     9.566062033338e-01 2.841562500000e+02 3.029507515948e+00-8.400707066026e-09
     1.114332130692e-10 1.000000000000e+00 3.800000000000e+02 0.000000000000e+00
     2.000000000000e+00 0.000000000000e+00-1.536682248116e-08 5.300000000000e+01
     8.601360000000e+05 4.000000000000e+00                                      
G12 2026 07 21 11 43 54-6.054616533220e-04 5.684341886081e-13 0.000000000000e+00
     1.000000000000e+01 4.975000000000e+01 4.497330188997e-09 6.626313143511e-01
     2.460554242134e-06 8.705397252925e-03 8.864328265190e-06 5.153704523087e+03
     2.159840000000e+05-9.313225746155e-08-1.467432603498e+00-5.587935447693e-08
     9.583090209601e-01 2.066250000000e+02 1.587346449225e+00-8.132481607645e-09
     3.571577341961e-12 1.000000000000e+00 3.800000000000e+02 0.000000000000e+00
     2.000000000000e+00 0.000000000000e+00-1.257285475731e-08 1.000000000000e+01
     8.601360000000e+05 4.000000000000e+00                                      
G13 2026 07 21 11 43 54 4.184492863715e-04 5.229594535194e-12 0.000000000000e+00
     4.200000000000e+01 4.490625000000e+01 4.425184326689e-09 5.289023622435e-01
     2.237036824226e-06 2.269272110425e-03 8.974224328995e-06 5.153590568542e+03
     2.160000000000e+05 0.000000000000e+00-1.575949081222e+00-2.048909664154e-08
     9.588254793184e-01 2.026875000000e+02 1.820162606930e+00-7.985689778890e-09
     1.535778257043e-11 1.000000000000e+00 3.800000000000e+02 0.000000000000e+00
     2.000000000000e+00 6.300000000000e+01-8.381903171539e-09 4.200000000000e+01
     8.601360000000e+05 4.000000000000e+00                                      
G06 2026 07 21 11 43 54-5.692509002984e-04 7.958078640513e-12 0.000000000000e+00
     1.800000000000e+01-2.809375000000e+01 4.137315192927e-09 2.245621032615e+00
    -1.301988959312e-06 3.694797749631e-03 5.392357707024e-06 5.153722442627e+03
     2.160000000000e+05 1.192092895508e-07 5.836067018817e-01 2.235174179077e-08
     9.858715825372e-01 2.878437500000e+02-5.465688886624e-01-7.944973797192e-09
    -1.864363372504e-10 1.000000000000e+00 3.800000000000e+02 0.000000000000e+00
     2.000000000000e+00 0.000000000000e+00 3.725290298462e-09 1.800000000000e+01
     8.601360000000e+05 4.000000000000e+00                                      
G22 2026 07 21 11 43 54 4.065828397870e-05 8.071765478235e-12 0.000000000000e+00
     2.400000000000e+01 4.831250000000e+01 4.524831334530e-09-1.482229213802e+00
     2.605840563774e-06 1.184484118130e-02 9.551644325256e-06 5.153722507477e+03
     2.159840000000e+05-2.440065145493e-07-1.447295022653e+00 5.960464477539e-08
     9.568465476080e-01 1.985000000000e+02-9.877038098968e-01-8.056764167995e-09
     1.271481533738e-10 1.000000000000e+00 3.800000000000e+02 0.000000000000e+00
     2.000000000000e+00 0.000000000000e+00-1.117587089539e-08 2.400000000000e+01
     8.601360000000e+05 4.000000000000e+00                                      
G25 2026 07 21 11 47 12 4.047322436236e-04-3.229416734030e-12 0.000000000000e+00
    -3.149032592773e-03 5.258984375000e+01 4.814129099229e-09 3.362000070969e-01
     2.788379788399e-06 1.290062017506e-02 8.998438715935e-06 5.153555744960e+03
     1.593000000000e+05-1.704320311546e-07-1.562856923355e+00 8.009374141693e-08
     9.467233388271e-01 2.017070312500e+02 1.161597516536e+00-8.035813958814e-09
    -5.946676274365e-11 4.814129099229e-09-2.000000000000e+00 3.000000000000e+00
     3.000000000000e+01 4.000000000000e+00 5.587935447693e-09 7.000000000000e+00
    -1.891748979688e-09-4.773028194904e-09-1.047737896442e-09 6.402842700481e-10
     2.152320000000e+05 2.428000000000e+03 0.000000000000e+00                   
E33 2026 07 21 11 50 35-2.521497663110e-05-1.989519660128e-12 0.000000000000e+00
     1.030000000000e+02-6.175000000000e+01 2.733328139803e-09-1.421096951101e+00
    -2.812594175339e-06 1.671655336395e-04 5.118548870087e-06 5.440604799271e+03
     2.142000000000e+05 2.421438694000e-08 7.698974520849e-01 2.421438694000e-08
     9.976630270239e-01 2.485625000000e+02-3.015134638403e+00-5.499514791151e-09
    -1.346484657919e-10 1.000000000000e+00 1.404000000000e+03                   
     1.070000000000e+02 0.000000000000e+00-4.423782229424e-09-4.889443516731e-09
     2.154350000000e+05                                                         
E16 2026 07 21 11 50 54-4.650017945096e-05-2.458477865730e-12 0.000000000000e+00
     1.030000000000e+02 8.262500000000e+01 2.962623405157e-09-1.461712353890e+00
     3.989785909653e-06 4.925592802465e-04 8.584931492805e-06 5.440620250702e+03
     2.142000000000e+05 1.676380634308e-08-1.332505654609e+00-3.725290298462e-09
     9.625734549566e-01 1.557500000000e+02-2.476298829797e+00-5.507015103569e-09
     8.036049019412e-11 5.160000000000e+02 1.404000000000e+03                   
     1.070000000000e+02 0.000000000000e+00-3.725290298462e-09-2.328306436539e-09
     2.154540000000e+05                                                         
E12 2026 07 21 11 50 54-5.902285920456e-05-2.614797267597e-12 0.000000000000e+00
     1.030000000000e+02-5.396875000000e+01 2.787258957666e-09 1.756224420539e-01
    -2.445653080940e-06 3.172440920025e-04 4.999339580536e-06 5.440602949142e+03
     2.142000000000e+05 6.891787052155e-08 7.694364939127e-01-5.587935447693e-09
     9.945571846474e-01 2.489687500000e+02 8.581604185574e-01-5.532730460432e-09
    -1.267909956396e-10 5.160000000000e+02 1.404000000000e+03                   
     1.070000000000e+02 0.000000000000e+00-1.187436282635e-08-1.164153218269e-08
     2.154540000000e+05                                                         
G12 2026 07 21 11 51 12-6.054627010599e-04 5.542233338929e-13 0.000000000000e+00
     5.886554718018e-03 4.863281250000e+01 4.535903224290e-09 3.584829002517e-01
     2.461485564709e-06 8.703983854502e-03 8.565373718739e-06 5.153519584271e+03
     2.025000000000e+05-8.940696716309e-08-1.467415643889e+00-5.122274160385e-08
     9.583090143770e-01 2.155156250000e+02 1.587535177361e+00-8.202070884082e-09
     2.857261873569e-12 4.535903224290e-09-2.000000000000e+00 2.000000000000e+00
     2.700000000000e+01 4.000000000000e+00-1.257285475731e-08 7.000000000000e+00
    -6.984919309616e-10 7.072230800986e-09 0.000000000000e+00 0.000000000000e+00
     2.154720000000e+05 2.428000000000e+03 0.000000000000e+00                   
G06 2026 07 21 11 51 12-5.692653940059e-04 7.975842208907e-12 0.000000000000e+00
    -7.128715515137e-03-1.784765625000e+01 4.109635468527e-09 1.982657061328e+00
    -8.838251233101e-07 3.696886647958e-03 5.481764674187e-06 5.153499173991e+03
     1.845000000000e+05 1.052394509315e-07 5.836211130877e-01-1.303851604462e-08
     9.858719241286e-01 2.858281250000e+02-5.461467665764e-01-8.395114639415e-09
    -2.101873265744e-10 4.109635468527e-09-2.000000000000e+00 3.000000000000e+00
     2.900000000000e+01 4.000000000000e+00 3.725290298462e-09 7.000000000000e+00
     3.201421350241e-10-3.929017111659e-09 1.775333657861e-09 2.211891114712e-09
     2.154720000000e+05 2.428000000000e+03 0.000000000000e+00                   
E31 2026 07 21 11 51 54-1.581464312039e-04-2.984279490192e-12 0.000000000000e+00
     1.010000000000e+02 7.603125000000e+01 3.063341886200e-09-1.859423090104e+00
     3.661960363388e-06 3.415956161916e-04 9.361654520035e-06 5.440612691879e+03
     2.130000000000e+05 2.793967723846e-08-1.329261976091e+00 2.793967723846e-08
     9.605988725017e-01 1.409687500000e+02-1.399396088681e+00-5.481299746707e-09
     9.643258823294e-11 5.160000000000e+02 1.404000000000e+03                   
     1.070000000000e+02 0.000000000000e+00 3.492459654808e-09 4.190951585770e-09
     2.155140000000e+05                                                         
G11 2026 07 21 11 52 00-2.678104792722e-04 1.223909862347e-11 0.000000000000e+00
    -9.360313415527e-04-2.354687500000e+01 4.523759861328e-09-3.067374537467e+00
    -1.215375959873e-06 2.486338082235e-03 5.622394382954e-06 5.153570937345e+03
     1.872000000000e+05-3.073364496231e-08 5.993054630438e-01-1.108273863792e-07
     9.627631054621e-01 2.717890625000e+02-2.355419437657e+00-8.195820623734e-09
    -1.960795960737e-10 4.523759861328e-09-2.000000000000e+00 3.000000000000e+00
     2.800000000000e+01 4.000000000000e+00-8.847564458847e-09 7.000000000000e+00
    -2.037268131971e-10 5.675246939063e-09 3.783497959375e-10 2.328306436539e-10
     2.155200000000e+05 2.428000000000e+03 0.000000000000e+00                   
G13 2026 07 21 11 52 00 4.184397403151e-04 5.229594535194e-12 8.673617379884e-19
     4.562377929688e-03 4.561328125000e+01 4.458221417103e-09 2.657256497513e-01
     2.283602952957e-06 2.268318727147e-03 8.784234523773e-06 5.153633150734e+03
     1.647000000000e+05-3.725290298462e-09-1.575934714635e+00-1.955777406693e-08
     9.588254551803e-01 2.099062500000e+02 1.820784640429e+00-8.351541395843e-09
     1.660783464012e-11 4.458221417103e-09-2.000000000000e+00 2.000000000000e+00
     3.000000000000e+01 7.000000000000e+00-8.381903171539e-09 7.000000000000e+00
    -1.164153218269e-10 5.267793312669e-09 1.658918336034e-09 1.949956640601e-09
     2.155200000000e+05 2.428000000000e+03 0.000000000000e+00                   
G21 2026 07 21 11 52 00 3.957099397667e-04-5.300648808770e-12 0.000000000000e+00
     5.232810974121e-03-2.124218750000e+01 4.319287058500e-09-2.916990990098e-02
    -1.072883605957e-06 7.935005123727e-04 7.556751370430e-06 5.153627001018e+03
     1.332000000000e+05 8.381903171539e-09 1.623575795397e+00-1.024454832077e-08
     9.641822917997e-01 2.359882812500e+02-8.331798883724e-02-8.343148189090e-09
     1.678641350722e-11 4.319287058500e-09-2.000000000000e+00 3.000000000000e+00
     3.100000000000e+01 4.000000000000e+00-9.778887033463e-09 7.000000000000e+00
    -8.731149137020e-11 6.199115887284e-09 1.746229827404e-10 1.455191522837e-10
     2.155200000000e+05 2.428000000000e+03 0.000000000000e+00                   
E25 2026 07 21 11 52 05 2.174236578867e-05-7.105427357601e-14 0.000000000000e+00
     9.900000000000e+01 9.740625000000e+01 3.073342302757e-09 2.624236618057e+00
     4.328787326813e-06 2.982205478474e-04 8.316710591316e-06 5.440612489700e+03
     2.118000000000e+05 1.862645149231e-09-1.329174281467e+00-1.117587089539e-08
     9.606289369311e-01 1.592812500000e+02-1.309165599796e+00-5.515229731456e-09
     5.321650239522e-11 1.000000000000e+00 1.404000000000e+03                   
     1.070000000000e+02 0.000000000000e+00 2.328306436539e-09 2.561137080193e-09
     2.155250000000e+05                                                         
E10 2026 07 21 11 52 05-8.074495708570e-04-2.643218977028e-12 0.000000000000e+00
     1.020000000000e+02-5.062500000000e+01 2.676540060065e-09-1.742219497612e+00
    -2.352520823479e-06 2.863210393116e-04 5.545094609261e-06 5.440602169037e+03
     2.136000000000e+05 3.911554813385e-08 7.679715760244e-01-9.499490261078e-08
     9.974623687914e-01 2.376875000000e+02 2.333586160670e+00-5.497729002480e-09
    -1.542921411727e-10 1.000000000000e+00 1.404000000000e+03                   
     1.070000000000e+02 0.000000000000e+00-1.164153218269e-09-2.328306436539e-10
     2.155250000000e+05                                                         
E11 2026 07 21 11 52 05 5.518126708921e-03 6.747313818778e-11-3.469446951954e-18
     9.900000000000e+01-3.928125000000e+01 2.638681340241e-09-1.408247597405e+00
    -1.888722181320e-06 4.173512570560e-04 5.777925252914e-06 5.440611831665e+03
     2.118000000000e+05-7.823109626770e-08 7.694409879970e-01-4.470348358154e-08
     9.945458133851e-01 2.324062500000e+02 1.347685586023e+00-5.458798809453e-09
    -1.860791795162e-10 1.000000000000e+00 1.404000000000e+03                   
     1.070000000000e+02 0.000000000000e+00-1.466833055019e-08-1.583248376846e-08
     2.155250000000e+05                                                         
E16 2026 07 21 11 52 05-4.650175105780e-05-2.472688720445e-12 0.000000000000e+00
     1.040000000000e+02 8.293750000000e+01 2.962266247422e-09-1.387599465465e+00
     4.008412361145e-06 4.924213280901e-04 8.672475814819e-06 5.440619869232e+03
     2.148000000000e+05 1.862645149231e-08-1.332508973970e+00-5.587935447693e-09
     9.625735163992e-01 1.542500000000e+02-2.476026860160e+00-5.504157841696e-09
     8.036049019412e-11 1.000000000000e+00 1.404000000000e+03                   
     1.070000000000e+02 0.000000000000e+00-3.725290298462e-09-2.328306436539e-09
     2.155250000000e+05                                                         
E33 2026 07 21 11 52 05-2.521614078432e-05-1.989519660128e-12 0.000000000000e+00
     1.040000000000e+02-6.343750000000e+01 2.728685089258e-09-1.345850342126e+00
    -2.885237336159e-06 1.673320075497e-04 5.086883902550e-06 5.440605234146e+03
     2.148000000000e+05 2.607703208923e-08 7.698941824630e-01 2.793967723846e-08
     9.976629407117e-01 2.492812500000e+02-3.015995599340e+00-5.502372053025e-09
    -1.364342544629e-10 1.000000000000e+00 1.404000000000e+03                   
     1.070000000000e+02 0.000000000000e+00-4.423782229424e-09-4.889443516731e-09
     2.155250000000e+05                                                         
E12 2026 07 21 11 52 05-5.902443081141e-05-2.614797267597e-12 0.000000000000e+00
     1.040000000000e+02-5.346875000000e+01 2.791902008211e-09 2.504139079558e-01
    -2.425163984299e-06 3.171436255798e-04 4.950910806656e-06 5.440602628708e+03
     2.148000000000e+05 6.146728992462e-08 7.694331160349e-01 7.450580596924e-09
     9.945570705398e-01 2.502187500000e+02 8.577544266062e-01-5.530944671761e-09
    -1.182192100189e-10 1.000000000000e+00 1.404000000000e+03                   
     1.070000000000e+02 0.000000000000e+00-1.187436282635e-08-1.164153218269e-08
     2.155250000000e+05                                                         
END OF FILE                                                 COMMENT
