     3.05           N: NAVIGATION       M: MIXED            RINEX VERSION / TYPE
PYRINEXCONV 0.1.2 ALDELTUNES            20260721 013957 UTC PGM / RUN BY / DATE
GAL    1.0175e+02  3.3203e-01  2.2858e-02             B 23  IONOSPHERIC CORR
GPSA   9.3132e-09  2.2352e-08  1.5199e-05  1.5140e-05 B 04  IONOSPHERIC CORR
GPSB   1.0035e+05  1.3107e+05  1.6712e+07  1.6318e+07 B 04  IONOSPHERIC CORR
GAUT  6.5192580223e-09-2.664535259e-15 173400 1404   E23  0 TIME SYSTEM CORR
GPUT -3.2014213502e-09 1.588507104e-12 356400 2428   G04  0 TIME SYSTEM CORR
                                                            END OF HEADER
E07 2026 07 21 01 30 35-7.847708184272e-05-2.529532139306e-12 0.000000000000e+00
     4.100000000000e+01-4.537500000000e+01 3.286565470072e-09 2.826205377930e+00
    -2.084299921989e-06 4.210222978145e-04 5.381181836128e-06 5.440619049072e+03
     1.770000000000e+05 1.862645149231e-09 2.852450415004e+00-2.048909664154e-08
     9.693526904819e-01 2.328437500000e+02 1.825129719979e-01-5.677379342781e-09
     2.007226466182e-10 1.000000000000e+00 1.404000000000e+03                   
     1.070000000000e+02 0.000000000000e+00 4.423782229424e-09 4.889443516731e-09
     1.782350000000e+05                                                         
E19 2026 07 21 01 30 54 3.108157368843e-03 2.441424840072e-11 0.000000000000e+00
     4.100000000000e+01-4.193750000000e+01 3.196561721055e-09 1.709460393544e+00
    -2.039596438408e-06 2.442206023261e-04 5.666166543961e-06 5.440616186142e+03
     1.770000000000e+05 9.313225746155e-09 2.860600104871e+00 3.725290298462e-09
     9.747206416214e-01 2.216562500000e+02-2.398995573052e-01-5.625948629057e-09
     2.128660095809e-10 5.160000000000e+02 1.404000000000e+03                   
     1.070000000000e+02 0.000000000000e+00-4.423782229424e-09-4.423782229424e-09
     1.782540000000e+05                                                         
E21 2026 07 21 01 30 54-7.585325511172e-04-2.813749233610e-12 0.000000000000e+00
     4.100000000000e+01 1.187187500000e+02 3.181561096219e-09 1.664853181783e+00
     5.472451448441e-06 1.699522836134e-04 8.780509233475e-06 5.440619083405e+03
     1.770000000000e+05 0.000000000000e+00-1.328980772515e+00-2.980232238770e-08
     9.606207241090e-01 1.483750000000e+02-1.545445406233e+00-5.596304537118e-09
    -3.964450849577e-11 5.160000000000e+02 1.404000000000e+03                   
     1.070000000000e+02 0.000000000000e+00 6.984919309616e-10 9.313225746155e-10
     1.782540000000e+05                                                         
G16 2026 07 21 01 31 24 3.019548021257e-04 6.480149750132e-12 0.000000000000e+00
     8.700000000000e+01 6.278125000000e+01 4.749840707074e-09 4.905484698842e-03
     3.473833203316e-06 1.503468246665e-02 8.979812264442e-06 5.153715620041e+03
     1.800000000000e+05-4.656612873077e-08-1.450390116970e+00 1.844018697739e-07
     9.573753442173e-01 2.042187500000e+02 9.375411286941e-01-8.338561620276e-09
    -8.571785620706e-11 1.000000000000e+00 3.800000000000e+02 0.000000000000e+00
     2.000000000000e+00 0.000000000000e+00-1.024454832077e-08 8.700000000000e+01
     7.131360000000e+05 4.000000000000e+00                                      
G04 2026 07 21 01 31 24 6.273528560996e-05 6.821210263297e-13 0.000000000000e+00
     4.000000000000e+00-2.156250000000e+01 4.435899058715e-09-1.318618189375e+00
    -1.283362507820e-06 3.821728983894e-03 6.174668669701e-06 5.153673210144e+03
     1.800000000000e+05 4.470348358154e-08 2.690147796711e+00-5.960464477539e-08
     9.724411767983e-01 2.633125000000e+02-2.902038596573e+00-8.003904823334e-09
     3.196561721055e-10 1.000000000000e+00 3.800000000000e+02 0.000000000000e+00
     2.000000000000e+00 0.000000000000e+00-4.656612873077e-09 5.160000000000e+02
     7.131360000000e+05 4.000000000000e+00                                      
G03 2026 07 21 01 31 24 3.641797229648e-04-1.898570189951e-11 0.000000000000e+00
     3.900000000000e+01-2.587500000000e+01 3.495145586843e-09 1.972188565113e+00
    -1.396983861923e-06 6.975172669627e-03 9.100884199142e-06 5.153767438889e+03
     1.799840000000e+05 2.980232238770e-08 1.621788574712e+00-1.285225152969e-07
     9.947606312017e-01 2.198125000000e+02 1.276449267064e+00-7.577458488704e-09
     3.042983895351e-10 1.000000000000e+00 3.800000000000e+02 0.000000000000e+00
     2.000000000000e+00 0.000000000000e+00 1.396983861923e-09 3.900000000000e+01
     7.131360000000e+05 4.000000000000e+00                                      
G31 2026 07 21 01 31 24-1.340978778899e-04 2.728484105319e-12 0.000000000000e+00
     4.600000000000e+01-3.046875000000e+01 4.896989693563e-09 1.387305427708e+00
    -1.519918441772e-06 1.091507845558e-02 9.141862392426e-06 5.153633649826e+03
     1.800000000000e+05-2.589076757431e-07-2.561142719726e+00 8.940696716309e-08
     9.550181209095e-01 2.048125000000e+02 9.765602962162e-01-8.211770624636e-09
    -1.703642392115e-10 1.000000000000e+00 3.800000000000e+02 0.000000000000e+00
     2.000000000000e+00 0.000000000000e+00-1.350417733192e-08 4.600000000000e+01
     7.131360000000e+05 4.000000000000e+00                                      
G27 2026 07 21 01 31 24 5.350448191166e-07 0.000000000000e+00 0.000000000000e+00
     8.700000000000e+01 4.993750000000e+01 4.967349767199e-09-9.214576464096e-01
     2.695247530937e-06 1.432977337390e-02 4.462897777557e-06 5.153674970627e+03
     1.800000000000e+05 1.713633537292e-07-5.083661844978e-01 2.682209014893e-07
     9.508953529740e-01 2.880625000000e+02 9.005370079411e-01-8.538212793692e-09
    -1.700070814773e-10 1.000000000000e+00 3.800000000000e+02 0.000000000000e+00
     2.000000000000e+00 0.000000000000e+00 2.328306436539e-09 8.700000000000e+01
     7.131360000000e+05 4.000000000000e+00                                      
G28 2026 07 21 01 36 00-4.659118421841e-04 1.087130385713e-11 0.000000000000e+00
     2.033233642578e-03-2.901953125000e+01 4.716982195528e-09 2.882508508552e+00
    -1.423060894012e-06 5.171530065127e-04 8.507631719112e-06 5.153601420328e+03
     1.107000000000e+05-4.470348358154e-08-2.610097487026e+00 4.563480615616e-08
     9.622426723554e-01 2.161601562500e+02-3.132190035830e-01-8.347434081900e-09
    -1.016113753788e-10 4.716982195528e-09-2.000000000000e+00 3.000000000000e+00
     3.000000000000e+01 4.000000000000e+00-9.313225746155e-09 7.000000000000e+00
    -3.492459654808e-10 5.966285243630e-09-7.566995918751e-10-6.693881005049e-10
     1.785600000000e+05 2.428000000000e+03 0.000000000000e+00                   
G26 2026 07 21 01 39 12-3.841021971311e-04-2.511768570912e-12 0.000000000000e+00
    -6.264209747314e-03 5.512890625000e+01 5.416118460217e-09 4.981622482401e-01
     3.001652657986e-06 1.116635178914e-02 9.015202522278e-06 5.153641958227e+03
     1.152000000000e+05-2.700835466385e-08-1.639756209171e+00 1.173466444016e-07
     9.274891442743e-01 1.881914062500e+02 7.146350318747e-01-7.784374913940e-09
    -1.928651764659e-10 5.416118460217e-09-2.000000000000e+00 3.000000000000e+00
     3.000000000000e+01 4.000000000000e+00 6.519258022308e-09 7.000000000000e+00
    -8.440110832453e-10-4.190951585770e-09 5.820766091347e-09 5.878973752260e-09
     1.787520000000e+05 2.428000000000e+03 0.000000000000e+00                   
G31 2026 07 21 01 39 12-1.341027382296e-04 2.749800387392e-12 0.000000000000e+00
     3.767967224121e-03-2.978515625000e+01 4.925383733431e-09 1.124739852169e+00
    -1.469627022743e-06 1.091369451024e-02 8.693896234035e-06 5.153589886929e+03
     1.377000000000e+05-1.257285475731e-07-2.561127504646e+00 1.275911927223e-07
     9.550183023114e-01 2.105351562500e+02 9.765758682477e-01-8.064922314151e-09
    -2.403671551140e-10 4.925383733431e-09-2.000000000000e+00 3.000000000000e+00
     2.900000000000e+01 4.000000000000e+00-1.350417733192e-08 7.000000000000e+00
    -2.619344741106e-10 8.265487849712e-09 0.000000000000e+00 0.000000000000e+00
     1.787520000000e+05 2.428000000000e+03 0.000000000000e+00                   
G03 2026 07 21 01 39 12 3.642191586550e-04-1.892885848065e-11 0.000000000000e+00
    -5.082130432129e-03-3.272656250000e+01 3.511932000350e-09 1.668182751148e+00
    -1.699663698673e-06 6.976965523791e-03 9.193085134029e-06 5.153454907572e+03
     1.737000000000e+05-4.470348358154e-08 1.621804437133e+00-1.080334186554e-07
     9.947597490621e-01 2.185000000000e+02 1.276501399613e+00-8.703163185159e-09
     2.996553389905e-10 3.511932000350e-09-2.000000000000e+00 2.000000000000e+00
     2.700000000000e+01 4.000000000000e+00 1.396983861923e-09 7.000000000000e+00
     5.529727786779e-10-2.008164301515e-09 1.862645149231e-09 5.005858838558e-09
     1.787520000000e+05 2.428000000000e+03 0.000000000000e+00                   
G09 2026 07 21 01 39 12 7.172278710641e-04-6.984635092522e-12 0.000000000000e+00
     1.339435577393e-03-1.959375000000e+01 4.615192241282e-09-7.134542236493e-01
    -1.024454832077e-06 3.669837024063e-03 6.437301635742e-06 5.153528615372e+03
     1.395000000000e+05-5.587935447693e-09 2.624989215532e+00 3.166496753693e-08
     9.667025587904e-01 2.592617187500e+02 2.038118201404e+00-8.197427833538e-09
     3.714440435639e-10 4.615192241282e-09-2.000000000000e+00 3.000000000000e+00
     2.900000000000e+01 4.000000000000e+00 4.656612873077e-10 7.000000000000e+00
    -5.820766091347e-10-7.275957614183e-10 5.064066499472e-09 5.617039278150e-09
     1.787520000000e+05 2.428000000000e+03 0.000000000000e+00                   
G04 2026 07 21 01 40 00 6.273412145674e-05 6.998845947237e-13 0.000000000000e+00
    -5.631446838379e-04-2.111328125000e+01 4.452149735621e-09-1.581149703060e+00
    -1.121312379837e-06 3.821527818218e-03 6.383284926414e-06 5.153549399026e+03
     1.233000000000e+05 2.700835466385e-08 2.690162137697e+00-4.377216100693e-08
     9.724406055288e-01 2.625976562500e+02-2.902052367753e+00-8.337076507608e-09
     3.330495871378e-10 4.452149735621e-09-2.000000000000e+00 3.000000000000e+00
     3.000000000000e+01 4.000000000000e+00-4.656612873077e-09 7.000000000000e+00
    -2.037268131971e-10 3.317836672068e-09-1.426087692380e-09-1.396983861923e-09
     1.788000000000e+05 2.428000000000e+03 0.000000000000e+00                   
E29 2026 07 21 01 40 05-2.271460252814e-04-3.623767952377e-12 0.000000000000e+00
     3.700000000000e+01-4.634375000000e+01 3.417642358522e-09 5.022229145717e-01
    -2.084299921989e-06 2.009533345699e-04 5.552545189857e-06 5.440611452103e+03
     1.746000000000e+05-1.117587089539e-08 2.852197831957e+00 5.587935447693e-09
     9.627380215372e-01 2.196875000000e+02 1.417844790584e+00-5.746310785481e-09
     2.139374827835e-10 1.000000000000e+00 1.404000000000e+03                   
     1.070000000000e+02 0.000000000000e+00-3.259629011154e-09-2.793967723846e-09
     1.788050000000e+05                                                         
E23 2026 07 21 01 40 05-4.267256008461e-05-1.364242052659e-12 0.000000000000e+00
     3.500000000000e+01 1.190312500000e+02 3.168346260053e-09 1.642696728638e+00
     5.446374416351e-06 1.740632578731e-04 1.006387174129e-05 5.440617679596e+03
     1.734000000000e+05-3.725290298462e-09-1.332154426996e+00 5.587935447693e-09
     9.625507490051e-01 1.256562500000e+02-2.761650789543e+00-5.532016144963e-09
    -5.714523747137e-12 1.000000000000e+00 1.404000000000e+03                   
     1.070000000000e+02 0.000000000000e+00 4.656612873077e-10 1.862645149231e-09
     1.788050000000e+05                                                         
E27 2026 07 21 01 40 05-1.049726095516e-03-1.062971932697e-11 0.000000000000e+00
     3.700000000000e+01 1.031875000000e+02 3.284065365933e-09 1.502247616563e+00
     4.922971129417e-06 2.446804428473e-04 8.303672075272e-06 5.440614410400e+03
     1.746000000000e+05 5.401670932770e-08-1.329007517583e+00-1.303851604462e-08
     9.605918841420e-01 1.592500000000e+02-8.808755747463e-01-5.630948837335e-09
    -3.500145795122e-11 1.000000000000e+00 1.404000000000e+03                   
     1.070000000000e+02 0.000000000000e+00 2.328306436539e-10 2.328306436539e-10
     1.788050000000e+05                                                         
E07 2026 07 21 01 40 05-7.847853703424e-05-2.515321284591e-12 0.000000000000e+00
     4.200000000000e+01-4.515625000000e+01 3.286565470072e-09 2.900623270145e+00
    -2.089887857437e-06 4.210077458993e-04 5.388632416725e-06 5.440619085312e+03
     1.776000000000e+05 5.587935447693e-09 2.852447012256e+00-2.980232238770e-08
     9.693527636278e-01 2.327812500000e+02 1.824803459989e-01-5.683451024262e-09
     2.042942239602e-10 1.000000000000e+00 1.404000000000e+03                   
     1.070000000000e+02 0.000000000000e+00 4.423782229424e-09 4.889443516731e-09
     1.788050000000e+05                                                         
E28 2026 07 21 01 40 05-6.027094786987e-05-2.927436071332e-12 0.000000000000e+00
     3.700000000000e+01-3.906250000000e+01 3.651580674421e-09-1.244498328682e+00
    -2.037733793259e-06 2.845055423677e-04 5.515292286873e-06 5.440607912064e+03
     1.746000000000e+05-1.862645149231e-09 2.870212497768e+00-1.117587089539e-08
     9.490499403337e-01 2.184687500000e+02 1.958976890496e+00-5.843814846916e-09
     2.167947446570e-10 1.000000000000e+00 1.404000000000e+03                   
     1.070000000000e+02 0.000000000000e+00 9.313225746155e-10 1.862645149231e-09
     1.788050000000e+05                                                         
E19 2026 07 21 01 40 05 3.108172270004e-03 2.441424840072e-11 0.000000000000e+00
     4.200000000000e+01-4.243750000000e+01 3.190490039574e-09 1.783681548147e+00
    -2.039596438408e-06 2.441761316732e-04 5.666166543961e-06 5.440616302490e+03
     1.776000000000e+05 9.313225746155e-09 2.860596731382e+00 3.725290298462e-09
     9.747207703582e-01 2.214687500000e+02-2.397353506025e-01-5.625948629057e-09
     2.128660095809e-10 1.000000000000e+00 1.404000000000e+03                   
     1.070000000000e+02 0.000000000000e+00-4.423782229424e-09-4.423782229424e-09
     1.788050000000e+05                                                         
E21 2026 07 21 01 40 05-7.585341809317e-04-2.799538378895e-12 0.000000000000e+00
     4.200000000000e+01 1.164375000000e+02 3.195490247852e-09 1.740378555650e+00
     5.394220352173e-06 1.701455330476e-04 8.776783943176e-06 5.440618543625e+03
     1.776000000000e+05 5.587935447693e-09-1.328984135764e+00-3.352761268616e-08
     9.606206758327e-01 1.485000000000e+02-1.546585854743e+00-5.599518956726e-09
    -3.643008888800e-11 1.000000000000e+00 1.404000000000e+03                   
     1.070000000000e+02 0.000000000000e+00 6.984919309616e-10 9.313225746155e-10
     1.788050000000e+05                                                         
END OF FILE                                                 COMMENT
