     3.05           N: NAVIGATION       M: MIXED            RINEX VERSION / TYPE
PYRINEXCONV 0.1.2 ALDELTUNES            20260721 090126 UTC PGM / RUN BY / DATE
GAL    1.0175e+02  3.3203e-01  2.2858e-02             J 10  IONOSPHERIC CORR
GPSA   1.1176e-08  2.2352e-08  1.5199e-05  1.5140e-05 J 03  IONOSPHERIC CORR
GPSB   1.0650e+05  1.4746e+05  1.6712e+07  1.6450e+07 J 03  IONOSPHERIC CORR
BDSA   2.0489e-08  5.2154e-08 -6.5565e-07  1.1325e-06 I 35  IONOSPHERIC CORR
BDSB   1.3926e+05 -6.0621e+05  5.0463e+06 -4.3254e+06 I 35  IONOSPHERIC CORR
GAUT  6.5192580223e-09-2.664535259e-15 204600 1404   E10  0 TIME SYSTEM CORR
GPUT  1.2805685401e-09 2.242650510e-13 414000 2428   G03  0 TIME SYSTEM CORR
BDUT  0.0000000000e+00 0.000000000e+00 201600 1072   C35  0 TIME SYSTEM CORR
                                                            END OF HEADER
C36 2026 07 21 08 52 54 2.596018603072e-04-4.320099833421e-12 0.000000000000e+00
     1.000000000000e+00 1.542187500000e+01 4.059097649138e-09-2.981974030616e+00
     7.343478500843e-07 8.160521974787e-04 9.567942470312e-06 5.282653308868e+03
     2.016000000000e+05 1.257285475731e-08-2.018576818193e+00 4.748487845063e-05
     9.451397651163e-01 1.568593750000e+02-1.024440970044e+00 1.387761377260e-07
    -3.714440435639e-11                    1.072000000000e+03                   
     0.000000000000e+00 0.000000000000e+00-9.639188647270e-08-9.639188647270e-08
     2.047740000000e+05 1.000000000000e+00                                      
C29 2026 07 21 08 52 54 6.338179809973e-04 5.240252676231e-12 0.000000000000e+00
     1.000000000000e+00 5.515625000000e+00 4.330537527128e-09-1.892395480313e+00
     2.798624336720e-07 2.190576633438e-04 3.743451088667e-06 5.282656152725e+03
     2.016000000000e+05-2.700835466385e-08 3.425795141547e-02 4.335166886449e-05
     9.455638621417e-01 2.762343750000e+02 2.117102114029e+00-2.497539746841e-06
    -2.225092684042e-10                    1.072000000000e+03                   
     0.000000000000e+00 0.000000000000e+00 9.313225746155e-10 9.313225746155e-10
     2.047740000000e+05 1.000000000000e+00                                      
C11 2026 07 21 08 52 54-7.890666602179e-04-2.155786660296e-11 0.000000000000e+00
     1.000000000000e+00 4.703125000000e+00 4.238390831705e-09 1.209906606655e+00
     2.686865627766e-07 1.699145650491e-04 3.708992153406e-06 5.282640985489e+03
     2.016000000000e+05-1.629814505577e-08 7.440371653916e-02 5.046837031841e-05
     9.504523535841e-01 2.779218750000e+02-6.662516928116e-01 7.528356443407e-07
    -2.492960984689e-10                    1.072000000000e+03                   
     0.000000000000e+00 0.000000000000e+00 1.350417733192e-08 1.350417733192e-08
     2.047740000000e+05 1.000000000000e+00                                      
C30 2026 07 21 08 52 54 4.927918780595e-04 7.474021401777e-12 0.000000000000e+00
     1.000000000000e+00 1.251562500000e+01 4.366253300547e-09 1.314716285496e-02
     7.352791726589e-07 4.701827419922e-04 3.719702363014e-06 5.282649618149e+03
     2.016000000000e+05 7.031485438347e-08 3.472310669963e-02 1.446064561605e-05
     9.455191568281e-01 2.751093750000e+02 9.821292742436e-01-2.044309439408e-06
    -2.150089559860e-10                    1.072000000000e+03                   
     0.000000000000e+00 0.000000000000e+00-4.516914486885e-08-4.516914486885e-08
     2.047740000000e+05 1.000000000000e+00                                      
C39 2026 07 21 08 52 54-9.576437296346e-04 8.848921595472e-12 0.000000000000e+00
     1.000000000000e+00 1.939062500000e+01 4.016238721035e-09 1.470108519121e+00
     7.110647857189e-07 5.727914394811e-04 9.650364518166e-06 5.282661041260e+03
     2.016000000000e+05 5.494803190231e-08-2.011473458538e+00 5.104346200824e-05
     9.490809205499e-01 1.586875000000e+02 5.823257035172e-02 1.083409771223e-06
    -8.464638300447e-11                    1.072000000000e+03                   
     0.000000000000e+00 0.000000000000e+00 8.987262845039e-08 8.987262845039e-08
     2.047740000000e+05 1.000000000000e+00                                      
C35 2026 07 21 08 52 54-4.781039897352e-04-1.612310285282e-11 0.000000000000e+00
     1.000000000000e+00 7.453125000000e+00 4.393397288346e-09-1.482564570217e+00
     4.409812390804e-07 8.111655479297e-04 3.528315573931e-06 5.282619890213e+03
     2.016000000000e+05-5.960464477539e-08 3.485632148284e-02 2.142228186131e-05
     9.437485534297e-01 2.817656250000e+02 8.862583745044e-01-1.912509663704e-06
    -1.425059359442e-10                    1.072000000000e+03                   
     0.000000000000e+00 0.000000000000e+00-1.257285475731e-08-1.257285475731e-08
     2.047740000000e+05 1.000000000000e+00                                      
G01 2026 07 21 08 56 00 2.169621875510e-04-9.631406783228e-12 0.000000000000e+00
    -3.206253051758e-03-2.589062500000e+01 4.758055334960e-09 1.729607906140e+00
    -1.348555088043e-06 1.827456115279e-03 5.328096449375e-06 5.153621260026e+03
     1.746000000000e+05 2.887099981308e-08 6.292069738875e-01 6.984919309616e-08
     9.571096731739e-01 2.728906250000e+02 1.947120015536e-01-8.051886056853e-09
    -1.921508609975e-10 4.758055334960e-09-2.000000000000e+00 3.000000000000e+00
     2.900000000000e+01 4.000000000000e+00-8.847564458847e-09 7.000000000000e+00
    -2.910383045673e-10 5.646143108606e-09-5.529727786779e-10-6.693881005049e-10
     2.049600000000e+05 2.428000000000e+03 0.000000000000e+00                   
E12 2026 07 21 08 58 05-5.898519884795e-05-2.557953848736e-12 0.000000000000e+00
     8.000000000000e+01-4.656250000000e+01 2.602251251353e-09-1.541989154015e+00
    -2.337619662285e-06 3.188102273270e-04 6.387010216713e-06 5.440606094360e+03
     2.004000000000e+05-3.166496753693e-08 7.695124734890e-01 1.490116119385e-08
     9.945614680715e-01 2.191875000000e+02 8.649107058597e-01-5.409153884400e-09
    -2.667968274445e-10 1.000000000000e+00 1.404000000000e+03                   
     1.070000000000e+02 0.000000000000e+00-1.187436282635e-08-1.164153218269e-08
     2.050850000000e+05                                                         
G24 2026 07 21 08 59 12 1.223256404046e-04 1.861266696324e-11 0.000000000000e+00
     5.737304687500e-03-3.158593750000e+01 5.240754012726e-09 1.057586258153e+00
    -1.759268343449e-06 1.843219791772e-02 7.580965757370e-06 5.153594282187e+03
     1.980000000000e+05-2.672895789146e-07-2.697175393301e+00 1.583248376846e-08
     9.355018413724e-01 2.222226562500e+02 1.162151067182e+00-7.711157578430e-09
    -2.384027875759e-10 5.240754012726e-09-2.000000000000e+00 2.000000000000e+00
     2.700000000000e+01 4.000000000000e+00 2.328306436539e-09 7.000000000000e+00
     2.910383045673e-11-1.426087692380e-09 1.484295353293e-09 2.764863893390e-09
     2.051520000000e+05 2.428000000000e+03 0.000000000000e+00                   
E23 2026 07 21 09 00 35-4.271382931620e-05-1.335820343229e-12 0.000000000000e+00
     8.600000000000e+01 8.112500000000e+01 3.110486707114e-09-8.534426233223e-01
     3.945082426071e-06 1.736701233312e-04 9.095296263695e-06 5.440618936539e+03
     2.040000000000e+05 5.587935447693e-09-1.332325067613e+00-1.117587089539e-08
     9.625517086794e-01 1.476875000000e+02-2.755053965273e+00-5.493443109670e-09
     1.096474243982e-10 1.000000000000e+00 1.404000000000e+03                   
     1.070000000000e+02 0.000000000000e+00 4.656612873077e-10 1.862645149231e-09
     2.052350000000e+05                                                         
E10 2026 07 21 09 00 35-8.074235520326e-04-2.600586412882e-12 0.000000000000e+00
     8.600000000000e+01-4.559375000000e+01 2.579393156364e-09-2.931262168504e+00
    -2.246350049973e-06 2.873095218092e-04 6.232410669327e-06 5.440602638245e+03
     2.040000000000e+05-5.960464477539e-08 7.680238914379e-01 7.450580596924e-09
     9.974653136455e-01 2.235937500000e+02 2.332462297263e+00-5.392010313158e-09
    -2.400099973798e-10 1.000000000000e+00 1.404000000000e+03                   
     1.070000000000e+02 0.000000000000e+00-1.164153218269e-09-2.328306436539e-10
     2.052350000000e+05                                                         
E26 2026 07 21 09 00 54 3.676592023112e-04 1.082867129298e-11 0.000000000000e+00
     8.600000000000e+01-5.331250000000e+01 2.815831576402e-09-2.360268526864e+00
    -2.432614564896e-06 9.291234891862e-05 5.135312676430e-06 5.440598825455e+03
     2.040000000000e+05 3.166496753693e-08 7.665137459742e-01 2.048909664154e-08
     9.909282013028e-01 2.447187500000e+02-2.570152562999e+00-5.538802141913e-09
    -1.839362331110e-10 5.160000000000e+02 1.404000000000e+03                   
     1.070000000000e+02 0.000000000000e+00-5.122274160385e-09-5.587935447693e-09
     2.052540000000e+05                                                         
G14 2026 07 21 09 01 24 7.499800994992e-04 2.273736754432e-13 0.000000000000e+00
     2.300000000000e+02 4.346875000000e+01 4.919847788551e-09-3.710923551318e-01
     2.404674887657e-06 7.365606026724e-03 8.778646588326e-06 5.153659263611e+03
     2.096800000000e+05 8.940696716309e-08-1.524283975837e+00 8.568167686462e-08
     9.416387081061e-01 2.008437500000e+02-2.680666114081e+00-8.262487022892e-09
     6.500270762369e-11 1.000000000000e+00 3.800000000000e+02 0.000000000000e+00
     2.000000000000e+00 0.000000000000e+00-7.916241884232e-09 9.980000000000e+02
     8.211360000000e+05 4.000000000000e+00                                      
G22 2026 07 21 09 01 24 4.060100764036e-05 8.071765478235e-12 0.000000000000e+00
     9.200000000000e+01 5.381250000000e+01 4.444113686602e-09-2.529953664691e+00
     2.978369593620e-06 1.184459077194e-02 8.782371878624e-06 5.153724548340e+03
     2.088000000000e+05 1.490116119385e-08-1.447237888387e+00 1.899898052216e-07
     9.568470245193e-01 2.051562500000e+02-9.877956796893e-01-7.783895659069e-09
     9.107522222000e-11 1.000000000000e+00 3.800000000000e+02 0.000000000000e+00
     2.000000000000e+00 0.000000000000e+00-1.117587089539e-08 9.200000000000e+01
     8.211360000000e+05 4.000000000000e+00                                      
G17 2026 07 21 09 01 24-1.762625761330e-04-6.025402399246e-12 0.000000000000e+00
     6.600000000000e+01 5.268750000000e+01 4.767698593784e-09 3.140405416571e+00
     2.849847078323e-06 1.261520700064e-02 4.867091774940e-06 5.153678655624e+03
     2.088000000000e+05 1.322478055954e-07-4.350422214605e-01 2.756714820862e-07
     9.574385934805e-01 2.811875000000e+02-1.098618294159e+00-8.097122991959e-09
     4.500187450871e-11 1.000000000000e+00 3.800000000000e+02 0.000000000000e+00
     2.000000000000e+00 0.000000000000e+00-1.071020960808e-08 6.600000000000e+01
     8.211360000000e+05 4.000000000000e+00                                      
G06 2026 07 21 09 01 24-5.693081766367e-04 7.958078640513e-12 0.000000000000e+00
     1.400000000000e+01-2.406250000000e+01 4.019095982909e-09 1.195134823534e+00
    -1.270323991776e-06 3.694361192174e-03 5.714595317841e-06 5.153724903107e+03
     2.088000000000e+05 1.303851604462e-08 5.836642618564e-01-3.911554813385e-08
     9.858733950927e-01 2.786875000000e+02-5.462298515458e-01-7.903543500025e-09
    -2.785830326729e-10 1.000000000000e+00 3.800000000000e+02 0.000000000000e+00
     2.000000000000e+00 0.000000000000e+00 3.725290298462e-09 1.400000000000e+01
     8.211360000000e+05 4.000000000000e+00                                      
G30 2026 07 21 09 01 24 3.027403727174e-04 1.330136001343e-11 0.000000000000e+00
     1.600000000000e+01-3.006250000000e+01 5.080925926673e-09 9.449358577428e-02
    -1.473352313042e-06 8.217709721066e-03 7.897615432739e-06 5.153681278229e+03
     2.087840000000e+05-4.656612873077e-08-2.597270394554e+00 1.881271600723e-07
     9.366260412513e-01 2.157187500000e+02-2.258931051900e+00-8.386777914392e-09
    -7.750322832055e-11 1.000000000000e+00 3.800000000000e+02 0.000000000000e+00
     2.000000000000e+00 0.000000000000e+00 4.190951585770e-09 1.600000000000e+01
     8.211360000000e+05 4.000000000000e+00                                      
G24 2026 07 21 09 01 24 1.223646104336e-04 1.864464138635e-11 0.000000000000e+00
     2.600000000000e+01-3.465625000000e+01 5.181287249983e-09 1.361581783415e+00
    -1.974403858185e-06 1.843425631523e-02 8.089467883110e-06 5.153629722595e+03
     2.087840000000e+05-3.930181264877e-07-2.697193767552e+00-1.229345798492e-07
     9.355017521344e-01 2.145000000000e+02 1.162130573895e+00-8.524640799792e-09
    -1.575065607805e-10 1.000000000000e+00 3.800000000000e+02 0.000000000000e+00
     2.000000000000e+00 0.000000000000e+00 2.328306436539e-09 2.600000000000e+01
     8.211360000000e+05 4.000000000000e+00                                      
G03 2026 07 21 09 01 24 3.636339679360e-04-1.898570189951e-11 0.000000000000e+00
     8.200000000000e+01-3.375000000000e+01 3.739084319299e-09-1.083895783581e-01
    -1.739710569382e-06 6.974412710406e-03 8.106231689453e-06 5.153764785767e+03
     2.088000000000e+05-4.842877388000e-08 1.621571901916e+00 8.381903171539e-08
     9.947640617446e-01 2.412812500000e+02 1.276641118530e+00-7.759608933144e-09
     4.785913638228e-11 1.000000000000e+00 3.800000000000e+02 0.000000000000e+00
     2.000000000000e+00 0.000000000000e+00 1.396983861923e-09 8.200000000000e+01
     8.211360000000e+05 4.000000000000e+00                                      
G11 2026 07 21 09 01 24-2.678767777979e-04 1.227817847393e-11 0.000000000000e+00
     6.700000000000e+01-2.934375000000e+01 4.494830084858e-09 2.428444735728e+00
    -1.607462763786e-06 2.487311139703e-03 5.941838026047e-06 5.153649887085e+03
     2.088000000000e+05-5.401670932770e-08 5.993494486017e-01-4.470348358154e-08
     9.627644696332e-01 2.655000000000e+02-2.355698869639e+00-8.090694152744e-09
    -2.264380034803e-10 1.000000000000e+00 3.800000000000e+02 0.000000000000e+00
     2.000000000000e+00 0.000000000000e+00-8.847564458847e-09 8.350000000000e+02
     8.211360000000e+05 4.000000000000e+00                                      
E31 2026 07 21 09 01 35-1.581155811436e-04-2.941646926047e-12 0.000000000000e+00
     8.400000000000e+01 8.581250000000e+01 3.111915338050e-09-3.118831762193e+00
     4.041939973831e-06 3.419846761972e-04 8.542090654373e-06 5.440615993500e+03
     2.028000000000e+05-1.490116119385e-08-1.329205419678e+00 2.421438694000e-08
     9.605975412462e-01 1.544687500000e+02-1.404535496907e+00-5.539873615115e-09
     9.643258823294e-11 1.000000000000e+00 1.404000000000e+03                   
     1.070000000000e+02 0.000000000000e+00 3.492459654808e-09 4.190951585770e-09
     2.052950000000e+05                                                         
E33 2026 07 21 09 01 35-2.519506961107e-05-1.946887095983e-12 0.000000000000e+00
     8.600000000000e+01-5.178125000000e+01 2.673325640458e-09-2.678856425900e+00
    -2.324581146240e-06 1.662023132667e-04 5.647540092468e-06 5.440606731415e+03
     2.040000000000e+05 5.587935447693e-08 7.699541489380e-01-8.754432201385e-08
     9.976651175338e-01 2.334062500000e+02-3.021928220766e+00-5.507015103569e-09
    -2.207234797332e-10 1.000000000000e+00 1.404000000000e+03                   
     1.070000000000e+02 0.000000000000e+00-4.423782229424e-09-4.889443516731e-09
     2.052950000000e+05                                                         
E16 2026 07 21 09 01 35-4.646781599149e-05-2.501110429876e-12 0.000000000000e+00
     8.100000000000e+01 1.001562500000e+02 3.139416483584e-09-3.101724718553e+00
     4.405155777931e-06 4.923009546474e-04 8.720904588699e-06 5.440617143631e+03
     2.010000000000e+05 1.862645149231e-09-1.332432891990e+00 9.313225746155e-09
     9.625723314356e-01 1.570937500000e+02-2.472761177891e+00-5.512015311848e-09
     8.500354073867e-11 1.000000000000e+00 1.404000000000e+03                   
     1.070000000000e+02 0.000000000000e+00-3.725290298462e-09-2.328306436539e-09
     2.052950000000e+05                                                         
E23 2026 07 21 09 01 35-4.271470243111e-05-1.335820343229e-12 0.000000000000e+00
     8.700000000000e+01 8.012500000000e+01 3.111915338050e-09-7.792739991814e-01
     3.892928361893e-06 1.734121469781e-04 9.194016456604e-06 5.440618419647e+03
     2.046000000000e+05 9.313225746155e-09-1.332328376733e+00-7.450580596924e-09
     9.625517979174e-01 1.458125000000e+02-2.754837653817e+00-5.489514374594e-09
     1.089331089298e-10 1.000000000000e+00 1.404000000000e+03                   
     1.070000000000e+02 0.000000000000e+00 4.656612873077e-10 1.862645149231e-09
     2.052950000000e+05                                                         
E12 2026 07 21 09 01 35-5.899707321078e-05-2.586375558167e-12 0.000000000000e+00
     8.700000000000e+01-4.143750000000e+01 2.620109138062e-09-1.018474100243e+00
    -2.032145857811e-06 3.200228093192e-04 5.777925252914e-06 5.440609117508e+03
     2.046000000000e+05-7.636845111847e-08 7.694898128879e-01-3.166496753693e-08
     9.945600592814e-01 2.297500000000e+02 8.620937210467e-01-5.456655863048e-09
    -2.557249376844e-10 1.000000000000e+00 1.404000000000e+03                   
     1.070000000000e+02 0.000000000000e+00-1.187436282635e-08-1.164153218269e-08
     2.052950000000e+05                                                         
E26 2026 07 21 09 01 35 3.676656633615e-04 1.082867129298e-11 0.000000000000e+00
     8.700000000000e+01-5.368750000000e+01 2.814402945465e-09-2.285263830411e+00
    -2.458691596985e-06 9.290385060012e-05 5.155801773071e-06 5.440598941803e+03
     2.046000000000e+05 2.048909664154e-08 7.665103680964e-01 2.048909664154e-08
     9.909280725660e-01 2.444375000000e+02-2.570771422697e+00-5.535230564571e-09
    -1.782217093638e-10 1.000000000000e+00 1.404000000000e+03                   
     1.070000000000e+02 0.000000000000e+00-5.122274160385e-09-5.587935447693e-09
     2.052950000000e+05                                                         
E10 2026 07 21 09 01 35-8.074251818471e-04-2.600586412882e-12 0.000000000000e+00
     8.700000000000e+01-4.515625000000e+01 2.576893052225e-09-2.856180244606e+00
    -2.223998308182e-06 2.871559699997e-04 6.128102540970e-06 5.440603137970e+03
     2.046000000000e+05-6.146728992462e-08 7.680206642406e-01 7.450580596924e-09
     9.974651600391e-01 2.255937500000e+02 2.331766037495e+00-5.393796101829e-09
    -2.400099973798e-10 1.000000000000e+00 1.404000000000e+03                   
     1.070000000000e+02 0.000000000000e+00-1.164153218269e-09-2.328306436539e-10
     2.052950000000e+05                                                         
G14 2026 07 21 09 01 36 7.499796629418e-04 2.557953848736e-13 0.000000000000e+00
    -2.422332763672e-04 4.229296875000e+01 4.912883212734e-09-6.744416370642e-01
     2.199783921242e-06 7.365882338490e-03 8.623115718365e-06 5.153562711095e+03
     2.016000000000e+05 1.080334186554e-07-1.524266816540e+00 7.264316082001e-08
     9.416386459321e-01 2.037539062500e+02-2.680705784030e+00-8.091173407614e-09
     6.785996949726e-11 4.912883212734e-09-3.000000000000e+00 2.000000000000e+00
     2.700000000000e+01 4.000000000000e+00-7.916241884232e-09 7.000000000000e+00
    -2.619344741106e-10 5.005858838558e-09-1.455191522837e-09-1.076841726899e-09
     2.052960000000e+05 2.428000000000e+03 0.000000000000e+00                   
G17 2026 07 21 09 01 36-1.762518950272e-04-6.032507826603e-12 0.000000000000e+00
     1.567840576172e-03 5.030078125000e+01 4.780913429949e-09 2.877903456025e+00
     2.684071660042e-06 1.261496293591e-02 4.846602678299e-06 5.153543879276e+03
     1.728000000000e+05 2.235174179077e-07-4.350272550770e-01 1.806765794754e-07
     9.574384859560e-01 2.814101562500e+02-1.098660480327e+00-8.214749983646e-09
    -3.142988060926e-11 4.780913429949e-09-2.000000000000e+00 3.000000000000e+00
     2.900000000000e+01 4.000000000000e+00-1.071020960808e-08 7.000000000000e+00
    -8.440110832453e-10 6.722984835505e-09 0.000000000000e+00 0.000000000000e+00
     2.052960000000e+05 2.428000000000e+03 0.000000000000e+00                   
G06 2026 07 21 09 01 36-5.693228158634e-04 7.972289495228e-12 0.000000000000e+00
     5.177974700928e-03-2.061328125000e+01 4.004452515806e-09 9.323627841724e-01
    -1.042149960995e-06 3.692717407830e-03 6.204470992088e-06 5.153498310652e+03
     1.845000000000e+05 1.676380634308e-08 5.836785092156e-01-2.700835466385e-08
     9.858739305207e-01 2.723945312500e+02-5.459911281849e-01-8.441009408259e-09
    -2.816188734136e-10 4.004452515806e-09-2.000000000000e+00 3.000000000000e+00
     2.800000000000e+01 4.000000000000e+00 3.725290298462e-09 7.000000000000e+00
     3.201421350241e-10-3.929017111659e-09 1.775333657861e-09 2.211891114712e-09
     2.052960000000e+05 2.428000000000e+03 0.000000000000e+00                   
G03 2026 07 21 09 01 36 3.636681358330e-04-1.894306933536e-11 0.000000000000e+00
    -8.067131042480e-03-2.839843750000e+01 3.728012429539e-09-3.705220811376e-01
    -1.488253474236e-06 6.973722483963e-03 7.620081305504e-06 5.153457233643e+03
     1.737000000000e+05-2.793967723846e-08 1.621585817192e+00 7.823109626770e-08
     9.947639512943e-01 2.509296875000e+02 1.276238561510e+00-8.568514719367e-09
     5.768097407267e-11 3.728012429539e-09-2.000000000000e+00 2.000000000000e+00
     2.900000000000e+01 4.000000000000e+00 1.396983861923e-09 7.000000000000e+00
     5.529727786779e-10-2.008164301515e-09 1.862645149231e-09 5.005858838558e-09
     2.052960000000e+05 2.428000000000e+03 0.000000000000e+00                   
END OF FILE                                                 COMMENT
