     3.05           N: NAVIGATION       M: MIXED            RINEX VERSION / TYPE
PYRINEXCONV 0.1.2 ALDELTUNES            20260721 110150 UTC PGM / RUN BY / DATE
GAL    1.0175e+02  3.3203e-01  2.2858e-02             L 16  IONOSPHERIC CORR
GPSA   9.3132e-09  2.2352e-08  1.5199e-05  1.5140e-05 L 21  IONOSPHERIC CORR
GPSB   1.0035e+05  1.3107e+05  1.6712e+07  1.6318e+07 L 21  IONOSPHERIC CORR
BDSA   2.1420e-08  5.9605e-08 -7.7486e-07  1.2517e-06 K 19  IONOSPHERIC CORR
BDSB   1.4131e+05 -7.0451e+05  5.6361e+06 -4.6531e+06 K 19  IONOSPHERIC CORR
GAUT  6.5192580223e-09-2.664535259e-15 210000 1404   E16  0 TIME SYSTEM CORR
GPUT -3.1141098589e-09-1.736388811e-13 428400 2428   G21  0 TIME SYSTEM CORR
BDUT  0.0000000000e+00 0.000000000e+00 208800 1072   C19  0 TIME SYSTEM CORR
                                                            END OF HEADER
C29 2026 07 21 10 52 54 6.338543025777e-04 5.135447622706e-12 0.000000000000e+00
     1.000000000000e+00 1.521875000000e+01 4.349109729306e-09-9.110447593682e-01
     8.149072527885e-07 2.195158740506e-04 3.830529749393e-06 5.282659032822e+03
     2.088000000000e+05 9.220093488693e-08 3.420547946980e-02 2.021994441748e-05
     9.455621198063e-01 2.746562500000e+02 2.110871622002e+00-2.550433378645e-06
    -1.310768884500e-10                    1.072000000000e+03                   
     0.000000000000e+00 0.000000000000e+00 9.313225746155e-10 9.313225746155e-10
     2.119740000000e+05 1.000000000000e+00                                      
C39 2026 07 21 10 52 54-9.575803996995e-04 8.823164421301e-12 0.000000000000e+00
     1.000000000000e+00 1.242187500000e+01 3.910162873979e-09 2.444445175468e+00
     6.249174475670e-07 5.720010958612e-04 9.388197213411e-06 5.282662654877e+03
     2.088000000000e+05 1.350417733192e-08-2.011522527736e+00 5.819834768772e-05
     9.490804787486e-01 1.627031250000e+02 5.901150839762e-02 1.033624840338e-06
    -5.464513333200e-11                    1.072000000000e+03                   
     0.000000000000e+00 0.000000000000e+00 8.987262845039e-08 8.987262845039e-08
     2.119740000000e+05 1.000000000000e+00                                      
C35 2026 07 21 10 52 54-4.782178439200e-04-1.597300069989e-11 0.000000000000e+00
     1.000000000000e+00 1.009375000000e+01 4.378396663510e-09-5.081559909653e-01
     5.466863512993e-07 8.109206100926e-04 3.785360604525e-06 5.282618713379e+03
     2.088000000000e+05-1.071020960808e-08 3.480422404420e-02 3.429735079408e-05
     9.437477107888e-01 2.770156250000e+02 8.869912028353e-01-1.965403295508e-06
    -1.414344627416e-10                    1.072000000000e+03                   
     0.000000000000e+00 0.000000000000e+00-1.257285475731e-08-1.257285475731e-08
     2.119740000000e+05 1.000000000000e+00                                      
C11 2026 07 21 10 52 54-7.892216090113e-04-2.153743849931e-11 0.000000000000e+00
     1.000000000000e+00 1.068750000000e+01 4.286249968087e-09 2.181656967204e+00
     6.291083991528e-07 1.700917491689e-04 3.776513040066e-06 5.282641948700e+03
     2.088000000000e+05 1.024454832077e-07 7.435111731962e-02 3.341073170304e-05
     9.504506200262e-01 2.783906250000e+02-6.628739129820e-01 7.034621591654e-07
    -1.071473202588e-10                    1.072000000000e+03                   
     0.000000000000e+00 0.000000000000e+00 1.350417733192e-08 1.350417733192e-08
     2.119740000000e+05 1.000000000000e+00                                      
C26 2026 07 21 10 52 54-6.724677514285e-04-5.570655048359e-12 0.000000000000e+00
     1.000000000000e+00 1.592187500000e+01 4.055883229531e-09 9.379059658339e-01
     5.918554961681e-07 9.379084222019e-04 9.368173778057e-06 5.282658725739e+03
     2.088000000000e+05 3.539025783539e-08-2.040543279241e+00 4.078308120370e-05
     9.453576448205e-01 1.619687500000e+02 7.290609804305e-01 2.654492355976e-06
    -1.142904749427e-10                    1.072000000000e+03                   
     0.000000000000e+00 0.000000000000e+00-2.328306436539e-08-2.328306436539e-08
     2.119740000000e+05 1.000000000000e+00                                      
C20 2026 07 21 10 52 54-8.892425103113e-04 3.002931237006e-12 0.000000000000e+00
     1.000000000000e+00-2.231250000000e+01 3.268350425628e-09-5.126750473164e-01
    -1.237262040377e-06 8.088409667835e-04 7.103197276592e-06 5.282638822556e+03
     2.088000000000e+05 1.490116119385e-08 2.185516090969e+00 6.643589586020e-06
     9.899384450583e-01 2.320000000000e+02 2.737749512542e-01 1.101330874852e-06
     1.710785546799e-10                    1.072000000000e+03                   
     0.000000000000e+00 0.000000000000e+00 5.541369318962e-08 5.541369318962e-08
     2.119740000000e+05 1.000000000000e+00                                      
C36 2026 07 21 10 52 54 2.595708938316e-04-4.316547119743e-12 0.000000000000e+00
     1.000000000000e+00 7.937500000000e+00 3.982665894021e-09-2.005987403096e+00
     4.461035132408e-07 8.149804780260e-04 9.412411600351e-06 5.282655750275e+03
     2.088000000000e+05-4.656612873077e-10-2.018625833263e+00 4.414888098836e-05
     9.451394505890e-01 1.634375000000e+02-1.025308603350e+00 9.214562394939e-08
    -3.714440435639e-11                    1.072000000000e+03                   
     0.000000000000e+00 0.000000000000e+00-9.639188647270e-08-9.639188647270e-08
     2.119740000000e+05 1.000000000000e+00                                      
C19 2026 07 21 10 52 54-9.326129220426e-04 8.348877145181e-13 0.000000000000e+00
     1.000000000000e+00-2.098437500000e+01 3.236920545019e-09-6.369282635559e-01
    -1.041218638420e-06 7.845143554732e-04 7.387250661850e-06 5.282633029938e+03
     2.088000000000e+05-6.519258022308e-09 2.184888487410e+00 1.044664531946e-05
     9.899538539745e-01 2.296718750000e+02-3.185165569102e-01 4.869509977493e-07
     1.525063525017e-10                    1.072000000000e+03                   
     0.000000000000e+00 0.000000000000e+00 4.330649971962e-08 4.330649971962e-08
     2.119740000000e+05 1.000000000000e+00                                      
G19 2026 07 21 10 53 54 7.038223557174e-04 4.547473508865e-13 0.000000000000e+00
     5.300000000000e+01 4.746875000000e+01 4.857345185067e-09-4.598883036224e-01
     2.514570951462e-06 1.176441437565e-02 4.749745130539e-06 5.153758861542e+03
     2.160000000000e+05 1.527369022369e-07-3.913393739529e-01-8.195638656616e-08
     9.566062033338e-01 2.841562500000e+02 3.029507515948e+00-8.400707066026e-09
     1.114332130692e-10 1.000000000000e+00 3.800000000000e+02 0.000000000000e+00
     2.000000000000e+00 0.000000000000e+00-1.536682248116e-08 5.300000000000e+01
     8.481360000000e+05 4.000000000000e+00                                      
G11 2026 07 21 10 53 54-2.677883021533e-04 1.227817847393e-11 0.000000000000e+00
     6.800000000000e+01-2.675000000000e+01 4.559118477013e-09-2.804708465308e+00
    -1.342967152596e-06 2.486749202944e-03 5.591660737991e-06 5.153651065826e+03
     2.160000000000e+05 3.166496753693e-08 5.992905602973e-01-1.396983861923e-07
     9.627627141315e-01 2.712500000000e+02-2.355535992729e+00-8.172126116141e-09
    -1.628639267934e-10 1.000000000000e+00 3.800000000000e+02 0.000000000000e+00
     2.000000000000e+00 0.000000000000e+00-8.847564458847e-09 8.360000000000e+02
     8.481360000000e+05 4.000000000000e+00                                      
G06 2026 07 21 10 53 54-5.692509002984e-04 7.958078640513e-12 0.000000000000e+00
     1.800000000000e+01-2.809375000000e+01 4.137315192927e-09 2.245621032615e+00
    -1.301988959312e-06 3.694797749631e-03 5.392357707024e-06 5.153722442627e+03
     2.160000000000e+05 1.192092895508e-07 5.836067018817e-01 2.235174179077e-08
     9.858715825372e-01 2.878437500000e+02-5.465688886624e-01-7.944973797192e-09
    -1.864363372504e-10 1.000000000000e+00 3.800000000000e+02 0.000000000000e+00
     2.000000000000e+00 0.000000000000e+00 3.725290298462e-09 1.800000000000e+01
     8.481360000000e+05 4.000000000000e+00                                      
G13 2026 07 21 10 53 54 4.184492863715e-04 5.229594535194e-12 0.000000000000e+00
     4.200000000000e+01 4.490625000000e+01 4.425184326689e-09 5.289023622435e-01
     2.237036824226e-06 2.269272110425e-03 8.974224328995e-06 5.153590568542e+03
     2.160000000000e+05 0.000000000000e+00-1.575949081222e+00-2.048909664154e-08
     9.588254793184e-01 2.026875000000e+02 1.820162606930e+00-7.985689778890e-09
     1.535778257043e-11 1.000000000000e+00 3.800000000000e+02 0.000000000000e+00
     2.000000000000e+00 6.300000000000e+01-8.381903171539e-09 4.200000000000e+01
     8.481360000000e+05 4.000000000000e+00                                      
G12 2026 07 21 10 53 54-6.054616533220e-04 5.684341886081e-13 0.000000000000e+00
     1.000000000000e+01 4.975000000000e+01 4.497330188997e-09 6.626313143511e-01
     2.460554242134e-06 8.705397252925e-03 8.864328265190e-06 5.153704523087e+03
     2.159840000000e+05-9.313225746155e-08-1.467432603498e+00-5.587935447693e-08
     9.583090209601e-01 2.066250000000e+02 1.587346449225e+00-8.132481607645e-09
     3.571577341961e-12 1.000000000000e+00 3.800000000000e+02 0.000000000000e+00
     2.000000000000e+00 0.000000000000e+00-1.257285475731e-08 1.000000000000e+01
     8.481360000000e+05 4.000000000000e+00                                      
G17 2026 07 21 10 53 54-1.763063482940e-04-6.025402399246e-12 0.000000000000e+00
     6.800000000000e+01 6.150000000000e+01 4.742340394656e-09-2.092653234607e+00
     3.531575202942e-06 1.261637313291e-02 5.248934030533e-06 5.153676143646e+03
     2.160000000000e+05-6.332993507385e-08-4.351005245976e-01 2.942979335785e-07
     9.574391420748e-01 2.772187500000e+02-1.098564580196e+00-8.106766250783e-09
     9.357532635937e-11 1.000000000000e+00 3.800000000000e+02 0.000000000000e+00
     2.000000000000e+00 0.000000000000e+00-1.071020960808e-08 6.800000000000e+01
     8.481360000000e+05 4.000000000000e+00                                      
G14 2026 07 21 10 53 54 7.499819621444e-04 2.273736754432e-13 0.000000000000e+00
     2.310000000000e+02 3.900000000000e+01 4.873060125371e-09 5.507265106212e-01
     2.102926373482e-06 7.364687393419e-03 9.117648005486e-06 5.153657560349e+03
     2.160000000000e+05-7.450580596924e-09-1.524335562718e+00 2.086162567139e-07
     9.416392830329e-01 1.950000000000e+02-2.680648863351e+00-8.170697485204e-09
    -3.214419607765e-12 1.000000000000e+00 3.800000000000e+02 0.000000000000e+00
     2.000000000000e+00 0.000000000000e+00-7.916241884232e-09 9.990000000000e+02
     8.481360000000e+05 4.000000000000e+00                                      
E25 2026 07 21 10 56 05 2.174236578867e-05-8.526512829121e-14 0.000000000000e+00
     9.200000000000e+01 9.915625000000e+01 3.123344385545e-09 2.103223217106e+00
     4.330649971962e-06 2.982923761010e-04 8.534640073776e-06 5.440612390518e+03
     2.076000000000e+05-1.117587089539e-08-1.329151256599e+00 1.676380634308e-08
     9.606285785162e-01 1.595000000000e+02-1.308850285359e+00-5.512015311848e-09
     7.214586230761e-11 1.000000000000e+00 1.404000000000e+03                   
     1.070000000000e+02 0.000000000000e+00 2.328306436539e-09 2.561137080193e-09
     2.121650000000e+05                                                         
E11 2026 07 21 10 59 05 5.517843528651e-03 6.752998160664e-11-3.469446951954e-18
     9.200000000000e+01-4.434375000000e+01 2.638681340241e-09-1.931308183972e+00
    -2.140179276466e-06 4.167810548097e-04 6.133690476418e-06 5.440609558105e+03
     2.076000000000e+05-5.029141902924e-08 7.694637115036e-01 1.117587089539e-08
     9.945469295916e-01 2.250312500000e+02 1.350049069157e+00-5.415225565881e-09
    -2.003654888840e-10 1.000000000000e+00 1.404000000000e+03                   
     1.070000000000e+02 0.000000000000e+00-1.466833055019e-08-1.583248376846e-08
     2.123450000000e+05                                                         
E25 2026 07 21 11 00 35 2.174230758101e-05-8.526512829121e-14 0.000000000000e+00
     9.800000000000e+01 9.840625000000e+01 3.083699877049e-09 2.549791165928e+00
     4.349276423454e-06 2.983972663060e-04 8.288770914078e-06 5.440612140656e+03
     2.112000000000e+05-1.862645149231e-09-1.329170992827e+00-9.313225746155e-09
     9.606288945065e-01 1.604062500000e+02-1.309105705004e+00-5.514158258253e-09
     5.571660653459e-11 1.000000000000e+00 1.404000000000e+03                   
     1.070000000000e+02 0.000000000000e+00 2.328306436539e-09 2.561137080193e-09
     2.124350000000e+05                                                         
E10 2026 07 21 11 00 54-8.074434008449e-04-2.657429831743e-12 0.000000000000e+00
     9.800000000000e+01-4.356250000000e+01 2.631181027823e-09-2.036139497909e+00
    -2.052634954453e-06 2.867034636438e-04 5.776062607765e-06 5.440604352951e+03
     2.112000000000e+05-2.793967723846e-08 7.679848651723e-01-1.080334186554e-07
     9.974630475854e-01 2.322187500000e+02 2.329965112193e+00-5.476299538429e-09
    -1.907222300607e-10 5.160000000000e+02 1.404000000000e+03                   
     1.070000000000e+02 0.000000000000e+00-1.164153218269e-09-2.328306436539e-10
     2.124540000000e+05                                                         
E31 2026 07 21 11 00 54-1.581410178915e-04-2.970068635477e-12 0.000000000000e+00
     9.800000000000e+01 7.968750000000e+01 3.063699043934e-09-2.080923355565e+00
     3.857538104057e-06 3.417525440454e-04 9.203329682350e-06 5.440613857269e+03
     2.112000000000e+05 2.421438694000e-08-1.329252072136e+00 7.450580596924e-09
     9.605985960101e-01 1.439687500000e+02-1.401051358544e+00-5.495586056075e-09
     1.017899542459e-10 5.160000000000e+02 1.404000000000e+03                   
     1.070000000000e+02 0.000000000000e+00 3.492459654808e-09 4.190951585770e-09
     2.124540000000e+05                                                         
E11 2026 07 21 11 00 54 5.518086254597e-03 6.748734904249e-11-3.469446951954e-18
     9.800000000000e+01-3.968750000000e+01 2.635466920633e-09-1.482714612947e+00
    -1.911073923111e-06 4.173117922619e-04 5.783513188362e-06 5.440611726761e+03
     2.112000000000e+05-8.009374141693e-08 7.694442561560e-01-3.166496753693e-08
     9.945459816207e-01 2.322812500000e+02 1.347767423123e+00-5.451298497035e-09
    -1.900079145923e-10 5.160000000000e+02 1.404000000000e+03                   
     1.070000000000e+02 0.000000000000e+00-1.466833055019e-08-1.583248376846e-08
     2.124540000000e+05                                                         
E25 2026 07 21 11 01 35 2.174236578867e-05-7.105427357601e-14 0.000000000000e+00
     9.900000000000e+01 9.740625000000e+01 3.073342302757e-09 2.624236618057e+00
     4.328787326813e-06 2.982205478474e-04 8.316710591316e-06 5.440612489700e+03
     2.118000000000e+05 1.862645149231e-09-1.329174281467e+00-1.117587089539e-08
     9.606289369311e-01 1.592812500000e+02-1.309165599796e+00-5.515229731456e-09
     5.321650239522e-11 1.000000000000e+00 1.404000000000e+03                   
     1.070000000000e+02 0.000000000000e+00 2.328306436539e-09 2.561137080193e-09
     2.124950000000e+05                                                         
G06 2026 07 21 11 01 36-5.692653940059e-04 7.975842208907e-12 0.000000000000e+00
    -7.128715515137e-03-1.784765625000e+01 4.109635468527e-09 1.982657061328e+00
    -8.838251233101e-07 3.696886647958e-03 5.481764674187e-06 5.153499173991e+03
     1.845000000000e+05 1.052394509315e-07 5.836211130877e-01-1.303851604462e-08
     9.858719241286e-01 2.858281250000e+02-5.461467665764e-01-8.395114639415e-09
    -2.101873265744e-10 4.109635468527e-09-2.000000000000e+00 3.000000000000e+00
     2.900000000000e+01 4.000000000000e+00 3.725290298462e-09 7.000000000000e+00
     3.201421350241e-10-3.929017111659e-09 1.775333657861e-09 2.211891114712e-09
     2.124960000000e+05 2.428000000000e+03 0.000000000000e+00                   
G11 2026 07 21 11 01 36-2.678104792722e-04 1.223909862347e-11 0.000000000000e+00
    -9.360313415527e-04-2.354687500000e+01 4.523759861328e-09-3.067374537467e+00
    -1.215375959873e-06 2.486338082235e-03 5.622394382954e-06 5.153570937345e+03
     1.872000000000e+05-3.073364496231e-08 5.993054630438e-01-1.108273863792e-07
     9.627631054621e-01 2.717890625000e+02-2.355419437657e+00-8.195820623734e-09
    -1.960795960737e-10 4.523759861328e-09-2.000000000000e+00 3.000000000000e+00
     2.800000000000e+01 4.000000000000e+00-8.847564458847e-09 7.000000000000e+00
    -2.037268131971e-10 5.675246939063e-09 3.783497959375e-10 2.328306436539e-10
     2.124960000000e+05 2.428000000000e+03 0.000000000000e+00                   
G13 2026 07 21 11 01 36 4.184397403151e-04 5.229594535194e-12 8.673617379884e-19
     4.562377929688e-03 4.561328125000e+01 4.458221417103e-09 2.657256497513e-01
     2.283602952957e-06 2.268318727147e-03 8.784234523773e-06 5.153633150734e+03
     1.647000000000e+05-3.725290298462e-09-1.575934714635e+00-1.955777406693e-08
     9.588254551803e-01 2.099062500000e+02 1.820784640429e+00-8.351541395843e-09
     1.660783464012e-11 4.458221417103e-09-2.000000000000e+00 2.000000000000e+00
     3.000000000000e+01 7.000000000000e+00-8.381903171539e-09 7.000000000000e+00
    -1.164153218269e-10 5.267793312669e-09 1.658918336034e-09 1.949956640601e-09
     2.124960000000e+05 2.428000000000e+03 0.000000000000e+00                   
G12 2026 07 21 11 01 36-6.054627010599e-04 5.542233338929e-13 0.000000000000e+00
     5.886554718018e-03 4.863281250000e+01 4.535903224290e-09 3.584829002517e-01
     2.461485564709e-06 8.703983854502e-03 8.565373718739e-06 5.153519584271e+03
     2.025000000000e+05-8.940696716309e-08-1.467415643889e+00-5.122274160385e-08
     9.583090143770e-01 2.155156250000e+02 1.587535177361e+00-8.202070884082e-09
     2.857261873569e-12 4.535903224290e-09-2.000000000000e+00 2.000000000000e+00
     2.700000000000e+01 4.000000000000e+00-1.257285475731e-08 7.000000000000e+00
    -6.984919309616e-10 7.072230800986e-09 0.000000000000e+00 0.000000000000e+00
     2.124960000000e+05 2.428000000000e+03 0.000000000000e+00                   
G21 2026 07 21 11 01 36 3.957099397667e-04-5.300648808770e-12 0.000000000000e+00
     5.232810974121e-03-2.124218750000e+01 4.319287058500e-09-2.916990990098e-02
    -1.072883605957e-06 7.935005123727e-04 7.556751370430e-06 5.153627001018e+03
     1.332000000000e+05 8.381903171539e-09 1.623575795397e+00-1.024454832077e-08
     9.641822917997e-01 2.359882812500e+02-8.331798883724e-02-8.343148189090e-09
     1.678641350722e-11 4.319287058500e-09-2.000000000000e+00 3.000000000000e+00
     3.100000000000e+01 4.000000000000e+00-9.778887033463e-09 7.000000000000e+00
    -8.731149137020e-11 6.199115887284e-09 1.746229827404e-10 1.455191522837e-10
     2.124960000000e+05 2.428000000000e+03 0.000000000000e+00                   
G17 2026 07 21 11 01 36-1.762953179423e-04-6.028955112924e-12 0.000000000000e+00
    -4.621982574463e-03 5.543359375000e+01 4.725018244547e-09-2.355282543635e+00
     2.962537109852e-06 1.261504628928e-02 5.379319190979e-06 5.153546196969e+03
     1.728000000000e+05-1.862645149231e-09-4.350860929107e-01 2.123415470123e-07
     9.574392693486e-01 2.749804687500e+02-1.098483249997e+00-8.300824997587e-09
     1.114332130692e-10 4.725018244547e-09-2.000000000000e+00 3.000000000000e+00
     2.900000000000e+01 4.000000000000e+00-1.071020960808e-08 7.000000000000e+00
    -8.440110832453e-10 6.722984835505e-09 0.000000000000e+00 0.000000000000e+00
     2.124960000000e+05 2.428000000000e+03 0.000000000000e+00                   
E12 2026 07 21 11 01 54-5.901011172682e-05-2.600586412882e-12 0.000000000000e+00
     9.500000000000e+01-4.771875000000e+01 2.700826785991e-09-4.231112028856e-01
    -2.194195985794e-06 3.192125586793e-04 5.677342414856e-06 5.440607519150e+03
     2.094000000000e+05 1.303851604462e-08 7.694633838099e-01-1.043081283569e-07
     9.945584091098e-01 2.321562500000e+02 8.618121883140e-01-5.518086993329e-09
    -2.003654888840e-10 5.160000000000e+02 1.404000000000e+03                   
     1.070000000000e+02 0.000000000000e+00-1.187436282635e-08-1.164153218269e-08
     2.125140000000e+05                                                         
E11 2026 07 21 11 01 54 5.518126708921e-03 6.747313818778e-11-3.469446951954e-18
     9.900000000000e+01-3.928125000000e+01 2.638681340241e-09-1.408247597405e+00
    -1.888722181320e-06 4.173512570560e-04 5.777925252914e-06 5.440611831665e+03
     2.118000000000e+05-7.823109626770e-08 7.694409879970e-01-4.470348358154e-08
     9.945458133851e-01 2.324062500000e+02 1.347685586023e+00-5.458798809453e-09
    -1.860791795162e-10 5.160000000000e+02 1.404000000000e+03                   
     1.070000000000e+02 0.000000000000e+00-1.466833055019e-08-1.583248376846e-08
     2.125140000000e+05                                                         
E33 2026 07 21 11 02 05-2.520804991946e-05-2.003730514843e-12 0.000000000000e+00
     9.700000000000e+01-5.331250000000e+01 2.756900550260e-09-1.872639609905e+00
    -2.408400177956e-06 1.665498130023e-04 5.079433321953e-06 5.440602670670e+03
     2.106000000000e+05 3.539025783539e-08 7.699172731619e-01 1.862645149231e-08
     9.976635273419e-01 2.492812500000e+02-3.009906117986e+00-5.500943422088e-09
    -1.392915163365e-10 1.000000000000e+00 1.404000000000e+03                   
     1.070000000000e+02 0.000000000000e+00-4.423782229424e-09-4.889443516731e-09
     2.125250000000e+05                                                         
E16 2026 07 21 11 02 05-4.648976027966e-05-2.472688720445e-12 0.000000000000e+00
     9.600000000000e+01 8.443750000000e+01 3.004053702323e-09-1.982710376646e+00
     3.952533006668e-06 4.925740649924e-04 8.465722203255e-06 5.440620019913e+03
     2.100000000000e+05 9.313225746155e-09-1.332482449802e+00 3.725290298462e-09
     9.625730936159e-01 1.559062500000e+02-2.475996013070e+00-5.514515415988e-09
     7.857470152314e-11 1.000000000000e+00 1.404000000000e+03                   
     1.070000000000e+02 0.000000000000e+00-3.725290298462e-09-2.328306436539e-09
     2.125250000000e+05                                                         
E10 2026 07 21 11 02 05-8.074449724518e-04-2.657429831743e-12 0.000000000000e+00
     9.900000000000e+01-4.531250000000e+01 2.642252917583e-09-1.962537274686e+00
    -2.123415470123e-06 2.866510767490e-04 5.746260285378e-06 5.440603900909e+03
     2.118000000000e+05-9.313225746155e-09 7.679815545886e-01-1.098960638046e-07
     9.974628661835e-01 2.329687500000e+02 2.330748146410e+00-5.483085535378e-09
    -1.821504444400e-10 1.000000000000e+00 1.404000000000e+03                   
     1.070000000000e+02 0.000000000000e+00-1.164153218269e-09-2.328306436539e-10
     2.125250000000e+05                                                         
E31 2026 07 21 11 02 05-1.581428223290e-04-2.970068635477e-12 0.000000000000e+00
     9.900000000000e+01 7.840625000000e+01 3.064413359402e-09-2.007206237682e+00
     3.790482878685e-06 3.417062107474e-04 9.275972843170e-06 5.440613393784e+03
     2.118000000000e+05 2.607703208923e-08-1.329255378331e+00 1.303851604462e-08
     9.605986867111e-01 1.425625000000e+02-1.400383343336e+00-5.490943005531e-09
     1.003613233091e-10 1.000000000000e+00 1.404000000000e+03                   
     1.070000000000e+02 0.000000000000e+00 3.492459654808e-09 4.190951585770e-09
     2.125250000000e+05                                                         
END OF FILE                                                 COMMENT
