     3.05           N: NAVIGATION       M: MIXED            RINEX VERSION / TYPE
PYRINEXCONV 0.1.2 ALDELTUNES            20260721 004948 UTC PGM / RUN BY / DATE
GAL    1.0175e+02  3.3203e-01  2.2858e-02             A 27  IONOSPHERIC CORR
GPSA   9.3132e-09  2.2352e-08  1.5199e-05  1.5140e-05 A 28  IONOSPHERIC CORR
GPSB   1.0035e+05  1.3107e+05  1.6712e+07  1.6318e+07 A 28  IONOSPHERIC CORR
BDSA   1.9558e-08  2.9802e-08 -5.9605e-07  1.0133e-06 A 20  IONOSPHERIC CORR
BDSB   1.4131e+05 -7.8643e+05  6.0293e+06 -4.9807e+06 A 20  IONOSPHERIC CORR
GAUT  6.5192580223e-09-2.664535259e-15 174600 1404   E27  0 TIME SYSTEM CORR
GPUT -3.3469405025e-09-7.989164885e-13 356700 2428   G28  0 TIME SYSTEM CORR
BDUT  0.0000000000e+00 0.000000000e+00 172800 1072   C20  0 TIME SYSTEM CORR
                                                            END OF HEADER
E27 2026 07 21 00 40 54-1.049719750881e-03-1.062971932697e-11 0.000000000000e+00
     3.600000000000e+01 1.047812500000e+02 3.269779056565e-09 1.426731172349e+00
     4.980713129044e-06 2.445023274049e-04 8.383765816689e-06 5.440615058899e+03
     1.740000000000e+05 4.842877388000e-08-1.329004120688e+00-1.676380634308e-08
     9.605919368070e-01 1.570312500000e+02-8.797442270497e-01-5.629163048664e-09
    -3.964450849577e-11 5.160000000000e+02 1.404000000000e+03                   
     1.070000000000e+02 0.000000000000e+00 2.328306436539e-10 2.328306436539e-10
     1.752540000000e+05                                                         
E29 2026 07 21 00 40 54-2.271438715979e-04-3.623767952377e-12 0.000000000000e+00
     3.600000000000e+01-4.568750000000e+01 3.423714040004e-09 4.282154059876e-01
    -2.067536115646e-06 2.009181771427e-04 5.559995770454e-06 5.440611289978e+03
     1.740000000000e+05-1.117587089539e-08 2.852201300535e+00 9.313225746155e-09
     9.627378913375e-01 2.194062500000e+02 1.417466575058e+00-5.748453731886e-09
     2.125088518467e-10 5.160000000000e+02 1.404000000000e+03                   
     1.070000000000e+02 0.000000000000e+00-3.259629011154e-09-2.793967723846e-09
     1.752540000000e+05                                                         
E07 2026 07 21 00 40 54-7.846980588511e-05-2.543742994021e-12 0.000000000000e+00
     3.600000000000e+01-4.956250000000e+01 3.326209978568e-09 2.453975359684e+00
    -2.181157469749e-06 4.218232352287e-04 5.505979061127e-06 5.440617444992e+03
     1.740000000000e+05 1.303851604462e-08 2.852467367298e+00 3.725290298462e-09
     9.693522355144e-01 2.276875000000e+02 1.828158018920e-01-5.658092825134e-09
     1.939366496685e-10 5.160000000000e+02 1.404000000000e+03                   
     1.070000000000e+02 0.000000000000e+00 4.423782229424e-09 4.889443516731e-09
     1.752540000000e+05                                                         
C32 2026 07 21 00 40 54-9.033411042765e-04 1.862510146111e-12 0.000000000000e+00
     1.000000000000e+00-1.528125000000e+01 3.335138921923e-09 2.071525875573e+00
    -8.088536560535e-07 5.075715016574e-04 7.343944162130e-06 5.282631332397e+03
     1.728000000000e+05 3.213062882423e-08 2.177669544060e+00-3.067776560783e-06
     9.887592087384e-01 2.231875000000e+02-4.909819910278e-02-5.694133612092e-07
     4.546617956316e-10                    1.072000000000e+03                   
     0.000000000000e+00 0.000000000000e+00-3.818422555923e-08-3.818422555923e-08
     1.752540000000e+05 1.000000000000e+00                                      
C23 2026 07 21 00 40 54-4.541792441159e-04 3.552713678801e-15 0.000000000000e+00
     1.000000000000e+00 2.312500000000e+01 4.183745698373e-09 1.632283515366e+00
     1.185573637486e-06 3.784552682191e-04 1.036701723933e-05 5.282653682709e+03
     1.728000000000e+05 2.374872565269e-08-2.018286977548e+00 1.897569745779e-05
     9.436858907966e-01 1.384843750000e+02-8.755830209416e-01 4.225365289139e-07
    -2.728685089258e-10                    1.072000000000e+03                   
     0.000000000000e+00 0.000000000000e+00 1.024454832077e-07 1.024454832077e-07
     1.752540000000e+05 1.000000000000e+00                                      
C37 2026 07 21 00 40 54-9.073964320123e-04 6.909139926847e-12 0.000000000000e+00
     1.000000000000e+00 1.034375000000e+01 4.165173496195e-09 3.452587901002e-01
     4.637986421585e-07 7.127004209906e-04 1.081917434931e-05 5.282669240952e+03
     1.728000000000e+05-9.313225746155e-10-2.018514202373e+00 4.359474405646e-05
     9.451582169021e-01 1.326093750000e+02-3.738174789299e-01 2.002644132452e-07
    -2.560820954186e-10                    1.072000000000e+03                   
     0.000000000000e+00 0.000000000000e+00-7.823109626770e-08-7.823109626770e-08
     1.752540000000e+05 1.000000000000e+00                                      
C41 2026 07 21 00 40 54-9.488336509094e-04-2.091660178394e-12 0.000000000000e+00
     1.000000000000e+00-1.260937500000e+01 3.406927626496e-09-2.389793850518e+00
    -5.229376256466e-07 1.458042184822e-03 7.325783371925e-06 5.282628807068e+03
     1.728000000000e+05 1.676380634308e-08 2.179923621403e+00-1.113722100854e-05
     9.876143744000e-01 2.254375000000e+02-1.038559629000e+00 1.630723997629e-06
     4.560904265684e-10                    1.072000000000e+03                   
     0.000000000000e+00 0.000000000000e+00-1.117587089539e-07-1.117587089539e-07
     1.752540000000e+05 1.000000000000e+00                                      
C25 2026 07 21 00 40 54 8.136670803651e-04-9.081624341434e-12 0.000000000000e+00
     1.000000000000e+00 1.634375000000e+01 4.266249134972e-09 8.738892192794e-01
     9.369105100632e-07 5.752220749855e-04 9.950250387192e-06 5.282664930344e+03
     1.728000000000e+05 1.112930476665e-07-2.040933310756e+00 1.029158011079e-05
     9.453146350290e-01 1.507343750000e+02 6.185732264463e-01 2.274179371556e-06
    -1.792931825664e-10                    1.072000000000e+03                   
     0.000000000000e+00 0.000000000000e+00 1.862645149231e-09 1.862645149231e-09
     1.752540000000e+05 1.000000000000e+00                                      
C20 2026 07 21 00 40 54-8.893513586372e-04 2.998490344908e-12 0.000000000000e+00
     1.000000000000e+00-1.573437500000e+01 3.369426064406e-09 8.950717361763e-01
    -9.662471711636e-07 8.085578447208e-04 7.249414920807e-06 5.282634410858e+03
     1.728000000000e+05 4.982575774193e-08 2.185750703530e+00 1.670792698860e-06
     9.899256035634e-01 2.309843750000e+02 2.735976587493e-01 1.329226081887e-06
     4.182317067436e-10                    1.072000000000e+03                   
     0.000000000000e+00 0.000000000000e+00 5.541369318962e-08 5.541369318962e-08
     1.752540000000e+05 1.000000000000e+00                                      
G16 2026 07 21 00 41 24 3.019548021257e-04 6.480149750132e-12 0.000000000000e+00
     8.700000000000e+01 6.278125000000e+01 4.749840707074e-09 4.905484698842e-03
     3.473833203316e-06 1.503468246665e-02 8.979812264442e-06 5.153715620041e+03
     1.800000000000e+05-4.656612873077e-08-1.450390116970e+00 1.844018697739e-07
     9.573753442173e-01 2.042187500000e+02 9.375411286941e-01-8.338561620276e-09
    -8.571785620706e-11 1.000000000000e+00 3.800000000000e+02 0.000000000000e+00
     2.000000000000e+00 0.000000000000e+00-1.024454832077e-08 8.700000000000e+01
     7.011360000000e+05 4.000000000000e+00                                      
G31 2026 07 21 00 41 24-1.340978778899e-04 2.728484105319e-12 0.000000000000e+00
     4.600000000000e+01-3.046875000000e+01 4.896989693563e-09 1.387305427708e+00
    -1.519918441772e-06 1.091507845558e-02 9.141862392426e-06 5.153633649826e+03
     1.800000000000e+05-2.589076757431e-07-2.561142719726e+00 8.940696716309e-08
     9.550181209095e-01 2.048125000000e+02 9.765602962162e-01-8.211770624636e-09
    -1.703642392115e-10 1.000000000000e+00 3.800000000000e+02 0.000000000000e+00
     2.000000000000e+00 0.000000000000e+00-1.350417733192e-08 4.600000000000e+01
     7.011360000000e+05 4.000000000000e+00                                      
G03 2026 07 21 00 41 24 3.641797229648e-04-1.898570189951e-11 0.000000000000e+00
     3.900000000000e+01-2.587500000000e+01 3.495145586843e-09 1.972188565113e+00
    -1.396983861923e-06 6.975172669627e-03 9.100884199142e-06 5.153767438889e+03
     1.799840000000e+05 2.980232238770e-08 1.621788574712e+00-1.285225152969e-07
     9.947606312017e-01 2.198125000000e+02 1.276449267064e+00-7.577458488704e-09
     3.042983895351e-10 1.000000000000e+00 3.800000000000e+02 0.000000000000e+00
     2.000000000000e+00 0.000000000000e+00 1.396983861923e-09 3.900000000000e+01
     7.011360000000e+05 4.000000000000e+00                                      
G04 2026 07 21 00 41 24 6.273528560996e-05 6.821210263297e-13 0.000000000000e+00
     4.000000000000e+00-2.156250000000e+01 4.435899058715e-09-1.318618189375e+00
    -1.283362507820e-06 3.821728983894e-03 6.174668669701e-06 5.153673210144e+03
     1.800000000000e+05 4.470348358154e-08 2.690147796711e+00-5.960464477539e-08
     9.724411767983e-01 2.633125000000e+02-2.902038596573e+00-8.003904823334e-09
     3.196561721055e-10 1.000000000000e+00 3.800000000000e+02 0.000000000000e+00
     2.000000000000e+00 0.000000000000e+00-4.656612873077e-09 5.160000000000e+02
     7.011360000000e+05 4.000000000000e+00                                      
G28 2026 07 21 00 41 24-4.658922553062e-04 1.091393642128e-11 0.000000000000e+00
     9.500000000000e+01-3.215625000000e+01 4.697338520147e-09-3.139609729576e+00
    -1.585111021996e-06 5.170600488782e-04 8.603557944298e-06 5.153621814728e+03
     1.800000000000e+05-4.656612873077e-08-2.610111901157e+00 2.048909664154e-08
     9.622425633680e-01 2.147500000000e+02-3.117338440287e-01-7.972474942725e-09
    -9.357532635937e-11 1.000000000000e+00 3.800000000000e+02 0.000000000000e+00
     2.000000000000e+00 0.000000000000e+00-9.313225746155e-09 3.510000000000e+02
     7.011360000000e+05 4.000000000000e+00                                      
E21 2026 07 21 00 45 24-7.585140410811e-04-2.827960088325e-12 0.000000000000e+00
     3.000000000000e+01 1.150937500000e+02 3.159774474433e-09 8.572248956120e-01
     5.146488547325e-06 1.701257424429e-04 9.587034583092e-06 5.440615518570e+03
     1.704000000000e+05 1.303851604462e-08-1.328944024013e+00 7.450580596924e-09
     9.606212609999e-01 1.338125000000e+02-1.556055263490e+00-5.563446025572e-09
    -5.143071372424e-11 5.160000000000e+02 1.404000000000e+03                   
     1.070000000000e+02 0.000000000000e+00 1.164153218269e-09 1.164153218269e-09
     1.755240000000e+05                                                         
E30 2026 07 21 00 45 24-1.275924907532e-03-3.971933892899e-11 0.000000000000e+00
     2.500000000000e+01 1.072812500000e+02 3.258350009071e-09-4.525046708073e-02
     5.045905709267e-06 2.124481834471e-04 8.385628461838e-06 5.440624414444e+03
     1.674000000000e+05 2.980232238770e-08-1.327277429701e+00 1.676380634308e-08
     9.583802767739e-01 1.559687500000e+02 5.253313294728e-01-5.640592096159e-09
    -4.107313943255e-11 5.160000000000e+02 1.404000000000e+03                   
     1.070000000000e+02 0.000000000000e+00 6.984919309616e-10 9.313225746155e-10
     1.755240000000e+05                                                         
E19 2026 07 21 00 45 24 3.107951488346e-03 2.410160959698e-11 0.000000000000e+00
     2.700000000000e+01-4.056250000000e+01 3.285493996870e-09 6.700663307008e-01
    -1.993030309677e-06 2.444363199174e-04 5.826354026794e-06 5.440615125656e+03
     1.686000000000e+05-4.284083843231e-08 2.860647537064e+00-4.097819328308e-08
     9.747192006471e-01 2.257500000000e+02-2.419013792948e-01-5.610948004220e-09
     1.692927660089e-10 5.160000000000e+02 1.404000000000e+03                   
     1.070000000000e+02 0.000000000000e+00-4.190951585770e-09-4.423782229424e-09
     1.755240000000e+05                                                         
G03 2026 07 21 00 47 12 3.642191586550e-04-1.892885848065e-11 0.000000000000e+00
    -5.082130432129e-03-3.272656250000e+01 3.511932000350e-09 1.668182751148e+00
    -1.699663698673e-06 6.976965523791e-03 9.193085134029e-06 5.153454907572e+03
     1.737000000000e+05-4.470348358154e-08 1.621804437133e+00-1.080334186554e-07
     9.947597490621e-01 2.185000000000e+02 1.276501399613e+00-8.703163185159e-09
     2.996553389905e-10 3.511932000350e-09-2.000000000000e+00 2.000000000000e+00
     2.700000000000e+01 4.000000000000e+00 1.396983861923e-09 7.000000000000e+00
     5.529727786779e-10-2.008164301515e-09 1.862645149231e-09 5.005858838558e-09
     1.756320000000e+05 2.428000000000e+03 0.000000000000e+00                   
E19 2026 07 21 00 49 35 3.108098288067e-03 2.432898327243e-11 0.000000000000e+00
     3.700000000000e+01-4.050000000000e+01 3.223348551120e-09 1.412633671577e+00
    -2.050772309303e-06 2.443577395752e-04 5.675479769707e-06 5.440615755081e+03
     1.746000000000e+05 1.117587089539e-08 2.860613617845e+00 3.725290298462e-09
     9.747201369147e-01 2.229062500000e+02-2.406143815034e-01-5.626305786791e-09
     2.117945363783e-10 1.000000000000e+00 1.404000000000e+03                   
     1.070000000000e+02 0.000000000000e+00-4.423782229424e-09-4.423782229424e-09
     1.757750000000e+05                                                         
E30 2026 07 21 00 49 35-1.276210241485e-03-3.971933892899e-11 0.000000000000e+00
     3.700000000000e+01 9.925000000000e+01 3.312280826934e-09 8.495352466673e-01
     4.701316356659e-06 2.115871757269e-04 8.249655365944e-06 5.440622770309e+03
     1.746000000000e+05 0.000000000000e+00-1.327318389944e+00 8.009374141693e-08
     9.583798730086e-01 1.625625000000e+02 5.231661229404e-01-5.632377468272e-09
     8.928943354902e-12 1.000000000000e+00 1.404000000000e+03                   
     1.070000000000e+02 0.000000000000e+00 2.328306436539e-10 2.328306436539e-10
     1.757750000000e+05                                                         
G26 2026 07 21 00 49 36-3.841021971311e-04-2.511768570912e-12 0.000000000000e+00
    -6.264209747314e-03 5.512890625000e+01 5.416118460217e-09 4.981622482401e-01
     3.001652657986e-06 1.116635178914e-02 9.015202522278e-06 5.153641958227e+03
     1.152000000000e+05-2.700835466385e-08-1.639756209171e+00 1.173466444016e-07
     9.274891442743e-01 1.881914062500e+02 7.146350318747e-01-7.784374913940e-09
    -1.928651764659e-10 5.416118460217e-09-2.000000000000e+00 3.000000000000e+00
     3.000000000000e+01 4.000000000000e+00 6.519258022308e-09 7.000000000000e+00
    -8.440110832453e-10-4.190951585770e-09 5.820766091347e-09 5.878973752260e-09
     1.757760000000e+05 2.428000000000e+03 0.000000000000e+00                   
G31 2026 07 21 00 49 36-1.341027382296e-04 2.749800387392e-12 0.000000000000e+00
     3.767967224121e-03-2.978515625000e+01 4.925383733431e-09 1.124739852169e+00
    -1.469627022743e-06 1.091369451024e-02 8.693896234035e-06 5.153589886929e+03
     1.377000000000e+05-1.257285475731e-07-2.561127504646e+00 1.275911927223e-07
     9.550183023114e-01 2.105351562500e+02 9.765758682477e-01-8.064922314151e-09
    -2.403671551140e-10 4.925383733431e-09-2.000000000000e+00 3.000000000000e+00
     2.900000000000e+01 4.000000000000e+00-1.350417733192e-08 7.000000000000e+00
    -2.619344741106e-10 8.265487849712e-09 0.000000000000e+00 0.000000000000e+00
     1.757760000000e+05 2.428000000000e+03 0.000000000000e+00                   
G04 2026 07 21 00 49 36 6.273412145674e-05 6.998845947237e-13 0.000000000000e+00
    -5.631446838379e-04-2.111328125000e+01 4.452149735621e-09-1.581149703060e+00
    -1.121312379837e-06 3.821527818218e-03 6.383284926414e-06 5.153549399026e+03
     1.233000000000e+05 2.700835466385e-08 2.690162137697e+00-4.377216100693e-08
     9.724406055288e-01 2.625976562500e+02-2.902052367753e+00-8.337076507608e-09
     3.330495871378e-10 4.452149735621e-09-2.000000000000e+00 3.000000000000e+00
     3.000000000000e+01 4.000000000000e+00-4.656612873077e-09 7.000000000000e+00
    -2.037268131971e-10 3.317836672068e-09-1.426087692380e-09-1.396983861923e-09
     1.757760000000e+05 2.428000000000e+03 0.000000000000e+00                   
G28 2026 07 21 00 49 36-4.659118421841e-04 1.087130385713e-11 0.000000000000e+00
     2.033233642578e-03-2.901953125000e+01 4.716982195528e-09 2.882508508552e+00
    -1.423060894012e-06 5.171530065127e-04 8.507631719112e-06 5.153601420328e+03
     1.107000000000e+05-4.470348358154e-08-2.610097487026e+00 4.563480615616e-08
     9.622426723554e-01 2.161601562500e+02-3.132190035830e-01-8.347434081900e-09
    -1.016113753788e-10 4.716982195528e-09-2.000000000000e+00 3.000000000000e+00
     3.000000000000e+01 4.000000000000e+00-9.313225746155e-09 7.000000000000e+00
    -3.492459654808e-10 5.966285243630e-09-7.566995918751e-10-6.693881005049e-10
     1.757760000000e+05 2.428000000000e+03 0.000000000000e+00                   
E27 2026 07 21 00 49 54-1.049726095516e-03-1.062971932697e-11 0.000000000000e+00
     3.700000000000e+01 1.031875000000e+02 3.284065365933e-09 1.502247616563e+00
     4.922971129417e-06 2.446804428473e-04 8.303672075272e-06 5.440614410400e+03
     1.746000000000e+05 5.401670932770e-08-1.329007517583e+00-1.303851604462e-08
     9.605918841420e-01 1.592500000000e+02-8.808755747463e-01-5.630948837335e-09
    -3.500145795122e-11 5.160000000000e+02 1.404000000000e+03                   
     1.070000000000e+02 0.000000000000e+00 2.328306436539e-10 2.328306436539e-10
     1.757940000000e+05                                                         
E29 2026 07 21 00 49 54-2.271460252814e-04-3.623767952377e-12 0.000000000000e+00
     3.700000000000e+01-4.634375000000e+01 3.417642358522e-09 5.022229145717e-01
    -2.084299921989e-06 2.009533345699e-04 5.552545189857e-06 5.440611452103e+03
     1.746000000000e+05-1.117587089539e-08 2.852197831957e+00 5.587935447693e-09
     9.627380215372e-01 2.196875000000e+02 1.417844790584e+00-5.746310785481e-09
     2.139374827835e-10 5.160000000000e+02 1.404000000000e+03                   
     1.070000000000e+02 0.000000000000e+00-3.259629011154e-09-2.793967723846e-09
     1.757940000000e+05                                                         
E07 2026 07 21 00 49 54-7.847126107663e-05-2.543742994021e-12 0.000000000000e+00
     3.700000000000e+01-4.890625000000e+01 3.310852195998e-09 2.528362608154e+00
    -2.166256308556e-06 4.216103116050e-04 5.461275577545e-06 5.440617862701e+03
     1.746000000000e+05 1.676380634308e-08 2.852463955773e+00 1.117587089539e-08
     9.693523847320e-01 2.293437500000e+02 1.828140844261e-01-5.653092616856e-09
     1.928651764659e-10 5.160000000000e+02 1.404000000000e+03                   
     1.070000000000e+02 0.000000000000e+00 4.423782229424e-09 4.889443516731e-09
     1.757940000000e+05                                                         
E21 2026 07 21 00 49 54-7.585257990286e-04-2.827960088325e-12 0.000000000000e+00
     3.700000000000e+01 1.214375000000e+02 3.146202480533e-09 1.365743282107e+00
     5.502253770828e-06 1.697529805824e-04 8.773058652878e-06 5.440619733810e+03
     1.746000000000e+05-7.450580596924e-09-1.328967361945e+00-9.313225746155e-09
     9.606209274546e-01 1.490000000000e+02-1.543875657098e+00-5.583446858687e-09
    -4.750197864808e-11 5.160000000000e+02 1.404000000000e+03                   
     1.070000000000e+02 0.000000000000e+00 6.984919309616e-10 9.313225746155e-10
     1.757940000000e+05                                                         
END OF FILE                                                 COMMENT
