     3.05           N: NAVIGATION       M: MIXED            RINEX VERSION / TYPE
PYRINEXCONV 0.1.2 ALDELTUNES            20260721 002944 UTC PGM / RUN BY / DATE
GAL    1.0300e+02  3.0469e-01  2.1057e-02             A 21  IONOSPHERIC CORR
GPSA   9.3132e-09  2.2352e-08 -5.9605e-08 -1.1921e-07 A 32  IONOSPHERIC CORR
GPSB   1.0035e+05  1.3107e+05 -6.5536e+04 -4.5875e+05 A 32  IONOSPHERIC CORR
BDSA   1.9558e-08  2.9802e-08 -5.9605e-07  1.0133e-06 A 20  IONOSPHERIC CORR
BDSB   1.4131e+05 -7.8643e+05  6.0293e+06 -4.9807e+06 A 20  IONOSPHERIC CORR
GAUT  7.4505805969e-09-2.664535259e-15 170400 1404   E21  0 TIME SYSTEM CORR
GPUT -3.5527136788e-15-4.656612873e-09 180000  380   G32  0 TIME SYSTEM CORR
BDUT  0.0000000000e+00 0.000000000e+00 172800 1072   C20  0 TIME SYSTEM CORR
                                                            END OF HEADER
E27 2026 07 21 00 20 54-1.049706945196e-03-1.061550847226e-11 0.000000000000e+00
     3.400000000000e+01 1.092500000000e+02 3.238349175956e-09 1.275304361043e+00
     5.142763257027e-06 2.441855613142e-04 8.527189493179e-06 5.440616481781e+03
     1.728000000000e+05 3.352761268616e-08-1.328997340062e+00-2.235174179077e-08
     9.605920436001e-01 1.531250000000e+02-8.770874332293e-01-5.624877155854e-09
    -4.750197864808e-11 5.160000000000e+02 1.404000000000e+03                   
     1.070000000000e+02 0.000000000000e+00 6.984919309616e-10 9.313225746155e-10
     1.740540000000e+05                                                         
E29 2026 07 21 00 20 54-2.271393314004e-04-3.623767952377e-12 0.000000000000e+00
     3.400000000000e+01-4.437500000000e+01 3.435500245232e-09 2.801384386276e-01
    -2.035871148109e-06 2.008315641433e-04 5.565583705902e-06 5.440610969543e+03
     1.728000000000e+05-7.450580596924e-09 2.852208236230e+00 1.490116119385e-08
     9.627376353268e-01 2.191875000000e+02 1.416772073718e+00-5.751668151494e-09
     2.103659054415e-10 5.160000000000e+02 1.404000000000e+03                   
     1.070000000000e+02 0.000000000000e+00-3.259629011154e-09-3.026798367500e-09
     1.740540000000e+05                                                         
E07 2026 07 21 00 20 54-7.846672087908e-05-2.543742994021e-12 0.000000000000e+00
     3.400000000000e+01-4.987500000000e+01 3.359782805583e-09 2.305303825843e+00
    -2.188608050346e-06 4.221537383273e-04 5.574896931648e-06 5.440616792679e+03
     1.728000000000e+05-2.235174179077e-08 2.852474286901e+00-3.725290298462e-09
     9.693518624702e-01 2.249062500000e+02 1.827162590942e-01-5.682736708794e-09
     1.957224383395e-10 5.160000000000e+02 1.404000000000e+03                   
     1.070000000000e+02 0.000000000000e+00 4.423782229424e-09 4.889443516731e-09
     1.740540000000e+05                                                         
E19 2026 07 21 00 21 05 3.107951488346e-03 2.410160959698e-11 0.000000000000e+00
     2.700000000000e+01-4.056250000000e+01 3.285493996870e-09 6.700663307008e-01
    -1.993030309677e-06 2.444363199174e-04 5.826354026794e-06 5.440615125656e+03
     1.686000000000e+05-4.284083843231e-08 2.860647537064e+00-4.097819328308e-08
     9.747192006471e-01 2.257500000000e+02-2.419013792948e-01-5.610948004220e-09
     1.692927660089e-10 1.000000000000e+00 1.404000000000e+03                   
     1.070000000000e+02 0.000000000000e+00-4.190951585770e-09-4.423782229424e-09
     1.740650000000e+05                                                         
G32 2026 07 21 00 23 12 1.746778725646e-04 2.019717726398e-11 0.000000000000e+00
     4.824161529541e-03-1.546093750000e+01 4.597155775705e-09-6.789249770019e-01
    -8.791685104370e-07 9.459265274927e-03 6.205402314663e-06 5.153650817245e+03
     9.540000000000e+04-1.862645149231e-08 2.642460148340e+00 1.955777406693e-07
     9.696751044603e-01 2.633515625000e+02-1.972748490424e+00-8.135818124389e-09
     2.791187692742e-10 4.597155775705e-09-2.000000000000e+00 3.000000000000e+00
     3.100000000000e+01 4.000000000000e+00 9.313225746155e-10 7.000000000000e+00
    -2.910383045673e-10-1.891748979688e-09 8.614733815193e-09 9.051291272044e-09
     1.741920000000e+05 2.428000000000e+03 0.000000000000e+00                   
G28 2026 07 21 00 26 24-4.659118421841e-04 1.087130385713e-11 0.000000000000e+00
     2.033233642578e-03-2.901953125000e+01 4.716982195528e-09 2.882508508552e+00
    -1.423060894012e-06 5.171530065127e-04 8.507631719112e-06 5.153601420328e+03
     1.107000000000e+05-4.470348358154e-08-2.610097487026e+00 4.563480615616e-08
     9.622426723554e-01 2.161601562500e+02-3.132190035830e-01-8.347434081900e-09
    -1.016113753788e-10 4.716982195528e-09-2.000000000000e+00 3.000000000000e+00
     3.000000000000e+01 4.000000000000e+00-9.313225746155e-09 7.000000000000e+00
    -3.492459654808e-10 5.966285243630e-09-7.566995918751e-10-6.693881005049e-10
     1.743840000000e+05 2.428000000000e+03 0.000000000000e+00                   
G26 2026 07 21 00 28 48-3.841021971311e-04-2.511768570912e-12 0.000000000000e+00
    -6.264209747314e-03 5.512890625000e+01 5.416118460217e-09 4.981622482401e-01
     3.001652657986e-06 1.116635178914e-02 9.015202522278e-06 5.153641958227e+03
     1.152000000000e+05-2.700835466385e-08-1.639756209171e+00 1.173466444016e-07
     9.274891442743e-01 1.881914062500e+02 7.146350318747e-01-7.784374913940e-09
    -1.928651764659e-10 5.416118460217e-09-2.000000000000e+00 3.000000000000e+00
     3.000000000000e+01 4.000000000000e+00 6.519258022308e-09 7.000000000000e+00
    -8.440110832453e-10-4.190951585770e-09 5.820766091347e-09 5.878973752260e-09
     1.745280000000e+05 2.428000000000e+03 0.000000000000e+00                   
G03 2026 07 21 00 28 48 3.642138326541e-04-1.891820033961e-11 0.000000000000e+00
    -5.082130432129e-03-3.272656250000e+01 3.515146419958e-09 1.711937466416e+00
    -1.699663698673e-06 6.976966746151e-03 9.193085134029e-06 5.153455060496e+03
     1.620000000000e+05-4.470348358154e-08 1.621802147666e+00-1.080334186554e-07
     9.947598273283e-01 2.185000000000e+02 1.276501542979e+00-8.703163185159e-09
     2.996553389905e-10 3.515146419958e-09-2.000000000000e+00 2.000000000000e+00
     2.800000000000e+01 4.000000000000e+00 1.396983861923e-09 7.000000000000e+00
     5.529727786779e-10-2.008164301515e-09 1.862645149231e-09 5.005858838558e-09
     1.745280000000e+05 2.428000000000e+03 0.000000000000e+00                   
G31 2026 07 21 00 28 48-1.341027382296e-04 2.749800387392e-12 0.000000000000e+00
     3.767967224121e-03-2.978515625000e+01 4.925383733431e-09 1.124739852169e+00
    -1.469627022743e-06 1.091369451024e-02 8.693896234035e-06 5.153589886929e+03
     1.377000000000e+05-1.257285475731e-07-2.561127504646e+00 1.275911927223e-07
     9.550183023114e-01 2.105351562500e+02 9.765758682477e-01-8.064922314151e-09
    -2.403671551140e-10 4.925383733431e-09-2.000000000000e+00 3.000000000000e+00
     2.900000000000e+01 4.000000000000e+00-1.350417733192e-08 7.000000000000e+00
    -2.619344741106e-10 8.265487849712e-09 0.000000000000e+00 0.000000000000e+00
     1.745280000000e+05 2.428000000000e+03 0.000000000000e+00                   
G26 2026 07 21 00 28 54-3.841067664325e-04-2.501110429876e-12 0.000000000000e+00
     8.200000000000e+01 4.721875000000e+01 5.441655238212e-09 7.605690042719e-01
     2.747401595116e-06 1.116497931071e-02 9.160488843918e-06 5.153580068588e+03
     1.800000000000e+05-3.352761268616e-08-1.639771574199e+00 1.136213541031e-07
     9.274887924425e-01 1.850000000000e+02 7.147935705013e-01-8.549641841186e-09
    -1.971510692762e-10 1.000000000000e+00 3.800000000000e+02 0.000000000000e+00
     2.000000000000e+00 0.000000000000e+00 6.519258022308e-09 8.200000000000e+01
     6.981360000000e+05 4.000000000000e+00                                      
G31 2026 07 21 00 28 54-1.340978778899e-04 2.728484105319e-12 0.000000000000e+00
     4.600000000000e+01-3.046875000000e+01 4.896989693563e-09 1.387305427708e+00
    -1.519918441772e-06 1.091507845558e-02 9.141862392426e-06 5.153633649826e+03
     1.800000000000e+05-2.589076757431e-07-2.561142719726e+00 8.940696716309e-08
     9.550181209095e-01 2.048125000000e+02 9.765602962162e-01-8.211770624636e-09
    -1.703642392115e-10 1.000000000000e+00 3.800000000000e+02 0.000000000000e+00
     2.000000000000e+00 0.000000000000e+00-1.350417733192e-08 4.600000000000e+01
     6.981360000000e+05 4.000000000000e+00                                      
G03 2026 07 21 00 28 54 3.641797229648e-04-1.898570189951e-11 0.000000000000e+00
     3.900000000000e+01-2.587500000000e+01 3.495145586843e-09 1.972188565113e+00
    -1.396983861923e-06 6.975172669627e-03 9.100884199142e-06 5.153767438889e+03
     1.799840000000e+05 2.980232238770e-08 1.621788574712e+00-1.285225152969e-07
     9.947606312017e-01 2.198125000000e+02 1.276449267064e+00-7.577458488704e-09
     3.042983895351e-10 1.000000000000e+00 3.800000000000e+02 0.000000000000e+00
     2.000000000000e+00 0.000000000000e+00 1.396983861923e-09 3.900000000000e+01
     6.981360000000e+05 4.000000000000e+00                                      
G28 2026 07 21 00 28 54-4.658922553062e-04 1.091393642128e-11 0.000000000000e+00
     9.500000000000e+01-3.215625000000e+01 4.697338520147e-09-3.139609729576e+00
    -1.585111021996e-06 5.170600488782e-04 8.603557944298e-06 5.153621814728e+03
     1.800000000000e+05-4.656612873077e-08-2.610111901157e+00 2.048909664154e-08
     9.622425633680e-01 2.147500000000e+02-3.117338440287e-01-7.972474942725e-09
    -9.357532635937e-11 1.000000000000e+00 3.800000000000e+02 0.000000000000e+00
     2.000000000000e+00 0.000000000000e+00-9.313225746155e-09 3.510000000000e+02
     6.981360000000e+05 4.000000000000e+00                                      
G04 2026 07 21 00 28 54 6.273528560996e-05 6.821210263297e-13 0.000000000000e+00
     4.000000000000e+00-2.156250000000e+01 4.435899058715e-09-1.318618189375e+00
    -1.283362507820e-06 3.821728983894e-03 6.174668669701e-06 5.153673210144e+03
     1.800000000000e+05 4.470348358154e-08 2.690147796711e+00-5.960464477539e-08
     9.724411767983e-01 2.633125000000e+02-2.902038596573e+00-8.003904823334e-09
     3.196561721055e-10 1.000000000000e+00 3.800000000000e+02 0.000000000000e+00
     2.000000000000e+00 0.000000000000e+00-4.656612873077e-09 5.160000000000e+02
     6.981360000000e+05 4.000000000000e+00                                      
G32 2026 07 21 00 28 54 1.747137866914e-04 2.023625711445e-11 0.000000000000e+00
     8.400000000000e+01-1.893750000000e+01 4.604477509256e-09-4.162263812480e-01
    -9.480863809586e-07 9.458195767365e-03 6.264075636864e-06 5.153571893692e+03
     1.800000000000e+05-3.352761268616e-08 2.642445121977e+00 1.210719347000e-07
     9.696754467831e-01 2.685625000000e+02-1.972889471108e+00-8.252843764069e-09
     3.007268121931e-10 1.000000000000e+00 3.800000000000e+02 0.000000000000e+00
     2.000000000000e+00 0.000000000000e+00 9.313225746155e-10 8.400000000000e+01
     6.981360000000e+05 4.000000000000e+00                                      
C23 2026 07 21 00 28 54-4.541792441159e-04 3.552713678801e-15 0.000000000000e+00
     1.000000000000e+00 2.312500000000e+01 4.183745698373e-09 1.632283515366e+00
     1.185573637486e-06 3.784552682191e-04 1.036701723933e-05 5.282653682709e+03
     1.728000000000e+05 2.374872565269e-08-2.018286977548e+00 1.897569745779e-05
     9.436858907966e-01 1.384843750000e+02-8.755830209416e-01 4.225365289139e-07
    -2.728685089258e-10                    1.072000000000e+03                   
     0.000000000000e+00 0.000000000000e+00 1.024454832077e-07 1.024454832077e-07
     1.745340000000e+05 1.000000000000e+00                                      
C32 2026 07 21 00 28 54-9.033411042765e-04 1.862510146111e-12 0.000000000000e+00
     1.000000000000e+00-1.528125000000e+01 3.335138921923e-09 2.071525875573e+00
    -8.088536560535e-07 5.075715016574e-04 7.343944162130e-06 5.282631332397e+03
     1.728000000000e+05 3.213062882423e-08 2.177669544060e+00-3.067776560783e-06
     9.887592087384e-01 2.231875000000e+02-4.909819910278e-02-5.694133612092e-07
     4.546617956316e-10                    1.072000000000e+03                   
     0.000000000000e+00 0.000000000000e+00-3.818422555923e-08-3.818422555923e-08
     1.745340000000e+05 1.000000000000e+00                                      
C37 2026 07 21 00 28 54-9.073964320123e-04 6.909139926847e-12 0.000000000000e+00
     1.000000000000e+00 1.034375000000e+01 4.165173496195e-09 3.452587901002e-01
     4.637986421585e-07 7.127004209906e-04 1.081917434931e-05 5.282669240952e+03
     1.728000000000e+05-9.313225746155e-10-2.018514202373e+00 4.359474405646e-05
     9.451582169021e-01 1.326093750000e+02-3.738174789299e-01 2.002644132452e-07
    -2.560820954186e-10                    1.072000000000e+03                   
     0.000000000000e+00 0.000000000000e+00-7.823109626770e-08-7.823109626770e-08
     1.745340000000e+05 1.000000000000e+00                                      
C41 2026 07 21 00 28 54-9.488336509094e-04-2.091660178394e-12 0.000000000000e+00
     1.000000000000e+00-1.260937500000e+01 3.406927626496e-09-2.389793850518e+00
    -5.229376256466e-07 1.458042184822e-03 7.325783371925e-06 5.282628807068e+03
     1.728000000000e+05 1.676380634308e-08 2.179923621403e+00-1.113722100854e-05
     9.876143744000e-01 2.254375000000e+02-1.038559629000e+00 1.630723997629e-06
     4.560904265684e-10                    1.072000000000e+03                   
     0.000000000000e+00 0.000000000000e+00-1.117587089539e-07-1.117587089539e-07
     1.745340000000e+05 1.000000000000e+00                                      
C25 2026 07 21 00 28 54 8.136670803651e-04-9.081624341434e-12 0.000000000000e+00
     1.000000000000e+00 1.634375000000e+01 4.266249134972e-09 8.738892192794e-01
     9.369105100632e-07 5.752220749855e-04 9.950250387192e-06 5.282664930344e+03
     1.728000000000e+05 1.112930476665e-07-2.040933310756e+00 1.029158011079e-05
     9.453146350290e-01 1.507343750000e+02 6.185732264463e-01 2.274179371556e-06
    -1.792931825664e-10                    1.072000000000e+03                   
     0.000000000000e+00 0.000000000000e+00 1.862645149231e-09 1.862645149231e-09
     1.745340000000e+05 1.000000000000e+00                                      
C20 2026 07 21 00 28 54-8.893513586372e-04 2.998490344908e-12 0.000000000000e+00
     1.000000000000e+00-1.573437500000e+01 3.369426064406e-09 8.950717361763e-01
    -9.662471711636e-07 8.085578447208e-04 7.249414920807e-06 5.282634410858e+03
     1.728000000000e+05 4.982575774193e-08 2.185750703530e+00 1.670792698860e-06
     9.899256035634e-01 2.309843750000e+02 2.735976587493e-01 1.329226081887e-06
     4.182317067436e-10                    1.072000000000e+03                   
     0.000000000000e+00 0.000000000000e+00 5.541369318962e-08 5.541369318962e-08
     1.745340000000e+05 1.000000000000e+00                                      
E33 2026 07 21 00 28 55-2.513488288969e-05-1.989519660128e-12 0.000000000000e+00
     3.500000000000e+01-7.203125000000e+01 2.434744274015e-09-1.845617039186e-01
    -3.274530172348e-06 1.660318812355e-04 6.984919309616e-06 5.440604440689e+03
     1.734000000000e+05 8.940696716309e-08 7.701195289010e-01 5.960464477539e-08
     9.976737809347e-01 2.065000000000e+02-3.026684932548e+00-5.451298497035e-09
    -1.946509651369e-10 1.000000000000e+00 1.404000000000e+03                   
     1.070000000000e+02 0.000000000000e+00-4.423782229424e-09-4.889443516731e-09
     1.745350000000e+05                                                         
E21 2026 07 21 00 29 54-7.585140410811e-04-2.827960088325e-12 0.000000000000e+00
     3.000000000000e+01 1.150937500000e+02 3.159774474433e-09 8.572248956120e-01
     5.146488547325e-06 1.701257424429e-04 9.587034583092e-06 5.440615518570e+03
     1.704000000000e+05 1.303851604462e-08-1.328944024013e+00 7.450580596924e-09
     9.606212609999e-01 1.338125000000e+02-1.556055263490e+00-5.563446025572e-09
    -5.143071372424e-11 5.160000000000e+02 1.404000000000e+03                   
     1.070000000000e+02 0.000000000000e+00 1.164153218269e-09 1.164153218269e-09
     1.745940000000e+05                                                         
E27 2026 07 21 00 29 54-1.049713348038e-03-1.062971932697e-11 0.000000000000e+00
     3.500000000000e+01 1.068125000000e+02 3.254421273995e-09 1.351064698571e+00
     5.055218935013e-06 2.443334087729e-04 8.461996912956e-06 5.440615758896e+03
     1.734000000000e+05 4.097819328308e-08-1.329000728181e+00-2.048909664154e-08
     9.605919894721e-01 1.549375000000e+02-8.784627883469e-01-5.627020102259e-09
    -4.393040130612e-11 5.160000000000e+02 1.404000000000e+03                   
     1.070000000000e+02 0.000000000000e+00 2.328306436539e-10 2.328306436539e-10
     1.745940000000e+05                                                         
E29 2026 07 21 00 29 54-2.271416597068e-04-3.623767952377e-12 0.000000000000e+00
     3.500000000000e+01-4.503125000000e+01 3.429785721485e-09 3.541882240812e-01
    -2.052634954453e-06 2.008775481954e-04 5.563721060753e-06 5.440611127853e+03
     1.734000000000e+05-9.313225746155e-09 2.852204767651e+00 1.117587089539e-08
     9.627377626007e-01 2.192500000000e+02 1.417108027003e+00-5.750239520557e-09
     2.114373786441e-10 5.160000000000e+02 1.404000000000e+03                   
     1.070000000000e+02 0.000000000000e+00-3.259629011154e-09-2.793967723846e-09
     1.745940000000e+05                                                         
E07 2026 07 21 00 29 54-7.846829248592e-05-2.543742994021e-12 0.000000000000e+00
     3.500000000000e+01-4.984375000000e+01 3.343353549810e-09 2.379629005625e+00
    -2.190470695496e-06 4.220121772960e-04 5.545094609261e-06 5.440617073059e+03
     1.734000000000e+05-1.862645149231e-09 2.852470811007e+00-1.862645149231e-09
     9.693520555754e-01 2.261250000000e+02 1.827766117795e-01-5.668807557160e-09
     1.953652806053e-10 5.160000000000e+02 1.404000000000e+03                   
     1.070000000000e+02 0.000000000000e+00 4.423782229424e-09 4.889443516731e-09
     1.745940000000e+05                                                         
E30 2026 07 21 00 29 54-1.275924907532e-03-3.971933892899e-11 0.000000000000e+00
     2.500000000000e+01 1.072812500000e+02 3.258350009071e-09-4.525046708073e-02
     5.045905709267e-06 2.124481834471e-04 8.385628461838e-06 5.440624414444e+03
     1.674000000000e+05 2.980232238770e-08-1.327277429701e+00 1.676380634308e-08
     9.583802767739e-01 1.559687500000e+02 5.253313294728e-01-5.640592096159e-09
    -4.107313943255e-11 5.160000000000e+02 1.404000000000e+03                   
     1.070000000000e+02 0.000000000000e+00 6.984919309616e-10 9.313225746155e-10
     1.745940000000e+05                                                         
END OF FILE                                                 COMMENT
