     3.05           N: NAVIGATION       M: MIXED            RINEX VERSION / TYPE
PYRINEXCONV 0.1.2 ALDELTUNES            20260721 080114 UTC PGM / RUN BY / DATE
GAL    1.0175e+02  3.3203e-01  2.2858e-02             I 23  IONOSPHERIC CORR
GPSA   1.1176e-08  2.2352e-08  1.5199e-05  1.5140e-05 I 01  IONOSPHERIC CORR
GPSB   1.0650e+05  1.4746e+05  1.6712e+07  1.6450e+07 I 01  IONOSPHERIC CORR
BDSA   2.0489e-08  3.7253e-08 -5.9605e-07  1.0133e-06 H 29  IONOSPHERIC CORR
BDSB   1.3722e+05 -4.9152e+05  4.5875e+06 -4.0632e+06 H 29  IONOSPHERIC CORR
GAUT  6.5192580223e-09-2.664535259e-15 201000 1404   E23  0 TIME SYSTEM CORR
GPUT  1.2805685401e-09 3.947953076e-13 414000 2428   G01  0 TIME SYSTEM CORR
BDUT  0.0000000000e+00 0.000000000e+00 198000 1072   C29  0 TIME SYSTEM CORR
                                                            END OF HEADER
C36 2026 07 21 07 52 54 2.596172271296e-04-4.344080650753e-12 0.000000000000e+00
     1.000000000000e+00 2.029687500000e+01 4.116242886610e-09 2.813483846701e+00
     8.526258170605e-07 8.166865445673e-04 9.575858712196e-06 5.282652051926e+03
     1.980000000000e+05 4.330649971962e-08-2.018552131450e+00 4.177447408438e-05
     9.451398982419e-01 1.571406250000e+02-1.024274214938e+00 1.619542460444e-07
    -5.571660653459e-11                    1.072000000000e+03                   
     0.000000000000e+00 0.000000000000e+00-9.639188647270e-08-9.639188647270e-08
     2.011740000000e+05 1.000000000000e+00                                      
C11 2026 07 21 07 52 54-7.889897096902e-04-2.163691448231e-11 0.000000000000e+00
     1.000000000000e+00-1.296875000000e+00 4.219104314058e-09 7.275531449145e-01
    -9.778887033463e-08 1.695689279586e-04 3.912486135960e-06 5.282639120102e+03
     1.980000000000e+05-1.490116119385e-08 7.442952387699e-02-5.724234506488e-05
     9.504535049007e-01 2.746093750000e+02-6.714628264476e-01 7.793967507174e-07
    -2.692969315838e-10                    1.072000000000e+03                   
     0.000000000000e+00 0.000000000000e+00 1.350417733192e-08 1.350417733192e-08
     2.011740000000e+05 1.000000000000e+00                                      
C29 2026 07 21 07 52 54 6.337993545458e-04 5.261568958304e-12 0.000000000000e+00
     1.000000000000e+00 5.093750000000e+00 4.320179952836e-09-2.379960859814e+00
     2.305023372173e-07 2.190225059167e-04 3.799330443144e-06 5.282656166077e+03
     1.980000000000e+05-4.516914486885e-08 3.428384652839e-02 3.858096897602e-05
     9.455645950636e-01 2.766093750000e+02 2.117107303000e+00-2.474407354713e-06
    -2.221521106700e-10                    1.072000000000e+03                   
     0.000000000000e+00 0.000000000000e+00 9.313225746155e-10 9.313225746155e-10
     2.011740000000e+05 1.000000000000e+00                                      
E04 2026 07 21 07 53 24-1.219931873493e-04 3.358024969202e-11 0.000000000000e+00
     7.600000000000e+01-4.125000000000e+01 3.120129965937e-09-2.965667034930e+00
    -1.860782504082e-06 2.925973385572e-04 5.532056093216e-06 5.440610670090e+03
     1.980000000000e+05 5.029141902924e-08 2.852383076884e+00 3.539025783539e-08
     9.693557114077e-01 2.262500000000e+02-6.783678846310e-02-5.638806307488e-09
     1.964367538078e-10 5.160000000000e+02 1.404000000000e+03                   
     1.070000000000e+02 0.000000000000e+00-4.190951585770e-09-4.656612873077e-09
     2.012040000000e+05                                                         
G20 2026 07 21 07 53 36 2.369242138229e-04 1.185185283248e-11 0.000000000000e+00
     1.869201660156e-04-1.651953125000e+01 4.574119101849e-09-1.844025056622e+00
    -8.940696716309e-07 1.907585363369e-03 6.382353603840e-06 5.153610573317e+03
     1.737000000000e+05 8.195638656616e-08 2.629707711504e+00 1.769512891769e-08
     9.620821917050e-01 2.575312500000e+02-1.761713138492e+00-8.229572029615e-09
     2.514390448740e-10 4.574119101849e-09-3.000000000000e+00 2.000000000000e+00
     2.800000000000e+01 4.000000000000e+00-6.984919309616e-09 7.000000000000e+00
    -1.455191522837e-10 4.220055416226e-09 2.095475792885e-09 2.066371962428e-09
     2.012160000000e+05 2.428000000000e+03 0.000000000000e+00                   
G14 2026 07 21 07 58 54 7.499782368541e-04 2.273736754432e-13 0.000000000000e+00
     2.280000000000e+02 5.315625000000e+01 4.949491880489e-09-1.549798718355e+00
     2.620741724968e-06 7.365241763182e-03 8.642673492432e-06 5.153657085419e+03
     2.016000000000e+05 8.381903171539e-08-1.524218289353e+00-7.264316082001e-08
     9.416385018347e-01 2.009375000000e+02-2.680509337539e+00-8.118552456011e-09
     1.325055193867e-10 1.000000000000e+00 3.800000000000e+02 0.000000000000e+00
     2.000000000000e+00 0.000000000000e+00-7.916241884232e-09 9.960000000000e+02
     8.061360000000e+05 4.000000000000e+00                                      
G17 2026 07 21 07 58 54-1.762192696333e-04-6.025402399246e-12 0.000000000000e+00
     9.000000000000e+00 4.903125000000e+01 4.773770275265e-09 2.090283509201e+00
     2.602115273476e-06 1.261610374786e-02 4.317611455917e-06 5.153676527023e+03
     2.016000000000e+05 2.011656761169e-07-4.349826660654e-01-9.313225746155e-09
     9.574391947398e-01 2.891562500000e+02-1.098677207333e+00-8.113552247732e-09
    -1.753644474903e-10 1.000000000000e+00 3.800000000000e+02 0.000000000000e+00
     2.000000000000e+00 0.000000000000e+00-1.071020960808e-08 9.000000000000e+00
     8.061360000000e+05 4.000000000000e+00                                      
G22 2026 07 21 07 58 54 4.054326564074e-05 8.071765478235e-12 0.000000000000e+00
     9.100000000000e+01 6.240625000000e+01 4.572333313178e-09 2.703063429373e+00
     3.157183527946e-06 1.184571452904e-02 8.780509233475e-06 5.153722455978e+03
     2.016000000000e+05 1.806765794754e-07-1.447181204700e+00 1.471489667892e-07
     9.568464320374e-01 2.054375000000e+02-9.877782870562e-01-7.838897950136e-09
    -5.714523747137e-12 1.000000000000e+00 3.800000000000e+02 0.000000000000e+00
     2.000000000000e+00 0.000000000000e+00-1.117587089539e-08 9.100000000000e+01
     8.061360000000e+05 4.000000000000e+00                                      
G30 2026 07 21 07 58 54 3.026444464922e-04 1.330136001343e-11 0.000000000000e+00
     1.500000000000e+01-2.750000000000e+01 5.095569393776e-09-9.557148868469e-01
    -1.257285475731e-06 8.217835798860e-03 7.877126336098e-06 5.153681312561e+03
     2.015840000000e+05 9.499490261078e-08-2.597210036017e+00 1.918524503708e-07
     9.366267039532e-01 2.126875000000e+02-2.258902621550e+00-8.338204462542e-09
    -6.071681481333e-11 1.000000000000e+00 3.800000000000e+02 0.000000000000e+00
     2.000000000000e+00 0.000000000000e+00 4.190951585770e-09 1.500000000000e+01
     8.061360000000e+05 4.000000000000e+00                                      
G19 2026 07 21 07 58 54 7.038158364594e-04 4.547473508865e-13 0.000000000000e+00
     4.800000000000e+01 4.734375000000e+01 4.779127641278e-09-2.560077468131e+00
     2.495944499969e-06 1.176446687896e-02 4.906207323074e-06 5.153761194229e+03
     2.016000000000e+05-2.123415470123e-07-3.912187402651e-01-6.705522537231e-08
     9.566053621559e-01 2.855625000000e+02 3.029435360440e+00-8.179626428559e-09
    -3.428714248282e-11 1.000000000000e+00 3.800000000000e+02 0.000000000000e+00
     2.000000000000e+00 0.000000000000e+00-1.536682248116e-08 4.800000000000e+01
     8.061360000000e+05 4.000000000000e+00                                      
G01 2026 07 21 07 58 54 2.170139923692e-04-9.663381206337e-12 0.000000000000e+00
     2.190000000000e+02-2.893750000000e+01 4.679480633437e-09 9.412020885020e-01
    -1.451000571251e-06 1.826636958867e-03 5.677342414856e-06 5.153604387283e+03
     2.016000000000e+05 3.539025783539e-08 6.292521861022e-01-4.656612873077e-08
     9.571109817541e-01 2.643437500000e+02 1.954505645234e-01-8.287130906552e-09
    -2.814402945465e-10 1.000000000000e+00 3.800000000000e+02 0.000000000000e+00
     2.000000000000e+00 0.000000000000e+00-8.847564458847e-09 7.310000000000e+02
     8.061360000000e+05 4.000000000000e+00                                      
G03 2026 07 21 07 58 54 3.637704066932e-04-1.898570189951e-11 0.000000000000e+00
     8.100000000000e+01-2.090625000000e+01 3.646223308408e-09-1.158364910114e+00
    -1.123175024986e-06 6.975942524150e-03 7.996335625648e-06 5.153768253326e+03
     2.016000000000e+05 1.490116119385e-08 1.621627808793e+00 1.545995473862e-07
     9.947639344708e-01 2.435000000000e+02 1.276498257265e+00-7.705320957546e-09
     3.785871982478e-11 1.000000000000e+00 3.800000000000e+02 0.000000000000e+00
     2.000000000000e+00 0.000000000000e+00 1.396983861923e-09 8.100000000000e+01
     8.061360000000e+05 4.000000000000e+00                                      
G02 2026 07 21 07 58 54 1.419833861291e-04 7.275957614183e-12 0.000000000000e+00
     2.500000000000e+01-2.075000000000e+01 4.609477717535e-09 2.343121696241e+00
    -9.033828973770e-07 1.689693063963e-02 4.844740033150e-06 5.153731908798e+03
     2.016000000000e+05 2.887099981308e-07 4.673759923375e-01 1.937150955200e-07
     9.620936456221e-01 2.829062500000e+02-7.358837523978e-01-8.076765001110e-09
    -3.868018261344e-10 1.000000000000e+00 3.800000000000e+02 0.000000000000e+00
     2.000000000000e+00 0.000000000000e+00-1.722946763039e-08 2.500000000000e+01
     8.061360000000e+05 4.000000000000e+00                                      
E06 2026 07 21 07 59 05-3.006838960573e-04-5.030642569182e-12 0.000000000000e+00
     8.000000000000e+01-3.921875000000e+01 3.226562970727e-09 1.767021809265e+00
    -1.797452569008e-06 5.050536710769e-04 5.498528480530e-06 5.440612730026e+03
     2.004000000000e+05 7.078051567078e-08 2.852019420319e+00 1.862645149231e-08
     9.626620902372e-01 2.236250000000e+02 1.387157305790e+00-5.700951753238e-09
     1.878649681871e-10 1.000000000000e+00 1.404000000000e+03                   
     1.070000000000e+02 0.000000000000e+00 2.328306436539e-09 3.725290298462e-09
     2.015450000000e+05                                                         
G17 2026 07 21 07 59 12-1.762084430084e-04-6.036060540282e-12 0.000000000000e+00
     3.508567810059e-03 4.568359375000e+01 4.778770483544e-09 1.827803561184e+00
     2.356246113777e-06 1.261504000286e-02 4.746951162815e-06 5.153547111464e+03
     1.728000000000e+05 2.263113856316e-07-4.349681466035e-01-3.166496753693e-08
     9.574394507505e-01 2.844765625000e+02-1.098740390765e+00-8.205106724823e-09
    -1.607209803882e-10 4.778770483544e-09-2.000000000000e+00 3.000000000000e+00
     2.800000000000e+01 4.000000000000e+00-1.071020960808e-08 7.000000000000e+00
    -8.440110832453e-10 6.722984835505e-09 0.000000000000e+00 0.000000000000e+00
     2.015520000000e+05 2.428000000000e+03 0.000000000000e+00                   
G30 2026 07 21 07 59 12 3.026168851648e-04 1.329070187239e-11 0.000000000000e+00
     3.701686859131e-03-2.192968750000e+01 5.104498337130e-09-1.259778767688e+00
    -1.246109604836e-06 8.218940289225e-03 7.903203368187e-06 5.153542171372e+03
     1.980000000000e+05 1.452863216400e-07-2.597192824786e+00 1.229345798492e-07
     9.366270726085e-01 2.134453125000e+02-2.258804938121e+00-8.059743527005e-09
    -4.518045337580e-11 5.104498337130e-09-2.000000000000e+00 2.000000000000e+00
     2.600000000000e+01 4.000000000000e+00 4.190951585770e-09 7.000000000000e+00
    -1.513399183750e-09-3.259629011154e-09 2.328306436539e-09 3.230525180697e-09
     2.015520000000e+05 2.428000000000e+03 0.000000000000e+00                   
E31 2026 07 21 08 00 24-1.581068499945e-04-2.955857780762e-12 0.000000000000e+00
     7.900000000000e+01 9.656250000000e+01 3.174060783801e-09 2.790505833392e+00
     4.427507519722e-06 3.431774675846e-04 8.452683687210e-06 5.440613298416e+03
     1.998000000000e+05 3.725290298462e-09-1.329188659026e+00 3.166496753693e-08
     9.605972852355e-01 1.569687500000e+02-1.402615765102e+00-5.549516873939e-09
     8.678932940965e-11 5.160000000000e+02 1.404000000000e+03                   
     1.070000000000e+02 0.000000000000e+00 3.492459654808e-09 4.190951585770e-09
     2.016240000000e+05                                                         
E26 2026 07 21 08 00 35 3.676201449707e-04 1.087130385713e-11 0.000000000000e+00
     8.000000000000e+01-5.531250000000e+01 2.784758853527e-09-2.799113344935e+00
    -2.492219209671e-06 9.262026287615e-05 5.323439836502e-06 5.440600307465e+03
     2.004000000000e+05 6.519258022308e-08 7.665339254662e-01-1.490116119385e-08
     9.909290497953e-01 2.389687500000e+02-2.577621596583e+00-5.547731085268e-09
    -2.128660095809e-10 1.000000000000e+00 1.404000000000e+03                   
     1.070000000000e+02 0.000000000000e+00-5.122274160385e-09-5.587935447693e-09
     2.016350000000e+05                                                         
E04 2026 07 21 08 00 35-1.219126861542e-04 3.356603883731e-11 0.000000000000e+00
     8.000000000000e+01-4.203125000000e+01 3.111201022582e-09-2.668398877433e+00
    -1.840293407440e-06 2.926439046860e-04 5.537644028664e-06 5.440610490799e+03
     2.004000000000e+05-4.097819328308e-08 2.852369704350e+00 6.332993507385e-08
     9.693565321048e-01 2.265312500000e+02-6.756326081815e-02-5.597376010321e-09
     1.492919328940e-10 1.000000000000e+00 1.404000000000e+03                   
     1.070000000000e+02 0.000000000000e+00-4.190951585770e-09-4.656612873077e-09
     2.016350000000e+05                                                         
E16 2026 07 21 08 00 35-4.646636079997e-05-2.501110429876e-12 0.000000000000e+00
     8.000000000000e+01 1.012500000000e+02 3.137630694913e-09 3.107491443606e+00
     4.470348358154e-06 4.920490318909e-04 8.858740329742e-06 5.440617788315e+03
     2.004000000000e+05 1.862645149231e-09-1.332429587258e+00 9.313225746155e-09
     9.625722773076e-01 1.547500000000e+02-2.473176984560e+00-5.512015311848e-09
     8.536069847286e-11 1.000000000000e+00 1.404000000000e+03                   
     1.070000000000e+02 0.000000000000e+00-3.725290298462e-09-2.328306436539e-09
     2.016350000000e+05                                                         
G14 2026 07 21 08 00 48 7.499798084609e-04 2.557953848736e-13 0.000000000000e+00
     2.571582794189e-03 4.542187500000e+01 4.906990110120e-09-7.620579498582e-01
     2.347864210606e-06 7.366530888248e-03 8.542090654373e-06 5.153562775333e+03
     1.152000000000e+05 1.285225152969e-07-1.524261908450e+00 5.494803190231e-08
     9.416386985972e-01 2.054804687500e+02-2.680603659182e+00-8.113317187134e-09
     7.214586230761e-11 4.906990110120e-09-2.000000000000e+00 3.000000000000e+00
     3.100000000000e+01 4.000000000000e+00-7.916241884232e-09 2.000000000000e+00
    -2.619344741106e-10 5.005858838558e-09-1.455191522837e-09-1.076841726899e-09
     2.016480000000e+05 2.428000000000e+03 0.000000000000e+00                   
G01 2026 07 21 08 00 48 2.169621875510e-04-9.631406783228e-12 0.000000000000e+00
    -3.206253051758e-03-2.589062500000e+01 4.758055334960e-09 1.729607906140e+00
    -1.348555088043e-06 1.827456115279e-03 5.328096449375e-06 5.153621260026e+03
     1.746000000000e+05 2.887099981308e-08 6.292069738875e-01 6.984919309616e-08
     9.571096731739e-01 2.728906250000e+02 1.947120015536e-01-8.051886056853e-09
    -1.921508609975e-10 4.758055334960e-09-2.000000000000e+00 3.000000000000e+00
     2.900000000000e+01 4.000000000000e+00-8.847564458847e-09 7.000000000000e+00
    -2.910383045673e-10 5.646143108606e-09-5.529727786779e-10-6.693881005049e-10
     2.016480000000e+05 2.428000000000e+03 0.000000000000e+00                   
E23 2026 07 21 08 00 54-4.270864883438e-05-1.321609488514e-12 0.000000000000e+00
     8.000000000000e+01 8.118750000000e+01 3.110843864848e-09-1.297161820065e+00
     3.943219780922e-06 1.747946953401e-04 8.575618267059e-06 5.440621358871e+03
     2.004000000000e+05-2.607703208923e-08-1.332305122188e+00-9.313225746155e-09
     9.625511908064e-01 1.572187500000e+02-2.757644308966e+00-5.517015520127e-09
     1.092902666640e-10 5.160000000000e+02 1.404000000000e+03                   
     1.070000000000e+02 0.000000000000e+00 4.656612873077e-10 1.862645149231e-09
     2.016540000000e+05                                                         
E31 2026 07 21 08 00 54-1.581086544320e-04-2.955857780762e-12 0.000000000000e+00
     8.000000000000e+01 9.462500000000e+01 3.161560263104e-09 2.865165541577e+00
     4.358589649200e-06 3.429204225540e-04 8.493661880493e-06 5.440613836288e+03
     2.004000000000e+05-1.862645149231e-09-1.329192013497e+00 3.166496753693e-08
     9.605973291231e-01 1.558125000000e+02-1.402889819398e+00-5.548088243002e-09
     8.893227581482e-11 5.160000000000e+02 1.404000000000e+03                   
     1.070000000000e+02 0.000000000000e+00 3.492459654808e-09 4.190951585770e-09
     2.016540000000e+05                                                         
E09 2026 07 21 08 01 05-3.008393687196e-04 1.796252036002e-11 3.469446951954e-18
     7.800000000000e+01-4.043750000000e+01 3.062627570731e-09 2.231102926804e+00
    -1.855194568634e-06 4.994859918952e-04 5.761161446571e-06 5.440615755081e+03
     1.992000000000e+05 5.774199962616e-08 2.855532483498e+00 1.117587089539e-08
     9.750928474796e-01 2.231875000000e+02 3.877405252578e-01-5.604876322739e-09
     1.696499237431e-10 1.000000000000e+00 1.404000000000e+03                   
     1.070000000000e+02 0.000000000000e+00 6.984919309616e-10 9.313225746155e-10
     2.016650000000e+05                                                         
E16 2026 07 21 08 01 05-4.646781599149e-05-2.501110429876e-12 0.000000000000e+00
     8.100000000000e+01 1.012500000000e+02 3.137630694913e-09 3.107491443606e+00
     4.470348358154e-06 4.920490318909e-04 8.858740329742e-06 5.440617788315e+03
     2.004000000000e+05 1.862645149231e-09-1.332432891990e+00 9.313225746155e-09
     9.625723314356e-01 1.547500000000e+02-2.472761177891e+00-5.512015311848e-09
     8.500354073867e-11 1.000000000000e+00 1.404000000000e+03                   
     1.070000000000e+02 0.000000000000e+00-3.725290298462e-09-2.328306436539e-09
     2.016650000000e+05                                                         
E26 2026 07 21 08 01 05 3.676266642287e-04 1.085709300241e-11 0.000000000000e+00
     8.100000000000e+01-5.531250000000e+01 2.784758853527e-09-2.799113344935e+00
    -2.492219209671e-06 9.262026287615e-05 5.323439836502e-06 5.440600307465e+03
     2.004000000000e+05 6.332993507385e-08 7.665305695321e-01-7.450580596924e-09
     9.909289005776e-01 2.389687500000e+02-2.575329873969e+00-5.547731085268e-09
    -2.085801167705e-10 1.000000000000e+00 1.404000000000e+03                   
     1.070000000000e+02 0.000000000000e+00-5.122274160385e-09-5.587935447693e-09
     2.016650000000e+05                                                         
E33 2026 07 21 08 01 24-2.518517430872e-05-1.918465386552e-12 0.000000000000e+00
     7.800000000000e+01-4.137500000000e+01 2.569749897541e-09 3.016262805716e+00
    -2.013519406319e-06 1.653057988733e-04 5.841255187988e-06 5.440609649658e+03
     1.992000000000e+05-6.146728992462e-08 7.699806233665e-01-5.587935447693e-08
     9.976668979051e-01 2.278750000000e+02-3.028942813478e+00-5.452727127972e-09
    -2.860833450911e-10 5.160000000000e+02 1.404000000000e+03                   
     1.070000000000e+02 0.000000000000e+00-4.423782229424e-09-4.889443516731e-09
     2.016840000000e+05                                                         
E23 2026 07 21 08 01 24-4.270946374163e-05-1.321609488514e-12 0.000000000000e+00
     8.100000000000e+01 8.159375000000e+01 3.108700918443e-09-1.223149482388e+00
     3.967434167862e-06 1.747036585584e-04 8.624047040939e-06 5.440621135712e+03
     2.010000000000e+05-2.235174179077e-08-1.332308457641e+00-1.303851604462e-08
     9.625512741927e-01 1.564375000000e+02-2.757271675936e+00-5.513086785051e-09
     1.100045821324e-10 5.160000000000e+02 1.404000000000e+03                   
     1.070000000000e+02 0.000000000000e+00 4.656612873077e-10 1.862645149231e-09
     2.016840000000e+05                                                         
E31 2026 07 21 08 01 24-1.581104006618e-04-2.955857780762e-12 0.000000000000e+00
     8.100000000000e+01 9.243750000000e+01 3.148702584673e-09 2.939899526501e+00
     4.280358552933e-06 3.426602343097e-04 8.525326848030e-06 5.440614398956e+03
     2.010000000000e+05-5.587935447693e-09-1.329195367968e+00 3.166496753693e-08
     9.605973773994e-01 1.549687500000e+02-1.403238166525e+00-5.546302454331e-09
     9.107522222000e-11 5.160000000000e+02 1.404000000000e+03                   
     1.070000000000e+02 0.000000000000e+00 3.492459654808e-09 4.190951585770e-09
     2.016840000000e+05                                                         
END OF FILE                                                 COMMENT
