     3.05           N: NAVIGATION       M: MIXED            RINEX VERSION / TYPE
PYRINEXCONV 0.1.2 ALDELTUNES            20260721 065100 UTC PGM / RUN BY / DATE
GAL    1.0175e+02  3.3203e-01  2.2858e-02             G 26  IONOSPHERIC CORR
GPSA   1.1176e-08  2.2352e-08  1.5199e-05  1.5140e-05 G 01  IONOSPHERIC CORR
GPSB   1.0650e+05  1.4746e+05  1.6712e+07  1.6450e+07 G 01  IONOSPHERIC CORR
GAUT  6.5192580223e-09-2.664535259e-15 195000 1404   E26  0 TIME SYSTEM CORR
GPUT  1.2805685401e-09 3.947953076e-13 399600 2428   G01  0 TIME SYSTEM CORR
                                                            END OF HEADER
G30 2026 07 21 06 43 54 3.026449121535e-04 1.330136001343e-11 0.000000000000e+00
     1.020000000000e+02-2.750000000000e+01 5.095569393776e-09-9.533816129710e-01
    -1.257285475731e-06 8.217833121307e-03 7.877126336098e-06 5.153681320190e+03
     2.016000000000e+05 9.499490261078e-08-2.597210167680e+00 1.918524503708e-07
     9.366267083419e-01 2.126875000000e+02-2.258902210470e+00-8.338204462542e-09
    -6.071681481333e-11 1.000000000000e+00 3.800000000000e+02 0.000000000000e+00
     2.000000000000e+00 0.000000000000e+00 4.190951585770e-09 1.020000000000e+02
     7.881360000000e+05 4.000000000000e+00                                      
G14 2026 07 21 06 43 54 7.499782368541e-04 2.273736754432e-13 0.000000000000e+00
     2.280000000000e+02 5.315625000000e+01 4.949491880489e-09-1.549798718355e+00
     2.620741724968e-06 7.365241763182e-03 8.642673492432e-06 5.153657085419e+03
     2.016000000000e+05 8.381903171539e-08-1.524218289353e+00-7.264316082001e-08
     9.416385018347e-01 2.009375000000e+02-2.680509337539e+00-8.118552456011e-09
     1.325055193867e-10 1.000000000000e+00 3.800000000000e+02 0.000000000000e+00
     2.000000000000e+00 0.000000000000e+00-7.916241884232e-09 9.960000000000e+02
     7.881360000000e+05 4.000000000000e+00                                      
G07 2026 07 21 06 43 54-2.079373225570e-04-3.751665644813e-12 0.000000000000e+00
     9.800000000000e+01-2.146875000000e+01 4.875917387245e-09-6.454876172988e-01
    -8.624047040939e-07 2.093848225195e-02 8.288770914078e-06 5.153586673737e+03
     2.016000000000e+05-1.657754182816e-07-2.586142907141e+00 3.278255462646e-07
     9.513186556348e-01 2.203437500000e+02-1.955213505942e+00-8.485710606765e-09
    -2.071514858337e-11 1.000000000000e+00 3.800000000000e+02 0.000000000000e+00
     2.000000000000e+00 0.000000000000e+00-1.071020960808e-08 9.800000000000e+01
     7.881360000000e+05 4.000000000000e+00                                      
G17 2026 07 21 06 43 54-1.762192696333e-04-6.025402399246e-12 0.000000000000e+00
     9.000000000000e+00 4.903125000000e+01 4.773770275265e-09 2.090283509201e+00
     2.602115273476e-06 1.261610374786e-02 4.317611455917e-06 5.153676527023e+03
     2.016000000000e+05 2.011656761169e-07-4.349826660654e-01-9.313225746155e-09
     9.574391947398e-01 2.891562500000e+02-1.098677207333e+00-8.113552247732e-09
    -1.753644474903e-10 1.000000000000e+00 3.800000000000e+02 0.000000000000e+00
     2.000000000000e+00 0.000000000000e+00-1.071020960808e-08 9.000000000000e+00
     7.881360000000e+05 4.000000000000e+00                                      
G01 2026 07 21 06 43 54 2.170139923692e-04-9.663381206337e-12 0.000000000000e+00
     2.190000000000e+02-2.893750000000e+01 4.679480633437e-09 9.412020885020e-01
    -1.451000571251e-06 1.826636958867e-03 5.677342414856e-06 5.153604387283e+03
     2.016000000000e+05 3.539025783539e-08 6.292521861022e-01-4.656612873077e-08
     9.571109817541e-01 2.643437500000e+02 1.954505645234e-01-8.287130906552e-09
    -2.814402945465e-10 1.000000000000e+00 3.800000000000e+02 0.000000000000e+00
     2.000000000000e+00 0.000000000000e+00-8.847564458847e-09 7.310000000000e+02
     7.881360000000e+05 4.000000000000e+00                                      
G22 2026 07 21 06 43 54 4.054326564074e-05 8.071765478235e-12 0.000000000000e+00
     9.100000000000e+01 6.240625000000e+01 4.572333313178e-09 2.703063429373e+00
     3.157183527946e-06 1.184571452904e-02 8.780509233475e-06 5.153722455978e+03
     2.016000000000e+05 1.806765794754e-07-1.447181204700e+00 1.471489667892e-07
     9.568464320374e-01 2.054375000000e+02-9.877782870562e-01-7.838897950136e-09
    -5.714523747137e-12 1.000000000000e+00 3.800000000000e+02 0.000000000000e+00
     2.000000000000e+00 0.000000000000e+00-1.117587089539e-08 9.100000000000e+01
     7.881360000000e+05 4.000000000000e+00                                      
G02 2026 07 21 06 43 54 1.419833861291e-04 7.275957614183e-12 0.000000000000e+00
     2.500000000000e+01-2.075000000000e+01 4.609477717535e-09 2.343121696241e+00
    -9.033828973770e-07 1.689693063963e-02 4.844740033150e-06 5.153731908798e+03
     2.016000000000e+05 2.887099981308e-07 4.673759923375e-01 1.937150955200e-07
     9.620936456221e-01 2.829062500000e+02-7.358837523978e-01-8.076765001110e-09
    -3.868018261344e-10 1.000000000000e+00 3.800000000000e+02 0.000000000000e+00
     2.000000000000e+00 0.000000000000e+00-1.722946763039e-08 2.500000000000e+01
     7.881360000000e+05 4.000000000000e+00                                      
G08 2026 07 21 06 43 54 3.939177840948e-04-9.208633855451e-12 0.000000000000e+00
     8.300000000000e+01 6.034375000000e+01 5.219145969807e-09 2.080979294626e+00
     3.119930624962e-06 1.168515824247e-02 5.427747964859e-06 5.153750000000e+03
     2.016000000000e+05-3.594905138016e-07-5.417686024026e-01 2.421438694000e-08
     9.417689165927e-01 2.661875000000e+02 5.448350381548e-01-8.418922110470e-09
     4.571618997710e-11 1.000000000000e+00 3.800000000000e+02 0.000000000000e+00
     2.000000000000e+00 0.000000000000e+00 4.656612873077e-09 8.300000000000e+01
     7.881360000000e+05 4.000000000000e+00                                      
G20 2026 07 21 06 43 54 2.369456924498e-04 1.182343112305e-11 0.000000000000e+00
     6.700000000000e+01-1.690625000000e+01 4.573761944115e-09-1.581461343379e+00
    -7.990747690201e-07 1.907509984449e-03 6.332993507385e-06 5.153612205505e+03
     2.016000000000e+05 7.264316082001e-08 2.629693153275e+00 5.215406417847e-08
     9.620825347593e-01 2.575000000000e+02-1.761722403152e+00-8.131052976708e-09
     2.421529437849e-10 1.000000000000e+00 3.800000000000e+02 0.000000000000e+00
     2.000000000000e+00 0.000000000000e+00-6.984919309616e-09 6.700000000000e+01
     7.881360000000e+05 4.000000000000e+00                                      
G07 2026 07 21 06 45 36-2.079302503262e-04-3.755218358492e-12 0.000000000000e+00
     3.500461578369e-03-1.714453125000e+01 4.861273920143e-09-9.080759807124e-01
    -9.061768651009e-07 2.093952696305e-02 8.038245141506e-06 5.153635794120e+03
     1.161000000000e+05-8.288770914078e-08-2.586127494568e+00 4.023313522339e-07
     9.513190345306e-01 2.189101562500e+02-1.955181803776e+00-7.933309689100e-09
    -3.875161416028e-11 4.861273920143e-09-2.000000000000e+00 3.000000000000e+00
     3.100000000000e+01 4.000000000000e+00-1.071020960808e-08 7.000000000000e+00
    -9.313225746155e-10 6.984919309616e-09 0.000000000000e+00 0.000000000000e+00
     1.971360000000e+05 2.428000000000e+03 0.000000000000e+00                   
E13 2026 07 21 06 49 54-5.992979276925e-05-9.094947017729e-13 0.000000000000e+00
     7.100000000000e+01-5.459375000000e+01 2.610108721505e-09 8.246642714913e-01
    -2.512708306313e-06 5.432264879346e-05 5.535781383514e-06 5.440602489471e+03
     1.950000000000e+05 9.313225746155e-09 7.700311072064e-01-9.313225746155e-09
     9.976510720573e-01 2.388125000000e+02 1.922476209594e-01-5.443083869148e-09
    -2.378670509746e-10 5.160000000000e+02 1.404000000000e+03                   
     1.070000000000e+02 0.000000000000e+00 3.958120942116e-09 4.190951585770e-09
     1.973940000000e+05                                                         
E33 2026 07 21 06 50 05-2.517917891964e-05-1.932676241267e-12 0.000000000000e+00
     7.300000000000e+01-4.525000000000e+01 2.536177070526e-09 2.643085423666e+00
    -2.307817339897e-06 1.659201225266e-04 6.068497896194e-06 5.440608350754e+03
     1.962000000000e+05-5.401670932770e-08 7.699968588313e-01 3.725290298462e-09
     9.976680667767e-01 2.246250000000e+02-3.027691781527e+00-5.413796934944e-09
    -3.032269163325e-10 1.000000000000e+00 1.404000000000e+03                   
     1.070000000000e+02 0.000000000000e+00-4.423782229424e-09-4.889443516731e-09
     1.974050000000e+05                                                         
E06 2026 07 21 06 50 35-3.006624756381e-04-5.016431714466e-12 0.000000000000e+00
     7.300000000000e+01-4.078125000000e+01 3.249421065716e-09 1.246973981060e+00
    -1.851469278336e-06 5.052136257291e-04 5.578622221947e-06 5.440612009048e+03
     1.962000000000e+05 6.146728992462e-08 2.852043406324e+00 3.725290298462e-09
     9.626612402818e-01 2.210625000000e+02 1.386506536923e+00-5.710952169795e-09
     1.903650723265e-10 1.000000000000e+00 1.404000000000e+03                   
     1.070000000000e+02 0.000000000000e+00 2.328306436539e-09 3.725290298462e-09
     1.974350000000e+05                                                         
E21 2026 07 21 06 50 35-7.585865678266e-04-2.799538378895e-12 0.000000000000e+00
     7.300000000000e+01 8.456250000000e+01 3.205847822144e-09-2.226262833080e+00
     4.112720489502e-06 1.708324998617e-04 8.815899491310e-06 5.440616373062e+03
     1.962000000000e+05-1.490116119385e-08-1.329089470254e+00-2.048909664154e-08
     9.606211337261e-01 1.527812500000e+02-1.557184141781e+00-5.523087201608e-09
     1.075044779930e-10 1.000000000000e+00 1.404000000000e+03                   
     1.070000000000e+02 0.000000000000e+00 6.984919309616e-10 9.313225746155e-10
     1.974350000000e+05                                                         
E28 2026 07 21 06 50 54-6.033218232915e-05-2.842170943040e-12 0.000000000000e+00
     7.300000000000e+01-4.318750000000e+01 3.445500661790e-09 1.430579431021e+00
    -1.920387148857e-06 2.855536295101e-04 5.261972546577e-06 5.440610887527e+03
     1.962000000000e+05 7.450580596924e-09 2.870086397156e+00 5.774199962616e-08
     9.490549435135e-01 2.226875000000e+02 1.961788725838e+00-5.783455189837e-09
     1.735786588193e-10 5.160000000000e+02 1.404000000000e+03                   
     1.070000000000e+02 0.000000000000e+00 9.313225746155e-10 1.862645149231e-09
     1.974540000000e+05                                                         
E09 2026 07 21 06 51 05-3.009144566022e-04 1.787725523172e-11 3.469446951954e-18
     7.100000000000e+01-4.087500000000e+01 3.085485665720e-09 1.710436765551e+00
    -1.883134245872e-06 4.996038042009e-04 5.736947059631e-06 5.440615543365e+03
     1.950000000000e+05 3.725290298462e-08 2.855556087682e+00-1.490116119385e-08
     9.750920531151e-01 2.220312500000e+02 3.877097410727e-01-5.612733792891e-09
     1.753644474903e-10 1.000000000000e+00 1.404000000000e+03                   
     1.070000000000e+02 0.000000000000e+00 6.984919309616e-10 9.313225746155e-10
     1.974650000000e+05                                                         
E26 2026 07 21 06 51 05 3.675618208945e-04 1.091393642128e-11 0.000000000000e+00
     7.100000000000e+01-4.368750000000e+01 2.673325640458e-09 2.832396220489e+00
    -2.060085535049e-06 9.068509098142e-05 5.930662155151e-06 5.440605382919e+03
     1.950000000000e+05-1.303851604462e-08 7.665640615787e-01-6.146728992462e-08
     9.909307497061e-01 2.230000000000e+02-2.595413566764e+00-5.522730043874e-09
    -2.710827202548e-10 1.000000000000e+00 1.404000000000e+03                   
     1.070000000000e+02 0.000000000000e+00-5.122274160385e-09-5.587935447693e-09
     1.974650000000e+05                                                         
E23 2026 07 21 06 51 05-4.270131466910e-05-1.293187779083e-12 0.000000000000e+00
     7.100000000000e+01 9.150000000000e+01 3.186918462232e-09-1.973245510259e+00
     4.315748810768e-06 1.742112217471e-04 8.603557944298e-06 5.440618791580e+03
     1.950000000000e+05-1.490116119385e-08-1.332274857338e+00 4.284083843231e-08
     9.625505924729e-01 1.557812500000e+02-2.751027767486e+00-5.553445609015e-09
     8.857511808063e-11 1.000000000000e+00 1.404000000000e+03                   
     1.070000000000e+02 0.000000000000e+00 4.656612873077e-10 1.862645149231e-09
     1.974650000000e+05                                                         
E31 2026 07 21 06 51 05-1.580872922204e-04-2.941646926047e-12 0.000000000000e+00
     6.800000000000e+01 1.033750000000e+02 3.208705084018e-09 1.970774208599e+00
     4.686415195465e-06 3.427705960348e-04 8.840113878250e-06 5.440614240646e+03
     1.932000000000e+05 1.490116119385e-08-1.329151806656e+00-7.450580596924e-09
     9.605969633936e-01 1.527187500000e+02-1.401123990964e+00-5.553088451281e-09
     5.678807973718e-11 1.000000000000e+00 1.404000000000e+03                   
     1.070000000000e+02 0.000000000000e+00 3.492459654808e-09 4.190951585770e-09
     1.974650000000e+05                                                         
E04 2026 07 21 06 51 05-1.221743295901e-04 3.355182798259e-11 0.000000000000e+00
     6.700000000000e+01-4.246875000000e+01 3.155488581622e-09 2.647742845734e+00
    -1.899898052216e-06 2.930443733931e-04 5.640089511871e-06 5.440609802246e+03
     1.926000000000e+05 4.284083843231e-08 2.852413615299e+00 9.313225746155e-09
     9.693544913340e-01 2.223750000000e+02-6.753111758211e-02-5.659521456071e-09
     2.039370662260e-10 1.000000000000e+00 1.404000000000e+03                   
     1.070000000000e+02 0.000000000000e+00-4.190951585770e-09-4.656612873077e-09
     1.974650000000e+05                                                         
E21 2026 07 21 06 51 05-7.585882558487e-04-2.799538378895e-12 0.000000000000e+00
     7.400000000000e+01 8.456250000000e+01 3.205847822144e-09-2.226262833080e+00
     4.112720489502e-06 1.708324998617e-04 8.815899491310e-06 5.440616373062e+03
     1.962000000000e+05-9.313225746155e-09-1.329092799856e+00-2.048909664154e-08
     9.606212185753e-01 1.527812500000e+02-1.555587744131e+00-5.523087201608e-09
     1.075044779930e-10 1.000000000000e+00 1.404000000000e+03                   
     1.070000000000e+02 0.000000000000e+00 6.984919309616e-10 9.313225746155e-10
     1.974650000000e+05                                                         
E06 2026 07 21 06 51 05-3.006655606441e-04-5.016431714466e-12 0.000000000000e+00
     7.400000000000e+01-4.078125000000e+01 3.249421065716e-09 1.246973981060e+00
    -1.851469278336e-06 5.052136257291e-04 5.578622221947e-06 5.440612009048e+03
     1.962000000000e+05 7.078051567078e-08 2.852039949449e+00 1.303851604462e-08
     9.626614070545e-01 2.210625000000e+02 1.386782248704e+00-5.710952169795e-09
     1.885792836555e-10 1.000000000000e+00 1.404000000000e+03                   
     1.070000000000e+02 0.000000000000e+00 2.328306436539e-09 3.725290298462e-09
     1.974650000000e+05                                                         
E28 2026 07 21 06 51 05-6.033404497430e-05-2.856381797756e-12 0.000000000000e+00
     7.400000000000e+01-4.318750000000e+01 3.445500661790e-09 1.430579431021e+00
    -1.920387148857e-06 2.855536295101e-04 5.261972546577e-06 5.440610887527e+03
     1.962000000000e+05-1.862645149231e-08 2.870082962224e+00 6.146728992462e-08
     9.490551497850e-01 2.226875000000e+02 1.961852776780e+00-5.783455189837e-09
     1.607209803882e-10 1.000000000000e+00 1.404000000000e+03                   
     1.070000000000e+02 0.000000000000e+00 9.313225746155e-10 1.862645149231e-09
     1.974650000000e+05                                                         
G30 2026 07 21 06 51 12 3.026208723895e-04 1.329070187239e-11 0.000000000000e+00
     3.701686859131e-03-2.192968750000e+01 5.097712340181e-09-1.216021699316e+00
    -1.246109604836e-06 8.218937087804e-03 7.903203368187e-06 5.153542055023e+03
     1.107000000000e+05 1.452863216400e-07-2.597195307358e+00 1.229345798492e-07
     9.366270645625e-01 2.134453125000e+02-2.258804522652e+00-8.059743527005e-09
    -4.518045337580e-11 5.097712340181e-09-2.000000000000e+00 3.000000000000e+00
     3.100000000000e+01 4.000000000000e+00 4.190951585770e-09 7.000000000000e+00
    -1.513399183750e-09-3.259629011154e-09 2.328306436539e-09 3.230525180697e-09
     1.974720000000e+05 2.428000000000e+03 0.000000000000e+00                   
G01 2026 07 21 06 51 12 2.170315419789e-04-9.634959496907e-12 0.000000000000e+00
    -1.117229461670e-03-2.564843750000e+01 4.646443543024e-09 6.786723551877e-01
    -1.356936991215e-06 1.827183994465e-03 5.745328962803e-06 5.153617600205e+03
     1.746000000000e+05-9.313225746155e-10 6.292672102708e-01-3.259629011154e-08
     9.571115413203e-01 2.650117187500e+02 1.954233154798e-01-8.066708102822e-09
    -3.005482333260e-10 4.646443543024e-09-2.000000000000e+00 3.000000000000e+00
     2.900000000000e+01 4.000000000000e+00-8.847564458847e-09 7.000000000000e+00
    -2.910383045673e-10 5.646143108606e-09-5.529727786779e-10-6.693881005049e-10
     1.974720000000e+05 2.428000000000e+03 0.000000000000e+00                   
G14 2026 07 21 06 51 12 7.499779458158e-04 2.557953848736e-13 0.000000000000e+00
    -3.282070159912e-03 5.808593750000e+01 4.971457081142e-09-1.812418756870e+00
     2.956017851830e-06 7.364144199528e-03 8.785165846348e-06 5.153566057914e+03
     1.152000000000e+05 6.984919309616e-08-1.524203728198e+00-6.146728992462e-08
     9.416382626476e-01 2.006640625000e+02-2.680439830644e+00-8.221535980596e-09
     1.428630936784e-10 4.971457081142e-09-2.000000000000e+00 3.000000000000e+00
     3.100000000000e+01 4.000000000000e+00-7.916241884232e-09 7.000000000000e+00
    -2.619344741106e-10 5.005858838558e-09-1.455191522837e-09-1.076841726899e-09
     1.974720000000e+05 2.428000000000e+03 0.000000000000e+00                   
END OF FILE                                                 COMMENT
