     3.05           N: NAVIGATION       M: MIXED            RINEX VERSION / TYPE
PYRINEXCONV 0.1.2 ALDELTUNES            20260721 045036 UTC PGM / RUN BY / DATE
GAL    1.0175e+02  3.3203e-01  2.2858e-02             E 09  IONOSPHERIC CORR
GPSA   9.3132e-09  2.2352e-08  1.5199e-05  1.5140e-05 E 04  IONOSPHERIC CORR
GPSB   1.0035e+05  1.3107e+05  1.6712e+07  1.6318e+07 E 04  IONOSPHERIC CORR
GAUT  6.5192580223e-09-2.664535259e-15 189000 1404   E09  0 TIME SYSTEM CORR
GPUT -3.2014213502e-09 1.588507104e-12 385200 2428   G04  0 TIME SYSTEM CORR
                                                            END OF HEADER
G14 2026 07 21 04 46 24 7.499761122745e-04 2.593480985524e-13 0.000000000000e+00
    -2.451896667480e-03 6.748828125000e+01 4.874488756308e-09-2.862347758742e+00
     3.377906978130e-06 7.362615899183e-03 9.466893970966e-06 5.153559374317e+03
     1.152000000000e+05-6.146728992462e-08-1.524144717008e+00-1.182779669762e-07
     9.416378201149e-01 1.868945312500e+02-2.680703005217e+00-8.281895637675e-09
     1.892935991239e-11 4.874488756308e-09-2.000000000000e+00 3.000000000000e+00
     3.100000000000e+01 4.000000000000e+00-7.916241884232e-09 7.000000000000e+00
    -2.619344741106e-10 5.005858838558e-09-1.455191522837e-09-1.076841726899e-09
     1.899840000000e+05 2.428000000000e+03 0.000000000000e+00                   
E21 2026 07 21 04 48 24-7.585562416352e-04-2.813749233610e-12 0.000000000000e+00
     5.500000000000e+01 1.006875000000e+02 3.320138297087e-09 2.714061811340e+00
     4.794448614120e-06 1.726628979668e-04 8.253380656242e-06 5.440613023758e+03
     1.854000000000e+05 5.029141902924e-08-1.329028293946e+00 4.842877388000e-08
     9.606201886810e-01 1.634687500000e+02-1.553261353284e+00-5.615233897031e-09
     3.821587755898e-11 5.160000000000e+02 1.404000000000e+03                   
     1.070000000000e+02 0.000000000000e+00 6.984919309616e-10 9.313225746155e-10
     1.901040000000e+05                                                         
E31 2026 07 21 04 48 54-1.580716343597e-04-2.984279490192e-12 0.000000000000e+00
     5.900000000000e+01 1.233125000000e+02 3.150488373344e-09 1.295640980670e+00
     5.668029189110e-06 3.408213378862e-04 9.192153811455e-06 5.440619762421e+03
     1.878000000000e+05 0.000000000000e+00-1.329121822687e+00-3.725290298462e-09
     9.605967498075e-01 1.453125000000e+02-1.395455464287e+00-5.546659612065e-09
     4.893060958486e-11 5.160000000000e+02 1.404000000000e+03                   
     1.070000000000e+02 0.000000000000e+00 3.492459654808e-09 4.190951585770e-09
     1.901340000000e+05                                                         
E19 2026 07 21 04 49 24 3.108420118224e-03 2.441424840072e-11 0.000000000000e+00
     5.900000000000e+01-4.403125000000e+01 3.094771766809e-09 3.048866073898e+00
    -1.968815922737e-06 2.429059240967e-04 5.505979061127e-06 5.440619012833e+03
     1.878000000000e+05-1.676380634308e-08 2.860539399622e+00-2.235174179077e-08
     9.747228433132e-01 2.296250000000e+02-2.403696938254e-01-5.641306411627e-09
     2.182233755938e-10 5.160000000000e+02 1.404000000000e+03                   
     1.070000000000e+02 0.000000000000e+00-4.423782229424e-09-4.423782229424e-09
     1.901640000000e+05                                                         
G08 2026 07 21 04 49 36 3.940011374652e-04-9.233502851203e-12 0.000000000000e+00
     7.883071899414e-03 4.416406250000e+01 5.259861951506e-09 7.681529164237e-01
     2.468004822731e-06 1.168233255157e-02 5.070120096207e-06 5.153473407719e+03
     1.413000000000e+05-2.793967723846e-09-5.416898440134e-01 1.452863216400e-07
     9.417692845166e-01 2.700625000000e+02 5.449917495968e-01-7.697228426796e-09
    -2.157232714544e-10 5.259861951506e-09-2.000000000000e+00 3.000000000000e+00
     3.000000000000e+01 4.000000000000e+00 4.656612873077e-09 7.000000000000e+00
    -1.047737896442e-09-4.685716703534e-09 6.257323548198e-09 6.839400157332e-09
     1.901760000000e+05 2.428000000000e+03 0.000000000000e+00                   
G07 2026 07 21 04 49 36-2.079032128677e-04-3.755218358492e-12 0.000000000000e+00
    -5.875587463379e-03-2.107812500000e+01 4.738947396181e-09-1.958368274151e+00
    -1.118518412113e-06 2.093622175744e-02 8.556991815567e-06 5.153637853118e+03
     1.161000000000e+05 3.129243850708e-07-2.586070385172e+00 6.239861249924e-08
     9.513216685146e-01 2.053984375000e+02-1.955131948259e+00-8.543692256841e-09
     7.393165097859e-11 4.738947396181e-09-2.000000000000e+00 3.000000000000e+00
     3.100000000000e+01 4.000000000000e+00-1.071020960808e-08 7.000000000000e+00
    -9.313225746155e-10 6.984919309616e-09 0.000000000000e+00 0.000000000000e+00
     1.901760000000e+05 2.428000000000e+03 0.000000000000e+00                   
G09 2026 07 21 04 49 36 7.171272591222e-04-6.991740519879e-12 0.000000000000e+00
     3.526687622070e-03-1.656250000000e+01 4.419469802942e-09 1.386780316189e+00
    -9.629875421524e-07 3.668958088383e-03 6.236135959625e-06 5.153526767805e+03
     1.395000000000e+05 1.192092895508e-07 2.624872550741e+00 7.450580596924e-09
     9.667074427424e-01 2.606484375000e+02 2.038220855097e+00-8.294574737239e-09
     2.851904507556e-10 4.419469802942e-09-2.000000000000e+00 3.000000000000e+00
     3.000000000000e+01 4.000000000000e+00 4.656612873077e-10 7.000000000000e+00
    -5.820766091347e-10-7.275957614183e-10 5.064066499472e-09 5.617039278150e-09
     1.901760000000e+05 2.428000000000e+03 0.000000000000e+00                   
G30 2026 07 21 04 49 36 3.025251789950e-04 1.329425458607e-11 0.000000000000e+00
    -3.261566162109e-03-2.504296875000e+01 5.127356432119e-09-2.266179138040e+00
    -1.365318894386e-06 8.216449525207e-03 8.302740752697e-06 5.153540978890e+03
     1.107000000000e+05 1.396983861923e-07-2.597136550716e+00-1.210719347000e-08
     9.366274697908e-01 2.046562500000e+02-2.258832282254e+00-8.150104433757e-09
    -9.464679956196e-12 5.127356432119e-09-2.000000000000e+00 3.000000000000e+00
     3.100000000000e+01 4.000000000000e+00 4.190951585770e-09 7.000000000000e+00
    -1.513399183750e-09-3.259629011154e-09 2.328306436539e-09 3.230525180697e-09
     1.901760000000e+05 2.428000000000e+03 0.000000000000e+00                   
G27 2026 07 21 04 49 36 5.348119884729e-07-3.552713678801e-14 0.000000000000e+00
     3.029346466064e-03 4.581250000000e+01 5.056639200748e-09 9.162267355840e-01
     2.438202500343e-06 1.432959164958e-02 5.176290869713e-06 5.153546291716e+03
     1.341000000000e+05-9.406358003616e-08-5.084749144212e-01 1.536682248116e-07
     9.508926451126e-01 2.732187500000e+02 9.006771942604e-01-7.703300108277e-09
    -2.121516941125e-10 5.056639200748e-09-3.000000000000e+00 1.000000000000e+00
     3.000000000000e+01 4.000000000000e+00 2.328306436539e-09 7.000000000000e+00
    -9.022187441587e-10-1.688022166491e-09 6.664777174592e-09 5.326000973582e-09
     1.901760000000e+05 2.428000000000e+03 0.000000000000e+00                   
G04 2026 07 21 04 50 24 6.274419138208e-05 6.998845947237e-13 0.000000000000e+00
    -2.377986907959e-03-2.073046875000e+01 4.331073263729e-09 5.194197053099e-01
    -1.036562025547e-06 3.823000355624e-03 5.988404154778e-06 5.153547799324e+03
     1.233000000000e+05 4.097819328308e-08 2.690046872918e+00 1.136213541031e-07
     9.724446958477e-01 2.717421875000e+02-2.902263436110e+00-8.317611411095e-09
     2.407243128482e-10 4.331073263729e-09-2.000000000000e+00 3.000000000000e+00
     3.100000000000e+01 4.000000000000e+00-4.656612873077e-09 7.000000000000e+00
    -2.037268131971e-10 3.317836672068e-09-1.426087692380e-09-1.396983861923e-09
     1.902240000000e+05 2.428000000000e+03 0.000000000000e+00                   
E06 2026 07 21 04 50 25-3.006262704730e-04-5.059064278612e-12 0.000000000000e+00
     6.100000000000e+01-3.984375000000e+01 3.304423356782e-09 3.549919878469e-01
    -1.901760697365e-06 5.052095511928e-04 5.543231964111e-06 5.440611343384e+03
     1.890000000000e+05 2.793967723846e-08 2.852084682558e+00-2.607703208923e-08
     9.626597203099e-01 2.187812500000e+02 1.385861648986e+00-5.724167005961e-09
     1.982225424788e-10 1.000000000000e+00 1.404000000000e+03                   
     1.070000000000e+02 0.000000000000e+00 2.328306436539e-09 3.725290298462e-09
     1.902250000000e+05                                                         
E28 2026 07 21 04 50 35-6.031146040186e-05-2.842170943040e-12 0.000000000000e+00
     6.100000000000e+01-4.415625000000e+01 3.510503369413e-09 5.399629123769e-01
    -1.968815922737e-06 2.853357000276e-04 5.418434739113e-06 5.440609764099e+03
     1.890000000000e+05 2.421438694000e-08 2.870128356572e+00-3.725290298462e-09
     9.490530446459e-01 2.169062500000e+02 1.959776644404e+00-5.846672108790e-09
     2.067943280995e-10 1.000000000000e+00 1.404000000000e+03                   
     1.070000000000e+02 0.000000000000e+00 9.313225746155e-10 1.862645149231e-09
     1.902350000000e+05                                                         
E14 2026 07 21 04 50 35 3.965047071688e-03 1.531219595563e-10 5.204170427930e-18
     5.900000000000e+01 7.875000000000e+00 5.651663985919e-09-2.197200958948e+00
    -5.457550287247e-07 1.682773553766e-01 6.295740604401e-06 5.289364934921e+03
     1.878000000000e+05-3.350898623466e-06-4.466092572396e-01-2.322718501091e-06
     8.527859428032e-01 2.118437500000e+02-3.116659150369e+00-7.160655412897e-09
    -5.357366012941e-11 1.000000000000e+00 1.404000000000e+03                   
     1.070000000000e+02 1.440000000000e+02-2.793967723846e-09-3.492459654808e-09
     1.902350000000e+05                                                         
E23 2026 07 21 04 50 35-4.269339842722e-05-1.307398633799e-12 0.000000000000e+00
     6.100000000000e+01 1.003125000000e+02 3.242992226500e-09-2.724192371284e+00
     4.665926098824e-06 1.740616280586e-04 8.402392268181e-06 5.440616353989e+03
     1.890000000000e+05 4.284083843231e-08-1.332241047839e+00-7.450580596924e-09
     9.625504257002e-01 1.612500000000e+02-2.743935148576e+00-5.571303495725e-09
     3.785871982478e-11 1.000000000000e+00 1.404000000000e+03                   
     1.070000000000e+02 0.000000000000e+00 4.656612873077e-10 1.862645149231e-09
     1.902350000000e+05                                                         
E04 2026 07 21 04 50 35-1.222949940711e-04 3.352340627316e-11 0.000000000000e+00
     6.100000000000e+01-4.256250000000e+01 3.180846780750e-09 2.201363774266e+00
    -1.920387148857e-06 2.931870985776e-04 5.606561899185e-06 5.440609531403e+03
     1.890000000000e+05 2.607703208923e-08 2.852434020081e+00-1.303851604462e-08
     9.693537042841e-01 2.210312500000e+02-6.746557153757e-02-5.663093033413e-09
     2.089372745047e-10 1.000000000000e+00 1.404000000000e+03                   
     1.070000000000e+02 0.000000000000e+00-4.190951585770e-09-4.656612873077e-09
     1.902350000000e+05                                                         
E09 2026 07 21 04 50 35-3.010221989825e-04 1.772093582986e-11 3.469446951954e-18
     6.100000000000e+01-3.881250000000e+01 3.109058076177e-09 9.670394995453e-01
    -1.924112439156e-06 4.997109062970e-04 5.735084414482e-06 5.440615049362e+03
     1.890000000000e+05 3.725290298462e-09 2.855589430510e+00-4.097819328308e-08
     9.750909339828e-01 2.218750000000e+02 3.872540947560e-01-5.589875697903e-09
     1.957224383395e-10 1.000000000000e+00 1.404000000000e+03                   
     1.070000000000e+02 0.000000000000e+00 6.984919309616e-10 9.313225746155e-10
     1.902350000000e+05                                                         
E21 2026 07 21 04 50 35-7.585664861836e-04-2.827960088325e-12 0.000000000000e+00
     6.100000000000e+01 9.106250000000e+01 3.270493372034e-09-3.118919629442e+00
     4.347413778305e-06 1.713809324428e-04 8.547678589821e-06 5.440615900040e+03
     1.890000000000e+05-2.421438694000e-08-1.329048881592e+00 5.960464477539e-08
     9.606202647527e-01 1.572187500000e+02-1.557151173459e+00-5.589161382435e-09
     7.928901699153e-11 1.000000000000e+00 1.404000000000e+03                   
     1.070000000000e+02 0.000000000000e+00 6.984919309616e-10 9.313225746155e-10
     1.902350000000e+05                                                         
END OF FILE                                                 COMMENT
