     3.05           N: NAVIGATION       M: MIXED            RINEX VERSION / TYPE
PYRINEXCONV 0.1.2 ALDELTUNES            20260721 120202 UTC PGM / RUN BY / DATE
GAL    1.0175e+02  3.3203e-01  2.2858e-02             M 10  IONOSPHERIC CORR
BDSA   2.1420e-08  5.9605e-08 -7.7486e-07  1.2517e-06 L 11  IONOSPHERIC CORR
BDSB   1.4131e+05 -7.0451e+05  5.6361e+06 -4.6531e+06 L 11  IONOSPHERIC CORR
GPSA   9.3132e-09  2.2352e-08  1.5199e-05  1.5140e-05 M 21  IONOSPHERIC CORR
GPSB   1.0035e+05  1.3107e+05  1.6712e+07  1.6318e+07 M 21  IONOSPHERIC CORR
GAUT  6.5192580223e-09-2.664535259e-15 215400 1404   E10  0 TIME SYSTEM CORR
BDUT  0.0000000000e+00 0.000000000e+00 212400 1072   C11  0 TIME SYSTEM CORR
GPUT -3.1141098589e-09-1.736388811e-13 442800 2428   G21  0 TIME SYSTEM CORR
                                                            END OF HEADER
C35 2026 07 21 11 52 54-4.782762844115e-04-1.604139043820e-11 0.000000000000e+00
     1.000000000000e+00 1.640625000000e+01 4.353395622116e-09-2.054039094973e-02
     7.916241884232e-07 8.117869729176e-04 3.815162926912e-06 5.282620409012e+03
     2.124000000000e+05 2.421438694000e-08 3.477810364190e-02 2.688728272915e-05
     9.437471197699e-01 2.762343750000e+02 8.869464068208e-01-1.991598672365e-06
    -1.192906832215e-10                    1.072000000000e+03                   
     0.000000000000e+00 0.000000000000e+00-1.257285475731e-08-1.257285475731e-08
     2.155740000000e+05 1.000000000000e+00                                      
C29 2026 07 21 11 52 54 6.338730454445e-04 5.153211191100e-12 0.000000000000e+00
     1.000000000000e+00 1.675000000000e+01 4.365538985079e-09-4.245128246974e-01
     8.842907845974e-07 2.189400838688e-04 3.635883331299e-06 5.282657833099e+03
     2.124000000000e+05 6.426125764847e-08 3.417893335834e-02 2.294359728694e-05
     9.455616853196e-01 2.790156250000e+02 2.111899364377e+00-2.576765904071e-06
    -5.535944880039e-11                    1.072000000000e+03                   
     0.000000000000e+00 0.000000000000e+00 9.313225746155e-10 9.313225746155e-10
     2.155740000000e+05 1.000000000000e+00                                      
C12 2026 07 21 11 52 54 6.156516028568e-04-5.013767179207e-12 0.000000000000e+00
     1.000000000000e+00-2.292187500000e+01 3.593721121481e-09-7.487750669728e-01
    -1.263804733753e-06 1.759165897965e-04 7.048249244690e-06 5.282646144867e+03
     2.124000000000e+05 7.450580596924e-09 2.170514287387e+00-4.056189209223e-05
     9.736055030572e-01 2.234531250000e+02 7.041801773709e-01-1.564334803681e-06
     1.582208762489e-10                    1.072000000000e+03                   
     0.000000000000e+00 0.000000000000e+00 3.725290298462e-09 3.725290298462e-09
     2.155740000000e+05 1.000000000000e+00                                      
C26 2026 07 21 11 52 54-6.724876584485e-04-5.552003301545e-12 0.000000000000e+00
     1.000000000000e+00 1.518750000000e+01 4.022667560250e-09 1.425399953469e+00
     6.621703505516e-07 9.378691902384e-04 9.299721568823e-06 5.282658828735e+03
     2.124000000000e+05 2.048909664154e-08-2.040567908930e+00 4.292931407690e-05
     9.453572571472e-01 1.624062500000e+02 7.291255785041e-01 2.631679977177e-06
    -1.053615315878e-10                    1.072000000000e+03                   
     0.000000000000e+00 0.000000000000e+00-2.328306436539e-08-2.328306436539e-08
     2.155740000000e+05 1.000000000000e+00                                      
C19 2026 07 21 11 52 54-9.326101280749e-04 8.162359677044e-13 0.000000000000e+00
     1.000000000000e+00-2.510937500000e+01 3.255492747197e-09-1.491880682704e-01
    -1.363456249237e-06 7.851601112634e-04 7.190275937319e-06 5.282634328842e+03
     2.124000000000e+05-1.862645149231e-09 2.184864912485e+00 9.261071681976e-06
     9.899543835508e-01 2.319375000000e+02-3.186941507763e-01 4.634985922911e-07
     1.492919328940e-10                    1.072000000000e+03                   
     0.000000000000e+00 0.000000000000e+00 4.330649971962e-08 4.330649971962e-08
     2.155740000000e+05 1.000000000000e+00                                      
C20 2026 07 21 11 52 54-8.892318001017e-04 3.005595772265e-12 0.000000000000e+00
     1.000000000000e+00-2.598437500000e+01 3.324424189897e-09-2.513853704097e-02
    -1.348555088043e-06 8.078168611974e-04 7.292255759239e-06 5.282636833191e+03
     2.124000000000e+05 2.700835466385e-08 2.185492488249e+00 1.142406836152e-05
     9.899391297040e-01 2.253281250000e+02 2.737995970351e-01 1.077558456063e-06
     1.678641350722e-10                    1.072000000000e+03                   
     0.000000000000e+00 0.000000000000e+00 5.541369318962e-08 5.541369318962e-08
     2.155740000000e+05 1.000000000000e+00                                      
C39 2026 07 21 11 52 54-9.575489675626e-04 8.791189998192e-12 0.000000000000e+00
     1.000000000000e+00 1.012500000000e+01 3.866946788141e-09 2.931656340077e+00
     5.550682544708e-07 5.713555729017e-04 9.272247552872e-06 5.282663963318e+03
     2.124000000000e+05 1.117587089539e-08-2.011546913117e+00 5.748448893428e-05
     9.490802724772e-01 1.672031250000e+02 5.935714034886e-02 1.010812461539e-06
    -5.500229106620e-11                    1.072000000000e+03                   
     0.000000000000e+00 0.000000000000e+00 8.987262845039e-08 8.987262845039e-08
     2.155740000000e+05 1.000000000000e+00                                      
C11 2026 07 21 11 52 54-7.892992580310e-04-2.154987299718e-11 0.000000000000e+00
     1.000000000000e+00 1.748437500000e+01 4.303393539329e-09 2.672535099826e+00
     9.336508810520e-07 1.711775548756e-04 3.513880074024e-06 5.282639570236e+03
     2.124000000000e+05-7.450580596924e-09 7.432467653825e-02 4.751002416015e-05
     9.504503654785e-01 2.843125000000e+02-6.661877837724e-01 6.772210661186e-07
    -3.214419607765e-11                    1.072000000000e+03                   
     0.000000000000e+00 0.000000000000e+00 1.350417733192e-08 1.350417733192e-08
     2.155740000000e+05 1.000000000000e+00                                      
G11 2026 07 21 11 56 24-2.677883021533e-04 1.227817847393e-11 0.000000000000e+00
     6.800000000000e+01-2.675000000000e+01 4.559118477013e-09-2.804708465308e+00
    -1.342967152596e-06 2.486749202944e-03 5.591660737991e-06 5.153651065826e+03
     2.160000000000e+05 3.166496753693e-08 5.992905602973e-01-1.396983861923e-07
     9.627627141315e-01 2.712500000000e+02-2.355535992729e+00-8.172126116141e-09
    -1.628639267934e-10 1.000000000000e+00 3.800000000000e+02 0.000000000000e+00
     2.000000000000e+00 0.000000000000e+00-8.847564458847e-09 8.360000000000e+02
     8.631360000000e+05 4.000000000000e+00                                      
G13 2026 07 21 11 56 24 4.184492863715e-04 5.229594535194e-12 0.000000000000e+00
     4.200000000000e+01 4.490625000000e+01 4.425184326689e-09 5.289023622435e-01
     2.237036824226e-06 2.269272110425e-03 8.974224328995e-06 5.153590568542e+03
     2.160000000000e+05 0.000000000000e+00-1.575949081222e+00-2.048909664154e-08
     9.588254793184e-01 2.026875000000e+02 1.820162606930e+00-7.985689778890e-09
     1.535778257043e-11 1.000000000000e+00 3.800000000000e+02 0.000000000000e+00
     2.000000000000e+00 6.300000000000e+01-8.381903171539e-09 4.200000000000e+01
     8.631360000000e+05 4.000000000000e+00                                      
G21 2026 07 21 11 56 24 3.957003355026e-04-5.343281372916e-12 0.000000000000e+00
     2.290000000000e+02-2.828125000000e+01 4.340180785951e-09 2.357513989635e-01
    -1.603737473488e-06 7.935260655358e-04 7.549300789833e-06 5.153595853806e+03
     2.160000000000e+05 1.862645149231e-09 1.623561403209e+00-9.313225746155e-09
     9.641823035031e-01 2.349687500000e+02-8.568574369230e-02-7.997475984119e-09
     1.642925577302e-11 1.000000000000e+00 3.800000000000e+02 0.000000000000e+00
     2.000000000000e+00 0.000000000000e+00-9.778887033463e-09 4.850000000000e+02
     8.631360000000e+05 4.000000000000e+00                                      
G12 2026 07 21 11 56 24-6.054616533220e-04 5.684341886081e-13 0.000000000000e+00
     1.000000000000e+01 4.975000000000e+01 4.497330188997e-09 6.626313143511e-01
     2.460554242134e-06 8.705397252925e-03 8.864328265190e-06 5.153704523087e+03
     2.159840000000e+05-9.313225746155e-08-1.467432603498e+00-5.587935447693e-08
     9.583090209601e-01 2.066250000000e+02 1.587346449225e+00-8.132481607645e-09
     3.571577341961e-12 1.000000000000e+00 3.800000000000e+02 0.000000000000e+00
     2.000000000000e+00 0.000000000000e+00-1.257285475731e-08 1.000000000000e+01
     8.631360000000e+05 4.000000000000e+00                                      
G06 2026 07 21 11 56 24-5.692509002984e-04 7.958078640513e-12 0.000000000000e+00
     1.800000000000e+01-2.809375000000e+01 4.137315192927e-09 2.245621032615e+00
    -1.301988959312e-06 3.694797749631e-03 5.392357707024e-06 5.153722442627e+03
     2.160000000000e+05 1.192092895508e-07 5.836067018817e-01 2.235174179077e-08
     9.858715825372e-01 2.878437500000e+02-5.465688886624e-01-7.944973797192e-09
    -1.864363372504e-10 1.000000000000e+00 3.800000000000e+02 0.000000000000e+00
     2.000000000000e+00 0.000000000000e+00 3.725290298462e-09 1.800000000000e+01
     8.631360000000e+05 4.000000000000e+00                                      
G25 2026 07 21 11 56 24 4.047267138958e-04-3.183231456205e-12 0.000000000000e+00
     7.900000000000e+01 4.837500000000e+01 4.792342477443e-09 5.986630518277e-01
     2.359971404076e-06 1.290035224520e-02 9.022653102875e-06 5.153667165756e+03
     2.160000000000e+05-1.769512891769e-07-1.562871696634e+00 2.235174179077e-08
     9.467231764432e-01 2.001875000000e+02 1.161682922425e+00-8.298559954046e-09
    -9.607543049875e-11 1.000000000000e+00 3.800000000000e+02 0.000000000000e+00
     2.000000000000e+00 0.000000000000e+00 5.587935447693e-09 7.900000000000e+01
     8.631360000000e+05 4.000000000000e+00                                      
G05 2026 07 21 11 56 24-2.352846786380e-04-3.410605131648e-13 0.000000000000e+00
     2.000000000000e+01-2.650000000000e+01 3.956950537158e-09-1.819273063500e+00
    -1.354143023491e-06 5.605535698123e-03 8.007511496544e-06 5.153775583267e+03
     2.160000000000e+05 6.705522537231e-08 1.559901888084e+00 9.313225746155e-08
     9.811634133030e-01 2.361250000000e+02 1.482001926072e+00-7.740322415498e-09
     3.214419607765e-11 1.000000000000e+00 3.800000000000e+02 0.000000000000e+00
     2.000000000000e+00 0.000000000000e+00-1.071020960808e-08 2.000000000000e+01
     8.631360000000e+05 4.000000000000e+00                                      
G12 2026 07 21 11 59 12-6.054627010599e-04 5.542233338929e-13 0.000000000000e+00
     5.886554718018e-03 4.863281250000e+01 4.535903224290e-09 3.584829002517e-01
     2.461485564709e-06 8.703983854502e-03 8.565373718739e-06 5.153519584271e+03
     2.025000000000e+05-8.940696716309e-08-1.467415643889e+00-5.122274160385e-08
     9.583090143770e-01 2.155156250000e+02 1.587535177361e+00-8.202070884082e-09
     2.857261873569e-12 4.535903224290e-09-2.000000000000e+00 2.000000000000e+00
     2.700000000000e+01 4.000000000000e+00-1.257285475731e-08 7.000000000000e+00
    -6.984919309616e-10 7.072230800986e-09 0.000000000000e+00 0.000000000000e+00
     2.159520000000e+05 2.428000000000e+03 0.000000000000e+00                   
E33 2026 07 21 11 59 35-2.521614078432e-05-1.989519660128e-12 0.000000000000e+00
     1.040000000000e+02-6.343750000000e+01 2.728685089258e-09-1.345850342126e+00
    -2.885237336159e-06 1.673320075497e-04 5.086883902550e-06 5.440605234146e+03
     2.148000000000e+05 2.607703208923e-08 7.698941824630e-01 2.793967723846e-08
     9.976629407117e-01 2.492812500000e+02-3.015995599340e+00-5.502372053025e-09
    -1.364342544629e-10 1.000000000000e+00 1.404000000000e+03                   
     1.070000000000e+02 0.000000000000e+00-4.423782229424e-09-4.889443516731e-09
     2.159750000000e+05                                                         
E31 2026 07 21 11 59 35-1.581464312039e-04-2.984279490192e-12 0.000000000000e+00
     1.010000000000e+02 7.603125000000e+01 3.063341886200e-09-1.859423090104e+00
     3.661960363388e-06 3.415956161916e-04 9.361654520035e-06 5.440612691879e+03
     2.130000000000e+05 2.793967723846e-08-1.329261976091e+00 2.793967723846e-08
     9.605988725017e-01 1.409687500000e+02-1.399396088681e+00-5.481299746707e-09
     9.643258823294e-11 1.000000000000e+00 1.404000000000e+03                   
     1.070000000000e+02 0.000000000000e+00 3.492459654808e-09 4.190951585770e-09
     2.159750000000e+05                                                         
E10 2026 07 21 12 01 24-8.074495708570e-04-2.643218977028e-12 0.000000000000e+00
     1.020000000000e+02-5.062500000000e+01 2.676540060065e-09-1.742219497612e+00
    -2.352520823479e-06 2.863210393116e-04 5.545094609261e-06 5.440602169037e+03
     2.136000000000e+05 3.911554813385e-08 7.679715760244e-01-9.499490261078e-08
     9.974623687914e-01 2.376875000000e+02 2.333586160670e+00-5.497729002480e-09
    -1.542921411727e-10 5.160000000000e+02 1.404000000000e+03                   
     1.070000000000e+02 0.000000000000e+00-1.164153218269e-09-2.328306436539e-10
     2.160840000000e+05                                                         
G11 2026 07 21 12 01 36-2.677223528735e-04 1.223909862347e-11 0.000000000000e+00
    -4.132270812988e-03-2.292187500000e+01 4.625728394441e-09-2.017792766517e+00
    -1.150183379650e-06 2.486625686288e-03 5.193054676056e-06 5.153574809431e+03
     1.872000000000e+05 5.774199962616e-08 5.992458425489e-01 4.656612873077e-09
     9.627621128722e-01 2.799687500000e+02-2.354806973837e+00-8.158319061643e-09
    -5.285934466102e-11 4.625728394441e-09-2.000000000000e+00 3.000000000000e+00
     2.900000000000e+01 4.000000000000e+00-8.847564458847e-09 7.000000000000e+00
    -2.037268131971e-10 5.675246939063e-09 3.783497959375e-10 2.328306436539e-10
     2.160960000000e+05 2.428000000000e+03 0.000000000000e+00                   
G13 2026 07 21 12 01 36 4.184774297755e-04 5.240252676231e-12 8.673617379884e-19
    -4.507541656494e-03 3.406250000000e+01 4.347502519502e-09 1.316556556711e+00
     1.756474375725e-06 2.271318458952e-03 8.977949619293e-06 5.153630947532e+03
     1.647000000000e+05 2.980232238770e-08-1.575992203658e+00-4.470348358154e-08
     9.588257221628e-01 2.048125000000e+02 1.820178237478e+00-8.384757065123e-09
     2.160804291886e-11 4.347502519502e-09-3.000000000000e+00 1.000000000000e+00
     3.000000000000e+01 7.000000000000e+00-8.381903171539e-09 7.000000000000e+00
    -1.164153218269e-10 5.267793312669e-09 1.658918336034e-09 1.949956640601e-09
     2.160960000000e+05 2.428000000000e+03 0.000000000000e+00                   
G21 2026 07 21 12 01 36 3.956717555411e-04-5.307754236128e-12 0.000000000000e+00
    -7.040500640869e-03-3.537890625000e+01 4.462507309913e-09 1.026285565645e+00
    -1.767650246620e-06 7.946521509439e-04 7.230788469315e-06 5.153629512523e+03
     1.332000000000e+05 1.955777406693e-08 1.623518024762e+00-4.656612873077e-08
     9.641823159379e-01 2.416328125000e+02-8.855343836615e-02-8.309039625474e-09
     3.571577341961e-11 4.462507309913e-09-2.000000000000e+00 3.000000000000e+00
     3.100000000000e+01 4.000000000000e+00-9.778887033463e-09 7.000000000000e+00
    -8.731149137020e-11 6.199115887284e-09 1.746229827404e-10 1.455191522837e-10
     2.160960000000e+05 2.428000000000e+03 0.000000000000e+00                   
G05 2026 07 21 12 01 36-2.352863957640e-04-3.375077994860e-13 0.000000000000e+00
    -5.671977996826e-03-3.324218750000e+01 4.024810506656e-09-1.031420181351e+00
    -1.653097569942e-06 5.603698780760e-03 7.516704499722e-06 5.153446300058e+03
     1.701000000000e+05-7.916241884232e-08 1.559859682165e+00 5.401670932770e-08
     9.811629890568e-01 2.459609375000e+02 1.481731062401e+00-8.459403031570e-09
     4.375182243902e-11 4.024810506656e-09-2.000000000000e+00 3.000000000000e+00
     3.000000000000e+01 4.000000000000e+00-1.071020960808e-08 7.000000000000e+00
    -3.783497959375e-10 5.733454599977e-09 0.000000000000e+00 0.000000000000e+00
     2.160960000000e+05 2.428000000000e+03 0.000000000000e+00                   
G06 2026 07 21 12 01 36-5.692079430446e-04 7.982947636265e-12 0.000000000000e+00
     4.358768463135e-03-2.539843750000e+01 4.126957618636e-09 3.033731863795e+00
    -1.243315637112e-06 3.694834478665e-03 4.962086677551e-06 5.153500829988e+03
     1.845000000000e+05-6.239861249924e-08 5.835633402583e-01 2.607703208923e-08
     9.858711253753e-01 2.967070312500e+02-5.470649729606e-01-8.471010657932e-09
    -7.071723137082e-11 4.126957618636e-09-2.000000000000e+00 3.000000000000e+00
     2.900000000000e+01 4.000000000000e+00 3.725290298462e-09 7.000000000000e+00
     3.201421350241e-10-3.929017111659e-09 1.775333657861e-09 2.211891114712e-09
     2.160960000000e+05 2.428000000000e+03 0.000000000000e+00                   
G25 2026 07 21 12 01 36 4.047089896630e-04-3.229416734030e-12 0.000000000000e+00
     4.336357116699e-03 4.065625000000e+01 4.696624204679e-09 1.386186788381e+00
     2.051703631878e-06 1.289950474165e-02 8.748844265938e-06 5.153552874520e+03
     1.593000000000e+05-2.169981598854e-07-1.562916745733e+00-7.729977369308e-08
     9.467228845911e-01 2.032539062500e+02 1.161801535092e+00-8.100816666438e-09
    -5.768097407267e-11 4.696624204679e-09-2.000000000000e+00 3.000000000000e+00
     3.000000000000e+01 4.000000000000e+00 5.587935447693e-09 7.000000000000e+00
    -1.891748979688e-09-4.773028194904e-09-1.047737896442e-09 6.402842700481e-10
     2.160960000000e+05 2.428000000000e+03 0.000000000000e+00                   
E11 2026 07 21 12 01 54 5.518126708921e-03 6.747313818778e-11-3.469446951954e-18
     9.900000000000e+01-3.928125000000e+01 2.638681340241e-09-1.408247597405e+00
    -1.888722181320e-06 4.173512570560e-04 5.777925252914e-06 5.440611831665e+03
     2.118000000000e+05-7.823109626770e-08 7.694409879970e-01-4.470348358154e-08
     9.945458133851e-01 2.324062500000e+02 1.347685586023e+00-5.458798809453e-09
    -1.860791795162e-10 5.160000000000e+02 1.404000000000e+03                   
     1.070000000000e+02 0.000000000000e+00-1.466833055019e-08-1.583248376846e-08
     2.161140000000e+05                                                         
E33 2026 07 21 12 01 55-2.521730493754e-05-1.989519660128e-12 0.000000000000e+00
     1.050000000000e+02-6.481250000000e+01 2.723327723245e-09-1.270752203244e+00
    -2.944841980934e-06 1.674942905083e-04 5.049630999565e-06 5.440605630875e+03
     2.154000000000e+05 2.421438694000e-08 7.698908952861e-01 3.166496753693e-08
     9.976628529366e-01 2.501250000000e+02-3.016708115053e+00-5.504157841696e-09
    -1.371485699313e-10 1.000000000000e+00 1.404000000000e+03                   
     1.070000000000e+02 0.000000000000e+00-4.423782229424e-09-4.889443516731e-09
     2.161150000000e+05                                                         
E16 2026 07 21 12 02 05-4.650175105780e-05-2.472688720445e-12 0.000000000000e+00
     1.040000000000e+02 8.293750000000e+01 2.962266247422e-09-1.387599465465e+00
     4.008412361145e-06 4.924213280901e-04 8.672475814819e-06 5.440619869232e+03
     2.148000000000e+05 1.862645149231e-08-1.332508973970e+00-5.587935447693e-09
     9.625735163992e-01 1.542500000000e+02-2.476026860160e+00-5.504157841696e-09
     8.036049019412e-11 1.000000000000e+00 1.404000000000e+03                   
     1.070000000000e+02 0.000000000000e+00-3.725290298462e-09-2.328306436539e-09
     2.161250000000e+05                                                         
E12 2026 07 21 12 02 05-5.902443081141e-05-2.614797267597e-12 0.000000000000e+00
     1.040000000000e+02-5.346875000000e+01 2.791902008211e-09 2.504139079558e-01
    -2.425163984299e-06 3.171436255798e-04 4.950910806656e-06 5.440602628708e+03
     2.148000000000e+05 6.146728992462e-08 7.694331160349e-01 7.450580596924e-09
     9.945570705398e-01 2.502187500000e+02 8.577544266062e-01-5.530944671761e-09
    -1.182192100189e-10 1.000000000000e+00 1.404000000000e+03                   
     1.070000000000e+02 0.000000000000e+00-1.187436282635e-08-1.164153218269e-08
     2.161250000000e+05                                                         
E25 2026 07 21 12 02 05 2.174236578867e-05-7.105427357601e-14 0.000000000000e+00
     9.900000000000e+01 9.740625000000e+01 3.073342302757e-09 2.624236618057e+00
     4.328787326813e-06 2.982205478474e-04 8.316710591316e-06 5.440612489700e+03
     2.118000000000e+05 1.862645149231e-09-1.329174281467e+00-1.117587089539e-08
     9.606289369311e-01 1.592812500000e+02-1.309165599796e+00-5.515229731456e-09
     5.321650239522e-11 1.000000000000e+00 1.404000000000e+03                   
     1.070000000000e+02 0.000000000000e+00 2.328306436539e-09 2.561137080193e-09
     2.161250000000e+05                                                         
E10 2026 07 21 12 02 05-8.074542274699e-04-2.657429831743e-12 0.000000000000e+00
     1.050000000000e+02-5.362500000000e+01 2.707255625206e-09-1.521800853800e+00
    -2.482905983925e-06 2.857750514522e-04 5.232170224190e-06 5.440600280762e+03
     2.154000000000e+05 6.519258022308e-08 7.679615579614e-01-5.774199962616e-08
     9.974619591743e-01 2.448437500000e+02 2.336323545185e+00-5.504157841696e-09
    -1.285767843106e-10 1.000000000000e+00 1.404000000000e+03                   
     1.070000000000e+02 0.000000000000e+00-1.164153218269e-09-2.328306436539e-10
     2.161250000000e+05                                                         
END OF FILE                                                 COMMENT
