     3.05           N: NAVIGATION       M: MIXED            RINEX VERSION / TYPE
PYRINEXCONV 0.1.2 ALDELTUNES            20260721 055048 UTC PGM / RUN BY / DATE
GPSA   9.3132e-09  2.2352e-08  1.5199e-05  1.5140e-05 F 14  IONOSPHERIC CORR
GPSB   1.0035e+05  1.3107e+05  1.6712e+07  1.6318e+07 F 14  IONOSPHERIC CORR
GAL    1.0175e+02  3.3203e-01  2.2858e-02             F 13  IONOSPHERIC CORR
GPUT -3.2887328416e-09 5.373479439e-14 385200 2428   G14  0 TIME SYSTEM CORR
GAUT  6.5192580223e-09-2.664535259e-15 191400 1404   E13  0 TIME SYSTEM CORR
                                                            END OF HEADER
G07 2026 07 21 05 41 24-2.079098485410e-04-3.751665644813e-12 0.000000000000e+00
     9.700000000000e+01-2.071875000000e+01 4.741626079187e-09-1.695767174572e+00
    -9.015202522278e-07 2.093818434514e-02 7.875263690948e-06 5.153584897995e+03
     1.944000000000e+05 4.228204488754e-07-2.586084121241e+00 1.657754182816e-07
     9.513214629746e-01 2.134062500000e+02-1.955170504928e+00-7.871042146213e-09
     1.142904749427e-11 1.000000000000e+00 3.800000000000e+02 0.000000000000e+00
     2.000000000000e+00 0.000000000000e+00-1.071020960808e-08 9.700000000000e+01
     7.731360000000e+05 4.000000000000e+00                                      
G30 2026 07 21 05 41 24 3.025494515896e-04 1.330136001343e-11 0.000000000000e+00
     9.900000000000e+01-2.796875000000e+01 5.111641491814e-09-2.003574362149e+00
    -1.674517989159e-06 8.217569906265e-03 7.912516593933e-06 5.153681093216e+03
     1.944000000000e+05 1.247972249985e-07-2.597151349596e+00 5.587935447693e-09
     9.366274792998e-01 2.088437500000e+02-2.258889940976e+00-8.182126532698e-09
     3.928735076157e-12 1.000000000000e+00 3.800000000000e+02 0.000000000000e+00
     2.000000000000e+00 0.000000000000e+00 4.190951585770e-09 9.900000000000e+01
     7.731360000000e+05 4.000000000000e+00                                      
G08 2026 07 21 05 41 24 3.939843736589e-04-9.208633855451e-12 0.000000000000e+00
     8.200000000000e+01 5.553125000000e+01 5.257361847366e-09 1.030811823210e+00
     3.173947334290e-06 1.168476371095e-02 5.075708031654e-06 5.153750621796e+03
     1.944000000000e+05 5.587935447693e-09-5.417054526179e-01 1.657754182816e-07
     9.417689063523e-01 2.702812500000e+02 5.448627546008e-01-8.641074221140e-09
    -2.032227507576e-10 1.000000000000e+00 3.800000000000e+02 0.000000000000e+00
     2.000000000000e+00 0.000000000000e+00 4.656612873077e-09 8.200000000000e+01
     7.731360000000e+05 4.000000000000e+00                                      
G02 2026 07 21 05 41 24 1.419312320650e-04 7.275957614183e-12 0.000000000000e+00
     1.300000000000e+01-2.415625000000e+01 4.525188492264e-09 1.292985379128e+00
    -1.484528183937e-06 1.689662365243e-02 4.813075065613e-06 5.153731765747e+03
     1.944000000000e+05 3.483146429062e-07 4.674341725895e-01 1.862645149231e-09
     9.620966197345e-01 2.790000000000e+02-7.358926908272e-01-8.126767083898e-09
    -4.053740283126e-10 1.000000000000e+00 3.800000000000e+02 0.000000000000e+00
     2.000000000000e+00 0.000000000000e+00-1.722946763039e-08 1.300000000000e+01
     7.731360000000e+05 4.000000000000e+00                                      
G14 2026 07 21 05 41 24 7.499763742089e-04 2.273736754432e-13 0.000000000000e+00
     2.270000000000e+02 6.125000000000e+01 4.906990110120e-09-2.599717998404e+00
     3.017485141754e-06 7.363637676463e-03 9.743496775627e-06 5.153661857605e+03
     1.944000000000e+05-2.048909664154e-08-1.524159444936e+00-1.657754182816e-07
     9.416377923194e-01 1.834687500000e+02-2.680783462054e+00-8.087836890870e-09
     4.500187450871e-11 1.000000000000e+00 3.800000000000e+02 0.000000000000e+00
     2.000000000000e+00 0.000000000000e+00-7.916241884232e-09 9.950000000000e+02
     7.731360000000e+05 4.000000000000e+00                                      
G17 2026 07 21 05 41 24-1.761759631336e-04-6.025402399246e-12 0.000000000000e+00
     7.000000000000e+00 4.365625000000e+01 4.868417074827e-09 1.040159025633e+00
     1.991167664528e-06 1.261625194456e-02 4.634261131287e-06 5.153675146103e+03
     1.944000000000e+05 6.705522537231e-08-4.349241727490e-01-3.371387720108e-07
     9.574388290103e-01 2.881562500000e+02-1.098734103143e+00-8.423565161015e-09
    -6.964575816824e-11 1.000000000000e+00 3.800000000000e+02 0.000000000000e+00
     2.000000000000e+00 0.000000000000e+00-1.071020960808e-08 7.000000000000e+00
     7.731360000000e+05 4.000000000000e+00                                      
G01 2026 07 21 05 41 24 2.170833759010e-04-9.663381206337e-12 0.000000000000e+00
     2.180000000000e+02-3.265625000000e+01 4.590905515356e-09-1.090146174221e-01
    -1.903623342514e-06 1.825749408454e-03 6.143003702164e-06 5.153602840424e+03
     1.944000000000e+05 1.862645149231e-09 6.293118994923e-01 3.539025783539e-08
     9.571134628632e-01 2.575000000000e+02 1.954429354056e-01-8.214270728776e-09
    -3.264421690552e-10 1.000000000000e+00 3.800000000000e+02 0.000000000000e+00
     2.000000000000e+00 0.000000000000e+00-8.847564458847e-09 7.300000000000e+02
     7.731360000000e+05 4.000000000000e+00                                      
G09 2026 07 21 05 41 24 7.171146571636e-04-7.048583938740e-12 0.000000000000e+00
     7.400000000000e+01-1.984375000000e+01 4.403754862638e-09 1.649337004501e+00
    -1.048669219017e-06 3.670229576528e-03 6.090849637985e-06 5.153696254730e+03
     1.944000000000e+05 1.378357410431e-07 2.624858163673e+00 3.166496753693e-08
     9.667080432703e-01 2.642812500000e+02 2.038203357865e+00-8.018548290436e-09
     2.792973481413e-10 1.000000000000e+00 3.800000000000e+02 0.000000000000e+00
     2.000000000000e+00 0.000000000000e+00 4.656612873077e-10 7.400000000000e+01
     7.731360000000e+05 4.000000000000e+00                                      
G07 2026 07 21 05 49 36-2.079032128677e-04-3.755218358492e-12 0.000000000000e+00
    -5.875587463379e-03-2.107812500000e+01 4.738947396181e-09-1.958368274151e+00
    -1.118518412113e-06 2.093622175744e-02 8.556991815567e-06 5.153637853118e+03
     1.161000000000e+05 3.129243850708e-07-2.586070385172e+00 6.239861249924e-08
     9.513216685146e-01 2.053984375000e+02-1.955131948259e+00-8.543692256841e-09
     7.393165097859e-11 4.738947396181e-09-2.000000000000e+00 3.000000000000e+00
     3.100000000000e+01 4.000000000000e+00-1.071020960808e-08 7.000000000000e+00
    -9.313225746155e-10 6.984919309616e-09 0.000000000000e+00 0.000000000000e+00
     1.937760000000e+05 2.428000000000e+03 0.000000000000e+00                   
G30 2026 07 21 05 49 36 3.025251789950e-04 1.329425458607e-11 0.000000000000e+00
    -3.261566162109e-03-2.504296875000e+01 5.127356432119e-09-2.266179138040e+00
    -1.365318894386e-06 8.216449525207e-03 8.302740752697e-06 5.153540978890e+03
     1.107000000000e+05 1.396983861923e-07-2.597136550716e+00-1.210719347000e-08
     9.366274697908e-01 2.046562500000e+02-2.258832282254e+00-8.150104433757e-09
    -9.464679956196e-12 5.127356432119e-09-2.000000000000e+00 3.000000000000e+00
     3.100000000000e+01 4.000000000000e+00 4.190951585770e-09 7.000000000000e+00
    -1.513399183750e-09-3.259629011154e-09 2.328306436539e-09 3.230525180697e-09
     1.937760000000e+05 2.428000000000e+03 0.000000000000e+00                   
G08 2026 07 21 05 49 36 3.940011374652e-04-9.233502851203e-12 0.000000000000e+00
     7.883071899414e-03 4.416406250000e+01 5.259861951506e-09 7.681529164237e-01
     2.468004822731e-06 1.168233255157e-02 5.070120096207e-06 5.153473407719e+03
     1.413000000000e+05-2.793967723846e-09-5.416898440134e-01 1.452863216400e-07
     9.417692845166e-01 2.700625000000e+02 5.449917495968e-01-7.697228426796e-09
    -2.157232714544e-10 5.259861951506e-09-2.000000000000e+00 3.000000000000e+00
     3.000000000000e+01 4.000000000000e+00 4.656612873077e-09 7.000000000000e+00
    -1.047737896442e-09-4.685716703534e-09 6.257323548198e-09 6.839400157332e-09
     1.937760000000e+05 2.428000000000e+03 0.000000000000e+00                   
G01 2026 07 21 05 50 24 2.171008964069e-04-9.634959496907e-12 0.000000000000e+00
     4.054069519043e-03-2.614453125000e+01 4.578404994660e-09-3.724221023154e-01
    -1.356936991215e-06 1.825688523240e-03 6.320886313915e-06 5.153621011794e+03
     1.746000000000e+05 1.955777406693e-08 6.293266691133e-01 2.980232238770e-08
     9.571141087415e-01 2.546640625000e+02 1.962966600181e-01-8.135639545522e-09
    -3.251921169855e-10 4.578404994660e-09-2.000000000000e+00 3.000000000000e+00
     2.800000000000e+01 4.000000000000e+00-8.847564458847e-09 7.000000000000e+00
    -2.910383045673e-10 5.646143108606e-09-5.529727786779e-10-6.693881005049e-10
     1.938240000000e+05 2.428000000000e+03 0.000000000000e+00                   
G14 2026 07 21 05 50 24 7.499761122745e-04 2.593480985524e-13 0.000000000000e+00
    -2.451896667480e-03 6.748828125000e+01 4.874488756308e-09-2.862347758742e+00
     3.377906978130e-06 7.362615899183e-03 9.466893970966e-06 5.153559374317e+03
     1.152000000000e+05-6.146728992462e-08-1.524144717008e+00-1.182779669762e-07
     9.416378201149e-01 1.868945312500e+02-2.680703005217e+00-8.281895637675e-09
     1.892935991239e-11 4.874488756308e-09-2.000000000000e+00 3.000000000000e+00
     3.100000000000e+01 4.000000000000e+00-7.916241884232e-09 7.000000000000e+00
    -2.619344741106e-10 5.005858838558e-09-1.455191522837e-09-1.076841726899e-09
     1.938240000000e+05 2.428000000000e+03 0.000000000000e+00                   
E06 2026 07 21 05 50 35-3.006262704730e-04-5.059064278612e-12 0.000000000000e+00
     6.100000000000e+01-3.984375000000e+01 3.304423356782e-09 3.549919878469e-01
    -1.901760697365e-06 5.052095511928e-04 5.543231964111e-06 5.440611343384e+03
     1.890000000000e+05 2.793967723846e-08 2.852084682558e+00-2.607703208923e-08
     9.626597203099e-01 2.187812500000e+02 1.385861648986e+00-5.724167005961e-09
     1.982225424788e-10 1.000000000000e+00 1.404000000000e+03                   
     1.070000000000e+02 0.000000000000e+00 2.328306436539e-09 3.725290298462e-09
     1.938350000000e+05                                                         
E09 2026 07 21 05 50 35-3.009574138559e-04 1.782041181286e-11 3.469446951954e-18
     6.700000000000e+01-4.009375000000e+01 3.096557555480e-09 1.413060599349e+00
    -1.898035407066e-06 4.996658535674e-04 5.727633833885e-06 5.440615345001e+03
     1.926000000000e+05 3.539025783539e-08 2.855569492400e+00-2.607703208923e-08
     9.750916391093e-01 2.216250000000e+02 3.875447575604e-01-5.606662111410e-09
     1.785788670980e-10 1.000000000000e+00 1.404000000000e+03                   
     1.070000000000e+02 0.000000000000e+00 6.984919309616e-10 9.313225746155e-10
     1.938350000000e+05                                                         
E21 2026 07 21 05 50 35-7.585730636492e-04-2.799538378895e-12 0.000000000000e+00
     6.500000000000e+01 8.396875000000e+01 3.230134548069e-09-2.817542582712e+00
     4.041939973831e-06 1.707910560071e-04 8.506700396538e-06 5.440617650986e+03
     1.914000000000e+05-4.842877388000e-08-1.329062545247e+00 2.048909664154e-08
     9.606204812646e-01 1.580937500000e+02-1.560986084467e+00-5.564160341041e-09
     9.714690370133e-11 1.000000000000e+00 1.404000000000e+03                   
     1.070000000000e+02 0.000000000000e+00 6.984919309616e-10 9.313225746155e-10
     1.938350000000e+05                                                         
E19 2026 07 21 05 50 35 3.108536882792e-03 2.434319412714e-11 0.000000000000e+00
     6.700000000000e+01-4.487500000000e+01 3.063699043934e-09-2.639674252731e+00
    -2.019107341766e-06 2.428862499073e-04 5.478039383888e-06 5.440618864059e+03
     1.926000000000e+05 2.793967723846e-08 2.860512423413e+00 6.332993507385e-08
     9.747241219036e-01 2.307187500000e+02-2.399339636755e-01-5.589518540169e-09
     2.053656971627e-10 1.000000000000e+00 1.404000000000e+03                   
     1.070000000000e+02 0.000000000000e+00-4.423782229424e-09-4.423782229424e-09
     1.938350000000e+05                                                         
E14 2026 07 21 05 50 54 3.965781535953e-03 1.531361704110e-10 5.204170427930e-18
     6.700000000000e+01-4.531250000000e+01 6.439196789821e-09-1.549619791770e+00
    -3.667548298836e-06 1.682801106945e-01 3.371387720108e-06 5.289352727890e+03
     1.926000000000e+05 5.215406417847e-07-4.466523196962e-01-4.077330231667e-06
     8.527879660189e-01 2.378750000000e+02-3.116616276629e+00-8.709291348372e-09
     6.760995908332e-10 5.160000000000e+02 1.404000000000e+03                   
     1.070000000000e+02 1.440000000000e+02-2.793967723846e-09-3.492459654808e-09
     1.938540000000e+05                                                         
E28 2026 07 21 05 50 54-6.031838711351e-05-2.856381797756e-12 0.000000000000e+00
     6.500000000000e+01-4.243750000000e+01 3.455143920613e-09 8.353221417201e-01
    -1.924112439156e-06 2.854741178453e-04 5.289912223816e-06 5.440611021042e+03
     1.914000000000e+05 6.146728992462e-08 2.870114239413e+00 1.490116119385e-08
     9.490537205140e-01 2.218437500000e+02 1.961960943480e+00-5.815599385915e-09
     2.028655930234e-10 5.160000000000e+02 1.404000000000e+03                   
     1.070000000000e+02 0.000000000000e+00 9.313225746155e-10 1.862645149231e-09
     1.938540000000e+05                                                         
E26 2026 07 21 05 50 54 3.675359766930e-04 1.092814727599e-11 0.000000000000e+00
     6.700000000000e+01-4.100000000000e+01 2.632966816494e-09 2.535695606449e+00
    -2.034008502960e-06 9.037612471730e-05 5.930662155151e-06 5.440606004715e+03
     1.926000000000e+05-4.284083843231e-08 7.665773053760e-01-2.793967723846e-08
     9.909316216053e-01 2.230312500000e+02-2.596254159493e+00-5.499157633417e-09
    -2.896549224330e-10 5.160000000000e+02 1.404000000000e+03                   
     1.070000000000e+02 0.000000000000e+00-5.122274160385e-09-5.587935447693e-09
     1.938540000000e+05                                                         
E04 2026 07 21 05 50 54-1.221743295901e-04 3.355182798259e-11 0.000000000000e+00
     6.700000000000e+01-4.246875000000e+01 3.155488581622e-09 2.647742845734e+00
    -1.899898052216e-06 2.930443733931e-04 5.640089511871e-06 5.440609802246e+03
     1.926000000000e+05 4.284083843231e-08 2.852413615299e+00 9.313225746155e-09
     9.693544913340e-01 2.223750000000e+02-6.753111758211e-02-5.659521456071e-09
     2.039370662260e-10 5.160000000000e+02 1.404000000000e+03                   
     1.070000000000e+02 0.000000000000e+00-4.190951585770e-09-4.656612873077e-09
     1.938540000000e+05                                                         
E31 2026 07 21 05 50 54-1.580856041983e-04-2.941646926047e-12 0.000000000000e+00
     6.700000000000e+01 1.054687500000e+02 3.200490456131e-09 1.895807256896e+00
     4.790723323822e-06 3.424333408475e-04 8.957460522652e-06 5.440615015030e+03
     1.926000000000e+05 1.303851604462e-08-1.329148469740e+00-7.450580596924e-09
     9.605969414498e-01 1.503437500000e+02-1.400542074336e+00-5.552016978078e-09
     5.500229106620e-11 5.160000000000e+02 1.404000000000e+03                   
     1.070000000000e+02 0.000000000000e+00 3.492459654808e-09 4.190951585770e-09
     1.938540000000e+05                                                         
E23 2026 07 21 05 50 54-4.269339842722e-05-1.307398633799e-12 0.000000000000e+00
     6.100000000000e+01 1.003125000000e+02 3.242992226500e-09-2.724192371284e+00
     4.665926098824e-06 1.740616280586e-04 8.402392268181e-06 5.440616353989e+03
     1.890000000000e+05 4.284083843231e-08-1.332241047839e+00-7.450580596924e-09
     9.625504257002e-01 1.612500000000e+02-2.743935148576e+00-5.571303495725e-09
     3.785871982478e-11 5.160000000000e+02 1.404000000000e+03                   
     1.070000000000e+02 0.000000000000e+00 4.656612873077e-10 1.862645149231e-09
     1.938540000000e+05                                                         
E13 2026 07 21 05 50 55-5.992676597089e-05-9.094947017729e-13 0.000000000000e+00
     6.500000000000e+01-5.137500000000e+01 2.552963484034e-09 3.494213099087e-01
    -2.382323145866e-06 5.486141890287e-05 6.061047315598e-06 5.440605804443e+03
     1.914000000000e+05 5.587935447693e-09 7.700507088458e-01-1.117587089539e-08
     9.976519381048e-01 2.258750000000e+02 2.211795791887e-01-5.442369553680e-09
    -2.396528396456e-10 1.000000000000e+00 1.404000000000e+03                   
     1.070000000000e+02 0.000000000000e+00 3.958120942116e-09 4.190951585770e-09
     1.938550000000e+05                                                         
END OF FILE                                                 COMMENT
