     3.05           N: NAVIGATION       M: MIXED            RINEX VERSION / TYPE
PYRINEXCONV 0.1.2 ALDELTUNES            20260721 074110 UTC PGM / RUN BY / DATE
GAL    1.0175e+02  3.3203e-01  2.2858e-02             H 09  IONOSPHERIC CORR
GPSA   9.3132e-09  2.2352e-08  1.5199e-05  1.5140e-05 H 07  IONOSPHERIC CORR
GPSB   1.0035e+05  1.3107e+05  1.6712e+07  1.6318e+07 H 07  IONOSPHERIC CORR
BDSA   2.0489e-08  3.7253e-08 -5.9605e-07  1.0133e-06 H 39  IONOSPHERIC CORR
BDSB   1.3722e+05 -4.9152e+05  4.5875e+06 -4.0632e+06 H 39  IONOSPHERIC CORR
GAUT  6.5192580223e-09-2.664535259e-15 199200 1404   E09  0 TIME SYSTEM CORR
GPUT -3.2887328416e-09 2.242650510e-13 399900 2428   G07  0 TIME SYSTEM CORR
BDUT  0.0000000000e+00 0.000000000e+00 198000 1072   C39  0 TIME SYSTEM CORR
                                                            END OF HEADER
E23 2026 07 21 07 33 24-4.270131466910e-05-1.293187779083e-12 0.000000000000e+00
     7.100000000000e+01 9.150000000000e+01 3.186918462232e-09-1.973245510259e+00
     4.315748810768e-06 1.742112217471e-04 8.603557944298e-06 5.440618791580e+03
     1.950000000000e+05-1.490116119385e-08-1.332274857338e+00 4.284083843231e-08
     9.625505924729e-01 1.557812500000e+02-2.751027767486e+00-5.553445609015e-09
     8.857511808063e-11 5.160000000000e+02 1.404000000000e+03                   
     1.070000000000e+02 0.000000000000e+00 4.656612873077e-10 1.862645149231e-09
     2.000040000000e+05                                                         
E26 2026 07 21 07 33 24 3.675618208945e-04 1.091393642128e-11 0.000000000000e+00
     7.100000000000e+01-4.368750000000e+01 2.673325640458e-09 2.832396220489e+00
    -2.060085535049e-06 9.068509098142e-05 5.930662155151e-06 5.440605382919e+03
     1.950000000000e+05-1.303851604462e-08 7.665640615787e-01-6.146728992462e-08
     9.909307497061e-01 2.230000000000e+02-2.595413566764e+00-5.522730043874e-09
    -2.710827202548e-10 5.160000000000e+02 1.404000000000e+03                   
     1.070000000000e+02 0.000000000000e+00-5.122274160385e-09-5.587935447693e-09
     2.000040000000e+05                                                         
E31 2026 07 21 07 33 24-1.580996904522e-04-2.941646926047e-12 0.000000000000e+00
     7.500000000000e+01 1.003437500000e+02 3.213348134562e-09 2.492595178366e+00
     4.539266228676e-06 3.438881831244e-04 8.312985301018e-06 5.440611875534e+03
     1.974000000000e+05 2.048909664154e-08-1.329175236752e+00 2.235174179077e-08
     9.605971389437e-01 1.615312500000e+02-1.402247648100e+00-5.554159924483e-09
     7.571743964957e-11 5.160000000000e+02 1.404000000000e+03                   
     1.070000000000e+02 0.000000000000e+00 3.492459654808e-09 4.190951585770e-09
     2.000040000000e+05                                                         
G14 2026 07 21 07 33 54 7.499782368541e-04 2.273736754432e-13 0.000000000000e+00
     2.280000000000e+02 5.315625000000e+01 4.949491880489e-09-1.549798718355e+00
     2.620741724968e-06 7.365241763182e-03 8.642673492432e-06 5.153657085419e+03
     2.016000000000e+05 8.381903171539e-08-1.524218289353e+00-7.264316082001e-08
     9.416385018347e-01 2.009375000000e+02-2.680509337539e+00-8.118552456011e-09
     1.325055193867e-10 1.000000000000e+00 3.800000000000e+02 0.000000000000e+00
     2.000000000000e+00 0.000000000000e+00-7.916241884232e-09 9.960000000000e+02
     8.001360000000e+05 4.000000000000e+00                                      
G30 2026 07 21 07 33 54 3.026444464922e-04 1.330136001343e-11 0.000000000000e+00
     1.500000000000e+01-2.750000000000e+01 5.095569393776e-09-9.557148868469e-01
    -1.257285475731e-06 8.217835798860e-03 7.877126336098e-06 5.153681312561e+03
     2.015840000000e+05 9.499490261078e-08-2.597210036017e+00 1.918524503708e-07
     9.366267039532e-01 2.126875000000e+02-2.258902621550e+00-8.338204462542e-09
    -6.071681481333e-11 1.000000000000e+00 3.800000000000e+02 0.000000000000e+00
     2.000000000000e+00 0.000000000000e+00 4.190951585770e-09 1.500000000000e+01
     8.001360000000e+05 4.000000000000e+00                                      
G17 2026 07 21 07 33 54-1.762192696333e-04-6.025402399246e-12 0.000000000000e+00
     9.000000000000e+00 4.903125000000e+01 4.773770275265e-09 2.090283509201e+00
     2.602115273476e-06 1.261610374786e-02 4.317611455917e-06 5.153676527023e+03
     2.016000000000e+05 2.011656761169e-07-4.349826660654e-01-9.313225746155e-09
     9.574391947398e-01 2.891562500000e+02-1.098677207333e+00-8.113552247732e-09
    -1.753644474903e-10 1.000000000000e+00 3.800000000000e+02 0.000000000000e+00
     2.000000000000e+00 0.000000000000e+00-1.071020960808e-08 9.000000000000e+00
     8.001360000000e+05 4.000000000000e+00                                      
G22 2026 07 21 07 33 54 4.054326564074e-05 8.071765478235e-12 0.000000000000e+00
     9.100000000000e+01 6.240625000000e+01 4.572333313178e-09 2.703063429373e+00
     3.157183527946e-06 1.184571452904e-02 8.780509233475e-06 5.153722455978e+03
     2.016000000000e+05 1.806765794754e-07-1.447181204700e+00 1.471489667892e-07
     9.568464320374e-01 2.054375000000e+02-9.877782870562e-01-7.838897950136e-09
    -5.714523747137e-12 1.000000000000e+00 3.800000000000e+02 0.000000000000e+00
     2.000000000000e+00 0.000000000000e+00-1.117587089539e-08 9.100000000000e+01
     8.001360000000e+05 4.000000000000e+00                                      
G01 2026 07 21 07 33 54 2.170139923692e-04-9.663381206337e-12 0.000000000000e+00
     2.190000000000e+02-2.893750000000e+01 4.679480633437e-09 9.412020885020e-01
    -1.451000571251e-06 1.826636958867e-03 5.677342414856e-06 5.153604387283e+03
     2.016000000000e+05 3.539025783539e-08 6.292521861022e-01-4.656612873077e-08
     9.571109817541e-01 2.643437500000e+02 1.954505645234e-01-8.287130906552e-09
    -2.814402945465e-10 1.000000000000e+00 3.800000000000e+02 0.000000000000e+00
     2.000000000000e+00 0.000000000000e+00-8.847564458847e-09 7.310000000000e+02
     8.001360000000e+05 4.000000000000e+00                                      
G19 2026 07 21 07 33 54 7.038158364594e-04 4.547473508865e-13 0.000000000000e+00
     4.800000000000e+01 4.734375000000e+01 4.779127641278e-09-2.560077468131e+00
     2.495944499969e-06 1.176446687896e-02 4.906207323074e-06 5.153761194229e+03
     2.016000000000e+05-2.123415470123e-07-3.912187402651e-01-6.705522537231e-08
     9.566053621559e-01 2.855625000000e+02 3.029435360440e+00-8.179626428559e-09
    -3.428714248282e-11 1.000000000000e+00 3.800000000000e+02 0.000000000000e+00
     2.000000000000e+00 0.000000000000e+00-1.536682248116e-08 4.800000000000e+01
     8.001360000000e+05 4.000000000000e+00                                      
G07 2026 07 21 07 33 54-2.079373225570e-04-3.751665644813e-12 0.000000000000e+00
     9.800000000000e+01-2.146875000000e+01 4.875917387245e-09-6.454876172988e-01
    -8.624047040939e-07 2.093848225195e-02 8.288770914078e-06 5.153586673737e+03
     2.016000000000e+05-1.657754182816e-07-2.586142907141e+00 3.278255462646e-07
     9.513186556348e-01 2.203437500000e+02-1.955213505942e+00-8.485710606765e-09
    -2.071514858337e-11 1.000000000000e+00 3.800000000000e+02 0.000000000000e+00
     2.000000000000e+00 0.000000000000e+00-1.071020960808e-08 9.800000000000e+01
     8.001360000000e+05 4.000000000000e+00                                      
G02 2026 07 21 07 33 54 1.419833861291e-04 7.275957614183e-12 0.000000000000e+00
     2.500000000000e+01-2.075000000000e+01 4.609477717535e-09 2.343121696241e+00
    -9.033828973770e-07 1.689693063963e-02 4.844740033150e-06 5.153731908798e+03
     2.016000000000e+05 2.887099981308e-07 4.673759923375e-01 1.937150955200e-07
     9.620936456221e-01 2.829062500000e+02-7.358837523978e-01-8.076765001110e-09
    -3.868018261344e-10 1.000000000000e+00 3.800000000000e+02 0.000000000000e+00
     2.000000000000e+00 0.000000000000e+00-1.722946763039e-08 2.500000000000e+01
     8.001360000000e+05 4.000000000000e+00                                      
G20 2026 07 21 07 33 54 2.369456924498e-04 1.182343112305e-11 0.000000000000e+00
     6.700000000000e+01-1.690625000000e+01 4.573761944115e-09-1.581461343379e+00
    -7.990747690201e-07 1.907509984449e-03 6.332993507385e-06 5.153612205505e+03
     2.016000000000e+05 7.264316082001e-08 2.629693153275e+00 5.215406417847e-08
     9.620825347593e-01 2.575000000000e+02-1.761722403152e+00-8.131052976708e-09
     2.421529437849e-10 1.000000000000e+00 3.800000000000e+02 0.000000000000e+00
     2.000000000000e+00 0.000000000000e+00-6.984919309616e-09 6.700000000000e+01
     8.001360000000e+05 4.000000000000e+00                                      
E06 2026 07 21 07 40 35-3.006777842529e-04-5.030642569182e-12 0.000000000000e+00
     7.800000000000e+01-3.831250000000e+01 3.220848446980e-09 1.618063065107e+00
    -1.778826117516e-06 5.049717146903e-04 5.487352609634e-06 5.440612974167e+03
     1.992000000000e+05 6.705522537231e-08 2.852026266776e+00 1.117587089539e-08
     9.626618386153e-01 2.241562500000e+02 1.387345279060e+00-5.705594803782e-09
     1.892935991239e-10 1.000000000000e+00 1.404000000000e+03                   
     1.070000000000e+02 0.000000000000e+00 2.328306436539e-09 3.725290298462e-09
     2.004350000000e+05                                                         
G14 2026 07 21 07 40 48 7.499779458158e-04 2.557953848736e-13 0.000000000000e+00
    -3.282070159912e-03 5.808593750000e+01 4.971457081142e-09-1.812418756870e+00
     2.956017851830e-06 7.364144199528e-03 8.785165846348e-06 5.153566057914e+03
     1.152000000000e+05 6.984919309616e-08-1.524203728198e+00-6.146728992462e-08
     9.416382626476e-01 2.006640625000e+02-2.680439830644e+00-8.221535980596e-09
     1.428630936784e-10 4.971457081142e-09-2.000000000000e+00 3.000000000000e+00
     3.100000000000e+01 4.000000000000e+00-7.916241884232e-09 7.000000000000e+00
    -2.619344741106e-10 5.005858838558e-09-1.455191522837e-09-1.076841726899e-09
     2.004480000000e+05 2.428000000000e+03 0.000000000000e+00                   
G01 2026 07 21 07 40 48 2.170315419789e-04-9.634959496907e-12 0.000000000000e+00
    -1.117229461670e-03-2.564843750000e+01 4.646443543024e-09 6.786723551877e-01
    -1.356936991215e-06 1.827183994465e-03 5.745328962803e-06 5.153617600205e+03
     1.746000000000e+05-9.313225746155e-10 6.292672102708e-01-3.259629011154e-08
     9.571115413203e-01 2.650117187500e+02 1.954233154798e-01-8.066708102822e-09
    -3.005482333260e-10 4.646443543024e-09-2.000000000000e+00 3.000000000000e+00
     2.900000000000e+01 4.000000000000e+00-8.847564458847e-09 7.000000000000e+00
    -2.910383045673e-10 5.646143108606e-09-5.529727786779e-10-6.693881005049e-10
     2.004480000000e+05 2.428000000000e+03 0.000000000000e+00                   
G30 2026 07 21 07 40 48 3.026168851648e-04 1.329070187239e-11 0.000000000000e+00
     3.701686859131e-03-2.192968750000e+01 5.104498337130e-09-1.259778767688e+00
    -1.246109604836e-06 8.218940289225e-03 7.903203368187e-06 5.153542171372e+03
     1.980000000000e+05 1.452863216400e-07-2.597192824786e+00 1.229345798492e-07
     9.366270726085e-01 2.134453125000e+02-2.258804938121e+00-8.059743527005e-09
    -4.518045337580e-11 5.104498337130e-09-2.000000000000e+00 2.000000000000e+00
     2.600000000000e+01 4.000000000000e+00 4.190951585770e-09 7.000000000000e+00
    -1.513399183750e-09-3.259629011154e-09 2.328306436539e-09 3.230525180697e-09
     2.004480000000e+05 2.428000000000e+03 0.000000000000e+00                   
G17 2026 07 21 07 40 48-1.762084430084e-04-6.036060540282e-12 0.000000000000e+00
     3.508567810059e-03 4.568359375000e+01 4.778770483544e-09 1.827803561184e+00
     2.356246113777e-06 1.261504000286e-02 4.746951162815e-06 5.153547111464e+03
     1.728000000000e+05 2.263113856316e-07-4.349681466035e-01-3.166496753693e-08
     9.574394507505e-01 2.844765625000e+02-1.098740390765e+00-8.205106724823e-09
    -1.607209803882e-10 4.778770483544e-09-2.000000000000e+00 3.000000000000e+00
     2.800000000000e+01 4.000000000000e+00-1.071020960808e-08 7.000000000000e+00
    -8.440110832453e-10 6.722984835505e-09 0.000000000000e+00 0.000000000000e+00
     2.004480000000e+05 2.428000000000e+03 0.000000000000e+00                   
G07 2026 07 21 07 40 48-2.079302503262e-04-3.755218358492e-12 0.000000000000e+00
     3.500461578369e-03-1.714453125000e+01 4.861273920143e-09-9.080759807124e-01
    -9.061768651009e-07 2.093952696305e-02 8.038245141506e-06 5.153635794120e+03
     1.161000000000e+05-8.288770914078e-08-2.586127494568e+00 4.023313522339e-07
     9.513190345306e-01 2.189101562500e+02-1.955181803776e+00-7.933309689100e-09
    -3.875161416028e-11 4.861273920143e-09-2.000000000000e+00 3.000000000000e+00
     3.100000000000e+01 4.000000000000e+00-1.071020960808e-08 7.000000000000e+00
    -9.313225746155e-10 6.984919309616e-09 0.000000000000e+00 0.000000000000e+00
     2.004480000000e+05 2.428000000000e+03 0.000000000000e+00                   
E23 2026 07 21 07 40 54-4.270701901987e-05-1.307398633799e-12 0.000000000000e+00
     7.800000000000e+01 8.084375000000e+01 3.119058492734e-09-1.445690880314e+00
     3.909692168236e-06 1.748371869326e-04 8.540228009224e-06 5.440621479034e+03
     1.992000000000e+05-3.352761268616e-08-1.332298430800e+00 0.000000000000e+00
     9.625510328112e-01 1.575312500000e+02-2.757885321794e+00-5.525230148013e-09
     1.071473202588e-10 5.160000000000e+02 1.404000000000e+03                   
     1.070000000000e+02 0.000000000000e+00 4.656612873077e-10 1.862645149231e-09
     2.004540000000e+05                                                         
E31 2026 07 21 07 40 54-1.581052201800e-04-2.955857780762e-12 0.000000000000e+00
     7.800000000000e+01 9.815625000000e+01 3.185846989029e-09 2.715924341585e+00
     4.481524229050e-06 3.434154205024e-04 8.406117558479e-06 5.440612810135e+03
     1.992000000000e+05 9.313225746155e-09-1.329185304555e+00 3.166496753693e-08
     9.605972442738e-01 1.582812500000e+02-1.402419931574e+00-5.551302662610e-09
     8.393206753608e-11 5.160000000000e+02 1.404000000000e+03                   
     1.070000000000e+02 0.000000000000e+00 3.492459654808e-09 4.190951585770e-09
     2.004540000000e+05                                                         
E26 2026 07 21 07 40 54 3.676071064547e-04 1.088551471184e-11 0.000000000000e+00
     7.800000000000e+01-5.471875000000e+01 2.763329389475e-09-2.942803645641e+00
    -2.469867467880e-06 9.228044655174e-05 5.507841706276e-06 5.440601449966e+03
     1.992000000000e+05 6.146728992462e-08 7.665406417231e-01-3.539025783539e-08
     9.909293774889e-01 2.342500000000e+02-2.582702119430e+00-5.546659612065e-09
    -2.246522148093e-10 5.160000000000e+02 1.404000000000e+03                   
     1.070000000000e+02 0.000000000000e+00-5.122274160385e-09-5.587935447693e-09
     2.004540000000e+05                                                         
C36 2026 07 21 07 40 54 2.596172271296e-04-4.344080650753e-12 0.000000000000e+00
     1.000000000000e+00 2.029687500000e+01 4.116242886610e-09 2.813483846701e+00
     8.526258170605e-07 8.166865445673e-04 9.575858712196e-06 5.282652051926e+03
     1.980000000000e+05 4.330649971962e-08-2.018552131450e+00 4.177447408438e-05
     9.451398982419e-01 1.571406250000e+02-1.024274214938e+00 1.619542460444e-07
    -5.571660653459e-11                    1.072000000000e+03                   
     0.000000000000e+00 0.000000000000e+00-9.639188647270e-08-9.639188647270e-08
     2.004540000000e+05 1.000000000000e+00                                      
C11 2026 07 21 07 40 54-7.889897096902e-04-2.163691448231e-11 0.000000000000e+00
     1.000000000000e+00-1.296875000000e+00 4.219104314058e-09 7.275531449145e-01
    -9.778887033463e-08 1.695689279586e-04 3.912486135960e-06 5.282639120102e+03
     1.980000000000e+05-1.490116119385e-08 7.442952387699e-02-5.724234506488e-05
     9.504535049007e-01 2.746093750000e+02-6.714628264476e-01 7.793967507174e-07
    -2.692969315838e-10                    1.072000000000e+03                   
     0.000000000000e+00 0.000000000000e+00 1.350417733192e-08 1.350417733192e-08
     2.004540000000e+05 1.000000000000e+00                                      
C29 2026 07 21 07 40 54 6.337993545458e-04 5.261568958304e-12 0.000000000000e+00
     1.000000000000e+00 5.093750000000e+00 4.320179952836e-09-2.379960859814e+00
     2.305023372173e-07 2.190225059167e-04 3.799330443144e-06 5.282656166077e+03
     1.980000000000e+05-4.516914486885e-08 3.428384652839e-02 3.858096897602e-05
     9.455645950636e-01 2.766093750000e+02 2.117107303000e+00-2.474407354713e-06
    -2.221521106700e-10                    1.072000000000e+03                   
     0.000000000000e+00 0.000000000000e+00 9.313225746155e-10 9.313225746155e-10
     2.004540000000e+05 1.000000000000e+00                                      
C27 2026 07 21 07 40 54 6.609214469790e-04 4.802380715319e-12 0.000000000000e+00
     1.000000000000e+00 6.687500000000e+00 4.325894476583e-09-3.716233607475e-01
     4.447065293789e-07 6.354914512485e-04 3.829598426819e-06 5.282660697937e+03
     1.980000000000e+05 1.117587089539e-07 7.562960531663e-02 1.548742875457e-05
     9.479096922435e-01 2.743593750000e+02 1.689972229830e+00 1.952565617910e-06
    -2.017941198208e-10                    1.072000000000e+03                   
     0.000000000000e+00 0.000000000000e+00-2.002343535423e-08-2.002343535423e-08
     2.004540000000e+05 1.000000000000e+00                                      
C39 2026 07 21 07 40 54-9.576763259247e-04 8.676614982051e-12 0.000000000000e+00
     1.000000000000e+00 2.046875000000e+01 4.024810506656e-09 9.803122114928e-01
     7.892958819866e-07 5.729438271374e-04 1.029064878821e-05 5.282663578033e+03
     1.980000000000e+05 4.749745130539e-08-2.011448828849e+00 5.195522680879e-05
     9.490813360186e-01 1.494375000000e+02 6.047171422677e-02 1.107045041441e-06
    -1.150047904111e-10                    1.072000000000e+03                   
     0.000000000000e+00 0.000000000000e+00 8.987262845039e-08 8.987262845039e-08
     2.004540000000e+05 1.000000000000e+00                                      
E04 2026 07 21 07 41 05-1.219931873493e-04 3.358024969202e-11 0.000000000000e+00
     7.600000000000e+01-4.125000000000e+01 3.120129965937e-09-2.965667034930e+00
    -1.860782504082e-06 2.925973385572e-04 5.532056093216e-06 5.440610670090e+03
     1.980000000000e+05 5.029141902924e-08 2.852383076884e+00 3.539025783539e-08
     9.693557114077e-01 2.262500000000e+02-6.783678846310e-02-5.638806307488e-09
     1.964367538078e-10 1.000000000000e+00 1.404000000000e+03                   
     1.070000000000e+02 0.000000000000e+00-4.190951585770e-09-4.656612873077e-09
     2.004650000000e+05                                                         
E09 2026 07 21 07 41 24-3.008393687196e-04 1.796252036002e-11 3.469446951954e-18
     7.800000000000e+01-4.043750000000e+01 3.062627570731e-09 2.231102926804e+00
    -1.855194568634e-06 4.994859918952e-04 5.761161446571e-06 5.440615755081e+03
     1.992000000000e+05 5.774199962616e-08 2.855532483498e+00 1.117587089539e-08
     9.750928474796e-01 2.231875000000e+02 3.877405252578e-01-5.604876322739e-09
     1.696499237431e-10 5.160000000000e+02 1.404000000000e+03                   
     1.070000000000e+02 0.000000000000e+00 6.984919309616e-10 9.313225746155e-10
     2.004840000000e+05                                                         
E33 2026 07 21 07 41 24-2.518517430872e-05-1.918465386552e-12 0.000000000000e+00
     7.800000000000e+01-4.137500000000e+01 2.569749897541e-09 3.016262805716e+00
    -2.013519406319e-06 1.653057988733e-04 5.841255187988e-06 5.440609649658e+03
     1.992000000000e+05-6.146728992462e-08 7.699806233665e-01-5.587935447693e-08
     9.976668979051e-01 2.278750000000e+02-3.028942813478e+00-5.452727127972e-09
    -2.860833450911e-10 5.160000000000e+02 1.404000000000e+03                   
     1.070000000000e+02 0.000000000000e+00-4.423782229424e-09-4.889443516731e-09
     2.004840000000e+05                                                         
E31 2026 07 21 07 41 24-1.581068499945e-04-2.955857780762e-12 0.000000000000e+00
     7.900000000000e+01 9.656250000000e+01 3.174060783801e-09 2.790505833392e+00
     4.427507519722e-06 3.431774675846e-04 8.452683687210e-06 5.440613298416e+03
     1.998000000000e+05 3.725290298462e-09-1.329188659026e+00 3.166496753693e-08
     9.605972852355e-01 1.569687500000e+02-1.402615765102e+00-5.549516873939e-09
     8.678932940965e-11 5.160000000000e+02 1.404000000000e+03                   
     1.070000000000e+02 0.000000000000e+00 3.492459654808e-09 4.190951585770e-09
     2.004840000000e+05                                                         
E26 2026 07 21 07 41 24 3.676136257127e-04 1.087130385713e-11 0.000000000000e+00
     7.900000000000e+01-5.521875000000e+01 2.774758436969e-09-2.871000083123e+00
    -2.488493919373e-06 9.246636182070e-05 5.410984158516e-06 5.440600854874e+03
     1.998000000000e+05 6.332993507385e-08 7.665372828632e-01-2.421438694000e-08
     9.909292092533e-01 2.366875000000e+02-2.580120295772e+00-5.547373927534e-09
    -2.182233755938e-10 5.160000000000e+02 1.404000000000e+03                   
     1.070000000000e+02 0.000000000000e+00-5.122274160385e-09-5.587935447693e-09
     2.004840000000e+05                                                         
E23 2026 07 21 07 41 24-4.270783392712e-05-1.321609488514e-12 0.000000000000e+00
     7.900000000000e+01 8.090625000000e+01 3.114415442190e-09-1.371325686796e+00
     3.920868039131e-06 1.748383510858e-04 8.547678589821e-06 5.440621475220e+03
     1.998000000000e+05-2.980232238770e-08-1.332301779420e+00-5.587935447693e-09
     9.625511103459e-01 1.575937500000e+02-2.757865455366e+00-5.520944255203e-09
     1.082187934614e-10 5.160000000000e+02 1.404000000000e+03                   
     1.070000000000e+02 0.000000000000e+00 4.656612873077e-10 1.862645149231e-09
     2.004840000000e+05                                                         
END OF FILE                                                 COMMENT
