     3.05           N: NAVIGATION       M: MIXED            RINEX VERSION / TYPE
PYRINEXCONV 0.1.2 ALDELTUNES            20260720 234936 UTC PGM / RUN BY / DATE
GAL    1.0300e+02  3.0469e-01  2.1057e-02             X 27  IONOSPHERIC CORR
GPSA   9.3132e-09  2.2352e-08  1.5199e-05  1.5140e-05 X 01  IONOSPHERIC CORR
GPSB   1.0035e+05  1.3107e+05  1.6712e+07  1.6318e+07 X 01  IONOSPHERIC CORR
BDSA   1.9558e-08  2.9802e-08 -5.9605e-07  1.0133e-06 X 25  IONOSPHERIC CORR
BDSB   1.4131e+05 -7.5366e+05  5.9638e+06 -4.9152e+06 X 25  IONOSPHERIC CORR
GAUT  7.4505805969e-09-2.664535259e-15 171000 1404   E27  0 TIME SYSTEM CORR
GPUT -3.6088749766e-09 1.702193941e-12 342000 2428   G01  0 TIME SYSTEM CORR
BDUT  0.0000000000e+00 0.000000000e+00 169200 1072   C25  0 TIME SYSTEM CORR
                                                            END OF HEADER
E29 2026 07 20 23 40 54-2.271306002513e-04-3.623767952377e-12 0.000000000000e+00
     3.000000000000e+01-4.193750000000e+01 3.459072655689e-09-1.630714782959e-02
    -1.979991793633e-06 2.006179420277e-04 5.550682544708e-06 5.440610366821e+03
     1.704000000000e+05 5.587935447693e-09 2.852222135415e+00 2.048909664154e-08
     9.627371540268e-01 2.198750000000e+02 1.415674608667e+00-5.758454148443e-09
     2.032227507576e-10 5.160000000000e+02 1.404000000000e+03                   
     1.070000000000e+02 0.000000000000e+00-3.259629011154e-09-3.026798367500e-09
     1.716540000000e+05                                                         
E27 2026 07 20 23 40 54-1.049681508448e-03-1.061550847226e-11 0.000000000000e+00
     3.000000000000e+01 1.190312500000e+02 3.176918045674e-09 9.727910614524e-01
     5.476176738739e-06 2.439047675580e-04 8.620321750641e-06 5.440618940353e+03
     1.704000000000e+05 1.490116119385e-08-1.328983828551e+00-1.490116119385e-08
     9.605922571861e-01 1.503437500000e+02-8.721138731005e-01-5.615591054765e-09
    -5.750239520557e-11 5.160000000000e+02 1.404000000000e+03                   
     1.070000000000e+02 0.000000000000e+00 6.984919309616e-10 9.313225746155e-10
     1.716540000000e+05                                                         
E26 2026 07 20 23 40 54 3.672941820696e-04 1.081446043827e-11 0.000000000000e+00
     3.000000000000e+01-6.515625000000e+01 2.474031624776e-09-2.196196696408e-01
    -2.918764948845e-06 9.196647442877e-05 7.124617695808e-06 5.440602479935e+03
     1.704000000000e+05 2.235174179077e-08 7.666973699886e-01 1.043081283569e-07
     9.909374747405e-01 2.005312500000e+02-2.593200140989e+00-5.448441235161e-09
    -1.878649681871e-10 5.160000000000e+02 1.404000000000e+03                   
     1.070000000000e+02 0.000000000000e+00-4.889443516731e-09-5.355104804039e-09
     1.716540000000e+05                                                         
E07 2026 07 20 23 40 54-7.846049265936e-05-2.557953848736e-12 0.000000000000e+00
     3.000000000000e+01-4.956250000000e+01 3.370854695343e-09 2.007864597631e+00
    -2.186745405197e-06 4.222948336974e-04 5.595386028290e-06 5.440616504669e+03
     1.704000000000e+05-2.793967723846e-08 2.852487918371e+00-1.117587089539e-08
     9.693513840960e-01 2.236875000000e+02 1.826138226444e-01-5.682379551060e-09
     1.978653847446e-10 5.160000000000e+02 1.404000000000e+03                   
     1.070000000000e+02 0.000000000000e+00 4.423782229424e-09 4.889443516731e-09
     1.716540000000e+05                                                         
C23 2026 07 20 23 40 54-4.541791277006e-04 3.907985046681e-14 0.000000000000e+00
     1.000000000000e+00 1.429687500000e+01 4.164459180726e-09 1.148017000042e+00
     6.360933184624e-07 3.784405998886e-04 1.046480610967e-05 5.282651235580e+03
     1.692000000000e+05-1.769512891769e-08-2.018262075757e+00 3.285286948085e-05
     9.436871459804e-01 1.366406250000e+02-8.788774861236e-01 4.459432181822e-07
    -3.046555472693e-10                    1.072000000000e+03                   
     0.000000000000e+00 0.000000000000e+00 1.024454832077e-07 1.024454832077e-07
     1.716540000000e+05 1.000000000000e+00                                      
C41 2026 07 20 23 40 54-9.488258510828e-04-2.057909398445e-12 0.000000000000e+00
     1.000000000000e+00-1.204687500000e+01 3.425142670940e-09-2.877475890421e+00
    -5.415640771389e-07 1.458183396608e-03 7.334165275097e-06 5.282628391266e+03
     1.692000000000e+05 2.887099981308e-08 2.179947349934e+00-5.907379090786e-06
     9.876127929856e-01 2.237656250000e+02-1.038442234213e+00 1.654496416417e-06
     4.603763193788e-10                    1.072000000000e+03                   
     0.000000000000e+00 0.000000000000e+00-1.117587089539e-07-1.117587089539e-07
     1.716540000000e+05 1.000000000000e+00                                      
C32 2026 07 20 23 40 54-9.033475071192e-04 1.912248137614e-12 0.000000000000e+00
     1.000000000000e+00-1.401562500000e+01 3.381926585103e-09 1.584489422882e+00
    -8.521601557732e-07 5.076674278826e-04 7.350929081440e-06 5.282630786896e+03
     1.692000000000e+05 5.774199962616e-08 2.177693411569e+00-5.939975380898e-06
     9.887576039173e-01 2.250312500000e+02-4.962554157157e-02-5.456866586111e-07
     4.364467511876e-10                    1.072000000000e+03                   
     0.000000000000e+00 0.000000000000e+00-3.818422555923e-08-3.818422555923e-08
     1.716540000000e+05 1.000000000000e+00                                      
C25 2026 07 20 23 40 54 8.136995602399e-04-9.107381515605e-12 0.000000000000e+00
     1.000000000000e+00 1.839062500000e+01 4.185531487044e-09 3.842627637551e-01
     1.010484993458e-06 5.762433866039e-04 1.037493348122e-05 5.282667985916e+03
     1.692000000000e+05 7.962808012962e-08-2.040907958386e+00 1.375516876578e-05
     9.453155990920e-01 1.392812500000e+02 6.206429717224e-01 2.297997506534e-06
    -2.632252501025e-10                    1.072000000000e+03                   
     0.000000000000e+00 0.000000000000e+00 1.862645149231e-09 1.862645149231e-09
     1.716540000000e+05 1.000000000000e+00                                      
E26 2026 07 20 23 43 55 3.673008177429e-04 1.082867129298e-11 0.000000000000e+00
     3.100000000000e+01-6.321875000000e+01 2.465459839156e-09-1.466214121475e-01
    -2.823770046234e-06 9.220628999174e-05 7.174909114838e-06 5.440603017807e+03
     1.710000000000e+05 7.450580596924e-09 7.666941266992e-01 1.043081283569e-07
     9.909374220754e-01 1.994687500000e+02-2.591812778240e+00-5.442726711414e-09
    -1.960795960737e-10 1.000000000000e+00 1.404000000000e+03                   
     1.070000000000e+02 0.000000000000e+00-4.889443516731e-09-5.355104804039e-09
     1.718350000000e+05                                                         
E19 2026 07 20 23 47 05 3.107951488346e-03 2.410160959698e-11 0.000000000000e+00
     2.700000000000e+01-4.056250000000e+01 3.285493996870e-09 6.700663307008e-01
    -1.993030309677e-06 2.444363199174e-04 5.826354026794e-06 5.440615125656e+03
     1.686000000000e+05-4.284083843231e-08 2.860647537064e+00-4.097819328308e-08
     9.747192006471e-01 2.257500000000e+02-2.419013792948e-01-5.610948004220e-09
     1.692927660089e-10 1.000000000000e+00 1.404000000000e+03                   
     1.070000000000e+02 0.000000000000e+00-4.190951585770e-09-4.423782229424e-09
     1.720250000000e+05                                                         
G28 2026 07 20 23 48 00-4.659901314881e-04 1.087130385713e-11 0.000000000000e+00
     4.796981811523e-04-3.102343750000e+01 4.722696719275e-09 1.830788510936e+00
    -1.540407538414e-06 5.171363591217e-04 8.629634976387e-06 5.153601217573e+03
     1.107000000000e+05 1.061707735062e-07-2.610038813039e+00 1.862645149231e-09
     9.622435991140e-01 2.124648437500e+02-3.117150096899e-01-8.267430749440e-09
    -2.426886803862e-10 4.722696719275e-09-2.000000000000e+00 3.000000000000e+00
     3.000000000000e+01 4.000000000000e+00-9.313225746155e-09 7.000000000000e+00
    -3.492459654808e-10 5.966285243630e-09-7.566995918751e-10-6.693881005049e-10
     1.720800000000e+05 2.428000000000e+03 0.000000000000e+00                   
E33 2026 07 20 23 48 05-2.513040089980e-05-1.989519660128e-12 0.000000000000e+00
     3.100000000000e+01-6.984375000000e+01 2.432601327610e-09-4.827619582076e-01
    -3.198161721230e-06 1.663656439632e-04 6.921589374542e-06 5.440605134964e+03
     1.710000000000e+05 8.195638656616e-08 7.701326863862e-01 2.235174179077e-08
     9.976740588891e-01 2.083750000000e+02-3.026025580740e+00-5.476299538429e-09
    -1.842933908452e-10 1.000000000000e+00 1.404000000000e+03                   
     1.070000000000e+02 0.000000000000e+00-4.190951585770e-09-4.656612873077e-09
     1.720850000000e+05                                                         
E30 2026 07 20 23 49 35-1.275924907532e-03-3.971933892899e-11 0.000000000000e+00
     2.500000000000e+01 1.072812500000e+02 3.258350009071e-09-4.525046708073e-02
     5.045905709267e-06 2.124481834471e-04 8.385628461838e-06 5.440624414444e+03
     1.674000000000e+05 2.980232238770e-08-1.327277429701e+00 1.676380634308e-08
     9.583802767739e-01 1.559687500000e+02 5.253313294728e-01-5.640592096159e-09
    -4.107313943255e-11 1.000000000000e+00 1.404000000000e+03                   
     1.070000000000e+02 0.000000000000e+00 6.984919309616e-10 9.313225746155e-10
     1.721750000000e+05                                                         
E21 2026 07 20 23 49 35-7.585140410811e-04-2.827960088325e-12 0.000000000000e+00
     3.000000000000e+01 1.150937500000e+02 3.159774474433e-09 8.572248956120e-01
     5.146488547325e-06 1.701257424429e-04 9.587034583092e-06 5.440615518570e+03
     1.704000000000e+05 1.303851604462e-08-1.328944024013e+00 7.450580596924e-09
     9.606212609999e-01 1.338125000000e+02-1.556055263490e+00-5.563446025572e-09
    -5.143071372424e-11 1.000000000000e+00 1.404000000000e+03                   
     1.070000000000e+02 0.000000000000e+00 1.164153218269e-09 1.164153218269e-09
     1.721750000000e+05                                                         
E27 2026 07 20 23 49 35-1.049687853083e-03-1.061550847226e-11 0.000000000000e+00
     3.100000000000e+01 1.170000000000e+02 3.190847197308e-09 1.048181345075e+00
     5.412846803665e-06 2.439275849611e-04 8.620321750641e-06 5.440618457794e+03
     1.710000000000e+05 1.676380634308e-08-1.328987202040e+00-1.676380634308e-08
     9.605922030581e-01 1.503750000000e+02-8.731192138113e-01-5.617734001170e-09
    -5.571660653459e-11 1.000000000000e+00 1.404000000000e+03                   
     1.070000000000e+02 0.000000000000e+00 6.984919309616e-10 9.313225746155e-10
     1.721750000000e+05                                                         
E29 2026 07 20 23 49 35-2.271328121424e-04-3.623767952377e-12 0.000000000000e+00
     3.100000000000e+01-4.246875000000e+01 3.453000974208e-09 5.784389496183e-02
    -1.991167664528e-06 2.006753347814e-04 5.556270480156e-06 5.440610511780e+03
     1.710000000000e+05 1.862645149231e-09 2.852218658059e+00 2.048909664154e-08
     9.627372695973e-01 2.195625000000e+02 1.415909342650e+00-5.756668359772e-09
     2.053656971627e-10 1.000000000000e+00 1.404000000000e+03                   
     1.070000000000e+02 0.000000000000e+00-3.259629011154e-09-3.026798367500e-09
     1.721750000000e+05                                                         
E07 2026 07 20 23 49 35-7.846206426620e-05-2.557953848736e-12 0.000000000000e+00
     3.100000000000e+01-4.956250000000e+01 3.377283534558e-09 2.082250599695e+00
    -2.184882760048e-06 4.222907591611e-04 5.593523383141e-06 5.440616510391e+03
     1.710000000000e+05-3.725290298462e-08 2.852484594622e+00 1.862645149231e-09
     9.693514572419e-01 2.237187500000e+02 1.826131643313e-01-5.694165756288e-09
     1.946509651369e-10 1.000000000000e+00 1.404000000000e+03                   
     1.070000000000e+02 0.000000000000e+00 4.423782229424e-09 4.889443516731e-09
     1.721750000000e+05                                                         
G31 2026 07 20 23 49 36-1.341225288343e-04 2.749800387392e-12 0.000000000000e+00
     2.326011657715e-03-2.828515625000e+01 4.916097632342e-09 7.455362175474e-02
    -1.364387571812e-06 1.091416960116e-02 8.775852620602e-06 5.153591537401e+03
     1.377000000000e+05-2.514570951462e-08-2.561067546217e+00 9.965151548386e-08
     9.550202831024e-01 2.088867187500e+02 9.765517140072e-01-8.029742277332e-09
    -2.834046620846e-10 4.916097632342e-09-2.000000000000e+00 3.000000000000e+00
     2.900000000000e+01 4.000000000000e+00-1.350417733192e-08 7.000000000000e+00
    -2.619344741106e-10 8.265487849712e-09 0.000000000000e+00 0.000000000000e+00
     1.721760000000e+05 2.428000000000e+03 0.000000000000e+00                   
G03 2026 07 20 23 49 36 3.643557138275e-04-1.891464762593e-11 0.000000000000e+00
     1.033020019531e-02-3.304687500000e+01 3.616579216470e-09 6.177080208528e-01
    -1.737847924232e-06 6.972287141252e-03 8.434988558292e-06 5.153456002673e+03
     1.620000000000e+05-5.308538675308e-08 1.621860325724e+00 8.381903171539e-09
     9.947573608484e-01 2.366328125000e+02 1.276869954759e+00-8.594051497362e-09
     2.469745731966e-10 3.616579216470e-09-2.000000000000e+00 2.000000000000e+00
     2.700000000000e+01 4.000000000000e+00 1.396983861923e-09 7.000000000000e+00
     5.529727786779e-10-2.008164301515e-09 1.862645149231e-09 5.005858838558e-09
     1.721760000000e+05 2.428000000000e+03 0.000000000000e+00                   
G32 2026 07 20 23 49 36 1.745324698277e-04 2.020072997766e-11 0.000000000000e+00
     2.517700195312e-04-2.041406250000e+01 4.596977196838e-09-1.729096652845e+00
    -9.573996067047e-07 9.457893262152e-03 6.184913218021e-06 5.153652258123e+03
     9.540000000000e+04 1.620501279831e-07 2.642518317620e+00 5.867332220078e-08
     9.696740006886e-01 2.641601562500e+02-1.972824286405e+00-8.356541604122e-09
     3.162631736306e-10 4.596977196838e-09-2.000000000000e+00 3.000000000000e+00
     3.100000000000e+01 4.000000000000e+00 9.313225746155e-10 7.000000000000e+00
    -2.910383045673e-10-1.891748979688e-09 8.614733815193e-09 9.051291272044e-09
     1.721760000000e+05 2.428000000000e+03 0.000000000000e+00                   
G26 2026 07 20 23 49 36-3.840841236524e-04-2.511768570912e-12 0.000000000000e+00
     8.203029632568e-03 6.044531250000e+01 5.322543133857e-09-5.525110636750e-01
     3.195367753506e-06 1.116683072178e-02 9.777024388313e-06 5.153641954247e+03
     1.152000000000e+05 5.401670932770e-08-1.639694619588e+00 1.639127731323e-07
     9.274905596475e-01 1.729140625000e+02 7.150743388593e-01-7.818126319821e-09
    -1.801860769019e-10 5.322543133857e-09-2.000000000000e+00 3.000000000000e+00
     3.000000000000e+01 4.000000000000e+00 6.519258022308e-09 7.000000000000e+00
    -8.440110832453e-10-4.190951585770e-09 5.820766091347e-09 5.878973752260e-09
     1.721760000000e+05 2.428000000000e+03 0.000000000000e+00                   
G01 2026 07 20 23 49 36 2.173086104449e-04-9.638512210586e-12 0.000000000000e+00
     2.908706665039e-05-3.956640625000e+01 4.438220583988e-09 2.760973339245e+00
    -2.084299921989e-06 1.825133396778e-03 6.031244993210e-06 5.153618823177e+03
     8.550000000000e+04 2.980232238770e-08 6.295022200142e-01 4.656612873077e-09
     9.571191572718e-01 2.614335937500e+02 1.954132462146e-01-8.128853548572e-09
    -1.601852437869e-10 4.438220583988e-09-2.000000000000e+00 3.000000000000e+00
     3.100000000000e+01 4.000000000000e+00-8.847564458847e-09 7.000000000000e+00
    -2.910383045673e-10 5.646143108606e-09-5.529727786779e-10-6.693881005049e-10
     1.721760000000e+05 2.428000000000e+03 0.000000000000e+00                   
END OF FILE                                                 COMMENT
