     3.05           N: NAVIGATION       M: MIXED            RINEX VERSION / TYPE
PYRINEXCONV 0.1.2 ALDELTUNES            20260721 054046 UTC PGM / RUN BY / DATE
GAL    1.0175e+02  3.3203e-01  2.2858e-02             F 06  IONOSPHERIC CORR
GPSA   9.3132e-09  2.2352e-08  1.5199e-05  1.5140e-05 F 09  IONOSPHERIC CORR
GPSB   1.0035e+05  1.3107e+05  1.6712e+07  1.6318e+07 F 09  IONOSPHERIC CORR
GAUT  6.5192580223e-09-2.664535259e-15 189000 1404   E06  0 TIME SYSTEM CORR
GPUT  5.5297277868e-10 1.020072915e-12 385200 2428   G09  0 TIME SYSTEM CORR
                                                            END OF HEADER
G01 2026 07 21 05 34 24 2.171008964069e-04-9.634959496907e-12 0.000000000000e+00
     4.054069519043e-03-2.614453125000e+01 4.578404994660e-09-3.724221023154e-01
    -1.356936991215e-06 1.825688523240e-03 6.320886313915e-06 5.153621011794e+03
     1.746000000000e+05 1.955777406693e-08 6.293266691133e-01 2.980232238770e-08
     9.571141087415e-01 2.546640625000e+02 1.962966600181e-01-8.135639545522e-09
    -3.251921169855e-10 4.578404994660e-09-2.000000000000e+00 3.000000000000e+00
     2.800000000000e+01 4.000000000000e+00-8.847564458847e-09 7.000000000000e+00
    -2.910383045673e-10 5.646143108606e-09-5.529727786779e-10-6.693881005049e-10
     1.928640000000e+05 2.428000000000e+03 0.000000000000e+00                   
E04 2026 07 21 05 37 24-1.222147839144e-04 3.353761712788e-11 0.000000000000e+00
     6.500000000000e+01-4.237500000000e+01 3.184418358092e-09 2.498943208547e+00
    -1.894310116768e-06 2.932238858193e-04 5.662441253662e-06 5.440609451294e+03
     1.914000000000e+05 3.725290298462e-09 2.852420559771e+00 9.313225746155e-09
     9.693541065866e-01 2.208437500000e+02-6.750283644980e-02-5.685951128402e-09
     2.035799084918e-10 5.160000000000e+02 1.404000000000e+03                   
     1.070000000000e+02 0.000000000000e+00-4.190951585770e-09-4.656612873077e-09
     1.930440000000e+05                                                         
G07 2026 07 21 05 37 36-2.079032128677e-04-3.755218358492e-12 0.000000000000e+00
    -5.875587463379e-03-2.107812500000e+01 4.738947396181e-09-1.958368274151e+00
    -1.118518412113e-06 2.093622175744e-02 8.556991815567e-06 5.153637853118e+03
     1.161000000000e+05 3.129243850708e-07-2.586070385172e+00 6.239861249924e-08
     9.513216685146e-01 2.053984375000e+02-1.955131948259e+00-8.543692256841e-09
     7.393165097859e-11 4.738947396181e-09-2.000000000000e+00 3.000000000000e+00
     3.100000000000e+01 4.000000000000e+00-1.071020960808e-08 7.000000000000e+00
    -9.313225746155e-10 6.984919309616e-09 0.000000000000e+00 0.000000000000e+00
     1.930560000000e+05 2.428000000000e+03 0.000000000000e+00                   
E09 2026 07 21 05 38 24-3.009788924828e-04 1.779199010343e-11 3.469446951954e-18
     6.500000000000e+01-3.956250000000e+01 3.100486290556e-09 1.264396900898e+00
    -1.905485987663e-06 4.996905336156e-04 5.727633833885e-06 5.440615230560e+03
     1.914000000000e+05 2.793967723846e-08 2.855576145751e+00-3.539025783539e-08
     9.750914211345e-01 2.215625000000e+02 3.874378753026e-01-5.600590429929e-09
     1.832219176426e-10 5.160000000000e+02 1.404000000000e+03                   
     1.070000000000e+02 0.000000000000e+00 6.984919309616e-10 9.313225746155e-10
     1.931040000000e+05                                                         
E19 2026 07 21 05 40 04 3.108522214461e-03 2.435740498186e-11 0.000000000000e+00
     6.600000000000e+01-4.462500000000e+01 3.056913046984e-09-2.713926456307e+00
    -2.009794116020e-06 2.428798470646e-04 5.485489964485e-06 5.440618928909e+03
     1.920000000000e+05 5.587935447693e-09 2.860515795439e+00 7.078051567078e-08
     9.747241014227e-01 2.305312500000e+02-2.400668317471e-01-5.579518123611e-09
     1.942938074027e-10 5.160000000000e+02 1.404000000000e+03                   
     1.070000000000e+02 0.000000000000e+00-4.423782229424e-09-4.423782229424e-09
     1.932040000000e+05                                                         
E13 2026 07 21 05 40 35-5.992676597089e-05-9.094947017729e-13 0.000000000000e+00
     6.500000000000e+01-5.137500000000e+01 2.552963484034e-09 3.494213099087e-01
    -2.382323145866e-06 5.486141890287e-05 6.061047315598e-06 5.440605804443e+03
     1.914000000000e+05 5.587935447693e-09 7.700507088458e-01-1.117587089539e-08
     9.976519381048e-01 2.258750000000e+02 2.211795791887e-01-5.442369553680e-09
    -2.396528396456e-10 1.000000000000e+00 1.404000000000e+03                   
     1.070000000000e+02 0.000000000000e+00 3.958120942116e-09 4.190951585770e-09
     1.932350000000e+05                                                         
E31 2026 07 21 05 40 35-1.580838579684e-04-2.955857780762e-12 0.000000000000e+00
     6.600000000000e+01 1.080625000000e+02 3.191918670510e-09 1.820731619157e+00
     4.917383193970e-06 3.420959692448e-04 9.061768651009e-06 5.440615829468e+03
     1.920000000000e+05 9.313225746155e-09-1.329145134287e+00-9.313225746155e-09
     9.605969195060e-01 1.481875000000e+02-1.399851414619e+00-5.551302662610e-09
     5.357366012941e-11 1.000000000000e+00 1.404000000000e+03                   
     1.070000000000e+02 0.000000000000e+00 3.492459654808e-09 4.190951585770e-09
     1.932350000000e+05                                                         
E21 2026 07 21 05 40 35-7.585730636492e-04-2.799538378895e-12 0.000000000000e+00
     6.500000000000e+01 8.396875000000e+01 3.230134548069e-09-2.817542582712e+00
     4.041939973831e-06 1.707910560071e-04 8.506700396538e-06 5.440617650986e+03
     1.914000000000e+05-4.842877388000e-08-1.329062545247e+00 2.048909664154e-08
     9.606204812646e-01 1.580937500000e+02-1.560986084467e+00-5.564160341041e-09
     9.714690370133e-11 1.000000000000e+00 1.404000000000e+03                   
     1.070000000000e+02 0.000000000000e+00 6.984919309616e-10 9.313225746155e-10
     1.932350000000e+05                                                         
G30 2026 07 21 05 40 48 3.025251789950e-04 1.329425458607e-11 0.000000000000e+00
    -3.261566162109e-03-2.504296875000e+01 5.127356432119e-09-2.266179138040e+00
    -1.365318894386e-06 8.216449525207e-03 8.302740752697e-06 5.153540978890e+03
     1.107000000000e+05 1.396983861923e-07-2.597136550716e+00-1.210719347000e-08
     9.366274697908e-01 2.046562500000e+02-2.258832282254e+00-8.150104433757e-09
    -9.464679956196e-12 5.127356432119e-09-2.000000000000e+00 3.000000000000e+00
     3.100000000000e+01 4.000000000000e+00 4.190951585770e-09 7.000000000000e+00
    -1.513399183750e-09-3.259629011154e-09 2.328306436539e-09 3.230525180697e-09
     1.932480000000e+05 2.428000000000e+03 0.000000000000e+00                   
G08 2026 07 21 05 40 48 3.940011374652e-04-9.233502851203e-12 0.000000000000e+00
     7.883071899414e-03 4.416406250000e+01 5.259861951506e-09 7.681529164237e-01
     2.468004822731e-06 1.168233255157e-02 5.070120096207e-06 5.153473407719e+03
     1.413000000000e+05-2.793967723846e-09-5.416898440134e-01 1.452863216400e-07
     9.417692845166e-01 2.700625000000e+02 5.449917495968e-01-7.697228426796e-09
    -2.157232714544e-10 5.259861951506e-09-2.000000000000e+00 3.000000000000e+00
     3.000000000000e+01 4.000000000000e+00 4.656612873077e-09 7.000000000000e+00
    -1.047737896442e-09-4.685716703534e-09 6.257323548198e-09 6.839400157332e-09
     1.932480000000e+05 2.428000000000e+03 0.000000000000e+00                   
G14 2026 07 21 05 40 48 7.499761122745e-04 2.593480985524e-13 0.000000000000e+00
    -2.451896667480e-03 6.748828125000e+01 4.874488756308e-09-2.862347758742e+00
     3.377906978130e-06 7.362615899183e-03 9.466893970966e-06 5.153559374317e+03
     1.152000000000e+05-6.146728992462e-08-1.524144717008e+00-1.182779669762e-07
     9.416378201149e-01 1.868945312500e+02-2.680703005217e+00-8.281895637675e-09
     1.892935991239e-11 4.874488756308e-09-2.000000000000e+00 3.000000000000e+00
     3.100000000000e+01 4.000000000000e+00-7.916241884232e-09 7.000000000000e+00
    -2.619344741106e-10 5.005858838558e-09-1.455191522837e-09-1.076841726899e-09
     1.932480000000e+05 2.428000000000e+03 0.000000000000e+00                   
G17 2026 07 21 05 40 48-1.761649618857e-04-6.036060540282e-12 0.000000000000e+00
     2.120018005371e-03 4.628515625000e+01 4.906632952386e-09 7.775775832846e-01
     2.395361661911e-06 1.261565118330e-02 4.561617970467e-06 5.153547761236e+03
     1.728000000000e+05-5.308538675308e-08-4.349087667587e-01-2.337619662285e-07
     9.574384830302e-01 2.892773437500e+02-1.098697298318e+00-7.797589750105e-09
    -9.339674749228e-11 4.906632952386e-09-2.000000000000e+00 3.000000000000e+00
     2.800000000000e+01 4.000000000000e+00-1.071020960808e-08 7.000000000000e+00
    -8.440110832453e-10 6.722984835505e-09 0.000000000000e+00 0.000000000000e+00
     1.932480000000e+05 2.428000000000e+03 0.000000000000e+00                   
G09 2026 07 21 05 40 48 7.171272591222e-04-6.991740519879e-12 0.000000000000e+00
     3.526687622070e-03-1.656250000000e+01 4.419469802942e-09 1.386780316189e+00
    -9.629875421524e-07 3.668958088383e-03 6.236135959625e-06 5.153526767805e+03
     1.395000000000e+05 1.192092895508e-07 2.624872550741e+00 7.450580596924e-09
     9.667074427424e-01 2.606484375000e+02 2.038220855097e+00-8.294574737239e-09
     2.851904507556e-10 4.419469802942e-09-2.000000000000e+00 3.000000000000e+00
     3.000000000000e+01 4.000000000000e+00 4.656612873077e-10 7.000000000000e+00
    -5.820766091347e-10-7.275957614183e-10 5.064066499472e-09 5.617039278150e-09
     1.932480000000e+05 2.428000000000e+03 0.000000000000e+00                   
E23 2026 07 21 05 40 54-4.269339842722e-05-1.307398633799e-12 0.000000000000e+00
     6.100000000000e+01 1.003125000000e+02 3.242992226500e-09-2.724192371284e+00
     4.665926098824e-06 1.740616280586e-04 8.402392268181e-06 5.440616353989e+03
     1.890000000000e+05 4.284083843231e-08-1.332241047839e+00-7.450580596924e-09
     9.625504257002e-01 1.612500000000e+02-2.743935148576e+00-5.571303495725e-09
     3.785871982478e-11 5.160000000000e+02 1.404000000000e+03                   
     1.070000000000e+02 0.000000000000e+00 4.656612873077e-10 1.862645149231e-09
     1.932540000000e+05                                                         
E14 2026 07 21 05 40 54 3.965689509641e-03 1.531361704110e-10 5.204170427930e-18
     6.600000000000e+01-4.178125000000e+01 6.367408085248e-09-1.630566606913e+00
    -3.550201654434e-06 1.682799862465e-01 3.980472683907e-06 5.289354679108e+03
     1.920000000000e+05-1.098960638046e-07-4.466463948780e-01-4.384666681290e-06
     8.527875037368e-01 2.310000000000e+02-3.116623027996e+00-8.532141112210e-09
     4.675194740627e-10 5.160000000000e+02 1.404000000000e+03                   
     1.070000000000e+02 1.440000000000e+02-2.793967723846e-09-3.492459654808e-09
     1.932540000000e+05                                                         
E06 2026 07 21 05 40 54-3.006262704730e-04-5.059064278612e-12 0.000000000000e+00
     6.100000000000e+01-3.984375000000e+01 3.304423356782e-09 3.549919878469e-01
    -1.901760697365e-06 5.052095511928e-04 5.543231964111e-06 5.440611343384e+03
     1.890000000000e+05 2.793967723846e-08 2.852084682558e+00-2.607703208923e-08
     9.626597203099e-01 2.187812500000e+02 1.385861648986e+00-5.724167005961e-09
     1.982225424788e-10 5.160000000000e+02 1.404000000000e+03                   
     1.070000000000e+02 0.000000000000e+00 2.328306436539e-09 3.725290298462e-09
     1.932540000000e+05                                                         
E28 2026 07 21 05 40 54-6.031838711351e-05-2.856381797756e-12 0.000000000000e+00
     6.500000000000e+01-4.243750000000e+01 3.455143920613e-09 8.353221417201e-01
    -1.924112439156e-06 2.854741178453e-04 5.289912223816e-06 5.440611021042e+03
     1.914000000000e+05 6.146728992462e-08 2.870114239413e+00 1.490116119385e-08
     9.490537205140e-01 2.218437500000e+02 1.961960943480e+00-5.815599385915e-09
     2.028655930234e-10 5.160000000000e+02 1.404000000000e+03                   
     1.070000000000e+02 0.000000000000e+00 9.313225746155e-10 1.862645149231e-09
     1.932540000000e+05                                                         
E26 2026 07 21 05 40 54 3.675295738503e-04 1.092814727599e-11 0.000000000000e+00
     6.600000000000e+01-4.143750000000e+01 2.625823661810e-09 2.461263566353e+00
    -2.076849341393e-06 9.043386671692e-05 5.947425961494e-06 5.440605888367e+03
     1.920000000000e+05-4.470348358154e-08 7.665805984046e-01-1.676380634308e-08
     9.909318410430e-01 2.229062500000e+02-2.596207514350e+00-5.493085951936e-09
    -2.928693420408e-10 5.160000000000e+02 1.404000000000e+03                   
     1.070000000000e+02 0.000000000000e+00-5.122274160385e-09-5.587935447693e-09
     1.932540000000e+05                                                         
E04 2026 07 21 05 40 54-1.221945858561e-04 3.355182798259e-11 0.000000000000e+00
     6.600000000000e+01-4.250000000000e+01 3.171560679661e-09 2.573324349334e+00
    -1.898035407066e-06 2.931589260697e-04 5.658715963364e-06 5.440609577179e+03
     1.920000000000e+05 2.235174179077e-08 2.852417083878e+00 5.587935447693e-09
     9.693542923772e-01 2.214062500000e+02-6.749831603294e-02-5.673450607705e-09
     2.042942239602e-10 5.160000000000e+02 1.404000000000e+03                   
     1.070000000000e+02 0.000000000000e+00-4.190951585770e-09-4.656612873077e-09
     1.932540000000e+05                                                         
E09 2026 07 21 05 40 54-3.009681822732e-04 1.780620095815e-11 3.469446951954e-18
     6.600000000000e+01-3.981250000000e+01 3.098700501885e-09 1.338730251077e+00
    -1.901760697365e-06 4.996793577448e-04 5.727633833885e-06 5.440615285873e+03
     1.920000000000e+05 3.166496753693e-08 2.855572822001e+00-2.980232238770e-08
     9.750915323162e-01 2.215625000000e+02 3.874898147461e-01-5.603447691802e-09
     1.807218135032e-10 5.160000000000e+02 1.404000000000e+03                   
     1.070000000000e+02 0.000000000000e+00 6.984919309616e-10 9.313225746155e-10
     1.932540000000e+05                                                         
END OF FILE                                                 COMMENT
