     3.05           N: NAVIGATION       M: MIXED            RINEX VERSION / TYPE
PYRINEXCONV 0.1.2 ALDELTUNES            20260721 083120 UTC PGM / RUN BY / DATE
GAL    1.0175e+02  3.3203e-01  2.2858e-02             I 26  IONOSPHERIC CORR
GPSA   1.1176e-08  2.2352e-08  1.5199e-05  1.5140e-05 I 30  IONOSPHERIC CORR
GPSB   1.0650e+05  1.4746e+05  1.6712e+07  1.6450e+07 I 30  IONOSPHERIC CORR
BDSA   2.0489e-08  5.2154e-08 -6.5565e-07  1.1325e-06 I 39  IONOSPHERIC CORR
BDSB   1.3926e+05 -6.0621e+05  5.0463e+06 -4.3254e+06 I 39  IONOSPHERIC CORR
GAUT  6.5192580223e-09-2.664535259e-15 202800 1404   E26  0 TIME SYSTEM CORR
GPUT  1.0186340660e-09 1.190603172e-12 413400 2428   G30  0 TIME SYSTEM CORR
BDUT  0.0000000000e+00 0.000000000e+00 201600 1072   C39  0 TIME SYSTEM CORR
                                                            END OF HEADER
G14 2026 07 21 08 23 54 7.499800994992e-04 2.273736754432e-13 0.000000000000e+00
     2.300000000000e+02 4.346875000000e+01 4.919847788551e-09-3.710923551318e-01
     2.404674887657e-06 7.365606026724e-03 8.778646588326e-06 5.153659263611e+03
     2.096800000000e+05 8.940696716309e-08-1.524283975837e+00 8.568167686462e-08
     9.416387081061e-01 2.008437500000e+02-2.680666114081e+00-8.262487022892e-09
     6.500270762369e-11 1.000000000000e+00 3.800000000000e+02 0.000000000000e+00
     2.000000000000e+00 0.000000000000e+00-7.916241884232e-09 9.980000000000e+02
     8.121360000000e+05 4.000000000000e+00                                      
G22 2026 07 21 08 23 54 4.060100764036e-05 8.071765478235e-12 0.000000000000e+00
     9.200000000000e+01 5.381250000000e+01 4.444113686602e-09-2.529953664691e+00
     2.978369593620e-06 1.184459077194e-02 8.782371878624e-06 5.153724548340e+03
     2.088000000000e+05 1.490116119385e-08-1.447237888387e+00 1.899898052216e-07
     9.568470245193e-01 2.051562500000e+02-9.877956796893e-01-7.783895659069e-09
     9.107522222000e-11 1.000000000000e+00 3.800000000000e+02 0.000000000000e+00
     2.000000000000e+00 0.000000000000e+00-1.117587089539e-08 9.200000000000e+01
     8.121360000000e+05 4.000000000000e+00                                      
G17 2026 07 21 08 23 54-1.762625761330e-04-6.025402399246e-12 0.000000000000e+00
     6.600000000000e+01 5.268750000000e+01 4.767698593784e-09 3.140405416571e+00
     2.849847078323e-06 1.261520700064e-02 4.867091774940e-06 5.153678655624e+03
     2.088000000000e+05 1.322478055954e-07-4.350422214605e-01 2.756714820862e-07
     9.574385934805e-01 2.811875000000e+02-1.098618294159e+00-8.097122991959e-09
     4.500187450871e-11 1.000000000000e+00 3.800000000000e+02 0.000000000000e+00
     2.000000000000e+00 0.000000000000e+00-1.071020960808e-08 6.600000000000e+01
     8.121360000000e+05 4.000000000000e+00                                      
G19 2026 07 21 08 23 54 7.038190960884e-04 4.547473508865e-13 0.000000000000e+00
     5.000000000000e+01 4.206250000000e+01 4.855916554130e-09-1.509985941181e+00
     2.097338438034e-06 1.176493673120e-02 4.887580871582e-06 5.153760034561e+03
     2.088000000000e+05 5.774199962616e-08-3.912794762350e-01-1.620501279831e-07
     9.566052816954e-01 2.842500000000e+02 3.029474768527e+00-8.343918986289e-09
     1.535778257043e-10 1.000000000000e+00 3.800000000000e+02 0.000000000000e+00
     2.000000000000e+00 0.000000000000e+00-1.536682248116e-08 5.000000000000e+01
     8.121360000000e+05 4.000000000000e+00                                      
G30 2026 07 21 08 23 54 3.027403727174e-04 1.330136001343e-11 0.000000000000e+00
     1.600000000000e+01-3.006250000000e+01 5.080925926673e-09 9.449358577428e-02
    -1.473352313042e-06 8.217709721066e-03 7.897615432739e-06 5.153681278229e+03
     2.087840000000e+05-4.656612873077e-08-2.597270394554e+00 1.881271600723e-07
     9.366260412513e-01 2.157187500000e+02-2.258931051900e+00-8.386777914392e-09
    -7.750322832055e-11 1.000000000000e+00 3.800000000000e+02 0.000000000000e+00
     2.000000000000e+00 0.000000000000e+00 4.190951585770e-09 1.600000000000e+01
     8.121360000000e+05 4.000000000000e+00                                      
G06 2026 07 21 08 23 54-5.693081766367e-04 7.958078640513e-12 0.000000000000e+00
     1.400000000000e+01-2.406250000000e+01 4.019095982909e-09 1.195134823534e+00
    -1.270323991776e-06 3.694361192174e-03 5.714595317841e-06 5.153724903107e+03
     2.088000000000e+05 1.303851604462e-08 5.836642618564e-01-3.911554813385e-08
     9.858733950927e-01 2.786875000000e+02-5.462298515458e-01-7.903543500025e-09
    -2.785830326729e-10 1.000000000000e+00 3.800000000000e+02 0.000000000000e+00
     2.000000000000e+00 0.000000000000e+00 3.725290298462e-09 1.400000000000e+01
     8.121360000000e+05 4.000000000000e+00                                      
G01 2026 07 21 08 23 54 2.169446088374e-04-9.663381206337e-12 0.000000000000e+00
     2.200000000000e+02-2.931250000000e+01 4.759126808163e-09 1.992260936385e+00
    -1.480802893639e-06 1.826314721256e-03 5.260109901428e-06 5.153601467133e+03
     2.088000000000e+05 5.587935447693e-09 6.291920031153e-01 7.450580596924e-08
     9.571093593780e-01 2.756562500000e+02 1.946178744785e-01-8.276773332260e-09
    -1.792931825664e-10 1.000000000000e+00 3.800000000000e+02 0.000000000000e+00
     2.000000000000e+00 0.000000000000e+00-8.847564458847e-09 7.320000000000e+02
     8.121360000000e+05 4.000000000000e+00                                      
E09 2026 07 21 08 24 35-3.007852938026e-04 1.800515292416e-11 3.469446951954e-18
     8.300000000000e+01-3.806250000000e+01 3.036912213869e-09 2.602961589147e+00
    -1.782551407814e-06 4.989944864064e-04 5.662441253662e-06 5.440616731644e+03
     2.022000000000e+05 6.146728992462e-08 2.855515667255e+00 1.303851604462e-08
     9.750933682784e-01 2.263750000000e+02 3.878083563804e-01-5.602376218600e-09
     1.692927660089e-10 1.000000000000e+00 1.404000000000e+03                   
     1.070000000000e+02 0.000000000000e+00 6.984919309616e-10 9.313225746155e-10
     2.030750000000e+05                                                         
G01 2026 07 21 08 27 12 2.169621875510e-04-9.631406783228e-12 0.000000000000e+00
    -3.206253051758e-03-2.589062500000e+01 4.758055334960e-09 1.729607906140e+00
    -1.348555088043e-06 1.827456115279e-03 5.328096449375e-06 5.153621260026e+03
     1.746000000000e+05 2.887099981308e-08 6.292069738875e-01 6.984919309616e-08
     9.571096731739e-01 2.728906250000e+02 1.947120015536e-01-8.051886056853e-09
    -1.921508609975e-10 4.758055334960e-09-2.000000000000e+00 3.000000000000e+00
     2.900000000000e+01 4.000000000000e+00-8.847564458847e-09 7.000000000000e+00
    -2.910383045673e-10 5.646143108606e-09-5.529727786779e-10-6.693881005049e-10
     2.032320000000e+05 2.428000000000e+03 0.000000000000e+00                   
E06 2026 07 21 08 27 25-3.006930928677e-04-5.044853423897e-12 0.000000000000e+00
     8.300000000000e+01-4.162500000000e+01 3.227991601664e-09 1.990483499696e+00
    -1.840293407440e-06 5.052951164544e-04 5.492940545082e-06 5.440612165451e+03
     2.022000000000e+05 2.421438694000e-08 2.852009228169e+00 6.332993507385e-08
     9.626626827191e-01 2.237812500000e+02 1.386851656852e+00-5.667736083958e-09
     1.600066649198e-10 1.000000000000e+00 1.404000000000e+03                   
     1.070000000000e+02 0.000000000000e+00 2.328306436539e-09 3.725290298462e-09
     2.032450000000e+05                                                         
E12 2026 07 21 08 28 54-5.898519884795e-05-2.557953848736e-12 0.000000000000e+00
     8.000000000000e+01-4.656250000000e+01 2.602251251353e-09-1.541989154015e+00
    -2.337619662285e-06 3.188102273270e-04 6.387010216713e-06 5.440606094360e+03
     2.004000000000e+05-3.166496753693e-08 7.695124734890e-01 1.490116119385e-08
     9.945614680715e-01 2.191875000000e+02 8.649107058597e-01-5.409153884400e-09
    -2.667968274445e-10 5.160000000000e+02 1.404000000000e+03                   
     1.070000000000e+02 0.000000000000e+00-1.187436282635e-08-1.164153218269e-08
     2.033340000000e+05                                                         
C36 2026 07 21 08 28 54 2.596018603072e-04-4.320099833421e-12 0.000000000000e+00
     1.000000000000e+00 1.542187500000e+01 4.059097649138e-09-2.981974030616e+00
     7.343478500843e-07 8.160521974787e-04 9.567942470312e-06 5.282653308868e+03
     2.016000000000e+05 1.257285475731e-08-2.018576818193e+00 4.748487845063e-05
     9.451397651163e-01 1.568593750000e+02-1.024440970044e+00 1.387761377260e-07
    -3.714440435639e-11                    1.072000000000e+03                   
     0.000000000000e+00 0.000000000000e+00-9.639188647270e-08-9.639188647270e-08
     2.033340000000e+05 1.000000000000e+00                                      
C11 2026 07 21 08 28 54-7.890666602179e-04-2.155786660296e-11 0.000000000000e+00
     1.000000000000e+00 4.703125000000e+00 4.238390831705e-09 1.209906606655e+00
     2.686865627766e-07 1.699145650491e-04 3.708992153406e-06 5.282640985489e+03
     2.016000000000e+05-1.629814505577e-08 7.440371653916e-02 5.046837031841e-05
     9.504523535841e-01 2.779218750000e+02-6.662516928116e-01 7.528356443407e-07
    -2.492960984689e-10                    1.072000000000e+03                   
     0.000000000000e+00 0.000000000000e+00 1.350417733192e-08 1.350417733192e-08
     2.033340000000e+05 1.000000000000e+00                                      
C30 2026 07 21 08 28 54 4.927918780595e-04 7.474021401777e-12 0.000000000000e+00
     1.000000000000e+00 1.251562500000e+01 4.366253300547e-09 1.314716285496e-02
     7.352791726589e-07 4.701827419922e-04 3.719702363014e-06 5.282649618149e+03
     2.016000000000e+05 7.031485438347e-08 3.472310669963e-02 1.446064561605e-05
     9.455191568281e-01 2.751093750000e+02 9.821292742436e-01-2.044309439408e-06
    -2.150089559860e-10                    1.072000000000e+03                   
     0.000000000000e+00 0.000000000000e+00-4.516914486885e-08-4.516914486885e-08
     2.033340000000e+05 1.000000000000e+00                                      
C29 2026 07 21 08 28 54 6.338179809973e-04 5.240252676231e-12 0.000000000000e+00
     1.000000000000e+00 5.515625000000e+00 4.330537527128e-09-1.892395480313e+00
     2.798624336720e-07 2.190576633438e-04 3.743451088667e-06 5.282656152725e+03
     2.016000000000e+05-2.700835466385e-08 3.425795141547e-02 4.335166886449e-05
     9.455638621417e-01 2.762343750000e+02 2.117102114029e+00-2.497539746841e-06
    -2.225092684042e-10                    1.072000000000e+03                   
     0.000000000000e+00 0.000000000000e+00 9.313225746155e-10 9.313225746155e-10
     2.033340000000e+05 1.000000000000e+00                                      
C39 2026 07 21 08 28 54-9.576437296346e-04 8.848921595472e-12 0.000000000000e+00
     1.000000000000e+00 1.939062500000e+01 4.016238721035e-09 1.470108519121e+00
     7.110647857189e-07 5.727914394811e-04 9.650364518166e-06 5.282661041260e+03
     2.016000000000e+05 5.494803190231e-08-2.011473458538e+00 5.104346200824e-05
     9.490809205499e-01 1.586875000000e+02 5.823257035172e-02 1.083409771223e-06
    -8.464638300447e-11                    1.072000000000e+03                   
     0.000000000000e+00 0.000000000000e+00 8.987262845039e-08 8.987262845039e-08
     2.033340000000e+05 1.000000000000e+00                                      
E26 2026 07 21 08 30 05 3.676397027448e-04 1.084288214770e-11 0.000000000000e+00
     8.300000000000e+01-5.415625000000e+01 2.807974106250e-09-2.581828444272e+00
    -2.447515726089e-06 9.288045112044e-05 5.146488547325e-06 5.440599119186e+03
     2.022000000000e+05 5.774199962616e-08 7.665238605898e-01 3.725290298462e-09
     9.909286182344e-01 2.437500000000e+02-2.571749845715e+00-5.545945296597e-09
    -2.010798043524e-10 1.000000000000e+00 1.404000000000e+03                   
     1.070000000000e+02 0.000000000000e+00-5.122274160385e-09-5.587935447693e-09
     2.034050000000e+05                                                         
E23 2026 07 21 08 30 24-4.271115176380e-05-1.321609488514e-12 0.000000000000e+00
     8.300000000000e+01 8.218750000000e+01 3.107629445240e-09-1.075351203848e+00
     4.000961780548e-06 1.743856118992e-04 8.780509233475e-06 5.440620420456e+03
     2.022000000000e+05-1.117587089539e-08-1.332315115381e+00-1.490116119385e-08
     9.625514438912e-01 1.535937500000e+02-2.756300102300e+00-5.504872157164e-09
     1.103617398666e-10 5.160000000000e+02 1.404000000000e+03                   
     1.070000000000e+02 0.000000000000e+00 4.656612873077e-10 1.862645149231e-09
     2.034240000000e+05                                                         
E31 2026 07 21 08 30 24-1.581138349138e-04-2.941646926047e-12 0.000000000000e+00
     8.300000000000e+01 8.787500000000e+01 3.123701543279e-09 3.089516060071e+00
     4.114583134651e-06 3.421820001677e-04 8.549541234970e-06 5.440615501404e+03
     2.022000000000e+05-1.303851604462e-08-1.329202071059e+00 2.607703208923e-08
     9.605974827295e-01 1.542812500000e+02-1.404083529829e+00-5.542016561521e-09
     9.500395729616e-11 5.160000000000e+02 1.404000000000e+03                   
     1.070000000000e+02 0.000000000000e+00 3.492459654808e-09 4.190951585770e-09
     2.034240000000e+05                                                         
G14 2026 07 21 08 30 24 7.499796629418e-04 2.557953848736e-13 0.000000000000e+00
    -2.422332763672e-04 4.229296875000e+01 4.912883212734e-09-6.744416370642e-01
     2.199783921242e-06 7.365882338490e-03 8.623115718365e-06 5.153562711095e+03
     2.016000000000e+05 1.080334186554e-07-1.524266816540e+00 7.264316082001e-08
     9.416386459321e-01 2.037539062500e+02-2.680705784030e+00-8.091173407614e-09
     6.785996949726e-11 4.912883212734e-09-3.000000000000e+00 2.000000000000e+00
     2.700000000000e+01 4.000000000000e+00-7.916241884232e-09 7.000000000000e+00
    -2.619344741106e-10 5.005858838558e-09-1.455191522837e-09-1.076841726899e-09
     2.034240000000e+05 2.428000000000e+03 0.000000000000e+00                   
G17 2026 07 21 08 30 24-1.762518950272e-04-6.032507826603e-12 0.000000000000e+00
     1.567840576172e-03 5.030078125000e+01 4.780913429949e-09 2.877903456025e+00
     2.684071660042e-06 1.261496293591e-02 4.846602678299e-06 5.153543879276e+03
     1.728000000000e+05 2.235174179077e-07-4.350272550770e-01 1.806765794754e-07
     9.574384859560e-01 2.814101562500e+02-1.098660480327e+00-8.214749983646e-09
    -3.142988060926e-11 4.780913429949e-09-2.000000000000e+00 3.000000000000e+00
     2.900000000000e+01 4.000000000000e+00-1.071020960808e-08 7.000000000000e+00
    -8.440110832453e-10 6.722984835505e-09 0.000000000000e+00 0.000000000000e+00
     2.034240000000e+05 2.428000000000e+03 0.000000000000e+00                   
G30 2026 07 21 08 30 24 3.027125785593e-04 1.329070187239e-11 0.000000000000e+00
    -3.137111663818e-03-2.747656250000e+01 5.088247660225e-09-2.093370342420e-01
    -1.356005668640e-06 8.217922528274e-03 7.663853466511e-06 5.153540602366e+03
     1.980000000000e+05 2.793967723846e-09-2.597253092622e+00 1.341104507446e-07
     9.366260646580e-01 2.200625000000e+02-2.259071140935e+00-7.910094436377e-09
    -4.678766317969e-11 5.088247660225e-09-2.000000000000e+00 2.000000000000e+00
     2.700000000000e+01 4.000000000000e+00 4.190951585770e-09 7.000000000000e+00
    -1.513399183750e-09-3.259629011154e-09 2.328306436539e-09 3.230525180697e-09
     2.034240000000e+05 2.428000000000e+03 0.000000000000e+00                   
G06 2026 07 21 08 30 24-5.693228158634e-04 7.972289495228e-12 0.000000000000e+00
     5.177974700928e-03-2.061328125000e+01 4.004452515806e-09 9.323627841724e-01
    -1.042149960995e-06 3.692717407830e-03 6.204470992088e-06 5.153498310652e+03
     1.845000000000e+05 1.676380634308e-08 5.836785092156e-01-2.700835466385e-08
     9.858739305207e-01 2.723945312500e+02-5.459911281849e-01-8.441009408259e-09
    -2.816188734136e-10 4.004452515806e-09-2.000000000000e+00 3.000000000000e+00
     2.800000000000e+01 4.000000000000e+00 3.725290298462e-09 7.000000000000e+00
     3.201421350241e-10-3.929017111659e-09 1.775333657861e-09 2.211891114712e-09
     2.034240000000e+05 2.428000000000e+03 0.000000000000e+00                   
E16 2026 07 21 08 31 25-4.646781599149e-05-2.501110429876e-12 0.000000000000e+00
     8.100000000000e+01 1.001562500000e+02 3.139416483584e-09-3.101724718553e+00
     4.405155777931e-06 4.923009546474e-04 8.720904588699e-06 5.440617143631e+03
     2.010000000000e+05 1.862645149231e-09-1.332432891990e+00 9.313225746155e-09
     9.625723314356e-01 1.570937500000e+02-2.472761177891e+00-5.512015311848e-09
     8.500354073867e-11 1.000000000000e+00 1.404000000000e+03                   
     1.070000000000e+02 0.000000000000e+00-3.725290298462e-09-2.328306436539e-09
     2.034850000000e+05                                                         
E33 2026 07 21 08 31 35-2.518517430872e-05-1.918465386552e-12 0.000000000000e+00
     7.800000000000e+01-4.137500000000e+01 2.569749897541e-09 3.016262805716e+00
    -2.013519406319e-06 1.653057988733e-04 5.841255187988e-06 5.440609649658e+03
     1.992000000000e+05-6.146728992462e-08 7.699806233665e-01-5.587935447693e-08
     9.976668979051e-01 2.278750000000e+02-3.028942813478e+00-5.452727127972e-09
    -2.860833450911e-10 1.000000000000e+00 1.404000000000e+03                   
     1.070000000000e+02 0.000000000000e+00-4.423782229424e-09-4.889443516731e-09
     2.034950000000e+05                                                         
E31 2026 07 21 08 31 35-1.581155811436e-04-2.941646926047e-12 0.000000000000e+00
     8.400000000000e+01 8.581250000000e+01 3.111915338050e-09-3.118831762193e+00
     4.041939973831e-06 3.419846761972e-04 8.542090654373e-06 5.440615993500e+03
     2.028000000000e+05-1.490116119385e-08-1.329205419678e+00 2.421438694000e-08
     9.605975412462e-01 1.544687500000e+02-1.404535496907e+00-5.539873615115e-09
     9.643258823294e-11 1.000000000000e+00 1.404000000000e+03                   
     1.070000000000e+02 0.000000000000e+00 3.492459654808e-09 4.190951585770e-09
     2.034950000000e+05                                                         
E23 2026 07 21 08 31 35-4.271202487871e-05-1.321609488514e-12 0.000000000000e+00
     8.400000000000e+01 8.215625000000e+01 3.107986602974e-09-1.001456154166e+00
     4.000961780548e-06 1.741696614772e-04 8.881092071533e-06 5.440619960785e+03
     2.028000000000e+05-5.587935447693e-09-1.332318437668e+00-1.490116119385e-08
     9.625515316663e-01 1.517187500000e+02-2.755810251496e+00-5.500943422088e-09
     1.103617398666e-10 1.000000000000e+00 1.404000000000e+03                   
     1.070000000000e+02 0.000000000000e+00 4.656612873077e-10 1.862645149231e-09
     2.034950000000e+05                                                         
E26 2026 07 21 08 31 35 3.676462220028e-04 1.082867129298e-11 0.000000000000e+00
     8.400000000000e+01-5.365625000000e+01 2.812617156794e-09-2.508536248501e+00
    -2.430751919746e-06 9.290839079767e-05 5.125999450684e-06 5.440598913193e+03
     2.028000000000e+05 5.215406417847e-08 7.665204988041e-01 9.313225746155e-09
     9.909284777943e-01 2.445000000000e+02-2.570656368579e+00-5.544516665660e-09
    -1.960795960737e-10 1.000000000000e+00 1.404000000000e+03                   
     1.070000000000e+02 0.000000000000e+00-5.122274160385e-09-5.587935447693e-09
     2.034950000000e+05                                                         
END OF FILE                                                 COMMENT
