     3.05           N: NAVIGATION       M: MIXED            RINEX VERSION / TYPE
PYRINEXCONV 0.1.2 ALDELTUNES            20260721 100138 UTC PGM / RUN BY / DATE
GAL    1.0175e+02  3.3203e-01  2.2858e-02             K 16  IONOSPHERIC CORR
GPSA   1.1176e-08  2.2352e-08  1.5199e-05  1.5140e-05 K 14  IONOSPHERIC CORR
GPSB   1.0650e+05  1.4746e+05  1.6712e+07  1.6450e+07 K 14  IONOSPHERIC CORR
BDSA   2.0489e-08  5.2154e-08 -6.5565e-07  1.1325e-06 J 35  IONOSPHERIC CORR
BDSB   1.3926e+05 -6.0621e+05  5.0463e+06 -4.3254e+06 J 35  IONOSPHERIC CORR
GAUT  6.5192580223e-09-2.664535259e-15 205800 1404   E16  0 TIME SYSTEM CORR
GPUT  9.8953023553e-10-1.767030966e-12 428400 2428   G14  0 TIME SYSTEM CORR
BDUT  0.0000000000e+00 0.000000000e+00 205200 1072   C35  0 TIME SYSTEM CORR
                                                            END OF HEADER
C29 2026 07 21 09 52 54 6.338361417875e-04 5.180744722111e-12 0.000000000000e+00
     1.000000000000e+00 1.185937500000e+01 4.339466470482e-09-1.400845564006e+00
     6.342306733131e-07 2.191975945607e-04 3.683846443892e-06 5.282657890320e+03
     2.052000000000e+05 3.259629011154e-09 3.423188806697e-02 3.114668652415e-05
     9.455629156337e-01 2.772656250000e+02 2.113112502360e+00-2.523826556078e-06
    -1.964367538078e-10                    1.072000000000e+03                   
     0.000000000000e+00 0.000000000000e+00 9.313225746155e-10 9.313225746155e-10
     2.083740000000e+05 1.000000000000e+00                                      
C39 2026 07 21 09 52 54-9.576120646670e-04 8.826717134980e-12 0.000000000000e+00
     1.000000000000e+00 2.017187500000e+01 3.978380001210e-09 1.958106534700e+00
     8.679926395416e-07 5.728323012590e-04 9.465031325817e-06 5.282660549164e+03
     2.052000000000e+05 2.142041921616e-08-2.011498066283e+00 5.534803494811e-05
     9.490806601504e-01 1.603906250000e+02 5.779242072630e-02 1.060414527664e-06
    -6.071681481333e-11                    1.072000000000e+03                   
     0.000000000000e+00 0.000000000000e+00 8.987262845039e-08 8.987262845039e-08
     2.083740000000e+05 1.000000000000e+00                                      
C11 2026 07 21 09 52 54-7.891440764070e-04-2.152589217985e-11 0.000000000000e+00
     1.000000000000e+00 1.029687500000e+01 4.258034507086e-09 1.692558351541e+00
     6.048940122128e-07 1.698561245576e-04 3.850553184748e-06 5.282642623901e+03
     2.052000000000e+05 7.683411240578e-08 7.437754347180e-02 3.615720197558e-05
     9.504513178381e-01 2.756718750000e+02-6.613392051239e-01 7.297946845922e-07
    -1.917937032633e-10                    1.072000000000e+03                   
     0.000000000000e+00 0.000000000000e+00 1.350417733192e-08 1.350417733192e-08
     2.083740000000e+05 1.000000000000e+00                                      
C36 2026 07 21 09 52 54 2.595866099000e-04-4.286349053473e-12 0.000000000000e+00
     1.000000000000e+00 8.703125000000e+00 3.998023676591e-09-2.493542670907e+00
     4.926696419716e-07 8.150421781465e-04 9.346287697554e-06 5.282655700684e+03
     2.052000000000e+05 9.778887033463e-09-2.018601316219e+00 4.700943827629e-05
     9.451396232133e-01 1.630781250000e+02-1.025312382068e+00 1.153237322678e-07
    -3.750156209059e-11                    1.072000000000e+03                   
     0.000000000000e+00 0.000000000000e+00-9.639188647270e-08-9.639188647270e-08
     2.083740000000e+05 1.000000000000e+00                                      
C30 2026 07 21 09 52 54 4.928193520755e-04 7.526423928539e-12 0.000000000000e+00
     1.000000000000e+00 1.306250000000e+01 4.395897392485e-09 5.009480165756e-01
     7.757917046547e-07 4.700825084001e-04 3.736000508070e-06 5.282649347305e+03
     2.052000000000e+05 1.075677573681e-07 3.469643331429e-02 1.052115112543e-05
     9.455183639265e-01 2.763906250000e+02 9.818907790979e-01-2.070276235315e-06
    -1.292910997790e-10                    1.072000000000e+03                   
     0.000000000000e+00 0.000000000000e+00-4.516914486885e-08-4.516914486885e-08
     2.083740000000e+05 1.000000000000e+00                                      
C35 2026 07 21 09 52 54-4.781602183357e-04-1.595878984517e-11 0.000000000000e+00
     1.000000000000e+00 8.984375000000e+00 4.395183077017e-09-9.957836922392e-01
     5.164183676243e-07 8.107782341540e-04 3.786757588387e-06 5.282618425369e+03
     2.052000000000e+05-2.607703208923e-08 3.483019376595e-02 3.119511529803e-05
     9.437481818485e-01 2.765312500000e+02 8.870480050185e-01-1.938659324371e-06
    -1.417916204758e-10                    1.072000000000e+03                   
     0.000000000000e+00 0.000000000000e+00-1.257285475731e-08-1.257285475731e-08
     2.083740000000e+05 1.000000000000e+00                                      
G13 2026 07 21 09 55 12 4.184021381661e-04 5.215383680479e-12 8.673617379884e-19
    -8.472919464111e-03 6.045703125000e+01 4.512687971568e-09-7.825053847988e-01
     3.077089786530e-06 2.268065989483e-03 9.127892553806e-06 5.153630010124e+03
     1.647000000000e+05-1.024454832077e-08-1.575877374830e+00 6.519258022308e-09
     9.588252379369e-01 2.040234375000e+02 1.818775673547e+00-8.354041499983e-09
     4.125171829965e-11 4.512687971568e-09-2.000000000000e+00 2.000000000000e+00
     2.900000000000e+01 7.000000000000e+00-8.381903171539e-09 7.000000000000e+00
    -1.164153218269e-10 5.267793312669e-09 1.658918336034e-09 1.949956640601e-09
     2.085120000000e+05 2.428000000000e+03 0.000000000000e+00                   
G17 2026 07 21 09 57 36-1.762518950272e-04-6.032507826603e-12 0.000000000000e+00
     1.567840576172e-03 5.030078125000e+01 4.780913429949e-09 2.877903456025e+00
     2.684071660042e-06 1.261496293591e-02 4.846602678299e-06 5.153543879276e+03
     1.728000000000e+05 2.235174179077e-07-4.350272550770e-01 1.806765794754e-07
     9.574384859560e-01 2.814101562500e+02-1.098660480327e+00-8.214749983646e-09
    -3.142988060926e-11 4.780913429949e-09-2.000000000000e+00 3.000000000000e+00
     2.900000000000e+01 4.000000000000e+00-1.071020960808e-08 7.000000000000e+00
    -8.440110832453e-10 6.722984835505e-09 0.000000000000e+00 0.000000000000e+00
     2.086560000000e+05 2.428000000000e+03 0.000000000000e+00                   
G11 2026 07 21 10 00 48-2.678104792722e-04 1.223909862347e-11 0.000000000000e+00
    -9.360313415527e-04-2.354687500000e+01 4.523759861328e-09-3.067374537467e+00
    -1.215375959873e-06 2.486338082235e-03 5.622394382954e-06 5.153570937345e+03
     1.872000000000e+05-3.073364496231e-08 5.993054630438e-01-1.108273863792e-07
     9.627631054621e-01 2.717890625000e+02-2.355419437657e+00-8.195820623734e-09
    -1.960795960737e-10 4.523759861328e-09-2.000000000000e+00 3.000000000000e+00
     2.800000000000e+01 4.000000000000e+00-8.847564458847e-09 7.000000000000e+00
    -2.037268131971e-10 5.675246939063e-09 3.783497959375e-10 2.328306436539e-10
     2.088480000000e+05 2.428000000000e+03 0.000000000000e+00                   
E31 2026 07 21 10 00 54-1.581299002282e-04-2.955857780762e-12 0.000000000000e+00
     9.200000000000e+01 8.221875000000e+01 3.059413151124e-09-2.523117550911e+00
     3.989785909653e-06 3.416769905016e-04 8.620321750641e-06 5.440616680145e+03
     2.076000000000e+05-5.587935447693e-09-1.329232145729e+00-3.725290298462e-09
     9.605980913034e-01 1.548125000000e+02-1.405167565292e+00-5.518086993329e-09
     1.042900583853e-10 5.160000000000e+02 1.404000000000e+03                   
     1.070000000000e+02 0.000000000000e+00 3.492459654808e-09 4.190951585770e-09
     2.088540000000e+05                                                         
E12 2026 07 21 10 00 54-5.900522228330e-05-2.600586412882e-12 0.000000000000e+00
     9.200000000000e+01-4.268750000000e+01 2.664039539369e-09-6.465472629915e-01
    -2.004206180573e-06 3.198821796104e-04 5.761161446571e-06 5.440608850479e+03
     2.076000000000e+05-3.725290298462e-08 7.694733682258e-01-9.685754776001e-08
     9.945589986658e-01 2.299062500000e+02 8.620929105901e-01-5.498086160215e-09
    -2.260808457461e-10 5.160000000000e+02 1.404000000000e+03                   
     1.070000000000e+02 0.000000000000e+00-1.187436282635e-08-1.164153218269e-08
     2.088540000000e+05                                                         
E23 2026 07 21 10 00 54-4.271895159036e-05-1.378452907375e-12 0.000000000000e+00
     9.200000000000e+01 7.503125000000e+01 3.104772183367e-09-4.070643579216e-01
     3.591179847717e-06 1.725773327053e-04 9.434297680855e-06 5.440616752625e+03
     2.076000000000e+05 1.490116119385e-08-1.332344850654e+00 2.048909664154e-08
     9.625522426445e-01 1.415937500000e+02-2.755121980724e+00-5.470227856947e-09
     1.010756387775e-10 5.160000000000e+02 1.404000000000e+03                   
     1.070000000000e+02 0.000000000000e+00 4.656612873077e-10 1.862645149231e-09
     2.088540000000e+05                                                         
E33 2026 07 21 10 01 35-2.519506961107e-05-1.946887095983e-12 0.000000000000e+00
     8.600000000000e+01-5.178125000000e+01 2.673325640458e-09-2.678856425900e+00
    -2.324581146240e-06 1.662023132667e-04 5.647540092468e-06 5.440606731415e+03
     2.040000000000e+05 5.587935447693e-08 7.699541489380e-01-8.754432201385e-08
     9.976651175338e-01 2.334062500000e+02-3.021928220766e+00-5.507015103569e-09
    -2.207234797332e-10 1.000000000000e+00 1.404000000000e+03                   
     1.070000000000e+02 0.000000000000e+00-4.423782229424e-09-4.889443516731e-09
     2.088950000000e+05                                                         
E16 2026 07 21 10 01 35-4.647969035432e-05-2.486899575160e-12 0.000000000000e+00
     8.900000000000e+01 9.781250000000e+01 3.090485873999e-09-2.506894661311e+00
     4.362314939499e-06 4.925836110488e-04 8.363276720047e-06 5.440616605759e+03
     2.058000000000e+05 5.587935447693e-09-1.332459325456e+00 3.725290298462e-09
     9.625727512931e-01 1.593437500000e+02-2.472509234140e+00-5.512729627317e-09
     8.107480566251e-11 1.000000000000e+00 1.404000000000e+03                   
     1.070000000000e+02 0.000000000000e+00-3.725290298462e-09-2.328306436539e-09
     2.088950000000e+05                                                         
E10 2026 07 21 10 01 35-8.074251818471e-04-2.600586412882e-12 0.000000000000e+00
     8.700000000000e+01-4.515625000000e+01 2.576893052225e-09-2.856180244606e+00
    -2.223998308182e-06 2.871559699997e-04 6.128102540970e-06 5.440603137970e+03
     2.046000000000e+05-6.146728992462e-08 7.680206642406e-01 7.450580596924e-09
     9.974651600391e-01 2.255937500000e+02 2.331766037495e+00-5.393796101829e-09
    -2.400099973798e-10 1.000000000000e+00 1.404000000000e+03                   
     1.070000000000e+02 0.000000000000e+00-1.164153218269e-09-2.328306436539e-10
     2.088950000000e+05                                                         
E12 2026 07 21 10 01 35-5.900685209781e-05-2.600586412882e-12 0.000000000000e+00
     9.300000000000e+01-4.415625000000e+01 2.675825744597e-09-5.721360592377e-01
    -2.056360244751e-06 3.196983598173e-04 5.748122930527e-06 5.440608488083e+03
     2.082000000000e+05-2.048909664154e-08 7.694700488647e-01-1.043081283569e-07
     9.945587953202e-01 2.302812500000e+02 8.620668267607e-01-5.505586472633e-09
    -2.178662178596e-10 1.000000000000e+00 1.404000000000e+03                   
     1.070000000000e+02 0.000000000000e+00-1.187436282635e-08-1.164153218269e-08
     2.088950000000e+05                                                         
E31 2026 07 21 10 01 35-1.581317046657e-04-2.955857780762e-12 0.000000000000e+00
     9.300000000000e+01 8.250000000000e+01 3.058698835655e-09-2.449247106047e+00
     4.006549715996e-06 3.417236730456e-04 8.702278137207e-06 5.440616317749e+03
     2.082000000000e+05 0.000000000000e+00-1.329235476793e+00-5.587935447693e-09
     9.605981703010e-01 1.533750000000e+02-1.404652937044e+00-5.514872573722e-09
     1.042900583853e-10 1.000000000000e+00 1.404000000000e+03                   
     1.070000000000e+02 0.000000000000e+00 3.492459654808e-09 4.190951585770e-09
     2.088950000000e+05                                                         
E23 2026 07 21 10 01 35-4.271982470527e-05-1.378452907375e-12 0.000000000000e+00
     9.300000000000e+01 7.500000000000e+01 3.098700501885e-09-3.326463881716e-01
     3.570690751076e-06 1.725745387375e-04 9.434297680855e-06 5.440616741180e+03
     2.082000000000e+05 1.117587089539e-08-1.332348130516e+00 2.793967723846e-08
     9.625523333454e-01 1.416562500000e+02-2.755154728145e+00-5.466299121871e-09
     9.857553463812e-11 1.000000000000e+00 1.404000000000e+03                   
     1.070000000000e+02 0.000000000000e+00 4.656612873077e-10 1.862645149231e-09
     2.088950000000e+05                                                         
G06 2026 07 21 10 01 36-5.692653940059e-04 7.975842208907e-12 0.000000000000e+00
    -7.128715515137e-03-1.784765625000e+01 4.109635468527e-09 1.982657061328e+00
    -8.838251233101e-07 3.696886647958e-03 5.481764674187e-06 5.153499173991e+03
     1.845000000000e+05 1.052394509315e-07 5.836211130877e-01-1.303851604462e-08
     9.858719241286e-01 2.858281250000e+02-5.461467665764e-01-8.395114639415e-09
    -2.101873265744e-10 4.109635468527e-09-2.000000000000e+00 3.000000000000e+00
     2.900000000000e+01 4.000000000000e+00 3.725290298462e-09 7.000000000000e+00
     3.201421350241e-10-3.929017111659e-09 1.775333657861e-09 2.211891114712e-09
     2.088960000000e+05 2.428000000000e+03 0.000000000000e+00                   
G14 2026 07 21 10 01 36 7.499813509639e-04 2.557953848736e-13 0.000000000000e+00
    -2.215385437012e-03 3.589843750000e+01 4.917883421013e-09 2.882963822787e-01
     1.963227987289e-06 7.364568125922e-03 8.944422006607e-06 5.153565822943e+03
     2.016000000000e+05 6.519258022308e-08-1.524321114939e+00 1.452863216400e-07
     9.416391257692e-01 1.980859375000e+02-2.680768347185e+00-8.114745818071e-09
     3.964450849577e-11 4.917883421013e-09-3.000000000000e+00 2.000000000000e+00
     2.700000000000e+01 4.000000000000e+00-7.916241884232e-09 7.000000000000e+00
    -2.619344741106e-10 5.005858838558e-09-1.455191522837e-09-1.076841726899e-09
     2.088960000000e+05 2.428000000000e+03 0.000000000000e+00                   
END OF FILE                                                 COMMENT
