     3.05           N: NAVIGATION       M: MIXED            RINEX VERSION / TYPE
PYRINEXCONV 0.1.2 ALDELTUNES            20260720 233934 UTC PGM / RUN BY / DATE
GAL    1.0300e+02  3.0469e-01  2.1057e-02             X 30  IONOSPHERIC CORR
GPSA   9.3132e-09  2.2352e-08  1.5199e-05  1.5140e-05 X 28  IONOSPHERIC CORR
GPSB   1.0035e+05  1.3107e+05  1.6712e+07  1.6318e+07 X 28  IONOSPHERIC CORR
GAUT  7.4505805969e-09-2.664535259e-15 167400 1404   E30  0 TIME SYSTEM CORR
GPUT -3.3469405025e-09-7.989164885e-13 342300 2428   G28  0 TIME SYSTEM CORR
                                                            END OF HEADER
E33 2026 07 20 23 30 35-2.512801438570e-05-1.989519660128e-12 0.000000000000e+00
     2.900000000000e+01-6.843750000000e+01 2.424386699723e-09-6.317954121292e-01
    -3.134831786156e-06 1.667501637712e-04 6.798654794693e-06 5.440605901718e+03
     1.698000000000e+05 7.636845111847e-08 7.701392782951e-01 1.676380634308e-08
     9.976742476056e-01 2.112187500000e+02-3.025762333021e+00-5.481299746707e-09
    -1.832219176426e-10 1.000000000000e+00 1.404000000000e+03                   
     1.070000000000e+02 0.000000000000e+00-4.190951585770e-09-4.656612873077e-09
     1.710350000000e+05                                                         
E27 2026 07 20 23 30 54-1.049675105605e-03-1.061550847226e-11 0.000000000000e+00
     2.900000000000e+01 1.205312500000e+02 3.164774682711e-09 8.976772005900e-01
     5.511566996574e-06 2.439039526507e-04 8.611008524895e-06 5.440619291306e+03
     1.698000000000e+05 1.117587089539e-08-1.328980460913e+00-1.117587089539e-08
     9.605923098511e-01 1.505625000000e+02-8.713849844080e-01-5.613090950626e-09
    -5.928818387655e-11 5.160000000000e+02 1.404000000000e+03                   
     1.070000000000e+02 0.000000000000e+00 6.984919309616e-10 9.313225746155e-10
     1.710540000000e+05                                                         
E26 2026 07 20 23 30 54 3.672876628116e-04 1.081446043827e-11 0.000000000000e+00
     2.900000000000e+01-6.718750000000e+01 2.483317725865e-09-2.928609353820e-01
    -3.015622496605e-06 9.172561112791e-05 7.089227437973e-06 5.440601959229e+03
     1.698000000000e+05 3.911554813385e-08 7.667006220555e-01 1.005828380585e-07
     9.909375200910e-01 2.012500000000e+02-2.594344518897e+00-5.454870074377e-09
    -1.803646557690e-10 5.160000000000e+02 1.404000000000e+03                   
     1.070000000000e+02 0.000000000000e+00-4.889443516731e-09-5.355104804039e-09
     1.710540000000e+05                                                         
E29 2026 07 20 23 33 54-2.271159319207e-04-3.680611371237e-12 0.000000000000e+00
     2.300000000000e+01-4.028125000000e+01 3.495145586843e-09-5.361748937451e-01
    -1.955777406693e-06 2.002498367801e-04 5.513429641724e-06 5.440609569550e+03
     1.662000000000e+05 3.166496753693e-08 2.852246529574e+00-1.303851604462e-08
     9.627364781586e-01 2.227500000000e+02 1.414841759164e+00-5.765240145393e-09
     1.767930784271e-10 5.160000000000e+02 1.404000000000e+03                   
     1.070000000000e+02 0.000000000000e+00-3.259629011154e-09-3.026798367500e-09
     1.712340000000e+05                                                         
E07 2026 07 20 23 35 55-7.845880463719e-05-2.557953848736e-12 0.000000000000e+00
     2.900000000000e+01-4.956250000000e+01 3.371569010811e-09 1.933486272961e+00
    -2.184882760048e-06 4.223064752296e-04 5.599111318588e-06 5.440616483688e+03
     1.698000000000e+05-2.793967723846e-08 2.852491335748e+00-1.117587089539e-08
     9.693512612109e-01 2.235625000000e+02 1.826067421209e-01-5.683093866528e-09
     1.978653847446e-10 1.000000000000e+00 1.404000000000e+03                   
     1.070000000000e+02 0.000000000000e+00 4.423782229424e-09 4.889443516731e-09
     1.713550000000e+05                                                         
E33 2026 07 20 23 36 54-2.512923674658e-05-1.989519660128e-12 0.000000000000e+00
     3.000000000000e+01-6.906250000000e+01 2.429029750268e-09-5.573196278567e-01
    -3.162771463394e-06 1.665493473411e-04 6.867572665215e-06 5.440605503082e+03
     1.704000000000e+05 7.823109626770e-08 7.701359838036e-01 1.862645149231e-08
     9.976741481271e-01 2.096875000000e+02-3.025853031016e+00-5.479513958036e-09
    -1.835790753768e-10 5.160000000000e+02 1.404000000000e+03                   
     1.070000000000e+02 0.000000000000e+00-4.190951585770e-09-4.656612873077e-09
     1.714140000000e+05                                                         
G32 2026 07 20 23 37 36 1.745324698277e-04 2.020072997766e-11 0.000000000000e+00
     2.517700195312e-04-2.041406250000e+01 4.596977196838e-09-1.729096652845e+00
    -9.573996067047e-07 9.457893262152e-03 6.184913218021e-06 5.153652258123e+03
     9.540000000000e+04 1.620501279831e-07 2.642518317620e+00 5.867332220078e-08
     9.696740006886e-01 2.641601562500e+02-1.972824286405e+00-8.356541604122e-09
     3.162631736306e-10 4.596977196838e-09-2.000000000000e+00 3.000000000000e+00
     3.100000000000e+01 4.000000000000e+00 9.313225746155e-10 7.000000000000e+00
    -2.910383045673e-10-1.891748979688e-09 8.614733815193e-09 9.051291272044e-09
     1.714560000000e+05 2.428000000000e+03 0.000000000000e+00                   
G03 2026 07 20 23 37 36 3.643557138275e-04-1.891464762593e-11 0.000000000000e+00
     1.033020019531e-02-3.304687500000e+01 3.616579216470e-09 6.177080208528e-01
    -1.737847924232e-06 6.972287141252e-03 8.434988558292e-06 5.153456002673e+03
     1.620000000000e+05-5.308538675308e-08 1.621860325724e+00 8.381903171539e-09
     9.947573608484e-01 2.366328125000e+02 1.276869954759e+00-8.594051497362e-09
     2.469745731966e-10 3.616579216470e-09-2.000000000000e+00 2.000000000000e+00
     2.700000000000e+01 4.000000000000e+00 1.396983861923e-09 7.000000000000e+00
     5.529727786779e-10-2.008164301515e-09 1.862645149231e-09 5.005858838558e-09
     1.714560000000e+05 2.428000000000e+03 0.000000000000e+00                   
G31 2026 07 20 23 38 54-1.341179013252e-04 2.728484105319e-12 0.000000000000e+00
     4.400000000000e+01-2.543750000000e+01 4.918776315348e-09 3.371780548765e-01
    -1.119449734688e-06 1.091442990582e-02 8.637085556984e-06 5.153631544113e+03
     1.728000000000e+05-4.656612873077e-08-2.561082422631e+00 9.685754776001e-08
     9.550197725440e-01 2.106562500000e+02 9.764782499186e-01-8.298917111780e-09
    -2.953694461802e-10 1.000000000000e+00 3.800000000000e+02 0.000000000000e+00
     2.000000000000e+00 0.000000000000e+00-1.350417733192e-08 4.400000000000e+01
     6.861360000000e+05 4.000000000000e+00                                      
G26 2026 07 20 23 38 54-3.840886056423e-04-2.501110429876e-12 0.000000000000e+00
     8.100000000000e+01 5.143750000000e+01 5.349508542789e-09-2.897121153982e-01
     2.676621079445e-06 1.116570027079e-02 9.324401617050e-06 5.153581596375e+03
     1.728000000000e+05 9.313225746155e-09-1.639710070197e+00 1.341104507446e-07
     9.274900724958e-01 1.798125000000e+02 7.148310607029e-01-8.559999415478e-09
    -1.735786588193e-10 1.000000000000e+00 3.800000000000e+02 0.000000000000e+00
     2.000000000000e+00 0.000000000000e+00 6.519258022308e-09 8.100000000000e+01
     6.861360000000e+05 4.000000000000e+00                                      
G03 2026 07 20 23 38 54 3.643161617219e-04-1.887201506179e-11 0.000000000000e+00
     3.800000000000e+01-2.650000000000e+01 3.571934499695e-09 9.220084394552e-01
    -1.473352313042e-06 6.975050549954e-03 8.925795555115e-06 5.153768224716e+03
     1.727840000000e+05-7.450580596924e-08 1.621844139267e+00 1.303851604462e-08
     9.947579043224e-01 2.238750000000e+02 1.276513170252e+00-7.735322207219e-09
     2.585821995580e-10 1.000000000000e+00 3.800000000000e+02 0.000000000000e+00
     2.000000000000e+00 0.000000000000e+00 1.396983861923e-09 3.800000000000e+01
     6.861360000000e+05 4.000000000000e+00                                      
G28 2026 07 20 23 38 54-4.659704864025e-04 1.091393642128e-11 0.000000000000e+00
     9.400000000000e+01-3.040625000000e+01 4.736268713174e-09 2.093372286638e+00
    -1.404434442520e-06 5.173209356144e-04 8.644536137581e-06 5.153621377945e+03
     1.728000000000e+05 1.061707735062e-07-2.610053545355e+00 7.636845111847e-08
     9.622432289957e-01 2.130312500000e+02-3.117452708818e-01-8.068907530958e-09
    -1.967939115420e-10 1.000000000000e+00 3.800000000000e+02 0.000000000000e+00
     2.000000000000e+00 0.000000000000e+00-9.313225746155e-09 3.500000000000e+02
     6.861360000000e+05 4.000000000000e+00                                      
G32 2026 07 20 23 38 54 1.745685003698e-04 2.023625711445e-11 0.000000000000e+00
     8.300000000000e+01-2.106250000000e+01 4.618763818624e-09-1.466529608536e+00
    -8.679926395416e-07 9.457790991291e-03 6.109476089478e-06 5.153570587158e+03
     1.728000000000e+05 1.620501279831e-07 2.642504108297e+00 1.732259988785e-07
     9.696742530420e-01 2.640937500000e+02-1.972830629617e+00-8.052478275185e-09
     2.821546100149e-10 1.000000000000e+00 3.800000000000e+02 0.000000000000e+00
     2.000000000000e+00 0.000000000000e+00 9.313225746155e-10 8.300000000000e+01
     6.861360000000e+05 4.000000000000e+00                                      
G16 2026 07 20 23 38 54 3.019082359970e-04 6.480149750132e-12 0.000000000000e+00
     8.500000000000e+01 6.640625000000e+01 4.605906140193e-09-1.045286391117e+00
     3.535300493240e-06 1.503473171033e-02 9.313225746155e-06 5.153715204239e+03
     1.728000000000e+05 2.067536115646e-07-1.450330280695e+00 3.222376108170e-07
     9.573769929260e-01 1.977812500000e+02 9.375768063402e-01-8.111766459061e-09
    -1.182192100189e-10 1.000000000000e+00 3.800000000000e+02 0.000000000000e+00
     2.000000000000e+00 0.000000000000e+00-1.024454832077e-08 8.500000000000e+01
     6.861360000000e+05 4.000000000000e+00                                      
G01 2026 07 20 23 38 54 2.172910608351e-04-9.663381206337e-12 0.000000000000e+00
     2.140000000000e+02-3.896875000000e+01 4.440899266994e-09 3.023574912077e+00
    -1.963227987289e-06 1.825405866839e-03 6.137415766716e-06 5.153603368759e+03
     1.728000000000e+05 2.980232238770e-08 6.294874467360e-01 7.450580596924e-09
     9.571188654197e-01 2.592500000000e+02 1.953673888531e-01-8.208199047294e-09
    -1.607209803882e-10 1.000000000000e+00 3.800000000000e+02 0.000000000000e+00
     2.000000000000e+00 0.000000000000e+00-8.847564458847e-09 7.260000000000e+02
     6.861360000000e+05 4.000000000000e+00                                      
G25 2026 07 20 23 38 54 4.048659466207e-04-3.183231456205e-12 0.000000000000e+00
     1.300000000000e+01 5.275000000000e+01 4.969849871339e-09 5.783887408069e-01
     2.851709723473e-06 1.290012733079e-02 9.084120392799e-06 5.153667831421e+03
     1.727840000000e+05-1.434236764908e-07-1.562520831824e+00 7.264316082001e-08
     9.467226805140e-01 1.986250000000e+02 1.161691274224e+00-8.393921069076e-09
    -1.685784505406e-10 1.000000000000e+00 3.800000000000e+02 0.000000000000e+00
     2.000000000000e+00 0.000000000000e+00 5.587935447693e-09 1.300000000000e+01
     6.861360000000e+05 4.000000000000e+00                                      
G04 2026 07 20 23 38 54 6.273016333580e-05 6.821210263297e-13 0.000000000000e+00
     3.000000000000e+00-2.187500000000e+01 4.529474385075e-09-2.368787335832e+00
    -1.249834895134e-06 3.821735270321e-03 6.604939699173e-06 5.153673292160e+03
     1.728000000000e+05-9.313225746155e-09 2.690205504440e+00-8.568167686462e-08
     9.724389180528e-01 2.630312500000e+02-2.902050409637e+00-7.988547040764e-09
     2.950122884460e-10 1.000000000000e+00 3.800000000000e+02 0.000000000000e+00
     2.000000000000e+00 0.000000000000e+00-4.656612873077e-09 5.150000000000e+02
     6.861360000000e+05 4.000000000000e+00                                      
G28 2026 07 20 23 39 12-4.659901314881e-04 1.087130385713e-11 0.000000000000e+00
     4.796981811523e-04-3.102343750000e+01 4.722696719275e-09 1.830788510936e+00
    -1.540407538414e-06 5.171363591217e-04 8.629634976387e-06 5.153601217573e+03
     1.107000000000e+05 1.061707735062e-07-2.610038813039e+00 1.862645149231e-09
     9.622435991140e-01 2.124648437500e+02-3.117150096899e-01-8.267430749440e-09
    -2.426886803862e-10 4.722696719275e-09-2.000000000000e+00 3.000000000000e+00
     3.000000000000e+01 4.000000000000e+00-9.313225746155e-09 7.000000000000e+00
    -3.492459654808e-10 5.966285243630e-09-7.566995918751e-10-6.693881005049e-10
     1.715520000000e+05 2.428000000000e+03 0.000000000000e+00                   
G31 2026 07 20 23 39 12-1.341225288343e-04 2.749800387392e-12 0.000000000000e+00
     2.326011657715e-03-2.828515625000e+01 4.916097632342e-09 7.455362175474e-02
    -1.364387571812e-06 1.091416960116e-02 8.775852620602e-06 5.153591537401e+03
     1.377000000000e+05-2.514570951462e-08-2.561067546217e+00 9.965151548386e-08
     9.550202831024e-01 2.088867187500e+02 9.765517140072e-01-8.029742277332e-09
    -2.834046620846e-10 4.916097632342e-09-2.000000000000e+00 3.000000000000e+00
     2.900000000000e+01 4.000000000000e+00-1.350417733192e-08 7.000000000000e+00
    -2.619344741106e-10 8.265487849712e-09 0.000000000000e+00 0.000000000000e+00
     1.715520000000e+05 2.428000000000e+03 0.000000000000e+00                   
G26 2026 07 20 23 39 12-3.840841236524e-04-2.511768570912e-12 0.000000000000e+00
     8.203029632568e-03 6.044531250000e+01 5.322543133857e-09-5.525110636750e-01
     3.195367753506e-06 1.116683072178e-02 9.777024388313e-06 5.153641954247e+03
     1.152000000000e+05 5.401670932770e-08-1.639694619588e+00 1.639127731323e-07
     9.274905596475e-01 1.729140625000e+02 7.150743388593e-01-7.818126319821e-09
    -1.801860769019e-10 5.322543133857e-09-2.000000000000e+00 3.000000000000e+00
     3.000000000000e+01 4.000000000000e+00 6.519258022308e-09 7.000000000000e+00
    -8.440110832453e-10-4.190951585770e-09 5.820766091347e-09 5.878973752260e-09
     1.715520000000e+05 2.428000000000e+03 0.000000000000e+00                   
E21 2026 07 20 23 39 24-7.585140410811e-04-2.827960088325e-12 0.000000000000e+00
     3.000000000000e+01 1.150937500000e+02 3.159774474433e-09 8.572248956120e-01
     5.146488547325e-06 1.701257424429e-04 9.587034583092e-06 5.440615518570e+03
     1.704000000000e+05 1.303851604462e-08-1.328944024013e+00 7.450580596924e-09
     9.606212609999e-01 1.338125000000e+02-1.556055263490e+00-5.563446025572e-09
    -5.143071372424e-11 5.160000000000e+02 1.404000000000e+03                   
     1.070000000000e+02 0.000000000000e+00 1.164153218269e-09 1.164153218269e-09
     1.715640000000e+05                                                         
E30 2026 07 20 23 39 35-1.275924907532e-03-3.971933892899e-11 0.000000000000e+00
     2.500000000000e+01 1.072812500000e+02 3.258350009071e-09-4.525046708073e-02
     5.045905709267e-06 2.124481834471e-04 8.385628461838e-06 5.440624414444e+03
     1.674000000000e+05 2.980232238770e-08-1.327277429701e+00 1.676380634308e-08
     9.583802767739e-01 1.559687500000e+02 5.253313294728e-01-5.640592096159e-09
    -4.107313943255e-11 1.000000000000e+00 1.404000000000e+03                   
     1.070000000000e+02 0.000000000000e+00 6.984919309616e-10 9.313225746155e-10
     1.715750000000e+05                                                         
E27 2026 07 20 23 39 35-1.049681508448e-03-1.061550847226e-11 0.000000000000e+00
     3.000000000000e+01 1.190312500000e+02 3.176918045674e-09 9.727910614524e-01
     5.476176738739e-06 2.439047675580e-04 8.620321750641e-06 5.440618940353e+03
     1.704000000000e+05 1.490116119385e-08-1.328983828551e+00-1.490116119385e-08
     9.605922571861e-01 1.503437500000e+02-8.721138731005e-01-5.615591054765e-09
    -5.750239520557e-11 1.000000000000e+00 1.404000000000e+03                   
     1.070000000000e+02 0.000000000000e+00 6.984919309616e-10 9.313225746155e-10
     1.715750000000e+05                                                         
E26 2026 07 20 23 39 35 3.672941820696e-04 1.081446043827e-11 0.000000000000e+00
     3.000000000000e+01-6.515625000000e+01 2.474031624776e-09-2.196196696408e-01
    -2.918764948845e-06 9.196647442877e-05 7.124617695808e-06 5.440602479935e+03
     1.704000000000e+05 2.235174179077e-08 7.666973699886e-01 1.043081283569e-07
     9.909374747405e-01 2.005312500000e+02-2.593200140989e+00-5.448441235161e-09
    -1.878649681871e-10 1.000000000000e+00 1.404000000000e+03                   
     1.070000000000e+02 0.000000000000e+00-4.889443516731e-09-5.355104804039e-09
     1.715750000000e+05                                                         
E29 2026 07 20 23 39 35-2.271306002513e-04-3.623767952377e-12 0.000000000000e+00
     3.000000000000e+01-4.193750000000e+01 3.459072655689e-09-1.630714782959e-02
    -1.979991793633e-06 2.006179420277e-04 5.550682544708e-06 5.440610366821e+03
     1.704000000000e+05 5.587935447693e-09 2.852222135415e+00 2.048909664154e-08
     9.627371540268e-01 2.198750000000e+02 1.415674608667e+00-5.758454148443e-09
     2.032227507576e-10 1.000000000000e+00 1.404000000000e+03                   
     1.070000000000e+02 0.000000000000e+00-3.259629011154e-09-3.026798367500e-09
     1.715750000000e+05                                                         
E07 2026 07 20 23 39 35-7.846049265936e-05-2.557953848736e-12 0.000000000000e+00
     3.000000000000e+01-4.956250000000e+01 3.370854695343e-09 2.007864597631e+00
    -2.186745405197e-06 4.222948336974e-04 5.595386028290e-06 5.440616504669e+03
     1.704000000000e+05-2.793967723846e-08 2.852487918371e+00-1.117587089539e-08
     9.693513840960e-01 2.236875000000e+02 1.826138226444e-01-5.682379551060e-09
     1.978653847446e-10 1.000000000000e+00 1.404000000000e+03                   
     1.070000000000e+02 0.000000000000e+00 4.423782229424e-09 4.889443516731e-09
     1.715750000000e+05                                                         
END OF FILE                                                 COMMENT
