     3.05           N: NAVIGATION       M: MIXED            RINEX VERSION / TYPE
PYRINEXCONV 0.1.2 ALDELTUNES            20260721 044034 UTC PGM / RUN BY / DATE
GAL    1.0175e+02  3.3203e-01  2.2858e-02             E 21  IONOSPHERIC CORR
GPSA   9.3132e-09  2.2352e-08  1.5199e-05  1.5140e-05 E 09  IONOSPHERIC CORR
GPSB   1.0035e+05  1.3107e+05  1.6712e+07  1.6318e+07 E 09  IONOSPHERIC CORR
GAUT  6.5192580223e-09-2.664535259e-15 185400 1404   E21  0 TIME SYSTEM CORR
GPUT  5.5297277868e-10 1.020072915e-12 385200 2428   G09  0 TIME SYSTEM CORR
                                                            END OF HEADER
G04 2026 07 21 04 37 36 6.274419138208e-05 6.998845947237e-13 0.000000000000e+00
    -2.377986907959e-03-2.073046875000e+01 4.331073263729e-09 5.194197053099e-01
    -1.036562025547e-06 3.823000355624e-03 5.988404154778e-06 5.153547799324e+03
     1.233000000000e+05 4.097819328308e-08 2.690046872918e+00 1.136213541031e-07
     9.724446958477e-01 2.717421875000e+02-2.902263436110e+00-8.317611411095e-09
     2.407243128482e-10 4.331073263729e-09-2.000000000000e+00 3.000000000000e+00
     3.100000000000e+01 4.000000000000e+00-4.656612873077e-09 7.000000000000e+00
    -2.037268131971e-10 3.317836672068e-09-1.426087692380e-09-1.396983861923e-09
     1.894560000000e+05 2.428000000000e+03 0.000000000000e+00                   
E19 2026 07 21 04 38 35 3.108420118224e-03 2.441424840072e-11 0.000000000000e+00
     5.900000000000e+01-4.403125000000e+01 3.094771766809e-09 3.048866073898e+00
    -1.968815922737e-06 2.429059240967e-04 5.505979061127e-06 5.440619012833e+03
     1.878000000000e+05-1.676380634308e-08 2.860539399622e+00-2.235174179077e-08
     9.747228433132e-01 2.296250000000e+02-2.403696938254e-01-5.641306411627e-09
     2.182233755938e-10 1.000000000000e+00 1.404000000000e+03                   
     1.070000000000e+02 0.000000000000e+00-4.423782229424e-09-4.423782229424e-09
     1.895150000000e+05                                                         
G08 2026 07 21 04 38 54 3.939843736589e-04-9.208633855451e-12 0.000000000000e+00
     8.200000000000e+01 5.553125000000e+01 5.257361847366e-09 1.030811823210e+00
     3.173947334290e-06 1.168476371095e-02 5.075708031654e-06 5.153750621796e+03
     1.944000000000e+05 5.587935447693e-09-5.417054526179e-01 1.657754182816e-07
     9.417689063523e-01 2.702812500000e+02 5.448627546008e-01-8.641074221140e-09
    -2.032227507576e-10 1.000000000000e+00 3.800000000000e+02 0.000000000000e+00
     2.000000000000e+00 0.000000000000e+00 4.656612873077e-09 8.200000000000e+01
     7.581360000000e+05 4.000000000000e+00                                      
G09 2026 07 21 04 38 54 7.171146571636e-04-7.048583938740e-12 0.000000000000e+00
     7.400000000000e+01-1.984375000000e+01 4.403754862638e-09 1.649337004501e+00
    -1.048669219017e-06 3.670229576528e-03 6.090849637985e-06 5.153696254730e+03
     1.944000000000e+05 1.378357410431e-07 2.624858163673e+00 3.166496753693e-08
     9.667080432703e-01 2.642812500000e+02 2.038203357865e+00-8.018548290436e-09
     2.792973481413e-10 1.000000000000e+00 3.800000000000e+02 0.000000000000e+00
     2.000000000000e+00 0.000000000000e+00 4.656612873077e-10 7.400000000000e+01
     7.581360000000e+05 4.000000000000e+00                                      
G07 2026 07 21 04 38 54-2.079098485410e-04-3.751665644813e-12 0.000000000000e+00
     9.700000000000e+01-2.071875000000e+01 4.741626079187e-09-1.695767174572e+00
    -9.015202522278e-07 2.093818434514e-02 7.875263690948e-06 5.153584897995e+03
     1.944000000000e+05 4.228204488754e-07-2.586084121241e+00 1.657754182816e-07
     9.513214629746e-01 2.134062500000e+02-1.955170504928e+00-7.871042146213e-09
     1.142904749427e-11 1.000000000000e+00 3.800000000000e+02 0.000000000000e+00
     2.000000000000e+00 0.000000000000e+00-1.071020960808e-08 9.700000000000e+01
     7.581360000000e+05 4.000000000000e+00                                      
G04 2026 07 21 04 38 54 6.274553015828e-05 6.821210263297e-13 0.000000000000e+00
     6.000000000000e+00-2.050000000000e+01 4.324823003380e-09 7.817716787169e-01
    -9.983777999878e-07 3.822581376880e-03 6.087124347687e-06 5.153674917221e+03
     1.944000000000e+05 7.450580596924e-09 2.690032590449e+00 1.415610313416e-07
     9.724451661759e-01 2.685000000000e+02-2.902069181801e+00-7.997118826385e-09
     2.214377952016e-10 1.000000000000e+00 3.800000000000e+02 0.000000000000e+00
     2.000000000000e+00 0.000000000000e+00-4.656612873077e-09 5.180000000000e+02
     7.581360000000e+05 4.000000000000e+00                                      
G02 2026 07 21 04 38 54 1.419312320650e-04 7.275957614183e-12 0.000000000000e+00
     1.300000000000e+01-2.415625000000e+01 4.525188492264e-09 1.292985379128e+00
    -1.484528183937e-06 1.689662365243e-02 4.813075065613e-06 5.153731765747e+03
     1.944000000000e+05 3.483146429062e-07 4.674341725895e-01 1.862645149231e-09
     9.620966197345e-01 2.790000000000e+02-7.358926908272e-01-8.126767083898e-09
    -4.053740283126e-10 1.000000000000e+00 3.800000000000e+02 0.000000000000e+00
     2.000000000000e+00 0.000000000000e+00-1.722946763039e-08 1.300000000000e+01
     7.581360000000e+05 4.000000000000e+00                                      
G30 2026 07 21 04 38 54 3.025494515896e-04 1.330136001343e-11 0.000000000000e+00
     9.900000000000e+01-2.796875000000e+01 5.111641491814e-09-2.003574362149e+00
    -1.674517989159e-06 8.217569906265e-03 7.912516593933e-06 5.153681093216e+03
     1.944000000000e+05 1.247972249985e-07-2.597151349596e+00 5.587935447693e-09
     9.366274792998e-01 2.088437500000e+02-2.258889940976e+00-8.182126532698e-09
     3.928735076157e-12 1.000000000000e+00 3.800000000000e+02 0.000000000000e+00
     2.000000000000e+00 0.000000000000e+00 4.190951585770e-09 9.900000000000e+01
     7.581360000000e+05 4.000000000000e+00                                      
G14 2026 07 21 04 38 54 7.499763742089e-04 2.273736754432e-13 0.000000000000e+00
     2.270000000000e+02 6.125000000000e+01 4.906990110120e-09-2.599717998404e+00
     3.017485141754e-06 7.363637676463e-03 9.743496775627e-06 5.153661857605e+03
     1.944000000000e+05-2.048909664154e-08-1.524159444936e+00-1.657754182816e-07
     9.416377923194e-01 1.834687500000e+02-2.680783462054e+00-8.087836890870e-09
     4.500187450871e-11 1.000000000000e+00 3.800000000000e+02 0.000000000000e+00
     2.000000000000e+00 0.000000000000e+00-7.916241884232e-09 9.950000000000e+02
     7.581360000000e+05 4.000000000000e+00                                      
E31 2026 07 21 04 39 05-1.580716343597e-04-2.984279490192e-12 0.000000000000e+00
     5.900000000000e+01 1.233125000000e+02 3.150488373344e-09 1.295640980670e+00
     5.668029189110e-06 3.408213378862e-04 9.192153811455e-06 5.440619762421e+03
     1.878000000000e+05 0.000000000000e+00-1.329121822687e+00-3.725290298462e-09
     9.605967498075e-01 1.453125000000e+02-1.395455464287e+00-5.546659612065e-09
     4.893060958486e-11 1.000000000000e+00 1.404000000000e+03                   
     1.070000000000e+02 0.000000000000e+00 3.492459654808e-09 4.190951585770e-09
     1.895450000000e+05                                                         
E23 2026 07 21 04 40 24-4.269258351997e-05-1.307398633799e-12 0.000000000000e+00
     6.000000000000e+01 1.006875000000e+02 3.236920545019e-09-2.797461490986e+00
     4.680827260017e-06 1.739555737004e-04 8.482486009598e-06 5.440616792679e+03
     1.884000000000e+05 3.911554813385e-08-1.332237681664e+00-1.490116119385e-08
     9.625504315519e-01 1.594687500000e+02-2.745051145873e+00-5.570589180256e-09
     3.285851154604e-11 5.160000000000e+02 1.404000000000e+03                   
     1.070000000000e+02 0.000000000000e+00 4.656612873077e-10 1.862645149231e-09
     1.896240000000e+05                                                         
E04 2026 07 21 04 40 24-1.223150757141e-04 3.350919541845e-11 0.000000000000e+00
     6.000000000000e+01-4.256250000000e+01 3.185846989029e-09 2.126974202682e+00
    -1.929700374603e-06 2.931922208518e-04 5.597248673439e-06 5.440609525681e+03
     1.884000000000e+05 2.607703208923e-08 2.852437443309e+00-9.313225746155e-09
     9.693535711586e-01 2.209687500000e+02-6.746159532623e-02-5.665950295287e-09
     2.078658013021e-10 5.160000000000e+02 1.404000000000e+03                   
     1.070000000000e+02 0.000000000000e+00-4.190951585770e-09-4.656612873077e-09
     1.896240000000e+05                                                         
E14 2026 07 21 04 40 24 3.965047071688e-03 1.531219595563e-10 5.204170427930e-18
     5.900000000000e+01 7.875000000000e+00 5.651663985919e-09-2.197200958948e+00
    -5.457550287247e-07 1.682773553766e-01 6.295740604401e-06 5.289364934921e+03
     1.878000000000e+05-3.350898623466e-06-4.466092572396e-01-2.322718501091e-06
     8.527859428032e-01 2.118437500000e+02-3.116659150369e+00-7.160655412897e-09
    -5.357366012941e-11 5.160000000000e+02 1.404000000000e+03                   
     1.070000000000e+02 1.440000000000e+02-2.793967723846e-09-3.492459654808e-09
     1.896240000000e+05                                                         
E06 2026 07 21 04 40 24-3.006232436746e-04-5.073275133327e-12 0.000000000000e+00
     6.000000000000e+01-3.953125000000e+01 3.307994934124e-09 2.806672849761e-01
    -1.905485987663e-06 5.051887128502e-04 5.541369318962e-06 5.440611270905e+03
     1.884000000000e+05 2.421438694000e-08 2.852088089694e+00-2.980232238770e-08
     9.626596003507e-01 2.187812500000e+02 1.385800756484e+00-5.722024059555e-09
     2.000083311498e-10 5.160000000000e+02 1.404000000000e+03                   
     1.070000000000e+02 0.000000000000e+00 2.328306436539e-09 3.725290298462e-09
     1.896240000000e+05                                                         
E28 2026 07 21 04 40 24-6.030977237970e-05-2.842170943040e-12 0.000000000000e+00
     6.000000000000e+01-4.406250000000e+01 3.525146836515e-09 4.658230711493e-01
    -1.965090632439e-06 2.852999605238e-04 5.427747964859e-06 5.440609611511e+03
     1.884000000000e+05 5.587935447693e-09 2.870131948036e+00 0.000000000000e+00
     9.490528500778e-01 2.162500000000e+02 1.959530604989e+00-5.860958418158e-09
     2.060800126311e-10 5.160000000000e+02 1.404000000000e+03                   
     1.070000000000e+02 0.000000000000e+00 9.313225746155e-10 1.862645149231e-09
     1.896240000000e+05                                                         
E21 2026 07 21 04 40 24-7.585562416352e-04-2.813749233610e-12 0.000000000000e+00
     5.500000000000e+01 1.006875000000e+02 3.320138297087e-09 2.714061811340e+00
     4.794448614120e-06 1.726628979668e-04 8.253380656242e-06 5.440613023758e+03
     1.854000000000e+05 5.029141902924e-08-1.329028293946e+00 4.842877388000e-08
     9.606201886810e-01 1.634687500000e+02-1.553261353284e+00-5.615233897031e-09
     3.821587755898e-11 5.160000000000e+02 1.404000000000e+03                   
     1.070000000000e+02 0.000000000000e+00 6.984919309616e-10 9.313225746155e-10
     1.896240000000e+05                                                         
G08 2026 07 21 04 40 48 3.940011374652e-04-9.233502851203e-12 0.000000000000e+00
     7.883071899414e-03 4.416406250000e+01 5.259861951506e-09 7.681529164237e-01
     2.468004822731e-06 1.168233255157e-02 5.070120096207e-06 5.153473407719e+03
     1.413000000000e+05-2.793967723846e-09-5.416898440134e-01 1.452863216400e-07
     9.417692845166e-01 2.700625000000e+02 5.449917495968e-01-7.697228426796e-09
    -2.157232714544e-10 5.259861951506e-09-2.000000000000e+00 3.000000000000e+00
     3.000000000000e+01 4.000000000000e+00 4.656612873077e-09 7.000000000000e+00
    -1.047737896442e-09-4.685716703534e-09 6.257323548198e-09 6.839400157332e-09
     1.896480000000e+05 2.428000000000e+03 0.000000000000e+00                   
G27 2026 07 21 04 40 48 5.348119884729e-07-3.552713678801e-14 0.000000000000e+00
     3.029346466064e-03 4.581250000000e+01 5.056639200748e-09 9.162267355840e-01
     2.438202500343e-06 1.432959164958e-02 5.176290869713e-06 5.153546291716e+03
     1.341000000000e+05-9.406358003616e-08-5.084749144212e-01 1.536682248116e-07
     9.508926451126e-01 2.732187500000e+02 9.006771942604e-01-7.703300108277e-09
    -2.121516941125e-10 5.056639200748e-09-3.000000000000e+00 1.000000000000e+00
     3.000000000000e+01 4.000000000000e+00 2.328306436539e-09 7.000000000000e+00
    -9.022187441587e-10-1.688022166491e-09 6.664777174592e-09 5.326000973582e-09
     1.896480000000e+05 2.428000000000e+03 0.000000000000e+00                   
G09 2026 07 21 04 40 48 7.171272591222e-04-6.991740519879e-12 0.000000000000e+00
     3.526687622070e-03-1.656250000000e+01 4.419469802942e-09 1.386780316189e+00
    -9.629875421524e-07 3.668958088383e-03 6.236135959625e-06 5.153526767805e+03
     1.395000000000e+05 1.192092895508e-07 2.624872550741e+00 7.450580596924e-09
     9.667074427424e-01 2.606484375000e+02 2.038220855097e+00-8.294574737239e-09
     2.851904507556e-10 4.419469802942e-09-2.000000000000e+00 3.000000000000e+00
     3.000000000000e+01 4.000000000000e+00 4.656612873077e-10 7.000000000000e+00
    -5.820766091347e-10-7.275957614183e-10 5.064066499472e-09 5.617039278150e-09
     1.896480000000e+05 2.428000000000e+03 0.000000000000e+00                   
G07 2026 07 21 04 40 48-2.079032128677e-04-3.755218358492e-12 0.000000000000e+00
    -5.875587463379e-03-2.107812500000e+01 4.738947396181e-09-1.958368274151e+00
    -1.118518412113e-06 2.093622175744e-02 8.556991815567e-06 5.153637853118e+03
     1.161000000000e+05 3.129243850708e-07-2.586070385172e+00 6.239861249924e-08
     9.513216685146e-01 2.053984375000e+02-1.955131948259e+00-8.543692256841e-09
     7.393165097859e-11 4.738947396181e-09-2.000000000000e+00 3.000000000000e+00
     3.100000000000e+01 4.000000000000e+00-1.071020960808e-08 7.000000000000e+00
    -9.313225746155e-10 6.984919309616e-09 0.000000000000e+00 0.000000000000e+00
     1.896480000000e+05 2.428000000000e+03 0.000000000000e+00                   
END OF FILE                                                 COMMENT
