     3.05           N: NAVIGATION       M: MIXED            RINEX VERSION / TYPE
PYRINEXCONV 0.1.2 ALDELTUNES            20260721 010951 UTC PGM / RUN BY / DATE
GAL    1.0175e+02  3.3203e-01  2.2858e-02             B 07  IONOSPHERIC CORR
GPSA   9.3132e-09  2.2352e-08  1.5199e-05  1.5140e-05 B 28  IONOSPHERIC CORR
GPSB   1.0035e+05  1.3107e+05  1.6712e+07  1.6318e+07 B 28  IONOSPHERIC CORR
BDSA   1.9558e-08  2.9802e-08 -5.9605e-07  1.0133e-06 B 25  IONOSPHERIC CORR
BDSB   1.4131e+05 -7.8643e+05  6.0293e+06 -4.9807e+06 B 25  IONOSPHERIC CORR
GAUT  6.5192580223e-09-2.664535259e-15 175800 1404   E07  0 TIME SYSTEM CORR
GPUT -3.3469405025e-09-7.989164885e-13 356700 2428   G28  0 TIME SYSTEM CORR
BDUT  0.0000000000e+00 0.000000000e+00 176400 1072   C25  0 TIME SYSTEM CORR
                                                            END OF HEADER
E19 2026 07 21 01 00 35 3.108113072813e-03 2.435740498186e-11 0.000000000000e+00
     3.800000000000e+01-4.078125000000e+01 3.216205396436e-09 1.486832582511e+00
    -2.047047019005e-06 2.443295670673e-04 5.671754479408e-06 5.440615858078e+03
     1.752000000000e+05 9.313225746155e-09 2.860610237041e+00 3.725290298462e-09
     9.747202612627e-01 2.225312500000e+02-2.404278916325e-01-5.625948629057e-09
     2.125088518467e-10 1.000000000000e+00 1.404000000000e+03                   
     1.070000000000e+02 0.000000000000e+00-4.423782229424e-09-4.423782229424e-09
     1.764350000000e+05                                                         
E21 2026 07 21 01 00 54-7.585274870507e-04-2.827960088325e-12 0.000000000000e+00
     3.800000000000e+01 1.217812500000e+02 3.151559846546e-09 1.439908301618e+00
     5.539506673813e-06 1.697258558124e-04 8.758157491684e-06 5.440619825363e+03
     1.752000000000e+05-7.450580596924e-09-1.328970709102e+00-1.490116119385e-08
     9.606208777154e-01 1.490937500000e+02-1.543655542055e+00-5.586661278295e-09
    -4.607334771129e-11 5.160000000000e+02 1.404000000000e+03                   
     1.070000000000e+02 0.000000000000e+00 6.984919309616e-10 9.313225746155e-10
     1.764540000000e+05                                                         
E07 2026 07 21 01 00 54-7.847271626815e-05-2.543742994021e-12 0.000000000000e+00
     3.800000000000e+01-4.796875000000e+01 3.299423148503e-09 2.602796138964e+00
    -2.142041921616e-06 4.214008804411e-04 5.424022674561e-06 5.440618276596e+03
     1.752000000000e+05 1.303851604462e-08 2.852460567655e+00 1.303851604462e-08
     9.693524959138e-01 2.308437500000e+02 1.827660495110e-01-5.654164090058e-09
     1.925080187317e-10 5.160000000000e+02 1.404000000000e+03                   
     1.070000000000e+02 0.000000000000e+00 4.423782229424e-09 4.889443516731e-09
     1.764540000000e+05                                                         
C32 2026 07 21 01 04 54-9.033344686031e-04 1.854516540334e-12 0.000000000000e+00
     1.000000000000e+00-1.312500000000e+01 3.323709874429e-09 2.559447414184e+00
    -6.132759153843e-07 5.078297108412e-04 7.395632565022e-06 5.282630712509e+03
     1.764000000000e+05 3.306195139885e-08 2.177645836010e+00-4.491303116083e-06
     9.887608252629e-01 2.226406250000e+02-4.945625415436e-02-5.925457533376e-07
     4.518045337580e-10                    1.072000000000e+03                   
     0.000000000000e+00 0.000000000000e+00-3.818422555923e-08-3.818422555923e-08
     1.766940000000e+05 1.000000000000e+00                                      
C23 2026 07 21 01 04 54-4.541795933619e-04-3.108624468950e-14 0.000000000000e+00
     1.000000000000e+00 1.907812500000e+01 4.261606084428e-09 2.122035657497e+00
     1.065898686647e-06 3.790127811953e-04 1.015933230519e-05 5.282651744843e+03
     1.764000000000e+05 1.220032572746e-07-2.018312272865e+00 7.591675966978e-06
     9.436848199406e-01 1.447968750000e+02-8.777745760915e-01 3.959754225372e-07
    -1.946509651369e-10                    1.072000000000e+03                   
     0.000000000000e+00 0.000000000000e+00 1.024454832077e-07 1.024454832077e-07
     1.766940000000e+05 1.000000000000e+00                                      
C20 2026 07 21 01 04 54-8.893401827663e-04 3.032241124856e-12 0.000000000000e+00
     1.000000000000e+00-1.635937500000e+01 3.292994309288e-09 1.381506767154e+00
    -9.723007678986e-07 8.087712340057e-04 7.377937436104e-06 5.282636220932e+03
     1.764000000000e+05 4.423782229424e-08 2.185726955981e+00 2.164393663406e-06
     9.899271118320e-01 2.240156250000e+02 2.747253579282e-01 1.305682244049e-06
     4.300179119721e-10                    1.072000000000e+03                   
     0.000000000000e+00 0.000000000000e+00 5.541369318962e-08 5.541369318962e-08
     1.766940000000e+05 1.000000000000e+00                                      
C41 2026 07 21 01 04 54-9.488416835666e-04-2.142286348317e-12 0.000000000000e+00
     1.000000000000e+00-9.968750000000e+00 3.361925751988e-09-1.901576781974e+00
    -4.344619810581e-07 1.457691192627e-03 7.094349712133e-06 5.282630775452e+03
     1.764000000000e+05-5.587935447693e-09 2.179899772913e+00-1.758290454745e-05
     9.876159192415e-01 2.324687500000e+02-1.039212271865e+00 1.607088727410e-06
     4.585905307078e-10                    1.072000000000e+03                   
     0.000000000000e+00 0.000000000000e+00-1.117587089539e-07-1.117587089539e-07
     1.766940000000e+05 1.000000000000e+00                                      
C25 2026 07 21 01 04 54 8.136342512444e-04-9.092282482470e-12 0.000000000000e+00
     1.000000000000e+00 1.871875000000e+01 4.280892602074e-09 1.362380630313e+00
     9.923242032528e-07 5.750388372689e-04 9.845476597548e-06 5.282663841248e+03
     1.764000000000e+05 6.519258022308e-09-2.040958682144e+00 2.321414649487e-05
     9.453141186189e-01 1.543281250000e+02 6.176397237908e-01 2.247846846130e-06
    -1.017899542459e-10                    1.072000000000e+03                   
     0.000000000000e+00 0.000000000000e+00 1.862645149231e-09 1.862645149231e-09
     1.766940000000e+05 1.000000000000e+00                                      
G04 2026 07 21 01 06 24 6.273412145674e-05 6.998845947237e-13 0.000000000000e+00
    -5.631446838379e-04-2.111328125000e+01 4.452149735621e-09-1.581149703060e+00
    -1.121312379837e-06 3.821527818218e-03 6.383284926414e-06 5.153549399026e+03
     1.233000000000e+05 2.700835466385e-08 2.690162137697e+00-4.377216100693e-08
     9.724406055288e-01 2.625976562500e+02-2.902052367753e+00-8.337076507608e-09
     3.330495871378e-10 4.452149735621e-09-2.000000000000e+00 3.000000000000e+00
     3.000000000000e+01 4.000000000000e+00-4.656612873077e-09 7.000000000000e+00
    -2.037268131971e-10 3.317836672068e-09-1.426087692380e-09-1.396983861923e-09
     1.767840000000e+05 2.428000000000e+03 0.000000000000e+00                   
G16 2026 07 21 01 06 24 3.019548021257e-04 6.480149750132e-12 0.000000000000e+00
     8.700000000000e+01 6.278125000000e+01 4.749840707074e-09 4.905484698842e-03
     3.473833203316e-06 1.503468246665e-02 8.979812264442e-06 5.153715620041e+03
     1.800000000000e+05-4.656612873077e-08-1.450390116970e+00 1.844018697739e-07
     9.573753442173e-01 2.042187500000e+02 9.375411286941e-01-8.338561620276e-09
    -8.571785620706e-11 1.000000000000e+00 3.800000000000e+02 0.000000000000e+00
     2.000000000000e+00 0.000000000000e+00-1.024454832077e-08 8.700000000000e+01
     7.071360000000e+05 4.000000000000e+00                                      
G26 2026 07 21 01 06 24-3.841067664325e-04-2.501110429876e-12 0.000000000000e+00
     8.200000000000e+01 4.721875000000e+01 5.441655238212e-09 7.605690042719e-01
     2.747401595116e-06 1.116497931071e-02 9.160488843918e-06 5.153580068588e+03
     1.800000000000e+05-3.352761268616e-08-1.639771574199e+00 1.136213541031e-07
     9.274887924425e-01 1.850000000000e+02 7.147935705013e-01-8.549641841186e-09
    -1.971510692762e-10 1.000000000000e+00 3.800000000000e+02 0.000000000000e+00
     2.000000000000e+00 0.000000000000e+00 6.519258022308e-09 8.200000000000e+01
     7.071360000000e+05 4.000000000000e+00                                      
G03 2026 07 21 01 06 24 3.641797229648e-04-1.898570189951e-11 0.000000000000e+00
     3.900000000000e+01-2.587500000000e+01 3.495145586843e-09 1.972188565113e+00
    -1.396983861923e-06 6.975172669627e-03 9.100884199142e-06 5.153767438889e+03
     1.799840000000e+05 2.980232238770e-08 1.621788574712e+00-1.285225152969e-07
     9.947606312017e-01 2.198125000000e+02 1.276449267064e+00-7.577458488704e-09
     3.042983895351e-10 1.000000000000e+00 3.800000000000e+02 0.000000000000e+00
     2.000000000000e+00 0.000000000000e+00 1.396983861923e-09 3.900000000000e+01
     7.071360000000e+05 4.000000000000e+00                                      
G31 2026 07 21 01 06 24-1.340978778899e-04 2.728484105319e-12 0.000000000000e+00
     4.600000000000e+01-3.046875000000e+01 4.896989693563e-09 1.387305427708e+00
    -1.519918441772e-06 1.091507845558e-02 9.141862392426e-06 5.153633649826e+03
     1.800000000000e+05-2.589076757431e-07-2.561142719726e+00 8.940696716309e-08
     9.550181209095e-01 2.048125000000e+02 9.765602962162e-01-8.211770624636e-09
    -1.703642392115e-10 1.000000000000e+00 3.800000000000e+02 0.000000000000e+00
     2.000000000000e+00 0.000000000000e+00-1.350417733192e-08 4.600000000000e+01
     7.071360000000e+05 4.000000000000e+00                                      
G27 2026 07 21 01 06 24 5.350448191166e-07 0.000000000000e+00 0.000000000000e+00
     8.700000000000e+01 4.993750000000e+01 4.967349767199e-09-9.214576464096e-01
     2.695247530937e-06 1.432977337390e-02 4.462897777557e-06 5.153674970627e+03
     1.800000000000e+05 1.713633537292e-07-5.083661844978e-01 2.682209014893e-07
     9.508953529740e-01 2.880625000000e+02 9.005370079411e-01-8.538212793692e-09
    -1.700070814773e-10 1.000000000000e+00 3.800000000000e+02 0.000000000000e+00
     2.000000000000e+00 0.000000000000e+00 2.328306436539e-09 8.700000000000e+01
     7.071360000000e+05 4.000000000000e+00                                      
G31 2026 07 21 01 08 00-1.341027382296e-04 2.749800387392e-12 0.000000000000e+00
     3.767967224121e-03-2.978515625000e+01 4.925383733431e-09 1.124739852169e+00
    -1.469627022743e-06 1.091369451024e-02 8.693896234035e-06 5.153589886929e+03
     1.377000000000e+05-1.257285475731e-07-2.561127504646e+00 1.275911927223e-07
     9.550183023114e-01 2.105351562500e+02 9.765758682477e-01-8.064922314151e-09
    -2.403671551140e-10 4.925383733431e-09-2.000000000000e+00 3.000000000000e+00
     2.900000000000e+01 4.000000000000e+00-1.350417733192e-08 7.000000000000e+00
    -2.619344741106e-10 8.265487849712e-09 0.000000000000e+00 0.000000000000e+00
     1.768800000000e+05 2.428000000000e+03 0.000000000000e+00                   
E28 2026 07 21 01 08 35-6.027094786987e-05-2.927436071332e-12 0.000000000000e+00
     3.700000000000e+01-3.906250000000e+01 3.651580674421e-09-1.244498328682e+00
    -2.037733793259e-06 2.845055423677e-04 5.515292286873e-06 5.440607912064e+03
     1.746000000000e+05-1.862645149231e-09 2.870212497768e+00-1.117587089539e-08
     9.490499403337e-01 2.184687500000e+02 1.958976890496e+00-5.843814846916e-09
     2.167947446570e-10 1.000000000000e+00 1.404000000000e+03                   
     1.070000000000e+02 0.000000000000e+00 9.313225746155e-10 1.862645149231e-09
     1.769150000000e+05                                                         
E30 2026 07 21 01 09 04-1.276257622521e-03-3.970512807427e-11 0.000000000000e+00
     3.900000000000e+01 9.584375000000e+01 3.297637359832e-09 9.960666176699e-01
     4.531815648079e-06 2.115775132552e-04 8.337199687958e-06 5.440623708725e+03
     1.758000000000e+05-2.607703208923e-08-1.327325286140e+00 7.823109626770e-08
     9.583798525277e-01 1.607812500000e+02 5.254053633680e-01-5.622377051715e-09
     2.214377952016e-11 5.160000000000e+02 1.404000000000e+03                   
     1.070000000000e+02 0.000000000000e+00 2.328306436539e-10 2.328306436539e-10
     1.769440000000e+05                                                         
G26 2026 07 21 01 09 36-3.841021971311e-04-2.511768570912e-12 0.000000000000e+00
    -6.264209747314e-03 5.512890625000e+01 5.416118460217e-09 4.981622482401e-01
     3.001652657986e-06 1.116635178914e-02 9.015202522278e-06 5.153641958227e+03
     1.152000000000e+05-2.700835466385e-08-1.639756209171e+00 1.173466444016e-07
     9.274891442743e-01 1.881914062500e+02 7.146350318747e-01-7.784374913940e-09
    -1.928651764659e-10 5.416118460217e-09-2.000000000000e+00 3.000000000000e+00
     3.000000000000e+01 4.000000000000e+00 6.519258022308e-09 7.000000000000e+00
    -8.440110832453e-10-4.190951585770e-09 5.820766091347e-09 5.878973752260e-09
     1.769760000000e+05 2.428000000000e+03 0.000000000000e+00                   
G03 2026 07 21 01 09 36 3.642191586550e-04-1.892885848065e-11 0.000000000000e+00
    -5.082130432129e-03-3.272656250000e+01 3.511932000350e-09 1.668182751148e+00
    -1.699663698673e-06 6.976965523791e-03 9.193085134029e-06 5.153454907572e+03
     1.737000000000e+05-4.470348358154e-08 1.621804437133e+00-1.080334186554e-07
     9.947597490621e-01 2.185000000000e+02 1.276501399613e+00-8.703163185159e-09
     2.996553389905e-10 3.511932000350e-09-2.000000000000e+00 2.000000000000e+00
     2.700000000000e+01 4.000000000000e+00 1.396983861923e-09 7.000000000000e+00
     5.529727786779e-10-2.008164301515e-09 1.862645149231e-09 5.005858838558e-09
     1.769760000000e+05 2.428000000000e+03 0.000000000000e+00                   
G28 2026 07 21 01 09 36-4.659118421841e-04 1.087130385713e-11 0.000000000000e+00
     2.033233642578e-03-2.901953125000e+01 4.716982195528e-09 2.882508508552e+00
    -1.423060894012e-06 5.171530065127e-04 8.507631719112e-06 5.153601420328e+03
     1.107000000000e+05-4.470348358154e-08-2.610097487026e+00 4.563480615616e-08
     9.622426723554e-01 2.161601562500e+02-3.132190035830e-01-8.347434081900e-09
    -1.016113753788e-10 4.716982195528e-09-2.000000000000e+00 3.000000000000e+00
     3.000000000000e+01 4.000000000000e+00-9.313225746155e-09 7.000000000000e+00
    -3.492459654808e-10 5.966285243630e-09-7.566995918751e-10-6.693881005049e-10
     1.769760000000e+05 2.428000000000e+03 0.000000000000e+00                   
E29 2026 07 21 01 10 05-2.271460252814e-04-3.623767952377e-12 0.000000000000e+00
     3.700000000000e+01-4.634375000000e+01 3.417642358522e-09 5.022229145717e-01
    -2.084299921989e-06 2.009533345699e-04 5.552545189857e-06 5.440611452103e+03
     1.746000000000e+05-1.117587089539e-08 2.852197831957e+00 5.587935447693e-09
     9.627380215372e-01 2.196875000000e+02 1.417844790584e+00-5.746310785481e-09
     2.139374827835e-10 1.000000000000e+00 1.404000000000e+03                   
     1.070000000000e+02 0.000000000000e+00-3.259629011154e-09-2.793967723846e-09
     1.770050000000e+05                                                         
E27 2026 07 21 01 10 05-1.049726095516e-03-1.062971932697e-11 0.000000000000e+00
     3.700000000000e+01 1.031875000000e+02 3.284065365933e-09 1.502247616563e+00
     4.922971129417e-06 2.446804428473e-04 8.303672075272e-06 5.440614410400e+03
     1.746000000000e+05 5.401670932770e-08-1.329007517583e+00-1.303851604462e-08
     9.605918841420e-01 1.592500000000e+02-8.808755747463e-01-5.630948837335e-09
    -3.500145795122e-11 1.000000000000e+00 1.404000000000e+03                   
     1.070000000000e+02 0.000000000000e+00 2.328306436539e-10 2.328306436539e-10
     1.770050000000e+05                                                         
E19 2026 07 21 01 10 05 3.108127857558e-03 2.437161583657e-11 0.000000000000e+00
     3.900000000000e+01-4.112500000000e+01 3.209419399486e-09 1.561036701433e+00
    -2.043321728706e-06 2.442972036079e-04 5.668029189110e-06 5.440615964890e+03
     1.758000000000e+05 9.313225746155e-09 2.860606859164e+00 3.725290298462e-09
     9.747203870737e-01 2.221875000000e+02-2.402466199903e-01-5.625948629057e-09
     2.128660095809e-10 1.000000000000e+00 1.404000000000e+03                   
     1.070000000000e+02 0.000000000000e+00-4.423782229424e-09-4.423782229424e-09
     1.770050000000e+05                                                         
E21 2026 07 21 01 10 05-7.585291168652e-04-2.813749233610e-12 0.000000000000e+00
     3.900000000000e+01 1.214375000000e+02 3.159417316699e-09 1.514528126267e+00
     5.546957254410e-06 1.697444822639e-04 8.761882781982e-06 5.440619743347e+03
     1.758000000000e+05-5.587935447693e-09-1.328974059184e+00-2.048909664154e-08
     9.606208265133e-01 1.488750000000e+02-1.543890305297e+00-5.589875697903e-09
    -4.428755904031e-11 1.000000000000e+00 1.404000000000e+03                   
     1.070000000000e+02 0.000000000000e+00 6.984919309616e-10 9.313225746155e-10
     1.770050000000e+05                                                         
E07 2026 07 21 01 10 05-7.847417145967e-05-2.529532139306e-12 0.000000000000e+00
     3.900000000000e+01-4.693750000000e+01 3.291565678351e-09 2.677264630590e+00
    -2.115964889526e-06 4.212224157527e-04 5.396082997322e-06 5.440618633270e+03
     1.758000000000e+05 7.450580596924e-09 2.852457189777e+00 5.587935447693e-09
     9.693525749113e-01 2.319375000000e+02 1.826830040404e-01-5.660235771540e-09
     1.935794919343e-10 1.000000000000e+00 1.404000000000e+03                   
     1.070000000000e+02 0.000000000000e+00 4.423782229424e-09 4.889443516731e-09
     1.770050000000e+05                                                         
END OF FILE                                                 COMMENT
