     3.05           N: NAVIGATION       M: MIXED            RINEX VERSION / TYPE
PYRINEXCONV 0.1.2 ALDELTUNES            20260721 063056 UTC PGM / RUN BY / DATE
GAL    1.0175e+02  3.3203e-01  2.2858e-02             G 21  IONOSPHERIC CORR
GPSA   9.3132e-09  2.2352e-08  1.5199e-05  1.5140e-05 G 14  IONOSPHERIC CORR
GPSB   1.0035e+05  1.3107e+05  1.6712e+07  1.6318e+07 G 14  IONOSPHERIC CORR
BDSA   2.0489e-08  3.7253e-08 -5.9605e-07  1.0133e-06 G 11  IONOSPHERIC CORR
BDSB   1.3722e+05 -4.9152e+05  4.5875e+06 -4.0632e+06 G 11  IONOSPHERIC CORR
GAUT  6.5192580223e-09-2.664535259e-15 195600 1404   E21  0 TIME SYSTEM CORR
GPUT -3.2887328416e-09 5.373479439e-14 399600 2428   G14  0 TIME SYSTEM CORR
BDUT  0.0000000000e+00 0.000000000e+00 194400 1072   C11  0 TIME SYSTEM CORR
                                                            END OF HEADER
E14 2026 07 21 06 22 35 3.966149175540e-03 1.531219595563e-10 5.204170427930e-18
     7.100000000000e+01-3.784375000000e+01 6.384908814223e-09-1.225837272517e+00
    -2.516433596611e-06 1.682794290828e-01 1.015141606331e-06 5.289342161179e+03
     1.950000000000e+05 1.074746251106e-06-4.466781197195e-01-2.292916178703e-06
     8.527903988517e-01 2.711875000000e+02-3.116582320838e+00-8.795009204579e-09
     1.696856395166e-09 1.000000000000e+00 1.404000000000e+03                   
     1.070000000000e+02 1.440000000000e+02-2.793967723846e-09-3.492459654808e-09
     1.957550000000e+05                                                         
G07 2026 07 21 06 28 48-2.079302503262e-04-3.755218358492e-12 0.000000000000e+00
     3.500461578369e-03-1.714453125000e+01 4.861273920143e-09-9.080759807124e-01
    -9.061768651009e-07 2.093952696305e-02 8.038245141506e-06 5.153635794120e+03
     1.161000000000e+05-8.288770914078e-08-2.586127494568e+00 4.023313522339e-07
     9.513190345306e-01 2.189101562500e+02-1.955181803776e+00-7.933309689100e-09
    -3.875161416028e-11 4.861273920143e-09-2.000000000000e+00 3.000000000000e+00
     3.100000000000e+01 4.000000000000e+00-1.071020960808e-08 7.000000000000e+00
    -9.313225746155e-10 6.984919309616e-09 0.000000000000e+00 0.000000000000e+00
     1.961280000000e+05 2.428000000000e+03 0.000000000000e+00                   
G17 2026 07 21 06 28 48-1.762084430084e-04-6.036060540282e-12 0.000000000000e+00
     3.508567810059e-03 4.568359375000e+01 4.778770483544e-09 1.827803561184e+00
     2.356246113777e-06 1.261504000286e-02 4.746951162815e-06 5.153547111464e+03
     1.728000000000e+05 2.263113856316e-07-4.349681466035e-01-3.166496753693e-08
     9.574394507505e-01 2.844765625000e+02-1.098740390765e+00-8.205106724823e-09
    -1.607209803882e-10 4.778770483544e-09-2.000000000000e+00 3.000000000000e+00
     2.800000000000e+01 4.000000000000e+00-1.071020960808e-08 7.000000000000e+00
    -8.440110832453e-10 6.722984835505e-09 0.000000000000e+00 0.000000000000e+00
     1.961280000000e+05 2.428000000000e+03 0.000000000000e+00                   
E28 2026 07 21 06 28 54-6.031838711351e-05-2.856381797756e-12 0.000000000000e+00
     6.500000000000e+01-4.243750000000e+01 3.455143920613e-09 8.353221417201e-01
    -1.924112439156e-06 2.854741178453e-04 5.289912223816e-06 5.440611021042e+03
     1.914000000000e+05 6.146728992462e-08 2.870114239413e+00 1.490116119385e-08
     9.490537205140e-01 2.218437500000e+02 1.961960943480e+00-5.815599385915e-09
     2.028655930234e-10 5.160000000000e+02 1.404000000000e+03                   
     1.070000000000e+02 0.000000000000e+00 9.313225746155e-10 1.862645149231e-09
     1.961340000000e+05                                                         
C30 2026 07 21 06 28 54 4.927382105961e-04 7.498890397528e-12 0.000000000000e+00
     1.000000000000e+00 1.187500000000e+00 4.315536902291e-09-9.627765328557e-01
    -9.778887033463e-09 4.685263847932e-04 3.783963620663e-06 5.282646198273e+03
     1.944000000000e+05-2.095475792885e-08 3.477552012857e-02 3.978936001658e-05
     9.455214389803e-01 2.746406250000e+02 9.829272360762e-01-1.991644388554e-06
    -2.853690296227e-10                    1.072000000000e+03                   
     0.000000000000e+00 0.000000000000e+00-4.516914486885e-08-4.516914486885e-08
     1.961340000000e+05 1.000000000000e+00                                      
C27 2026 07 21 06 28 54 6.609043339267e-04 4.823696997391e-12 0.000000000000e+00
     1.000000000000e+00 5.468750000000e+00 4.294107438240e-09-8.593533960669e-01
     3.436580300331e-07 6.353700300679e-04 3.734137862921e-06 5.282660392761e+03
     1.944000000000e+05 3.073364496231e-08 7.565614557643e-02 2.423068508506e-05
     9.479107645625e-01 2.748125000000e+02 1.690143171807e+00 1.975743726228e-06
    -2.800116636097e-10                    1.072000000000e+03                   
     0.000000000000e+00 0.000000000000e+00-2.002343535423e-08-2.002343535423e-08
     1.961340000000e+05 1.000000000000e+00                                      
C11 2026 07 21 06 28 54-7.889120606706e-04-2.166089529965e-11 0.000000000000e+00
     1.000000000000e+00-1.812500000000e+00 4.195531903601e-09 2.386004172937e-01
    -1.294538378716e-07 1.699194544926e-04 3.919005393982e-06 5.282639928818e+03
     1.944000000000e+05-6.472691893578e-08 7.445530488230e-02 4.931772127748e-05
     9.504542363597e-01 2.778593750000e+02-6.700743752873e-01 8.059121409041e-07
    -2.664396697103e-10                    1.072000000000e+03                   
     0.000000000000e+00 0.000000000000e+00 1.350417733192e-08 1.350417733192e-08
     1.961340000000e+05 1.000000000000e+00                                      
G20 2026 07 21 06 29 36 2.369242138229e-04 1.185185283248e-11 0.000000000000e+00
     1.869201660156e-04-1.651953125000e+01 4.574119101849e-09-1.844025056622e+00
    -8.940696716309e-07 1.907585363369e-03 6.382353603840e-06 5.153610573317e+03
     1.737000000000e+05 8.195638656616e-08 2.629707711504e+00 1.769512891769e-08
     9.620821917050e-01 2.575312500000e+02-1.761713138492e+00-8.229572029615e-09
     2.514390448740e-10 4.574119101849e-09-3.000000000000e+00 2.000000000000e+00
     2.800000000000e+01 4.000000000000e+00-6.984919309616e-09 7.000000000000e+00
    -1.455191522837e-10 4.220055416226e-09 2.095475792885e-09 2.066371962428e-09
     1.961760000000e+05 2.428000000000e+03 0.000000000000e+00                   
E21 2026 07 21 06 30 24-7.585730636492e-04-2.799538378895e-12 0.000000000000e+00
     6.500000000000e+01 8.396875000000e+01 3.230134548069e-09-2.817542582712e+00
     4.041939973831e-06 1.707910560071e-04 8.506700396538e-06 5.440617650986e+03
     1.914000000000e+05-4.842877388000e-08-1.329062545247e+00 2.048909664154e-08
     9.606204812646e-01 1.580937500000e+02-1.560986084467e+00-5.564160341041e-09
     9.714690370133e-11 5.160000000000e+02 1.404000000000e+03                   
     1.070000000000e+02 0.000000000000e+00 6.984919309616e-10 9.313225746155e-10
     1.962240000000e+05                                                         
E33 2026 07 21 06 30 24-2.517667599022e-05-1.918465386552e-12 0.000000000000e+00
     7.100000000000e+01-4.696875000000e+01 2.531534019982e-09 2.493998953593e+00
    -2.412125468254e-06 1.664389856160e-04 6.297603249550e-06 5.440607316971e+03
     1.950000000000e+05-4.284083843231e-08 7.700033132259e-01 1.117587089539e-08
     9.976684910229e-01 2.208437500000e+02-3.027376155488e+00-5.404153676121e-09
    -3.046555472693e-10 5.160000000000e+02 1.404000000000e+03                   
     1.070000000000e+02 0.000000000000e+00-4.423782229424e-09-4.889443516731e-09
     1.962240000000e+05                                                         
G14 2026 07 21 06 30 24 7.499779458158e-04 2.557953848736e-13 0.000000000000e+00
    -3.282070159912e-03 5.808593750000e+01 4.971457081142e-09-1.812418756870e+00
     2.956017851830e-06 7.364144199528e-03 8.785165846348e-06 5.153566057914e+03
     1.152000000000e+05 6.984919309616e-08-1.524203728198e+00-6.146728992462e-08
     9.416382626476e-01 2.006640625000e+02-2.680439830644e+00-8.221535980596e-09
     1.428630936784e-10 4.971457081142e-09-2.000000000000e+00 3.000000000000e+00
     3.100000000000e+01 4.000000000000e+00-7.916241884232e-09 7.000000000000e+00
    -2.619344741106e-10 5.005858838558e-09-1.455191522837e-09-1.076841726899e-09
     1.962240000000e+05 2.428000000000e+03 0.000000000000e+00                   
G01 2026 07 21 06 30 24 2.170315419789e-04-9.634959496907e-12 0.000000000000e+00
    -1.117229461670e-03-2.564843750000e+01 4.646443543024e-09 6.786723551877e-01
    -1.356936991215e-06 1.827183994465e-03 5.745328962803e-06 5.153617600205e+03
     1.746000000000e+05-9.313225746155e-10 6.292672102708e-01-3.259629011154e-08
     9.571115413203e-01 2.650117187500e+02 1.954233154798e-01-8.066708102822e-09
    -3.005482333260e-10 4.646443543024e-09-2.000000000000e+00 3.000000000000e+00
     2.900000000000e+01 4.000000000000e+00-8.847564458847e-09 7.000000000000e+00
    -2.910383045673e-10 5.646143108606e-09-5.529727786779e-10-6.693881005049e-10
     1.962240000000e+05 2.428000000000e+03 0.000000000000e+00                   
G30 2026 07 21 06 30 24 3.026208723895e-04 1.329070187239e-11 0.000000000000e+00
     3.701686859131e-03-2.192968750000e+01 5.097712340181e-09-1.216021699316e+00
    -1.246109604836e-06 8.218937087804e-03 7.903203368187e-06 5.153542055023e+03
     1.107000000000e+05 1.452863216400e-07-2.597195307358e+00 1.229345798492e-07
     9.366270645625e-01 2.134453125000e+02-2.258804522652e+00-8.059743527005e-09
    -4.518045337580e-11 5.097712340181e-09-2.000000000000e+00 3.000000000000e+00
     3.100000000000e+01 4.000000000000e+00 4.190951585770e-09 7.000000000000e+00
    -1.513399183750e-09-3.259629011154e-09 2.328306436539e-09 3.230525180697e-09
     1.962240000000e+05 2.428000000000e+03 0.000000000000e+00                   
G08 2026 07 21 06 30 24 3.939346352126e-04-9.233502851203e-12 0.000000000000e+00
    -5.928039550781e-03 5.482812500000e+01 5.237896750853e-09 1.818339585714e+00
     2.931803464890e-06 1.168702589348e-02 5.631707608700e-06 5.153471431654e+03
     1.413000000000e+05-2.682209014893e-07-5.417529616140e-01 1.611188054085e-07
     9.417685486688e-01 2.586953125000e+02 5.449356232817e-01-7.824198001303e-09
    -2.142946405177e-11 5.237896750853e-09-2.000000000000e+00 3.000000000000e+00
     3.000000000000e+01 4.000000000000e+00 4.656612873077e-09 7.000000000000e+00
    -1.047737896442e-09-4.685716703534e-09 6.257323548198e-09 6.839400157332e-09
     1.962240000000e+05 2.428000000000e+03 0.000000000000e+00                   
E06 2026 07 21 06 30 54-3.006564802490e-04-5.030642569182e-12 0.000000000000e+00
     7.100000000000e+01-4.090625000000e+01 3.279779473123e-09 1.098617704603e+00
    -1.851469278336e-06 5.052617052570e-04 5.615875124931e-06 5.440611583710e+03
     1.950000000000e+05 2.421438694000e-08 2.852050406387e+00-3.725290298462e-09
     9.626608540715e-01 2.192500000000e+02 1.386091498286e+00-5.738810473063e-09
     1.917937032633e-10 5.160000000000e+02 1.404000000000e+03                   
     1.070000000000e+02 0.000000000000e+00 2.328306436539e-09 3.725290298462e-09
     1.962540000000e+05                                                         
E13 2026 07 21 06 30 54-5.992979276925e-05-9.094947017729e-13 0.000000000000e+00
     7.100000000000e+01-5.459375000000e+01 2.610108721505e-09 8.246642714913e-01
    -2.512708306313e-06 5.432264879346e-05 5.535781383514e-06 5.440602489471e+03
     1.950000000000e+05 9.313225746155e-09 7.700311072064e-01-9.313225746155e-09
     9.976510720573e-01 2.388125000000e+02 1.922476209594e-01-5.443083869148e-09
    -2.378670509746e-10 5.160000000000e+02 1.404000000000e+03                   
     1.070000000000e+02 0.000000000000e+00 3.958120942116e-09 4.190951585770e-09
     1.962540000000e+05                                                         
E28 2026 07 21 06 30 54-6.032863166183e-05-2.842170943040e-12 0.000000000000e+00
     7.100000000000e+01-4.225000000000e+01 3.450858027803e-09 1.281469099292e+00
    -1.911073923111e-06 2.854946069419e-04 5.269423127174e-06 5.440611108780e+03
     1.950000000000e+05 5.029141902924e-08 2.870093309444e+00 2.980232238770e-08
     9.490545061010e-01 2.224062500000e+02 1.962127913635e+00-5.808099073497e-09
     1.967939115420e-10 5.160000000000e+02 1.404000000000e+03                   
     1.070000000000e+02 0.000000000000e+00 9.313225746155e-10 1.862645149231e-09
     1.962540000000e+05                                                         
E21 2026 07 21 06 30 54-7.585830753669e-04-2.799538378895e-12 0.000000000000e+00
     7.100000000000e+01 8.415625000000e+01 3.204419191207e-09-2.372343089886e+00
     4.090368747711e-06 1.708025811240e-04 8.620321750641e-06 5.440617286682e+03
     1.950000000000e+05-2.607703208923e-08-1.329082789107e+00-2.048909664154e-08
     9.606209625646e-01 1.565000000000e+02-1.559874085325e+00-5.531301829495e-09
     1.071473202588e-10 5.160000000000e+02 1.404000000000e+03                   
     1.070000000000e+02 0.000000000000e+00 6.984919309616e-10 9.313225746155e-10
     1.962540000000e+05                                                         
E23 2026 07 21 06 31 05-4.270131466910e-05-1.293187779083e-12 0.000000000000e+00
     7.100000000000e+01 9.150000000000e+01 3.186918462232e-09-1.973245510259e+00
     4.315748810768e-06 1.742112217471e-04 8.603557944298e-06 5.440618791580e+03
     1.950000000000e+05-1.490116119385e-08-1.332274857338e+00 4.284083843231e-08
     9.625505924729e-01 1.557812500000e+02-2.751027767486e+00-5.553445609015e-09
     8.857511808063e-11 1.000000000000e+00 1.404000000000e+03                   
     1.070000000000e+02 0.000000000000e+00 4.656612873077e-10 1.862645149231e-09
     1.962650000000e+05                                                         
E31 2026 07 21 06 31 05-1.580872922204e-04-2.941646926047e-12 0.000000000000e+00
     6.800000000000e+01 1.033750000000e+02 3.208705084018e-09 1.970774208599e+00
     4.686415195465e-06 3.427705960348e-04 8.840113878250e-06 5.440614240646e+03
     1.932000000000e+05 1.490116119385e-08-1.329151806656e+00-7.450580596924e-09
     9.605969633936e-01 1.527187500000e+02-1.401123990964e+00-5.553088451281e-09
     5.678807973718e-11 1.000000000000e+00 1.404000000000e+03                   
     1.070000000000e+02 0.000000000000e+00 3.492459654808e-09 4.190951585770e-09
     1.962650000000e+05                                                         
E09 2026 07 21 06 31 05-3.009144566022e-04 1.787725523172e-11 3.469446951954e-18
     7.100000000000e+01-4.087500000000e+01 3.085485665720e-09 1.710436765551e+00
    -1.883134245872e-06 4.996038042009e-04 5.736947059631e-06 5.440615543365e+03
     1.950000000000e+05 3.725290298462e-08 2.855556087682e+00-1.490116119385e-08
     9.750920531151e-01 2.220312500000e+02 3.877097410727e-01-5.612733792891e-09
     1.753644474903e-10 1.000000000000e+00 1.404000000000e+03                   
     1.070000000000e+02 0.000000000000e+00 6.984919309616e-10 9.313225746155e-10
     1.962650000000e+05                                                         
E26 2026 07 21 06 31 05 3.675618208945e-04 1.091393642128e-11 0.000000000000e+00
     7.100000000000e+01-4.368750000000e+01 2.673325640458e-09 2.832396220489e+00
    -2.060085535049e-06 9.068509098142e-05 5.930662155151e-06 5.440605382919e+03
     1.950000000000e+05-1.303851604462e-08 7.665640615787e-01-6.146728992462e-08
     9.909307497061e-01 2.230000000000e+02-2.595413566764e+00-5.522730043874e-09
    -2.710827202548e-10 1.000000000000e+00 1.404000000000e+03                   
     1.070000000000e+02 0.000000000000e+00-5.122274160385e-09-5.587935447693e-09
     1.962650000000e+05                                                         
E04 2026 07 21 06 31 05-1.221743295901e-04 3.355182798259e-11 0.000000000000e+00
     6.700000000000e+01-4.246875000000e+01 3.155488581622e-09 2.647742845734e+00
    -1.899898052216e-06 2.930443733931e-04 5.640089511871e-06 5.440609802246e+03
     1.926000000000e+05 4.284083843231e-08 2.852413615299e+00 9.313225746155e-09
     9.693544913340e-01 2.223750000000e+02-6.753111758211e-02-5.659521456071e-09
     2.039370662260e-10 1.000000000000e+00 1.404000000000e+03                   
     1.070000000000e+02 0.000000000000e+00-4.190951585770e-09-4.656612873077e-09
     1.962650000000e+05                                                         
E06 2026 07 21 06 31 05-3.006593906321e-04-5.016431714466e-12 0.000000000000e+00
     7.200000000000e+01-4.090625000000e+01 3.279779473123e-09 1.098617704603e+00
    -1.851469278336e-06 5.052617052570e-04 5.615875124931e-06 5.440611583710e+03
     1.950000000000e+05 4.470348358154e-08 2.852046893921e+00-1.862645149231e-09
     9.626610486396e-01 2.192500000000e+02 1.386261394277e+00-5.738810473063e-09
     1.917937032633e-10 1.000000000000e+00 1.404000000000e+03                   
     1.070000000000e+02 0.000000000000e+00 2.328306436539e-09 3.725290298462e-09
     1.962650000000e+05                                                         
E28 2026 07 21 06 31 05-6.033037789166e-05-2.842170943040e-12 0.000000000000e+00
     7.200000000000e+01-4.225000000000e+01 3.450858027803e-09 1.281469099292e+00
    -1.911073923111e-06 2.854946069419e-04 5.269423127174e-06 5.440611108780e+03
     1.950000000000e+05 3.166496753693e-08 2.870089845254e+00 4.656612873077e-08
     9.490547226129e-01 2.224062500000e+02 1.961895922623e+00-5.808099073497e-09
     1.864363372504e-10 1.000000000000e+00 1.404000000000e+03                   
     1.070000000000e+02 0.000000000000e+00 9.313225746155e-10 1.862645149231e-09
     1.962650000000e+05                                                         
E21 2026 07 21 06 31 05-7.585848215967e-04-2.799538378895e-12 0.000000000000e+00
     7.200000000000e+01 8.415625000000e+01 3.204419191207e-09-2.372343089886e+00
     4.090368747711e-06 1.708025811240e-04 8.620321750641e-06 5.440617286682e+03
     1.950000000000e+05-2.048909664154e-08-1.329086133338e+00-2.048909664154e-08
     9.606210474139e-01 1.565000000000e+02-1.558634889845e+00-5.531301829495e-09
     1.075044779930e-10 1.000000000000e+00 1.404000000000e+03                   
     1.070000000000e+02 0.000000000000e+00 6.984919309616e-10 9.313225746155e-10
     1.962650000000e+05                                                         
END OF FILE                                                 COMMENT
