     3.05           N: NAVIGATION       M: MIXED            RINEX VERSION / TYPE
PYRINEXCONV 0.1.2 ALDELTUNES            20260721 125212 UTC PGM / RUN BY / DATE
GAL    9.2500e+01  2.3047e-01  2.8290e-02             M 25  IONOSPHERIC CORR
GPSA   9.3132e-09  2.2352e-08  1.5199e-05  1.5140e-05 M 13  IONOSPHERIC CORR
GPSB   1.0035e+05  1.3107e+05  1.6712e+07  1.6318e+07 M 13  IONOSPHERIC CORR
GAUT  6.5192580223e-09-2.664535259e-15 217800 1404   E25  0 TIME SYSTEM CORR
GPUT  5.8207660913e-10-1.483257961e-12 442800 2428   G13  0 TIME SYSTEM CORR
                                                            END OF HEADER
G21 2026 07 21 12 46 24 3.956621512771e-04-5.343281372916e-12 0.000000000000e+00
     2.300000000000e+02-4.034375000000e+01 4.495901558060e-09 1.287511599032e+00
    -1.912936568260e-06 7.923487573862e-04 7.547438144684e-06 5.153592666626e+03
     2.232000000000e+05 6.146728992462e-08 1.623503424840e+00-5.401670932770e-08
     9.641823678715e-01 2.333125000000e+02-8.721714242978e-02-8.044620805033e-09
     5.785955293977e-11 1.000000000000e+00 3.800000000000e+02 0.000000000000e+00
     2.800000000000e+00 0.000000000000e+00-9.778887033463e-09 4.860000000000e+02
     8.751360000000e+05 4.000000000000e+00                                      
G11 2026 07 21 12 46 24-2.677002921700e-04 1.227817847393e-11 0.000000000000e+00
     6.900000000000e+01-2.703125000000e+01 4.628764235181e-09-1.755002032525e+00
    -1.342967152596e-06 2.487988327630e-03 5.004927515984e-06 5.153647804260e+03
     2.232000000000e+05 6.891787052155e-08 5.992311482683e-01 0.000000000000e+00
     9.627620031533e-01 2.838125000000e+02-2.355045640144e+00-8.181412217230e-09
    -5.893102614235e-11 1.000000000000e+00 3.800000000000e+02 0.000000000000e+00
     2.000000000000e+00 0.000000000000e+00-8.847564458847e-09 8.370000000000e+02
     8.751360000000e+05 4.000000000000e+00                                      
G12 2026 07 21 12 46 24-6.054574623704e-04 5.684341886081e-13 0.000000000000e+00
     1.100000000000e+01 4.481250000000e+01 4.369467720155e-09 1.715136100223e+00
     2.250075340271e-06 8.705807500519e-03 8.989125490189e-06 5.153704656601e+03
     2.232000000000e+05 1.061707735062e-07-1.467491007577e+00-2.123415470123e-07
     9.583101912946e-01 2.030312500000e+02 1.587336480902e+00-7.903900657759e-09
     4.964492505326e-11 1.000000000000e+00 3.800000000000e+02 0.000000000000e+00
     2.000000000000e+00 0.000000000000e+00-1.257285475731e-08 1.100000000000e+01
     8.751360000000e+05 4.000000000000e+00                                      
G13 2026 07 21 12 46 24 4.184870049357e-04 5.229594535194e-12 0.000000000000e+00
     4.300000000000e+01 3.981250000000e+01 4.345538151964e-09 1.579206309287e+00
     2.102926373482e-06 2.269622404128e-03 9.225681424141e-06 5.153590618134e+03
     2.232000000000e+05 7.636845111847e-08-1.576006455406e+00-4.097819328308e-08
     9.588259094163e-01 1.999687500000e+02 1.820088937301e+00-7.917472651659e-09
     2.071514858337e-11 1.000000000000e+00 3.800000000000e+02 0.000000000000e+00
     2.800000000000e+00 6.300000000000e+01-8.381903171539e-09 4.300000000000e+01
     8.751360000000e+05 4.000000000000e+00                                      
G05 2026 07 21 12 46 24-2.352870069444e-04-3.410605131648e-13 0.000000000000e+00
     2.300000000000e+01-3.318750000000e+01 4.069812381164e-09-7.691829248591e-01
    -1.652166247368e-06 5.605044658296e-03 7.944181561470e-06 5.153775075912e+03
     2.232000000000e+05-8.754432201385e-08 1.559845350688e+00 7.450580596924e-09
     9.811629641872e-01 2.366875000000e+02 1.482026453356e+00-7.908186550570e-09
     5.714523747137e-11 1.000000000000e+00 3.800000000000e+02 0.000000000000e+00
     2.000000000000e+00 0.000000000000e+00-1.071020960808e-08 2.300000000000e+01
     8.751360000000e+05 4.000000000000e+00                                      
G25 2026 07 21 12 46 24 4.047034308314e-04-3.183231456205e-12 0.000000000000e+00
     8.000000000000e+01 3.790625000000e+01 4.647693595094e-09 1.648745407744e+00
     1.842156052589e-06 1.290104887448e-02 9.052455425262e-06 5.153670021057e+03
     2.232000000000e+05-2.123415470123e-07-1.562931777216e+00-2.291053533554e-07
     9.467232159420e-01 1.980937500000e+02 1.161786415102e+00-8.136410342721e-09
    -1.107188976008e-11 1.000000000000e+00 3.800000000000e+02 0.000000000000e+00
     2.000000000000e+00 0.000000000000e+00 5.587935447693e-09 8.000000000000e+01
     8.751360000000e+05 4.000000000000e+00                                      
G19 2026 07 21 12 46 24 7.038256153464e-04 4.547473508865e-13 0.000000000000e+00
     6.000000000000e+01 5.362500000000e+01 4.838058667420e-09 5.902095928729e-01
     2.825632691383e-06 1.176425407175e-02 4.813075065613e-06 5.153758611679e+03
     2.232000000000e+05 1.899898052216e-07-3.913997822291e-01 5.960464477539e-08
     9.566069859950e-01 2.836875000000e+02 3.029541443944e+00-8.378206128772e-09
     7.786038605475e-11 1.000000000000e+00 3.800000000000e+02 0.000000000000e+00
     2.000000000000e+00 0.000000000000e+00-1.536682248116e-08 6.000000000000e+01
     8.751360000000e+05 4.000000000000e+00                                      
G06 2026 07 21 12 46 24-5.691936239600e-04 7.958078640513e-12 0.000000000000e+00
     1.900000000000e+01-2.981250000000e+01 4.129814880509e-09-2.987349297809e+00
    -1.443549990654e-06 3.694616956636e-03 5.247071385384e-06 5.153722587585e+03
     2.232000000000e+05-3.352761268616e-08 5.835492911246e-01 8.568167686462e-08
     9.858708071906e-01 2.919375000000e+02-5.466349686720e-01-7.904972130962e-09
    -9.714690370133e-11 1.000000000000e+00 3.800000000000e+02 0.000000000000e+00
     2.000000000000e+00 0.000000000000e+00 3.725290298462e-09 1.900000000000e+01
     8.751360000000e+05 4.000000000000e+00                                      
G29 2026 07 21 12 46 24-2.777096815407e-04 7.389644451905e-12 0.000000000000e+00
     8.600000000000e+01 5.112500000000e+01 4.622335395966e-09-1.203435310997e+00
     2.352520823479e-06 3.657206660137e-03 5.047768354416e-06 5.153688520432e+03
     2.232000000000e+05 2.048909664154e-08-4.180532909004e-01-1.862645149231e-08
     9.601397678467e-01 2.815937500000e+02 2.869500261472e+00-8.233557246422e-09
     1.150047904111e-10 1.000000000000e+00 3.800000000000e+02 0.000000000000e+00
     2.000000000000e+00 0.000000000000e+00-9.778887033463e-09 8.600000000000e+01
     8.751360000000e+05 4.000000000000e+00                                      
G12 2026 07 21 12 49 36-6.054585392121e-04 5.542233338929e-13 0.000000000000e+00
    -4.949092864990e-03 3.772265625000e+01 4.390361447605e-09 1.452541715439e+00
     1.955777406693e-06 8.707613684237e-03 8.841045200825e-06 5.153516838877e+03
     2.025000000000e+05-1.117587089539e-08-1.467476728765e+00-1.946464180946e-07
     9.583097143833e-01 2.068085937500e+02 1.587387384599e+00-8.343683925691e-09
     4.589476884420e-11 4.390361447605e-09-2.000000000000e+00 3.000000000000e+00
     2.800000000000e+01 4.000000000000e+00-1.257285475731e-08 7.000000000000e+00
    -6.984919309616e-10 7.072230800986e-09 0.000000000000e+00 0.000000000000e+00
     2.189760000000e+05 2.428000000000e+03 0.000000000000e+00                   
G06 2026 07 21 12 49 36-5.692079430446e-04 7.982947636265e-12 0.000000000000e+00
     4.358768463135e-03-2.539843750000e+01 4.126957618636e-09 3.033731863795e+00
    -1.243315637112e-06 3.694834478665e-03 4.962086677551e-06 5.153500829988e+03
     1.845000000000e+05-6.239861249924e-08 5.835633402583e-01 2.607703208923e-08
     9.858711253753e-01 2.967070312500e+02-5.470649729606e-01-8.471010657932e-09
    -7.071723137082e-11 4.126957618636e-09-2.000000000000e+00 3.000000000000e+00
     2.900000000000e+01 4.000000000000e+00 3.725290298462e-09 7.000000000000e+00
     3.201421350241e-10-3.929017111659e-09 1.775333657861e-09 2.211891114712e-09
     2.189760000000e+05 2.428000000000e+03 0.000000000000e+00                   
G25 2026 07 21 12 51 12 4.047089896630e-04-3.229416734030e-12 0.000000000000e+00
     4.336357116699e-03 4.065625000000e+01 4.696624204679e-09 1.386186788381e+00
     2.051703631878e-06 1.289950474165e-02 8.748844265938e-06 5.153552874520e+03
     1.593000000000e+05-2.169981598854e-07-1.562916745733e+00-7.729977369308e-08
     9.467228845911e-01 2.032539062500e+02 1.161801535092e+00-8.100816666438e-09
    -5.768097407267e-11 4.696624204679e-09-2.000000000000e+00 3.000000000000e+00
     3.000000000000e+01 4.000000000000e+00 5.587935447693e-09 7.000000000000e+00
    -1.891748979688e-09-4.773028194904e-09-1.047737896442e-09 6.402842700481e-10
     2.190720000000e+05 2.428000000000e+03 0.000000000000e+00                   
G05 2026 07 21 12 51 12-2.352863957640e-04-3.375077994860e-13 0.000000000000e+00
    -5.671977996826e-03-3.324218750000e+01 4.024810506656e-09-1.031420181351e+00
    -1.653097569942e-06 5.603698780760e-03 7.516704499722e-06 5.153446300058e+03
     1.701000000000e+05-7.916241884232e-08 1.559859682165e+00 5.401670932770e-08
     9.811629890568e-01 2.459609375000e+02 1.481731062401e+00-8.459403031570e-09
     4.375182243902e-11 4.024810506656e-09-2.000000000000e+00 3.000000000000e+00
     3.000000000000e+01 4.000000000000e+00-1.071020960808e-08 7.000000000000e+00
    -3.783497959375e-10 5.733454599977e-09 0.000000000000e+00 0.000000000000e+00
     2.190720000000e+05 2.428000000000e+03 0.000000000000e+00                   
G21 2026 07 21 12 52 00 3.956717555411e-04-5.307754236128e-12 0.000000000000e+00
    -7.040500640869e-03-3.537890625000e+01 4.462507309913e-09 1.026285565645e+00
    -1.767650246620e-06 7.946521509439e-04 7.230788469315e-06 5.153629512523e+03
     1.332000000000e+05 1.955777406693e-08 1.623518024762e+00-4.656612873077e-08
     9.641823159379e-01 2.416328125000e+02-8.855343836615e-02-8.309039625474e-09
     3.571577341961e-11 4.462507309913e-09-2.000000000000e+00 3.000000000000e+00
     3.100000000000e+01 4.000000000000e+00-9.778887033463e-09 7.000000000000e+00
    -8.731149137020e-11 6.199115887284e-09 1.746229827404e-10 1.455191522837e-10
     2.191200000000e+05 2.428000000000e+03 0.000000000000e+00                   
G11 2026 07 21 12 52 00-2.677223528735e-04 1.223909862347e-11 0.000000000000e+00
    -4.132270812988e-03-2.292187500000e+01 4.625728394441e-09-2.017792766517e+00
    -1.150183379650e-06 2.486625686288e-03 5.193054676056e-06 5.153574809431e+03
     1.872000000000e+05 5.774199962616e-08 5.992458425489e-01 4.656612873077e-09
     9.627621128722e-01 2.799687500000e+02-2.354806973837e+00-8.158319061643e-09
    -5.285934466102e-11 4.625728394441e-09-2.000000000000e+00 3.000000000000e+00
     2.900000000000e+01 4.000000000000e+00-8.847564458847e-09 7.000000000000e+00
    -2.037268131971e-10 5.675246939063e-09 3.783497959375e-10 2.328306436539e-10
     2.191200000000e+05 2.428000000000e+03 0.000000000000e+00                   
G13 2026 07 21 12 52 00 4.184774297755e-04 5.240252676231e-12 8.673617379884e-19
    -4.507541656494e-03 3.406250000000e+01 4.347502519502e-09 1.316556556711e+00
     1.756474375725e-06 2.271318458952e-03 8.977949619293e-06 5.153630947532e+03
     1.647000000000e+05 2.980232238770e-08-1.575992203658e+00-4.470348358154e-08
     9.588257221628e-01 2.048125000000e+02 1.820178237478e+00-8.384757065123e-09
     2.160804291886e-11 4.347502519502e-09-3.000000000000e+00 1.000000000000e+00
     3.000000000000e+01 7.000000000000e+00-8.381903171539e-09 7.000000000000e+00
    -1.164153218269e-10 5.267793312669e-09 1.658918336034e-09 1.949956640601e-09
     2.191200000000e+05 2.428000000000e+03 0.000000000000e+00                   
E16 2026 07 21 12 52 05-4.650175105780e-05-2.472688720445e-12 0.000000000000e+00
     1.040000000000e+02 8.293750000000e+01 2.962266247422e-09-1.387599465465e+00
     4.008412361145e-06 4.924213280901e-04 8.672475814819e-06 5.440619869232e+03
     2.148000000000e+05 1.862645149231e-08-1.332508973970e+00-5.587935447693e-09
     9.625735163992e-01 1.542500000000e+02-2.476026860160e+00-5.504157841696e-09
     8.036049019412e-11 1.000000000000e+00 1.404000000000e+03                   
     1.070000000000e+02 0.000000000000e+00-3.725290298462e-09-2.328306436539e-09
     2.191250000000e+05                                                         
E12 2026 07 21 12 52 05-5.902443081141e-05-2.614797267597e-12 0.000000000000e+00
     1.040000000000e+02-5.346875000000e+01 2.791902008211e-09 2.504139079558e-01
    -2.425163984299e-06 3.171436255798e-04 4.950910806656e-06 5.440602628708e+03
     2.148000000000e+05 6.146728992462e-08 7.694331160349e-01 7.450580596924e-09
     9.945570705398e-01 2.502187500000e+02 8.577544266062e-01-5.530944671761e-09
    -1.182192100189e-10 1.000000000000e+00 1.404000000000e+03                   
     1.070000000000e+02 0.000000000000e+00-1.187436282635e-08-1.164153218269e-08
     2.191250000000e+05                                                         
E11 2026 07 21 12 52 24 5.518530902918e-03 6.738787305949e-11-3.469446951954e-18
     1.090000000000e+02-5.190625000000e+01 2.717970357232e-09-6.656310147064e-01
    -2.471730113029e-06 4.154370399192e-04 5.375593900681e-06 5.440607854843e+03
     2.178000000000e+05 3.725290298462e-08 7.694078660688e-01-6.891787052155e-08
     9.945443212087e-01 2.411875000000e+02 1.348919501832e+00-5.513801100519e-09
    -1.175048945505e-10 5.160000000000e+02 1.404000000000e+03                   
     1.070000000000e+02 0.000000000000e+00-1.490116119385e-08-1.583248376846e-08
     2.191440000000e+05                                                         
E25 2026 07 21 12 52 24 2.174300607294e-05-1.421085471520e-14 0.000000000000e+00
     1.090000000000e+02 8.281250000000e+01 2.972623821714e-09-2.912257244667e+00
     3.930181264877e-06 2.965595340356e-04 8.381903171539e-06 5.440616222382e+03
     2.178000000000e+05 1.862645149231e-08-1.329207279047e+00-1.862645149231e-09
     9.606292353664e-01 1.576250000000e+02-1.312002698270e+00-5.524872990279e-09
     4.357324357192e-11 5.160000000000e+02 1.404000000000e+03                   
     1.070000000000e+02 0.000000000000e+00 2.328306436539e-09 2.561137080193e-09
     2.191440000000e+05                                                         
E10 2026 07 21 12 52 24-8.074557990767e-04-2.657429831743e-12 0.000000000000e+00
     1.060000000000e+02-5.384375000000e+01 2.715113095359e-09-1.448141785970e+00
    -2.492219209671e-06 2.855767961591e-04 5.129724740982e-06 5.440599714279e+03
     2.160000000000e+05 6.519258022308e-08 7.679582181194e-01-4.656612873077e-08
     9.974618450667e-01 2.471875000000e+02 2.337049907418e+00-5.504514999430e-09
    -1.214336296267e-10 5.160000000000e+02 1.404000000000e+03                   
     1.070000000000e+02 0.000000000000e+00-1.164153218269e-09-2.328306436539e-10
     2.191440000000e+05                                                         
END OF FILE                                                 COMMENT
