     3.05           N: NAVIGATION       M: MIXED            RINEX VERSION / TYPE
PYRINEXCONV 0.1.2 ALDELTUNES            20260721 052042 UTC PGM / RUN BY / DATE
GAL    1.0175e+02  3.3203e-01  2.2858e-02             F 06  IONOSPHERIC CORR
GPSA   9.3132e-09  2.2352e-08  1.5199e-05  1.5140e-05 F 14  IONOSPHERIC CORR
GPSB   1.0035e+05  1.3107e+05  1.6712e+07  1.6318e+07 F 14  IONOSPHERIC CORR
BDSA   2.0489e-08  2.2352e-08 -5.3644e-07  9.5367e-07 F 20  IONOSPHERIC CORR
BDSB   1.3722e+05 -4.4237e+05  4.3254e+06 -3.8666e+06 F 20  IONOSPHERIC CORR
GAUT  6.5192580223e-09-2.664535259e-15 189000 1404   E06  0 TIME SYSTEM CORR
GPUT -3.2887328416e-09 5.373479439e-14 385200 2428   G14  0 TIME SYSTEM CORR
BDUT  0.0000000000e+00 0.000000000e+00 190800 1072   C20  0 TIME SYSTEM CORR
                                                            END OF HEADER
G07 2026 07 21 05 16 24-2.079098485410e-04-3.751665644813e-12 0.000000000000e+00
     9.700000000000e+01-2.071875000000e+01 4.741626079187e-09-1.695767174572e+00
    -9.015202522278e-07 2.093818434514e-02 7.875263690948e-06 5.153584897995e+03
     1.944000000000e+05 4.228204488754e-07-2.586084121241e+00 1.657754182816e-07
     9.513214629746e-01 2.134062500000e+02-1.955170504928e+00-7.871042146213e-09
     1.142904749427e-11 1.000000000000e+00 3.800000000000e+02 0.000000000000e+00
     2.000000000000e+00 0.000000000000e+00-1.071020960808e-08 9.700000000000e+01
     7.671360000000e+05 4.000000000000e+00                                      
G08 2026 07 21 05 16 24 3.939843736589e-04-9.208633855451e-12 0.000000000000e+00
     8.200000000000e+01 5.553125000000e+01 5.257361847366e-09 1.030811823210e+00
     3.173947334290e-06 1.168476371095e-02 5.075708031654e-06 5.153750621796e+03
     1.944000000000e+05 5.587935447693e-09-5.417054526179e-01 1.657754182816e-07
     9.417689063523e-01 2.702812500000e+02 5.448627546008e-01-8.641074221140e-09
    -2.032227507576e-10 1.000000000000e+00 3.800000000000e+02 0.000000000000e+00
     2.000000000000e+00 0.000000000000e+00 4.656612873077e-09 8.200000000000e+01
     7.671360000000e+05 4.000000000000e+00                                      
G09 2026 07 21 05 16 24 7.171146571636e-04-7.048583938740e-12 0.000000000000e+00
     7.400000000000e+01-1.984375000000e+01 4.403754862638e-09 1.649337004501e+00
    -1.048669219017e-06 3.670229576528e-03 6.090849637985e-06 5.153696254730e+03
     1.944000000000e+05 1.378357410431e-07 2.624858163673e+00 3.166496753693e-08
     9.667080432703e-01 2.642812500000e+02 2.038203357865e+00-8.018548290436e-09
     2.792973481413e-10 1.000000000000e+00 3.800000000000e+02 0.000000000000e+00
     2.000000000000e+00 0.000000000000e+00 4.656612873077e-10 7.400000000000e+01
     7.671360000000e+05 4.000000000000e+00                                      
G02 2026 07 21 05 16 24 1.419312320650e-04 7.275957614183e-12 0.000000000000e+00
     1.300000000000e+01-2.415625000000e+01 4.525188492264e-09 1.292985379128e+00
    -1.484528183937e-06 1.689662365243e-02 4.813075065613e-06 5.153731765747e+03
     1.944000000000e+05 3.483146429062e-07 4.674341725895e-01 1.862645149231e-09
     9.620966197345e-01 2.790000000000e+02-7.358926908272e-01-8.126767083898e-09
    -4.053740283126e-10 1.000000000000e+00 3.800000000000e+02 0.000000000000e+00
     2.000000000000e+00 0.000000000000e+00-1.722946763039e-08 1.300000000000e+01
     7.671360000000e+05 4.000000000000e+00                                      
G30 2026 07 21 05 16 24 3.025494515896e-04 1.330136001343e-11 0.000000000000e+00
     9.900000000000e+01-2.796875000000e+01 5.111641491814e-09-2.003574362149e+00
    -1.674517989159e-06 8.217569906265e-03 7.912516593933e-06 5.153681093216e+03
     1.944000000000e+05 1.247972249985e-07-2.597151349596e+00 5.587935447693e-09
     9.366274792998e-01 2.088437500000e+02-2.258889940976e+00-8.182126532698e-09
     3.928735076157e-12 1.000000000000e+00 3.800000000000e+02 0.000000000000e+00
     2.000000000000e+00 0.000000000000e+00 4.190951585770e-09 9.900000000000e+01
     7.671360000000e+05 4.000000000000e+00                                      
G14 2026 07 21 05 16 24 7.499763742089e-04 2.273736754432e-13 0.000000000000e+00
     2.270000000000e+02 6.125000000000e+01 4.906990110120e-09-2.599717998404e+00
     3.017485141754e-06 7.363637676463e-03 9.743496775627e-06 5.153661857605e+03
     1.944000000000e+05-2.048909664154e-08-1.524159444936e+00-1.657754182816e-07
     9.416377923194e-01 1.834687500000e+02-2.680783462054e+00-8.087836890870e-09
     4.500187450871e-11 1.000000000000e+00 3.800000000000e+02 0.000000000000e+00
     2.000000000000e+00 0.000000000000e+00-7.916241884232e-09 9.950000000000e+02
     7.671360000000e+05 4.000000000000e+00                                      
G27 2026 07 21 05 16 24 5.345791578293e-07 0.000000000000e+00 0.000000000000e+00
     9.200000000000e+01 4.981250000000e+01 5.066996775040e-09 1.178820661012e+00
     2.728775143623e-06 1.433041493874e-02 5.435198545456e-06 5.153676309586e+03
     1.944000000000e+05-1.974403858185e-07-5.084907592869e-01 2.197921276093e-07
     9.508924168974e-01 2.717500000000e+02 9.006274967388e-01-8.603929816784e-09
    -1.414344627416e-10 1.000000000000e+00 3.800000000000e+02 0.000000000000e+00
     2.800000000000e+00 0.000000000000e+00 2.328306436539e-09 9.200000000000e+01
     7.671360000000e+05 4.000000000000e+00                                      
G04 2026 07 21 05 16 24 6.274553015828e-05 6.821210263297e-13 0.000000000000e+00
     6.000000000000e+00-2.050000000000e+01 4.324823003380e-09 7.817716787169e-01
    -9.983777999878e-07 3.822581376880e-03 6.087124347687e-06 5.153674917221e+03
     1.944000000000e+05 7.450580596924e-09 2.690032590449e+00 1.415610313416e-07
     9.724451661759e-01 2.685000000000e+02-2.902069181801e+00-7.997118826385e-09
     2.214377952016e-10 1.000000000000e+00 3.800000000000e+02 0.000000000000e+00
     2.000000000000e+00 0.000000000000e+00-4.656612873077e-09 5.180000000000e+02
     7.671360000000e+05 4.000000000000e+00                                      
C27 2026 07 21 05 16 54 6.608873372898e-04 4.875211345734e-12 0.000000000000e+00
     1.000000000000e+00-2.437500000000e+00 4.268392081377e-09-1.348262540432e+00
    -1.587904989719e-07 6.346796872094e-04 3.719236701727e-06 5.282658229828e+03
     1.908000000000e+05-3.119930624962e-08 7.568235082798e-02 3.977445885539e-05
     9.479120928921e-01 2.750312500000e+02 1.691492785418e+00 2.002670562125e-06
    -3.214419607765e-10                    1.072000000000e+03                   
     0.000000000000e+00 0.000000000000e+00-2.002343535423e-08-2.002343535423e-08
     1.918140000000e+05 1.000000000000e+00                                      
C30 2026 07 21 05 16 54 4.927119007334e-04 7.579714633721e-12 0.000000000000e+00
     1.000000000000e+00 8.125000000000e-01 4.278035340201e-09-1.449826612629e+00
    -2.654269337654e-08 4.686597967520e-04 3.840308636427e-06 5.282646724701e+03
     1.908000000000e+05-3.539025783539e-08 3.480146936946e-02 3.549642860889e-05
     9.455224015804e-01 2.767656250000e+02 9.824146559137e-01-1.968054834526e-06
    -2.850118718885e-10                    1.072000000000e+03                   
     0.000000000000e+00 0.000000000000e+00-4.516914486885e-08-4.516914486885e-08
     1.918140000000e+05 1.000000000000e+00                                      
C28 2026 07 21 05 16 54 5.406929412857e-04 3.968381179220e-12 0.000000000000e+00
     1.000000000000e+00 5.546875000000e+00 4.264463346301e-09-3.108576724012e+00
     3.152526915073e-07 1.220272388309e-04 3.856141120195e-06 5.282633798599e+03
     1.908000000000e+05 6.519258022308e-08 7.535890402941e-02 2.926448360085e-05
     9.477858459877e-01 2.728437500000e+02-2.180369134086e+00 1.686451676053e-06
    -2.757257707994e-10                    1.072000000000e+03                   
     0.000000000000e+00 0.000000000000e+00-2.002343535423e-08-2.002343535423e-08
     1.918140000000e+05 1.000000000000e+00                                      
C37 2026 07 21 05 16 54-9.072719840333e-04 6.924238959982e-12 0.000000000000e+00
     1.000000000000e+00 1.204687500000e+01 4.171245177676e-09 2.782990071279e+00
     6.533227860928e-07 7.134907646105e-04 9.797513484955e-06 5.282671453476e+03
     1.908000000000e+05-2.235174179077e-08-2.018638954175e+00 4.318868741393e-05
     9.451549414285e-01 1.549375000000e+02-3.737698741127e-01 7.715071363690e-08
    -3.535861568541e-11                    1.072000000000e+03                   
     0.000000000000e+00 0.000000000000e+00-7.823109626770e-08-7.823109626770e-08
     1.918140000000e+05 1.000000000000e+00                                      
C36 2026 07 21 05 16 54 2.596488920972e-04-4.279243626115e-12 0.000000000000e+00
     1.000000000000e+00 2.190625000000e+01 4.125528987699e-09 1.836934866156e+00
     9.578652679920e-07 8.149991044775e-04 1.050112769008e-05 5.282656148911e+03
     1.908000000000e+05 3.585591912270e-08-2.018502472696e+00 4.287157207727e-05
     9.451407686782e-01 1.432812500000e+02-1.022845103433e+00 2.115563121696e-07
    -1.410773050075e-10                    1.072000000000e+03                   
     0.000000000000e+00 0.000000000000e+00-9.639188647270e-08-9.639188647270e-08
     1.918140000000e+05 1.000000000000e+00                                      
C19 2026 07 21 05 16 54-9.326281724498e-04 8.535394613318e-13 0.000000000000e+00
     1.000000000000e+00-1.454687500000e+01 3.231920336740e-09-3.074938024357e+00
    -6.747432053089e-07 7.844705833122e-04 7.526483386755e-06 5.282631372452e+03
     1.908000000000e+05 3.445893526077e-08 2.185004919597e+00-3.527384251356e-06
     9.899478326036e-01 2.224531250000e+02-3.183201396772e-01 6.010125345845e-07
     3.975165581602e-10                    1.072000000000e+03                   
     0.000000000000e+00 0.000000000000e+00 4.330649971962e-08 4.330649971962e-08
     1.918140000000e+05 1.000000000000e+00                                      
C20 2026 07 21 05 16 54-8.892959449440e-04 3.074873689002e-12 0.000000000000e+00
     1.000000000000e+00-1.048437500000e+01 3.182275411687e-09-2.951178756555e+00
    -4.912726581097e-07 8.079276885837e-04 7.228460162878e-06 5.282637727737e+03
     1.908000000000e+05 3.306195139885e-08 2.185632270071e+00 3.639608621597e-06
     9.899333306967e-01 2.294375000000e+02 2.744729548203e-01 1.215621349794e-06
     4.210889686172e-10                    1.072000000000e+03                   
     0.000000000000e+00 0.000000000000e+00 5.541369318962e-08 5.541369318962e-08
     1.918140000000e+05 1.000000000000e+00                                      
G01 2026 07 21 05 17 36 2.171008964069e-04-9.634959496907e-12 0.000000000000e+00
     4.054069519043e-03-2.614453125000e+01 4.578404994660e-09-3.724221023154e-01
    -1.356936991215e-06 1.825688523240e-03 6.320886313915e-06 5.153621011794e+03
     1.746000000000e+05 1.955777406693e-08 6.293266691133e-01 2.980232238770e-08
     9.571141087415e-01 2.546640625000e+02 1.962966600181e-01-8.135639545522e-09
    -3.251921169855e-10 4.578404994660e-09-2.000000000000e+00 3.000000000000e+00
     2.800000000000e+01 4.000000000000e+00-8.847564458847e-09 7.000000000000e+00
    -2.910383045673e-10 5.646143108606e-09-5.529727786779e-10-6.693881005049e-10
     1.918560000000e+05 2.428000000000e+03 0.000000000000e+00                   
E13 2026 07 21 05 18 24-5.992630030960e-05-9.094947017729e-13 0.000000000000e+00
     6.400000000000e+01-4.956250000000e+01 2.541534436539e-09 2.701247307279e-01
    -2.309679985046e-06 5.504349246621e-05 6.141141057014e-06 5.440606447220e+03
     1.908000000000e+05 3.725290298462e-09 7.700539784677e-01-1.303851604462e-08
     9.976520931742e-01 2.238750000000e+02 2.260911379234e-01-5.441655238212e-09
    -2.410814705824e-10 5.160000000000e+02 1.404000000000e+03                   
     1.070000000000e+02 0.000000000000e+00 3.958120942116e-09 4.190951585770e-09
     1.919040000000e+05                                                         
G07 2026 07 21 05 18 24-2.079032128677e-04-3.755218358492e-12 0.000000000000e+00
    -5.875587463379e-03-2.107812500000e+01 4.738947396181e-09-1.958368274151e+00
    -1.118518412113e-06 2.093622175744e-02 8.556991815567e-06 5.153637853118e+03
     1.161000000000e+05 3.129243850708e-07-2.586070385172e+00 6.239861249924e-08
     9.513216685146e-01 2.053984375000e+02-1.955131948259e+00-8.543692256841e-09
     7.393165097859e-11 4.738947396181e-09-2.000000000000e+00 3.000000000000e+00
     3.100000000000e+01 4.000000000000e+00-1.071020960808e-08 7.000000000000e+00
    -9.313225746155e-10 6.984919309616e-09 0.000000000000e+00 0.000000000000e+00
     1.919040000000e+05 2.428000000000e+03 0.000000000000e+00                   
G08 2026 07 21 05 20 00 3.940011374652e-04-9.233502851203e-12 0.000000000000e+00
     7.883071899414e-03 4.416406250000e+01 5.259861951506e-09 7.681529164237e-01
     2.468004822731e-06 1.168233255157e-02 5.070120096207e-06 5.153473407719e+03
     1.413000000000e+05-2.793967723846e-09-5.416898440134e-01 1.452863216400e-07
     9.417692845166e-01 2.700625000000e+02 5.449917495968e-01-7.697228426796e-09
    -2.157232714544e-10 5.259861951506e-09-2.000000000000e+00 3.000000000000e+00
     3.000000000000e+01 4.000000000000e+00 4.656612873077e-09 7.000000000000e+00
    -1.047737896442e-09-4.685716703534e-09 6.257323548198e-09 6.839400157332e-09
     1.920000000000e+05 2.428000000000e+03 0.000000000000e+00                   
G30 2026 07 21 05 20 00 3.025251789950e-04 1.329425458607e-11 0.000000000000e+00
    -3.261566162109e-03-2.504296875000e+01 5.127356432119e-09-2.266179138040e+00
    -1.365318894386e-06 8.216449525207e-03 8.302740752697e-06 5.153540978890e+03
     1.107000000000e+05 1.396983861923e-07-2.597136550716e+00-1.210719347000e-08
     9.366274697908e-01 2.046562500000e+02-2.258832282254e+00-8.150104433757e-09
    -9.464679956196e-12 5.127356432119e-09-2.000000000000e+00 3.000000000000e+00
     3.100000000000e+01 4.000000000000e+00 4.190951585770e-09 7.000000000000e+00
    -1.513399183750e-09-3.259629011154e-09 2.328306436539e-09 3.230525180697e-09
     1.920000000000e+05 2.428000000000e+03 0.000000000000e+00                   
G09 2026 07 21 05 20 00 7.171272591222e-04-6.991740519879e-12 0.000000000000e+00
     3.526687622070e-03-1.656250000000e+01 4.419469802942e-09 1.386780316189e+00
    -9.629875421524e-07 3.668958088383e-03 6.236135959625e-06 5.153526767805e+03
     1.395000000000e+05 1.192092895508e-07 2.624872550741e+00 7.450580596924e-09
     9.667074427424e-01 2.606484375000e+02 2.038220855097e+00-8.294574737239e-09
     2.851904507556e-10 4.419469802942e-09-2.000000000000e+00 3.000000000000e+00
     3.000000000000e+01 4.000000000000e+00 4.656612873077e-10 7.000000000000e+00
    -5.820766091347e-10-7.275957614183e-10 5.064066499472e-09 5.617039278150e-09
     1.920000000000e+05 2.428000000000e+03 0.000000000000e+00                   
E21 2026 07 21 05 20 35-7.585714338347e-04-2.813749233610e-12 0.000000000000e+00
     6.400000000000e+01 8.518750000000e+01 3.239063491424e-09-2.892721135275e+00
     4.092231392860e-06 1.708827912807e-04 8.529052138329e-06 5.440617326736e+03
     1.908000000000e+05-4.656612873077e-08-1.329059139574e+00 3.166496753693e-08
     9.606204154333e-01 1.575937500000e+02-1.560192980986e+00-5.570589180256e-09
     9.357532635937e-11 1.000000000000e+00 1.404000000000e+03                   
     1.070000000000e+02 0.000000000000e+00 6.984919309616e-10 9.313225746155e-10
     1.920350000000e+05                                                         
E09 2026 07 21 05 20 35-3.009897773154e-04 1.776356839400e-11 3.469446951954e-18
     6.400000000000e+01-3.934375000000e+01 3.102629236961e-09 1.190060117249e+00
    -1.909211277962e-06 4.996987991035e-04 5.727633833885e-06 5.440615180969e+03
     1.908000000000e+05 2.235174179077e-08 2.855579468038e+00-3.911554813385e-08
     9.750913055639e-01 2.216250000000e+02 3.873893693279e-01-5.597376010321e-09
     1.860791795162e-10 1.000000000000e+00 1.404000000000e+03                   
     1.070000000000e+02 0.000000000000e+00 6.984919309616e-10 9.313225746155e-10
     1.920350000000e+05                                                         
G14 2026 07 21 05 20 48 7.499761122745e-04 2.593480985524e-13 0.000000000000e+00
    -2.451896667480e-03 6.748828125000e+01 4.874488756308e-09-2.862347758742e+00
     3.377906978130e-06 7.362615899183e-03 9.466893970966e-06 5.153559374317e+03
     1.152000000000e+05-6.146728992462e-08-1.524144717008e+00-1.182779669762e-07
     9.416378201149e-01 1.868945312500e+02-2.680703005217e+00-8.281895637675e-09
     1.892935991239e-11 4.874488756308e-09-2.000000000000e+00 3.000000000000e+00
     3.100000000000e+01 4.000000000000e+00-7.916241884232e-09 7.000000000000e+00
    -2.619344741106e-10 5.005858838558e-09-1.455191522837e-09-1.076841726899e-09
     1.920480000000e+05 2.428000000000e+03 0.000000000000e+00                   
E04 2026 07 21 05 20 54-1.222349237651e-04 3.353761712788e-11 0.000000000000e+00
     6.400000000000e+01-4.231250000000e+01 3.191204355042e-09 2.424568222256e+00
    -1.894310116768e-06 2.932403003797e-04 5.653128027916e-06 5.440609418869e+03
     1.908000000000e+05-1.862645149231e-09 2.852424004943e+00 1.490116119385e-08
     9.693539617577e-01 2.207187500000e+02-6.751345869798e-02-5.691308494415e-09
     2.025084352892e-10 5.160000000000e+02 1.404000000000e+03                   
     1.070000000000e+02 0.000000000000e+00-4.190951585770e-09-4.656612873077e-09
     1.920540000000e+05                                                         
E14 2026 07 21 05 20 54 3.965047071688e-03 1.531219595563e-10 5.204170427930e-18
     5.900000000000e+01 7.875000000000e+00 5.651663985919e-09-2.197200958948e+00
    -5.457550287247e-07 1.682773553766e-01 6.295740604401e-06 5.289364934921e+03
     1.878000000000e+05-3.350898623466e-06-4.466092572396e-01-2.322718501091e-06
     8.527859428032e-01 2.118437500000e+02-3.116659150369e+00-7.160655412897e-09
    -5.357366012941e-11 5.160000000000e+02 1.404000000000e+03                   
     1.070000000000e+02 1.440000000000e+02-2.793967723846e-09-3.492459654808e-09
     1.920540000000e+05                                                         
E23 2026 07 21 05 20 54-4.269339842722e-05-1.307398633799e-12 0.000000000000e+00
     6.100000000000e+01 1.003125000000e+02 3.242992226500e-09-2.724192371284e+00
     4.665926098824e-06 1.740616280586e-04 8.402392268181e-06 5.440616353989e+03
     1.890000000000e+05 4.284083843231e-08-1.332241047839e+00-7.450580596924e-09
     9.625504257002e-01 1.612500000000e+02-2.743935148576e+00-5.571303495725e-09
     3.785871982478e-11 5.160000000000e+02 1.404000000000e+03                   
     1.070000000000e+02 0.000000000000e+00 4.656612873077e-10 1.862645149231e-09
     1.920540000000e+05                                                         
E28 2026 07 21 05 20 54-6.031669909135e-05-2.856381797756e-12 0.000000000000e+00
     6.400000000000e+01-4.321875000000e+01 3.464072863968e-09 7.615187160598e-01
    -1.946464180946e-06 2.854596823454e-04 5.323439836502e-06 5.440610692978e+03
     1.908000000000e+05 6.332993507385e-08 2.870117729935e+00 1.303851604462e-08
     9.490535932401e-01 2.207187500000e+02 1.961378526534e+00-5.815956543649e-09
     2.035799084918e-10 5.160000000000e+02 1.404000000000e+03                   
     1.070000000000e+02 0.000000000000e+00 9.313225746155e-10 1.862645149231e-09
     1.920540000000e+05                                                         
E06 2026 07 21 05 20 54-3.006262704730e-04-5.059064278612e-12 0.000000000000e+00
     6.100000000000e+01-3.984375000000e+01 3.304423356782e-09 3.549919878469e-01
    -1.901760697365e-06 5.052095511928e-04 5.543231964111e-06 5.440611343384e+03
     1.890000000000e+05 2.793967723846e-08 2.852084682558e+00-2.607703208923e-08
     9.626597203099e-01 2.187812500000e+02 1.385861648986e+00-5.724167005961e-09
     1.982225424788e-10 5.160000000000e+02 1.404000000000e+03                   
     1.070000000000e+02 0.000000000000e+00 2.328306436539e-09 3.725290298462e-09
     1.920540000000e+05                                                         
E19 2026 07 21 05 20 54 3.108420118224e-03 2.441424840072e-11 0.000000000000e+00
     5.900000000000e+01-4.403125000000e+01 3.094771766809e-09 3.048866073898e+00
    -1.968815922737e-06 2.429059240967e-04 5.505979061127e-06 5.440619012833e+03
     1.878000000000e+05-1.676380634308e-08 2.860539399622e+00-2.235174179077e-08
     9.747228433132e-01 2.296250000000e+02-2.403696938254e-01-5.641306411627e-09
     2.182233755938e-10 5.160000000000e+02 1.404000000000e+03                   
     1.070000000000e+02 0.000000000000e+00-4.423782229424e-09-4.423782229424e-09
     1.920540000000e+05                                                         
E31 2026 07 21 05 20 54-1.580716343597e-04-2.984279490192e-12 0.000000000000e+00
     5.900000000000e+01 1.233125000000e+02 3.150488373344e-09 1.295640980670e+00
     5.668029189110e-06 3.408213378862e-04 9.192153811455e-06 5.440619762421e+03
     1.878000000000e+05 0.000000000000e+00-1.329121822687e+00-3.725290298462e-09
     9.605967498075e-01 1.453125000000e+02-1.395455464287e+00-5.546659612065e-09
     4.893060958486e-11 5.160000000000e+02 1.404000000000e+03                   
     1.070000000000e+02 0.000000000000e+00 3.492459654808e-09 4.190951585770e-09
     1.920540000000e+05                                                         
END OF FILE                                                 COMMENT
