     3.05           N: NAVIGATION       M: MIXED            RINEX VERSION / TYPE
PYRINEXCONV 0.1.2 ALDELTUNES            20260721 023008 UTC PGM / RUN BY / DATE
GAL    1.0175e+02  3.3203e-01  2.2858e-02             C 28  IONOSPHERIC CORR
GPSA   9.3132e-09  2.2352e-08  1.5199e-05  1.5140e-05 C 04  IONOSPHERIC CORR
GPSB   1.0035e+05  1.3107e+05  1.6712e+07  1.6318e+07 C 04  IONOSPHERIC CORR
BDSA   2.0489e-08  2.2352e-08 -5.3644e-07  9.5367e-07 C 13  IONOSPHERIC CORR
BDSB   1.3722e+05 -5.4067e+05  4.7841e+06 -4.1943e+06 C 13  IONOSPHERIC CORR
GAUT  6.5192580223e-09-2.664535259e-15 180600 1404   E28  0 TIME SYSTEM CORR
GPUT -3.2014213502e-09 1.588507104e-12 370800 2428   G04  0 TIME SYSTEM CORR
BDUT  0.0000000000e+00 0.000000000e+00 180000 1072   C13  0 TIME SYSTEM CORR
                                                            END OF HEADER
E29 2026 07 21 02 20 54-2.271654084325e-04-3.609557097661e-12 0.000000000000e+00
     4.600000000000e+01-4.778125000000e+01 3.361925751988e-09 1.168849522566e+00
    -2.108514308929e-06 2.009578747675e-04 5.468726158142e-06 5.440612588882e+03
     1.800000000000e+05 2.235174179077e-08 2.852166682042e+00 3.725290298462e-09
     9.627393191456e-01 2.240000000000e+02 1.420689184630e+00-5.718809639948e-09
     2.146517982518e-10 5.160000000000e+02 1.404000000000e+03                   
     1.070000000000e+02 0.000000000000e+00-3.259629011154e-09-2.793967723846e-09
     1.812540000000e+05                                                         
E27 2026 07 21 02 20 54-1.049782847986e-03-1.060129761754e-11 0.000000000000e+00
     4.600000000000e+01 9.993750000000e+01 3.323709874429e-09 2.173601462928e+00
     4.775822162628e-06 2.449139719829e-04 8.262693881989e-06 5.440613496780e+03
     1.800000000000e+05 3.166496753693e-08-1.329038335416e+00 7.823109626770e-08
     9.605915286529e-01 1.633437500000e+02-8.827604027884e-01-5.624877155854e-09
     2.821546100149e-11 5.160000000000e+02 1.404000000000e+03                   
     1.070000000000e+02 0.000000000000e+00 2.328306436539e-10 2.328306436539e-10
     1.812540000000e+05                                                         
E28 2026 07 21 02 20 54-6.028567440808e-05-2.870592652471e-12 0.000000000000e+00
     4.600000000000e+01-4.006250000000e+01 3.585863651329e-09-5.747620542437e-01
    -2.009794116020e-06 2.848494332284e-04 5.386769771576e-06 5.440608604431e+03
     1.800000000000e+05 5.587935447693e-09 2.870180970421e+00-1.490116119385e-08
     9.490511252973e-01 2.155937500000e+02 1.958714037765e+00-5.846314951056e-09
     2.132231673151e-10 5.160000000000e+02 1.404000000000e+03                   
     1.070000000000e+02 0.000000000000e+00 9.313225746155e-10 1.862645149231e-09
     1.812540000000e+05                                                         
G04 2026 07 21 02 21 24 6.274040788412e-05 6.821210263297e-13 0.000000000000e+00
     5.000000000000e+00-2.315625000000e+01 4.401611916233e-09-2.683905027874e-01
    -1.115724444389e-06 3.822015016340e-03 6.172806024551e-06 5.153673837662e+03
     1.872000000000e+05 6.891787052155e-08 2.690090186997e+00 2.793967723846e-08
     9.724430142234e-01 2.653750000000e+02-2.902086066802e+00-8.078550789781e-09
     2.771544017362e-10 1.000000000000e+00 3.800000000000e+02 0.000000000000e+00
     2.000000000000e+00 0.000000000000e+00-4.656612873077e-09 5.170000000000e+02
     7.251360000000e+05 4.000000000000e+00                                      
G27 2026 07 21 02 21 24 5.350448191166e-07 0.000000000000e+00 0.000000000000e+00
     9.100000000000e+01 4.712500000000e+01 5.086283292686e-09 1.286910908776e-01
     2.648681402206e-06 1.432913157623e-02 4.682689905167e-06 5.153673446655e+03
     1.872000000000e+05-2.793967723846e-08-5.084284536059e-01 1.974403858185e-07
     9.508937086540e-01 2.822500000000e+02 9.005730337617e-01-8.652860426369e-09
    -1.710785546799e-10 1.000000000000e+00 3.800000000000e+02 0.000000000000e+00
     2.800000000000e+00 0.000000000000e+00 2.328306436539e-09 9.100000000000e+01
     7.251360000000e+05 4.000000000000e+00                                      
G09 2026 07 21 02 21 24 7.171649485826e-04-6.934897101019e-12 0.000000000000e+00
     7.100000000000e+01-1.996875000000e+01 4.513402287036e-09 5.993508851872e-01
    -1.080334186554e-06 3.669901983812e-03 6.292015314102e-06 5.153694850922e+03
     1.872000000000e+05 7.450580596924e-09 2.624916329296e+00-4.842877388000e-08
     9.667053836852e-01 2.590312500000e+02 2.038022418306e+00-8.145339286076e-09
     2.985838657879e-10 1.000000000000e+00 3.800000000000e+02 0.000000000000e+00
     2.000000000000e+00 0.000000000000e+00 4.656612873077e-10 7.100000000000e+01
     7.251360000000e+05 4.000000000000e+00                                      
G26 2026 07 21 02 21 24-3.841249272227e-04-2.501110429876e-12 0.000000000000e+00
     8.300000000000e+01 3.815625000000e+01 5.388081578082e-09 1.810700460108e+00
     2.034008502960e-06 1.116508990526e-02 9.493902325630e-06 5.153582418442e+03
     1.872000000000e+05-3.166496753693e-07-1.639833913527e+00 2.235174179077e-08
     9.274883155312e-01 1.821875000000e+02 7.149070944072e-01-8.391420964937e-09
    -1.285767843106e-11 1.000000000000e+00 3.800000000000e+02 0.000000000000e+00
     2.000000000000e+00 0.000000000000e+00 6.519258022308e-09 8.300000000000e+01
     7.251360000000e+05 4.000000000000e+00                                      
G08 2026 07 21 02 21 24 3.940509632230e-04-9.208633855451e-12 0.000000000000e+00
     8.100000000000e+01 5.003125000000e+01 5.274505418608e-09-1.925180004046e-02
     2.689659595490e-06 1.168377755675e-02 4.528090357780e-06 5.153748132706e+03
     1.872000000000e+05 1.080334186554e-07-5.416434614643e-01 1.136213541031e-07
     9.417700488913e-01 2.788125000000e+02 5.447862220414e-01-8.702148193688e-09
    -1.428630936784e-10 1.000000000000e+00 3.800000000000e+02 0.000000000000e+00
     2.000000000000e+00 0.000000000000e+00 4.656612873077e-09 8.100000000000e+01
     7.251360000000e+05 4.000000000000e+00                                      
G31 2026 07 21 02 21 24-1.340783201158e-04 2.728484105319e-12 0.000000000000e+00
     4.700000000000e+01-3.550000000000e+01 4.730197031693e-09 2.437402291383e+00
    -1.916661858559e-06 1.091472327244e-02 8.551403880119e-06 5.153635997772e+03
     1.872000000000e+05-2.793967723846e-08-2.561201185247e+00-1.769512891769e-07
     9.550186812071e-01 2.122500000000e+02 9.766704437071e-01-7.880685405037e-09
    -9.071806448581e-11 1.000000000000e+00 3.800000000000e+02 0.000000000000e+00
     2.000000000000e+00 0.000000000000e+00-1.350417733192e-08 4.700000000000e+01
     7.251360000000e+05 4.000000000000e+00                                      
G03 2026 07 21 02 21 24 3.640432842076e-04-1.898570189951e-11 0.000000000000e+00
     4.000000000000e+01-1.746875000000e+01 3.421571093598e-09 3.022192017080e+00
    -8.456408977509e-07 6.974218646064e-03 8.897855877876e-06 5.153769727707e+03
     1.871840000000e+05 3.725290298462e-09 1.621735043614e+00 2.607703208923e-08
     9.947630684233e-01 2.232187500000e+02 1.276560694608e+00-7.450310335330e-09
     2.339383158984e-10 1.000000000000e+00 3.800000000000e+02 0.000000000000e+00
     2.000000000000e+00 0.000000000000e+00 1.396983861923e-09 4.000000000000e+01
     7.251360000000e+05 4.000000000000e+00                                      
G07 2026 07 21 02 21 24-2.078828401864e-04-3.751665644813e-12 0.000000000000e+00
     9.600000000000e+01-3.100000000000e+01 4.775913221670e-09-2.745939998806e+00
    -1.866370439529e-06 2.093705639709e-02 8.448958396912e-06 5.153588115692e+03
     1.872000000000e+05 4.041939973831e-07-2.586027851560e+00-8.754432201385e-08
     9.513213634962e-01 2.061250000000e+02-1.955233648861e+00-7.812111120071e-09
    -2.071514858337e-11 1.000000000000e+00 3.800000000000e+02 0.000000000000e+00
     2.000000000000e+00 0.000000000000e+00-1.071020960808e-08 9.600000000000e+01
     7.251360000000e+05 4.000000000000e+00                                      
G26 2026 07 21 02 23 12-3.841202706099e-04-2.508215857233e-12 0.000000000000e+00
     7.158279418945e-03 4.062109375000e+01 5.435583556730e-09 1.548188613161e+00
     2.224929630756e-06 1.116253604414e-02 8.788891136646e-06 5.153641337269e+03
     1.152000000000e+05-1.965090632439e-07-1.639818282979e+00 1.387670636177e-07
     9.274881041395e-01 1.920351562500e+02 7.148623232623e-01-7.856163618513e-09
    -8.607501394126e-11 5.435583556730e-09-2.000000000000e+00 3.000000000000e+00
     3.100000000000e+01 4.000000000000e+00 6.519258022308e-09 7.000000000000e+00
    -8.440110832453e-10-4.190951585770e-09 5.820766091347e-09 5.878973752260e-09
     1.813920000000e+05 2.428000000000e+03 0.000000000000e+00                   
G08 2026 07 21 02 27 12 3.940675815102e-04-9.229950137524e-12 0.000000000000e+00
    -4.871368408203e-03 4.580078125000e+01 5.255933216430e-09-2.816418393074e-01
     2.566725015640e-06 1.168359367875e-02 4.413537681103e-06 5.153474009747e+03
     1.413000000000e+05 9.685754776001e-08-5.416278236015e-01 9.406358003616e-08
     9.417702434594e-01 2.839804687500e+02 5.446378214371e-01-7.618653725273e-09
    -1.383986220010e-10 5.255933216430e-09-2.000000000000e+00 3.000000000000e+00
     2.900000000000e+01 4.000000000000e+00 4.656612873077e-09 7.000000000000e+00
    -1.047737896442e-09-4.685716703534e-09 6.257323548198e-09 6.839400157332e-09
     1.816320000000e+05 2.428000000000e+03 0.000000000000e+00                   
G27 2026 07 21 02 28 48 5.350739229470e-07-3.552713678801e-14 0.000000000000e+00
    -5.846023559570e-04 4.455078125000e+01 5.107712756738e-09-1.338434422709e-01
     2.496875822544e-06 1.432877802290e-02 4.680827260017e-06 5.153549875791e+03
     1.341000000000e+05 1.490116119385e-08-5.084130234774e-01 1.629814505577e-07
     9.508939266288e-01 2.831289062500e+02 9.005609361606e-01-7.654905235294e-09
    -1.462560921533e-10 5.107712756738e-09-3.000000000000e+00 1.000000000000e+00
     3.000000000000e+01 4.000000000000e+00 2.328306436539e-09 7.000000000000e+00
    -9.022187441587e-10-1.688022166491e-09 6.664777174592e-09 5.326000973582e-09
     1.817280000000e+05 2.428000000000e+03 0.000000000000e+00                   
G03 2026 07 21 02 28 48 3.640828654170e-04-1.893241119433e-11 0.000000000000e+00
     4.499912261963e-03-1.825390625000e+01 3.420499620396e-09 2.718458534824e+00
    -9.397044777870e-07 6.973543670028e-03 9.281560778618e-06 5.153452977927e+03
     1.737000000000e+05 4.190951585770e-08 1.621750464965e+00 1.396983861923e-08
     9.947625227548e-01 2.169296875000e+02 1.276347371894e+00-8.868884373826e-09
     2.535819912792e-10 3.420499620396e-09-2.000000000000e+00 2.000000000000e+00
     2.800000000000e+01 4.000000000000e+00 1.396983861923e-09 7.000000000000e+00
     5.529727786779e-10-2.008164301515e-09 1.862645149231e-09 5.005858838558e-09
     1.817280000000e+05 2.428000000000e+03 0.000000000000e+00                   
G09 2026 07 21 02 28 48 7.171775796451e-04-6.988187806201e-12 0.000000000000e+00
     1.067161560059e-03-1.843359375000e+01 4.531081594879e-09 3.367306725841e-01
    -1.054257154465e-06 3.669601399451e-03 6.325542926788e-06 5.153528200759e+03
     1.395000000000e+05 1.117587089539e-08 2.624931008947e+00-4.284083843231e-08
     9.667048365538e-01 2.602773437500e+02 2.038101396132e+00-8.187427416980e-09
     2.962623405157e-10 4.531081594879e-09-2.000000000000e+00 3.000000000000e+00
     3.000000000000e+01 4.000000000000e+00 4.656612873077e-10 7.000000000000e+00
    -5.820766091347e-10-7.275957614183e-10 5.064066499472e-09 5.617039278150e-09
     1.817280000000e+05 2.428000000000e+03 0.000000000000e+00                   
G31 2026 07 21 02 28 48-1.340829476248e-04 2.749800387392e-12 0.000000000000e+00
     2.740859985352e-03-3.194531250000e+01 4.758591071562e-09 2.174917327019e+00
    -1.617707312107e-06 1.091402047314e-02 8.659437298775e-06 5.153587051564e+03
     1.377000000000e+05-9.313225746155e-08-2.561187010302e+00-1.918524503708e-07
     9.550186183017e-01 2.107617187500e+02 9.766057095821e-01-8.404757898238e-09
    -8.839653921353e-11 4.758591071562e-09-2.000000000000e+00 3.000000000000e+00
     3.000000000000e+01 4.000000000000e+00-1.350417733192e-08 7.000000000000e+00
    -2.619344741106e-10 8.265487849712e-09 0.000000000000e+00 0.000000000000e+00
     1.817280000000e+05 2.428000000000e+03 0.000000000000e+00                   
C37 2026 07 21 02 28 54-9.073468390852e-04 6.906475391588e-12 0.000000000000e+00
     1.000000000000e+00 2.159375000000e+01 4.168030758068e-09 1.318396348088e+00
     1.094769686460e-06 7.139594526961e-04 1.041404902935e-05 5.282672914505e+03
     1.800000000000e+05 5.820766091347e-08-2.018563687040e+00 2.591079100966e-05
     9.451562024639e-01 1.407343750000e+02-3.718439980522e-01 1.505251985501e-07
    -2.100087477073e-10                    1.072000000000e+03                   
     0.000000000000e+00 0.000000000000e+00-7.823109626770e-08-7.823109626770e-08
     1.817340000000e+05 1.000000000000e+00                                      
C20 2026 07 21 02 28 54-8.893292397261e-04 3.034017481696e-12 0.000000000000e+00
     1.000000000000e+00-1.612500000000e+01 3.261207270944e-09 1.869068479119e+00
    -8.479692041874e-07 8.088096510619e-04 7.340684533119e-06 5.282636199951e+03
     1.800000000000e+05 3.725290298462e-08 2.185703265486e+00 2.882443368435e-06
     9.899286683768e-01 2.235156250000e+02 2.747255788288e-01 1.282366987161e-06
     4.343038047824e-10                    1.072000000000e+03                   
     0.000000000000e+00 0.000000000000e+00 5.541369318962e-08 5.541369318962e-08
     1.817340000000e+05 1.000000000000e+00                                      
C12 2026 07 21 02 28 54 6.158137694001e-04-5.061728813871e-12 0.000000000000e+00
     1.000000000000e+00-1.621875000000e+01 3.562648398606e-09 1.140585206501e+00
    -9.192153811455e-07 1.762434840202e-04 7.262453436852e-06 5.282644620895e+03
     1.800000000000e+05 4.237517714500e-08 2.170730136560e+00-4.934612661600e-05
     9.735949100674e-01 2.175000000000e+02 7.099622908591e-01-1.353354586936e-06
     4.325180161115e-10                    1.072000000000e+03                   
     0.000000000000e+00 0.000000000000e+00 3.725290298462e-09 3.725290298462e-09
     1.817340000000e+05 1.000000000000e+00                                      
C32 2026 07 21 02 28 54-9.033276000991e-04 1.869615573469e-12 0.000000000000e+00
     1.000000000000e+00-1.375000000000e+01 3.292637151554e-09 3.046972079212e+00
    -6.118789315224e-07 5.073867505416e-04 7.334630936384e-06 5.282631561279e+03
     1.800000000000e+05 2.188608050346e-08 2.177622104553e+00-8.298549801111e-06
     9.887623949740e-01 2.259531250000e+02-4.941728347964e-02-6.162267397458e-07
     4.500187450871e-10                    1.072000000000e+03                   
     0.000000000000e+00 0.000000000000e+00-3.818422555923e-08-3.818422555923e-08
     1.817340000000e+05 1.000000000000e+00                                      
C23 2026 07 21 02 28 54-4.541797097772e-04-2.842170943040e-14 0.000000000000e+00
     1.000000000000e+00 2.107812500000e+01 4.309822378544e-09 2.611351945130e+00
     1.139473170042e-06 3.800286212936e-04 9.831041097641e-06 5.282649385452e+03
     1.800000000000e+05 7.124617695808e-08-2.018337720325e+00 1.247553154826e-05
     9.436841791825e-01 1.535937500000e+02-8.795293068288e-01 3.724773008890e-07
    -1.042900583853e-10                    1.072000000000e+03                   
     0.000000000000e+00 0.000000000000e+00 1.024454832077e-07 1.024454832077e-07
     1.817340000000e+05 1.000000000000e+00                                      
C19 2026 07 21 02 28 54-9.326373692602e-04 8.526512829121e-13 0.000000000000e+00
     1.000000000000e+00-1.701562500000e+01 3.280493788591e-09 1.745778331109e+00
    -9.867362678051e-07 7.842045743018e-04 7.356051355600e-06 5.282631557465e+03
     1.800000000000e+05 5.075708031654e-08 2.185075699962e+00 8.344184607267e-06
     9.899435916041e-01 2.260468750000e+02-3.185402547202e-01 6.711872433571e-07
     4.057311860468e-10                    1.072000000000e+03                   
     0.000000000000e+00 0.000000000000e+00 4.330649971962e-08 4.330649971962e-08
     1.817340000000e+05 1.000000000000e+00                                      
C38 2026 07 21 02 28 54 1.427439274266e-04 7.469580509678e-13 0.000000000000e+00
     1.000000000000e+00-1.250000000000e-01 4.351609833445e-09-7.266668520883e-01
    -6.239861249924e-08 5.158096319064e-04 3.781169652939e-06 5.282661584854e+03
     1.800000000000e+05 9.778887033463e-09 3.149622686999e-02 2.191867679358e-05
     9.405929747643e-01 2.719062500000e+02 1.108350625858e+00 7.970432000485e-07
    -2.846547141543e-10                    1.072000000000e+03                   
     0.000000000000e+00 0.000000000000e+00-1.536682248116e-08-1.536682248116e-08
     1.817340000000e+05 1.000000000000e+00                                      
C13 2026 07 21 02 28 54-9.457175619900e-04-8.480327551297e-12 0.000000000000e+00
     1.000000000000e+00-7.406250000000e+00 4.170888019942e-09-1.364618220569e+00
    -4.796311259270e-07 2.794006140903e-04 4.146713763475e-06 5.282638694763e+03
     1.800000000000e+05 6.053596735001e-09 7.425992046947e-02 5.840836092830e-05
     9.503777842609e-01 2.696875000000e+02 1.339692728288e+00 6.124412249210e-07
    -3.150131215609e-10                    1.072000000000e+03                   
     0.000000000000e+00 0.000000000000e+00 6.519258022308e-09 6.519258022308e-09
     1.817340000000e+05 1.000000000000e+00                                      
G04 2026 07 21 02 29 36 6.273915641941e-05 6.998845947237e-13 0.000000000000e+00
     2.199172973633e-03-2.011328125000e+01 4.413219542594e-09-5.311305949440e-01
    -1.107342541218e-06 3.822266007774e-03 6.177462637424e-06 5.153549172013e+03
     1.233000000000e+05 8.102506399155e-08 2.690104707190e+00 1.955777406693e-08
     9.724425592559e-01 2.658359375000e+02-2.901889416965e+00-8.267966486041e-09
     2.787616115400e-10 4.413219542594e-09-2.000000000000e+00 3.000000000000e+00
     3.000000000000e+01 4.000000000000e+00-4.656612873077e-09 7.000000000000e+00
    -2.037268131971e-10 3.317836672068e-09-1.426087692380e-09-1.396983861923e-09
     1.817760000000e+05 2.428000000000e+03 0.000000000000e+00                   
E19 2026 07 21 02 30 05 3.108187054750e-03 2.442845925543e-11 0.000000000000e+00
     4.300000000000e+01-4.293750000000e+01 3.184418358092e-09 1.857914075476e+00
    -2.041459083557e-06 2.441270044073e-04 5.668029189110e-06 5.440616420746e+03
     1.782000000000e+05 9.313225746155e-09 2.860593357893e+00 3.725290298462e-09
     9.747208976321e-01 2.213437500000e+02-2.395825224766e-01-5.625948629057e-09
     2.128660095809e-10 1.000000000000e+00 1.404000000000e+03                   
     1.070000000000e+02 0.000000000000e+00-4.423782229424e-09-4.423782229424e-09
     1.818050000000e+05                                                         
E21 2026 07 21 02 30 05-7.585358689539e-04-2.799538378895e-12 0.000000000000e+00
     4.300000000000e+01 1.138125000000e+02 3.210490872689e-09 1.815999025043e+00
     5.297362804413e-06 1.703940797597e-04 8.758157491684e-06 5.440617902756e+03
     1.782000000000e+05 1.117587089539e-08-1.328987503401e+00-3.725290298462e-08
     9.606206260935e-01 1.490625000000e+02-1.547821414872e+00-5.602733376334e-09
    -3.321566928024e-11 1.000000000000e+00 1.404000000000e+03                   
     1.070000000000e+02 0.000000000000e+00 6.984919309616e-10 9.313225746155e-10
     1.818050000000e+05                                                         
E29 2026 07 21 02 30 05-2.271675621159e-04-3.595346242946e-12 0.000000000000e+00
     4.700000000000e+01-4.734375000000e+01 3.344425023012e-09 1.242275326645e+00
    -2.097338438034e-06 2.009021118283e-04 5.424022674561e-06 5.440612983704e+03
     1.806000000000e+05 3.539025783539e-08 2.852163209075e+00 1.117587089539e-08
     9.627395122507e-01 2.256250000000e+02 1.421649129530e+00-5.708094907922e-09
     2.132231673151e-10 1.000000000000e+00 1.404000000000e+03                   
     1.070000000000e+02 0.000000000000e+00-3.259629011154e-09-2.793967723846e-09
     1.818050000000e+05                                                         
E23 2026 07 21 02 30 05-4.268233897164e-05-1.364242052659e-12 0.000000000000e+00
     4.700000000000e+01 1.219687500000e+02 3.116915546329e-09 2.530311696336e+00
     5.563721060753e-06 1.714042155072e-04 9.043142199516e-06 5.440623329163e+03
     1.806000000000e+05-1.303851604462e-08-1.332194235923e+00-5.587935447693e-09
     9.625506466009e-01 1.466562500000e+02-2.756642138399e+00-5.542016561521e-09
    -3.214419607765e-12 1.000000000000e+00 1.404000000000e+03                   
     1.070000000000e+02 0.000000000000e+00 4.656612873077e-10 1.862645149231e-09
     1.818050000000e+05                                                         
E28 2026 07 21 02 30 05-6.028736243024e-05-2.856381797756e-12 0.000000000000e+00
     4.700000000000e+01-4.043750000000e+01 3.579791969847e-09-5.003990126789e-01
    -2.004206180573e-06 2.848969306797e-04 5.383044481277e-06 5.440608697891e+03
     1.806000000000e+05 7.450580596924e-09 2.870177475510e+00-1.490116119385e-08
     9.490512569600e-01 2.153750000000e+02 1.958736890008e+00-5.847029266524e-09
     2.121516941125e-10 1.000000000000e+00 1.404000000000e+03                   
     1.070000000000e+02 0.000000000000e+00 9.313225746155e-10 1.862645149231e-09
     1.818050000000e+05                                                         
E27 2026 07 21 02 30 05-1.049789134413e-03-1.060129761754e-11 0.000000000000e+00
     4.700000000000e+01 9.865625000000e+01 3.317638192947e-09 2.247751967366e+00
     4.708766937256e-06 2.447067527100e-04 8.322298526764e-06 5.440613922119e+03
     1.806000000000e+05 1.676380634308e-08-1.329041784976e+00 8.195638656616e-08
     9.605915184125e-01 1.621875000000e+02-8.825252226150e-01-5.620234105310e-09
     3.643008888800e-11 1.000000000000e+00 1.404000000000e+03                   
     1.070000000000e+02 0.000000000000e+00 2.328306436539e-10 2.328306436539e-10
     1.818050000000e+05                                                         
END OF FILE                                                 COMMENT
