     3.05           N: NAVIGATION       M: MIXED            RINEX VERSION / TYPE
PYRINEXCONV 0.1.2 ALDELTUNES            20260721 123208 UTC PGM / RUN BY / DATE
GAL    9.2500e+01  2.3047e-01  2.8290e-02             M 25  IONOSPHERIC CORR
GPSA   1.1176e-08  2.2352e-08  1.5199e-05  1.5140e-05 M 06  IONOSPHERIC CORR
GPSB   1.0650e+05  1.4746e+05  1.6712e+07  1.6450e+07 M 06  IONOSPHERIC CORR
BDSA   2.1420e-08  7.4506e-08 -8.3447e-07  1.3113e-06 M 39  IONOSPHERIC CORR
BDSB   1.4131e+05 -7.2090e+05  5.6361e+06 -4.7186e+06 M 39  IONOSPHERIC CORR
GAUT  6.5192580223e-09-2.664535259e-15 217200 1404   E25  0 TIME SYSTEM CORR
GPUT  1.1641532183e-09-1.367350677e-12 443100 2428   G06  0 TIME SYSTEM CORR
BDUT  0.0000000000e+00 0.000000000e+00 216000 1072   C39  0 TIME SYSTEM CORR
                                                            END OF HEADER
E31 2026 07 21 12 28 05-1.581464312039e-04-2.984279490192e-12 0.000000000000e+00
     1.010000000000e+02 7.603125000000e+01 3.063341886200e-09-1.859423090104e+00
     3.661960363388e-06 3.415956161916e-04 9.361654520035e-06 5.440612691879e+03
     2.130000000000e+05 2.793967723846e-08-1.329261976091e+00 2.793967723846e-08
     9.605988725017e-01 1.409687500000e+02-1.399396088681e+00-5.481299746707e-09
     9.643258823294e-11 1.000000000000e+00 1.404000000000e+03                   
     1.070000000000e+02 0.000000000000e+00 3.492459654808e-09 4.190951585770e-09
     2.176850000000e+05                                                         
C35 2026 07 21 12 28 54-4.783350741491e-04-1.614264277805e-11 0.000000000000e+00
     1.000000000000e+00 1.792187500000e+01 4.336609208609e-09 4.669290416059e-01
     8.274801075459e-07 8.120564743876e-04 3.822147846222e-06 5.282620946884e+03
     2.160000000000e+05 7.078051567078e-08 3.475175063562e-02 2.146093174815e-05
     9.437466530991e-01 2.746875000000e+02 8.870472662449e-01-2.015142510203e-06
    -6.750281176306e-11                    1.072000000000e+03                   
     0.000000000000e+00 0.000000000000e+00-1.257285475731e-08-1.257285475731e-08
     2.177340000000e+05 1.000000000000e+00                                      
C12 2026 07 21 12 28 54 6.156337913126e-04-4.996891789233e-12 0.000000000000e+00
     1.000000000000e+00-2.943750000000e+01 3.659080986839e-09-2.630241447657e-01
    -1.462642103434e-06 1.747981877998e-04 7.217749953270e-06 5.282643894196e+03
     2.160000000000e+05 6.984919309616e-09 2.170490174108e+00-3.792811185122e-05
     9.736061087052e-01 2.177656250000e+02 7.059895846714e-01-1.587878641519e-06
     1.542921411727e-10                    1.072000000000e+03                   
     0.000000000000e+00 0.000000000000e+00 3.725290298462e-09 3.725290298462e-09
     2.177340000000e+05 1.000000000000e+00                                      
C19 2026 07 21 12 28 54-9.326071012765e-04 8.189005029635e-13 0.000000000000e+00
     1.000000000000e+00-2.573437500000e+01 3.306923460922e-09 3.386366295520e-01
    -1.390464603901e-06 7.846758235246e-04 7.194932550192e-06 5.282633312225e+03
     2.160000000000e+05 1.396983861923e-08 2.184841312690e+00 1.379102468491e-05
     9.899549906618e-01 2.279531250000e+02-3.189565178192e-01 4.427434420415e-07
     1.492919328940e-10                    1.072000000000e+03                   
     0.000000000000e+00 0.000000000000e+00 4.330649971962e-08 4.330649971962e-08
     2.177340000000e+05 1.000000000000e+00                                      
C29 2026 07 21 12 28 54 6.338921375573e-04 5.202949182603e-12 0.000000000000e+00
     1.000000000000e+00 2.465625000000e+01 4.379468136712e-09 6.326844932773e-02
     1.261476427317e-06 2.177694113925e-04 3.475230187178e-06 5.282655553818e+03
     2.160000000000e+05-7.450580596924e-09 3.415257011163e-02 3.414368256927e-05
     9.455616092478e-01 2.823906250000e+02 2.111678146294e+00-2.599715431440e-06
    -1.178620522847e-11                    1.072000000000e+03                   
     0.000000000000e+00 0.000000000000e+00 9.313225746155e-10 9.313225746155e-10
     2.177340000000e+05 1.000000000000e+00                                      
C31 2026 07 21 12 28 54 7.556945784017e-04-9.037215420449e-12 0.000000000000e+00
     1.000000000000e+00 1.518750000000e+01 4.410898017322e-09-4.445036412123e-01
     7.422640919685e-07 7.334051188082e-04 3.811437636614e-06 5.282666347504e+03
     2.160000000000e+05 5.587935447693e-09 3.192312830929e-02 2.691242843866e-05
     9.410542781851e-01 2.776250000000e+02 1.055224217456e+00 1.215300622149e-06
    -7.821754378894e-11                    1.072000000000e+03                   
     0.000000000000e+00 0.000000000000e+00-6.519258022308e-09-6.519258022308e-09
     2.177340000000e+05 1.000000000000e+00                                      
C26 2026 07 21 12 28 54-6.725075654685e-04-5.538680625250e-12 0.000000000000e+00
     1.000000000000e+00 8.812500000000e+00 3.968736742387e-09 1.911948359135e+00
     4.526227712631e-07 9.375507943332e-04 9.174458682537e-06 5.282660764694e+03
     2.160000000000e+05 1.909211277962e-08-2.040592449381e+00 4.197936505079e-05
     9.453568650851e-01 1.662031250000e+02 7.301354864451e-01 2.607770409819e-06
    -1.064330047904e-10                    1.072000000000e+03                   
     0.000000000000e+00 0.000000000000e+00-2.328306436539e-08-2.328306436539e-08
     2.177340000000e+05 1.000000000000e+00                                      
C20 2026 07 21 12 28 54-8.892210898921e-04 2.986055847032e-12 0.000000000000e+00
     1.000000000000e+00-3.246875000000e+01 3.374783430419e-09 4.628641233029e-01
    -1.553446054459e-06 8.070028852671e-04 7.338821887970e-06 5.282635116577e+03
     2.160000000000e+05 3.632158041000e-08 2.185468916250e+00 1.190602779388e-05
     9.899397338892e-01 2.240000000000e+02 2.733589222221e-01 1.054334631555e-06
     1.703642392115e-10                    1.072000000000e+03                   
     0.000000000000e+00 0.000000000000e+00 5.541369318962e-08 5.541369318962e-08
     2.177340000000e+05 1.000000000000e+00                                      
C39 2026 07 21 12 28 54-9.575174190104e-04 8.786749106093e-12 0.000000000000e+00
     1.000000000000e+00 6.046875000000e+00 3.871232680951e-09-2.864413525612e+00
     3.427267074585e-07 5.721562774852e-04 9.524170309305e-06 5.282662319183e+03
     2.160000000000e+05 1.955777406693e-08-2.011571264852e+00-5.860393866897e-05
     9.490801569066e-01 1.626562500000e+02 5.979800241540e-02 9.870857589411e-07
    -6.107397254753e-11                    1.072000000000e+03                   
     0.000000000000e+00 0.000000000000e+00 8.987262845039e-08 8.987262845039e-08
     2.177340000000e+05 1.000000000000e+00                                      
G05 2026 07 21 12 30 24-2.352863957640e-04-3.375077994860e-13 0.000000000000e+00
    -5.671977996826e-03-3.324218750000e+01 4.024810506656e-09-1.031420181351e+00
    -1.653097569942e-06 5.603698780760e-03 7.516704499722e-06 5.153446300058e+03
     1.701000000000e+05-7.916241884232e-08 1.559859682165e+00 5.401670932770e-08
     9.811629890568e-01 2.459609375000e+02 1.481731062401e+00-8.459403031570e-09
     4.375182243902e-11 4.024810506656e-09-2.000000000000e+00 3.000000000000e+00
     3.000000000000e+01 4.000000000000e+00-1.071020960808e-08 7.000000000000e+00
    -3.783497959375e-10 5.733454599977e-09 0.000000000000e+00 0.000000000000e+00
     2.178240000000e+05 2.428000000000e+03 0.000000000000e+00                   
E31 2026 07 21 12 30 35-1.581570249982e-04-2.970068635477e-12 0.000000000000e+00
     1.070000000000e+02 7.934375000000e+01 3.020840115830e-09-1.412244851358e+00
     3.751367330551e-06 3.418772248551e-04 9.400770068169e-06 5.440613492966e+03
     2.166000000000e+05-1.676380634308e-08-1.329281614303e+00 7.078051567078e-08
     9.605994518172e-01 1.400000000000e+02-1.400261884562e+00-5.448084077427e-09
     6.893144269984e-11 1.000000000000e+00 1.404000000000e+03                   
     1.070000000000e+02 0.000000000000e+00 3.026798367500e-09 3.725290298462e-09
     2.178350000000e+05                                                         
E25 2026 07 21 12 30 54 2.174288965762e-05-2.842170943040e-14 0.000000000000e+00
     1.070000000000e+02 8.381250000000e+01 2.986195815613e-09-3.061401318602e+00
     3.932043910027e-06 2.966552274302e-04 8.389353752136e-06 5.440615936279e+03
     2.166000000000e+05 1.862645149231e-08-1.329200657880e+00-3.725290298462e-09
     9.606291841643e-01 1.568437500000e+02-1.311629137750e+00-5.524158674811e-09
     4.393040130612e-11 5.160000000000e+02 1.404000000000e+03                   
     1.070000000000e+02 0.000000000000e+00 2.328306436539e-09 2.561137080193e-09
     2.178540000000e+05                                                         
E11 2026 07 21 12 30 54 5.518450110685e-03 6.741629476892e-11-3.469446951954e-18
     1.070000000000e+02-4.896875000000e+01 2.699755312788e-09-8.142895856297e-01
    -2.333894371986e-06 4.160888493061e-04 5.582347512245e-06 5.440609148026e+03
     2.166000000000e+05 1.676380634308e-08 7.694145413640e-01-8.568167686462e-08
     9.945445669789e-01 2.367500000000e+02 1.348807973346e+00-5.508800892240e-09
    -1.325055193867e-10 5.160000000000e+02 1.404000000000e+03                   
     1.070000000000e+02 0.000000000000e+00-1.490116119385e-08-1.583248376846e-08
     2.178540000000e+05                                                         
E11 2026 07 21 12 31 54 5.518490565009e-03 6.740208391420e-11-3.469446951954e-18
     1.080000000000e+02-5.059375000000e+01 2.709041413877e-09-7.399909987725e-01
    -2.410262823105e-06 4.157666116953e-04 5.485489964485e-06 5.440608507156e+03
     2.172000000000e+05 2.793967723846e-08 7.694112059108e-01-7.823109626770e-08
     9.945444397051e-01 2.388437500000e+02 1.348894423027e+00-5.511658154114e-09
    -1.250052069686e-10 5.160000000000e+02 1.404000000000e+03                   
     1.070000000000e+02 0.000000000000e+00-1.490116119385e-08-1.583248376846e-08
     2.179140000000e+05                                                         
G21 2026 07 21 12 32 00 3.956717555411e-04-5.307754236128e-12 0.000000000000e+00
    -7.040500640869e-03-3.537890625000e+01 4.462507309913e-09 1.026285565645e+00
    -1.767650246620e-06 7.946521509439e-04 7.230788469315e-06 5.153629512523e+03
     1.332000000000e+05 1.955777406693e-08 1.623518024762e+00-4.656612873077e-08
     9.641823159379e-01 2.416328125000e+02-8.855343836615e-02-8.309039625474e-09
     3.571577341961e-11 4.462507309913e-09-2.000000000000e+00 3.000000000000e+00
     3.100000000000e+01 4.000000000000e+00-9.778887033463e-09 7.000000000000e+00
    -8.731149137020e-11 6.199115887284e-09 1.746229827404e-10 1.455191522837e-10
     2.179200000000e+05 2.428000000000e+03 0.000000000000e+00                   
G06 2026 07 21 12 32 00-5.692079430446e-04 7.982947636265e-12 0.000000000000e+00
     4.358768463135e-03-2.539843750000e+01 4.126957618636e-09 3.033731863795e+00
    -1.243315637112e-06 3.694834478665e-03 4.962086677551e-06 5.153500829988e+03
     1.845000000000e+05-6.239861249924e-08 5.835633402583e-01 2.607703208923e-08
     9.858711253753e-01 2.967070312500e+02-5.470649729606e-01-8.471010657932e-09
    -7.071723137082e-11 4.126957618636e-09-2.000000000000e+00 3.000000000000e+00
     2.900000000000e+01 4.000000000000e+00 3.725290298462e-09 7.000000000000e+00
     3.201421350241e-10-3.929017111659e-09 1.775333657861e-09 2.211891114712e-09
     2.179200000000e+05 2.428000000000e+03 0.000000000000e+00                   
G12 2026 07 21 12 32 00-6.054585392121e-04 5.542233338929e-13 0.000000000000e+00
    -4.949092864990e-03 3.772265625000e+01 4.390361447605e-09 1.452541715439e+00
     1.955777406693e-06 8.707613684237e-03 8.841045200825e-06 5.153516838877e+03
     2.025000000000e+05-1.117587089539e-08-1.467476728765e+00-1.946464180946e-07
     9.583097143833e-01 2.068085937500e+02 1.587387384599e+00-8.343683925691e-09
     4.589476884420e-11 4.390361447605e-09-2.000000000000e+00 3.000000000000e+00
     2.800000000000e+01 4.000000000000e+00-1.257285475731e-08 7.000000000000e+00
    -6.984919309616e-10 7.072230800986e-09 0.000000000000e+00 0.000000000000e+00
     2.179200000000e+05 2.428000000000e+03 0.000000000000e+00                   
G13 2026 07 21 12 32 00 4.184774297755e-04 5.240252676231e-12 8.673617379884e-19
    -4.507541656494e-03 3.406250000000e+01 4.347502519502e-09 1.316556556711e+00
     1.756474375725e-06 2.271318458952e-03 8.977949619293e-06 5.153630947532e+03
     1.647000000000e+05 2.980232238770e-08-1.575992203658e+00-4.470348358154e-08
     9.588257221628e-01 2.048125000000e+02 1.820178237478e+00-8.384757065123e-09
     2.160804291886e-11 4.347502519502e-09-3.000000000000e+00 1.000000000000e+00
     3.000000000000e+01 7.000000000000e+00-8.381903171539e-09 7.000000000000e+00
    -1.164153218269e-10 5.267793312669e-09 1.658918336034e-09 1.949956640601e-09
     2.179200000000e+05 2.428000000000e+03 0.000000000000e+00                   
G25 2026 07 21 12 32 00 4.047089896630e-04-3.229416734030e-12 0.000000000000e+00
     4.336357116699e-03 4.065625000000e+01 4.696624204679e-09 1.386186788381e+00
     2.051703631878e-06 1.289950474165e-02 8.748844265938e-06 5.153552874520e+03
     1.593000000000e+05-2.169981598854e-07-1.562916745733e+00-7.729977369308e-08
     9.467228845911e-01 2.032539062500e+02 1.161801535092e+00-8.100816666438e-09
    -5.768097407267e-11 4.696624204679e-09-2.000000000000e+00 3.000000000000e+00
     3.000000000000e+01 4.000000000000e+00 5.587935447693e-09 7.000000000000e+00
    -1.891748979688e-09-4.773028194904e-09-1.047737896442e-09 6.402842700481e-10
     2.179200000000e+05 2.428000000000e+03 0.000000000000e+00                   
G11 2026 07 21 12 32 00-2.677223528735e-04 1.223909862347e-11 0.000000000000e+00
    -4.132270812988e-03-2.292187500000e+01 4.625728394441e-09-2.017792766517e+00
    -1.150183379650e-06 2.486625686288e-03 5.193054676056e-06 5.153574809431e+03
     1.872000000000e+05 5.774199962616e-08 5.992458425489e-01 4.656612873077e-09
     9.627621128722e-01 2.799687500000e+02-2.354806973837e+00-8.158319061643e-09
    -5.285934466102e-11 4.625728394441e-09-2.000000000000e+00 3.000000000000e+00
     2.900000000000e+01 4.000000000000e+00-8.847564458847e-09 7.000000000000e+00
    -2.037268131971e-10 5.675246939063e-09 3.783497959375e-10 2.328306436539e-10
     2.179200000000e+05 2.428000000000e+03 0.000000000000e+00                   
E16 2026 07 21 12 32 05-4.650175105780e-05-2.472688720445e-12 0.000000000000e+00
     1.040000000000e+02 8.293750000000e+01 2.962266247422e-09-1.387599465465e+00
     4.008412361145e-06 4.924213280901e-04 8.672475814819e-06 5.440619869232e+03
     2.148000000000e+05 1.862645149231e-08-1.332508973970e+00-5.587935447693e-09
     9.625735163992e-01 1.542500000000e+02-2.476026860160e+00-5.504157841696e-09
     8.036049019412e-11 1.000000000000e+00 1.404000000000e+03                   
     1.070000000000e+02 0.000000000000e+00-3.725290298462e-09-2.328306436539e-09
     2.179250000000e+05                                                         
E10 2026 07 21 12 32 05-8.074557990767e-04-2.657429831743e-12 0.000000000000e+00
     1.060000000000e+02-5.384375000000e+01 2.715113095359e-09-1.448141785970e+00
    -2.492219209671e-06 2.855767961591e-04 5.129724740982e-06 5.440599714279e+03
     2.160000000000e+05 6.519258022308e-08 7.679582181194e-01-4.656612873077e-08
     9.974618450667e-01 2.471875000000e+02 2.337049907418e+00-5.504514999430e-09
    -1.214336296267e-10 1.000000000000e+00 1.404000000000e+03                   
     1.070000000000e+02 0.000000000000e+00-1.164153218269e-09-2.328306436539e-10
     2.179250000000e+05                                                         
E12 2026 07 21 12 32 05-5.902443081141e-05-2.614797267597e-12 0.000000000000e+00
     1.040000000000e+02-5.346875000000e+01 2.791902008211e-09 2.504139079558e-01
    -2.425163984299e-06 3.171436255798e-04 4.950910806656e-06 5.440602628708e+03
     2.148000000000e+05 6.146728992462e-08 7.694331160349e-01 7.450580596924e-09
     9.945570705398e-01 2.502187500000e+02 8.577544266062e-01-5.530944671761e-09
    -1.182192100189e-10 1.000000000000e+00 1.404000000000e+03                   
     1.070000000000e+02 0.000000000000e+00-1.187436282635e-08-1.164153218269e-08
     2.179250000000e+05                                                         
E31 2026 07 21 12 32 05-1.581587712280e-04-2.970068635477e-12 0.000000000000e+00
     1.080000000000e+02 8.156250000000e+01 3.007982437399e-09-1.337281630096e+00
     3.840774297714e-06 3.421033034101e-04 9.445473551750e-06 5.440614084244e+03
     2.172000000000e+05-2.980232238770e-08-1.329284859056e+00 7.264316082001e-08
     9.605995469069e-01 1.388750000000e+02-1.400839571894e+00-5.442726711414e-09
     6.143113028173e-11 1.000000000000e+00 1.404000000000e+03                   
     1.070000000000e+02 0.000000000000e+00 3.026798367500e-09 3.725290298462e-09
     2.179250000000e+05                                                         
E25 2026 07 21 12 32 05 2.174294786528e-05-1.421085471520e-14 0.000000000000e+00
     1.080000000000e+02 8.309375000000e+01 2.979052660930e-09-2.986770448921e+00
     3.922730684280e-06 2.965871244669e-04 8.381903171539e-06 5.440616130829e+03
     2.172000000000e+05 1.862645149231e-08-1.329203967001e+00-1.862645149231e-09
     9.606292090339e-01 1.573125000000e+02-1.311874722196e+00-5.524872990279e-09
     4.357324357192e-11 1.000000000000e+00 1.404000000000e+03                   
     1.070000000000e+02 0.000000000000e+00 2.328306436539e-09 2.561137080193e-09
     2.179250000000e+05                                                         
END OF FILE                                                 COMMENT
