     3.05           N: NAVIGATION       M: MIXED            RINEX VERSION / TYPE
PYRINEXCONV 0.1.2 ALDELTUNES            20260721 064058 UTC PGM / RUN BY / DATE
GAL    1.0175e+02  3.3203e-01  2.2858e-02             G 06  IONOSPHERIC CORR
GPSA   1.1176e-08  2.2352e-08  1.5199e-05  1.5140e-05 G 01  IONOSPHERIC CORR
GPSB   1.0650e+05  1.4746e+05  1.6712e+07  1.6450e+07 G 01  IONOSPHERIC CORR
BDSA   2.0489e-08  3.7253e-08 -5.9605e-07  1.0133e-06 G 37  IONOSPHERIC CORR
BDSB   1.3722e+05 -4.9152e+05  4.5875e+06 -4.0632e+06 G 37  IONOSPHERIC CORR
GAUT  6.5192580223e-09-2.664535259e-15 196200 1404   E06  0 TIME SYSTEM CORR
GPUT  1.2805685401e-09 3.947953076e-13 399600 2428   G01  0 TIME SYSTEM CORR
BDUT  0.0000000000e+00 0.000000000e+00 194400 1072   C37  0 TIME SYSTEM CORR
                                                            END OF HEADER
G08 2026 07 21 06 33 36 3.939346352126e-04-9.233502851203e-12 0.000000000000e+00
    -5.928039550781e-03 5.482812500000e+01 5.237896750853e-09 1.818339585714e+00
     2.931803464890e-06 1.168702589348e-02 5.631707608700e-06 5.153471431654e+03
     1.413000000000e+05-2.682209014893e-07-5.417529616140e-01 1.611188054085e-07
     9.417685486688e-01 2.586953125000e+02 5.449356232817e-01-7.824198001303e-09
    -2.142946405177e-11 5.237896750853e-09-2.000000000000e+00 3.000000000000e+00
     3.000000000000e+01 4.000000000000e+00 4.656612873077e-09 7.000000000000e+00
    -1.047737896442e-09-4.685716703534e-09 6.257323548198e-09 6.839400157332e-09
     1.964160000000e+05 2.428000000000e+03 0.000000000000e+00                   
E13 2026 07 21 06 36 35-5.992979276925e-05-9.094947017729e-13 0.000000000000e+00
     7.100000000000e+01-5.459375000000e+01 2.610108721505e-09 8.246642714913e-01
    -2.512708306313e-06 5.432264879346e-05 5.535781383514e-06 5.440602489471e+03
     1.950000000000e+05 9.313225746155e-09 7.700311072064e-01-9.313225746155e-09
     9.976510720573e-01 2.388125000000e+02 1.922476209594e-01-5.443083869148e-09
    -2.378670509746e-10 1.000000000000e+00 1.404000000000e+03                   
     1.070000000000e+02 0.000000000000e+00 3.958120942116e-09 4.190951585770e-09
     1.965950000000e+05                                                         
G17 2026 07 21 06 39 12-1.762084430084e-04-6.036060540282e-12 0.000000000000e+00
     3.508567810059e-03 4.568359375000e+01 4.778770483544e-09 1.827803561184e+00
     2.356246113777e-06 1.261504000286e-02 4.746951162815e-06 5.153547111464e+03
     1.728000000000e+05 2.263113856316e-07-4.349681466035e-01-3.166496753693e-08
     9.574394507505e-01 2.844765625000e+02-1.098740390765e+00-8.205106724823e-09
    -1.607209803882e-10 4.778770483544e-09-2.000000000000e+00 3.000000000000e+00
     2.800000000000e+01 4.000000000000e+00-1.071020960808e-08 7.000000000000e+00
    -8.440110832453e-10 6.722984835505e-09 0.000000000000e+00 0.000000000000e+00
     1.967520000000e+05 2.428000000000e+03 0.000000000000e+00                   
E04 2026 07 21 06 40 24-1.221743295901e-04 3.355182798259e-11 0.000000000000e+00
     6.700000000000e+01-4.246875000000e+01 3.155488581622e-09 2.647742845734e+00
    -1.899898052216e-06 2.930443733931e-04 5.640089511871e-06 5.440609802246e+03
     1.926000000000e+05 4.284083843231e-08 2.852413615299e+00 9.313225746155e-09
     9.693544913340e-01 2.223750000000e+02-6.753111758211e-02-5.659521456071e-09
     2.039370662260e-10 5.160000000000e+02 1.404000000000e+03                   
     1.070000000000e+02 0.000000000000e+00-4.190951585770e-09-4.656612873077e-09
     1.968240000000e+05                                                         
E21 2026 07 21 06 40 24-7.585848215967e-04-2.799538378895e-12 0.000000000000e+00
     7.200000000000e+01 8.446875000000e+01 3.204776348941e-09-2.299197177145e+00
     4.107132554054e-06 1.708251656964e-04 8.709728717804e-06 5.440616865158e+03
     1.956000000000e+05-2.048909664154e-08-1.329086133338e+00-2.048909664154e-08
     9.606210474139e-01 1.548125000000e+02-1.558634889845e+00-5.527015936684e-09
     1.075044779930e-10 5.160000000000e+02 1.404000000000e+03                   
     1.070000000000e+02 0.000000000000e+00 6.984919309616e-10 9.313225746155e-10
     1.968240000000e+05                                                         
E28 2026 07 21 06 40 35-6.033037789166e-05-2.842170943040e-12 0.000000000000e+00
     7.200000000000e+01-4.287500000000e+01 3.449072239132e-09 1.356086649104e+00
    -1.922249794006e-06 2.855296479538e-04 5.265697836876e-06 5.440610961914e+03
     1.956000000000e+05 3.166496753693e-08 2.870089845254e+00 4.656612873077e-08
     9.490547226129e-01 2.225312500000e+02 1.961895922623e+00-5.795955710534e-09
     1.864363372504e-10 1.000000000000e+00 1.404000000000e+03                   
     1.070000000000e+02 0.000000000000e+00 9.313225746155e-10 1.862645149231e-09
     1.968350000000e+05                                                         
G30 2026 07 21 06 40 48 3.026208723895e-04 1.329070187239e-11 0.000000000000e+00
     3.701686859131e-03-2.192968750000e+01 5.097712340181e-09-1.216021699316e+00
    -1.246109604836e-06 8.218937087804e-03 7.903203368187e-06 5.153542055023e+03
     1.107000000000e+05 1.452863216400e-07-2.597195307358e+00 1.229345798492e-07
     9.366270645625e-01 2.134453125000e+02-2.258804522652e+00-8.059743527005e-09
    -4.518045337580e-11 5.097712340181e-09-2.000000000000e+00 3.000000000000e+00
     3.100000000000e+01 4.000000000000e+00 4.190951585770e-09 7.000000000000e+00
    -1.513399183750e-09-3.259629011154e-09 2.328306436539e-09 3.230525180697e-09
     1.968480000000e+05 2.428000000000e+03 0.000000000000e+00                   
G14 2026 07 21 06 40 48 7.499779458158e-04 2.557953848736e-13 0.000000000000e+00
    -3.282070159912e-03 5.808593750000e+01 4.971457081142e-09-1.812418756870e+00
     2.956017851830e-06 7.364144199528e-03 8.785165846348e-06 5.153566057914e+03
     1.152000000000e+05 6.984919309616e-08-1.524203728198e+00-6.146728992462e-08
     9.416382626476e-01 2.006640625000e+02-2.680439830644e+00-8.221535980596e-09
     1.428630936784e-10 4.971457081142e-09-2.000000000000e+00 3.000000000000e+00
     3.100000000000e+01 4.000000000000e+00-7.916241884232e-09 7.000000000000e+00
    -2.619344741106e-10 5.005858838558e-09-1.455191522837e-09-1.076841726899e-09
     1.968480000000e+05 2.428000000000e+03 0.000000000000e+00                   
G01 2026 07 21 06 40 48 2.170315419789e-04-9.634959496907e-12 0.000000000000e+00
    -1.117229461670e-03-2.564843750000e+01 4.646443543024e-09 6.786723551877e-01
    -1.356936991215e-06 1.827183994465e-03 5.745328962803e-06 5.153617600205e+03
     1.746000000000e+05-9.313225746155e-10 6.292672102708e-01-3.259629011154e-08
     9.571115413203e-01 2.650117187500e+02 1.954233154798e-01-8.066708102822e-09
    -3.005482333260e-10 4.646443543024e-09-2.000000000000e+00 3.000000000000e+00
     2.900000000000e+01 4.000000000000e+00-8.847564458847e-09 7.000000000000e+00
    -2.910383045673e-10 5.646143108606e-09-5.529727786779e-10-6.693881005049e-10
     1.968480000000e+05 2.428000000000e+03 0.000000000000e+00                   
G07 2026 07 21 06 40 48-2.079302503262e-04-3.755218358492e-12 0.000000000000e+00
     3.500461578369e-03-1.714453125000e+01 4.861273920143e-09-9.080759807124e-01
    -9.061768651009e-07 2.093952696305e-02 8.038245141506e-06 5.153635794120e+03
     1.161000000000e+05-8.288770914078e-08-2.586127494568e+00 4.023313522339e-07
     9.513190345306e-01 2.189101562500e+02-1.955181803776e+00-7.933309689100e-09
    -3.875161416028e-11 4.861273920143e-09-2.000000000000e+00 3.000000000000e+00
     3.100000000000e+01 4.000000000000e+00-1.071020960808e-08 7.000000000000e+00
    -9.313225746155e-10 6.984919309616e-09 0.000000000000e+00 0.000000000000e+00
     1.968480000000e+05 2.428000000000e+03 0.000000000000e+00                   
E06 2026 07 21 06 40 54-3.006593906321e-04-5.016431714466e-12 0.000000000000e+00
     7.200000000000e+01-4.093750000000e+01 3.264778848286e-09 1.172833459576e+00
    -1.855194568634e-06 5.052476190031e-04 5.602836608887e-06 5.440611757278e+03
     1.956000000000e+05 4.470348358154e-08 2.852046893921e+00-1.862645149231e-09
     9.626610486396e-01 2.200000000000e+02 1.386261394277e+00-5.723809848226e-09
     1.917937032633e-10 5.160000000000e+02 1.404000000000e+03                   
     1.070000000000e+02 0.000000000000e+00 2.328306436539e-09 3.725290298462e-09
     1.968540000000e+05                                                         
E33 2026 07 21 06 40 54-2.517795655876e-05-1.932676241267e-12 0.000000000000e+00
     7.200000000000e+01-4.621875000000e+01 2.533319808653e-09 2.568486842049e+00
    -2.367421984673e-06 1.661677379161e-04 6.176531314850e-06 5.440607854843e+03
     1.956000000000e+05-4.842877388000e-08 7.700000874915e-01 9.313225746155e-09
     9.976682832885e-01 2.228750000000e+02-3.027478602179e+00-5.408082411197e-09
    -3.042983895351e-10 5.160000000000e+02 1.404000000000e+03                   
     1.070000000000e+02 0.000000000000e+00-4.423782229424e-09-4.889443516731e-09
     1.968540000000e+05                                                         
C30 2026 07 21 06 40 54 4.927382105961e-04 7.498890397528e-12 0.000000000000e+00
     1.000000000000e+00 1.187500000000e+00 4.315536902291e-09-9.627765328557e-01
    -9.778887033463e-09 4.685263847932e-04 3.783963620663e-06 5.282646198273e+03
     1.944000000000e+05-2.095475792885e-08 3.477552012857e-02 3.978936001658e-05
     9.455214389803e-01 2.746406250000e+02 9.829272360762e-01-1.991644388554e-06
    -2.853690296227e-10                    1.072000000000e+03                   
     0.000000000000e+00 0.000000000000e+00-4.516914486885e-08-4.516914486885e-08
     1.968540000000e+05 1.000000000000e+00                                      
C36 2026 07 21 06 40 54 2.596328267828e-04-4.331646152878e-12 0.000000000000e+00
     1.000000000000e+00 1.807812500000e+01 4.129100565041e-09 2.325468025946e+00
     6.891787052155e-07 8.157768752426e-04 1.003360375762e-05 5.282653972626e+03
     1.944000000000e+05 7.776543498039e-08-2.018527266231e+00 3.838166594505e-05
     9.451402230097e-01 1.503750000000e+02-1.023818697358e+00 1.856809486425e-07
    -1.010756387775e-10                    1.072000000000e+03                   
     0.000000000000e+00 0.000000000000e+00-9.639188647270e-08-9.639188647270e-08
     1.968540000000e+05 1.000000000000e+00                                      
C27 2026 07 21 06 40 54 6.609043339267e-04 4.823696997391e-12 0.000000000000e+00
     1.000000000000e+00 5.468750000000e+00 4.294107438240e-09-8.593533960669e-01
     3.436580300331e-07 6.353700300679e-04 3.734137862921e-06 5.282660392761e+03
     1.944000000000e+05 3.073364496231e-08 7.565614557643e-02 2.423068508506e-05
     9.479107645625e-01 2.748125000000e+02 1.690143171807e+00 1.975743726228e-06
    -2.800116636097e-10                    1.072000000000e+03                   
     0.000000000000e+00 0.000000000000e+00-2.002343535423e-08-2.002343535423e-08
     1.968540000000e+05 1.000000000000e+00                                      
C11 2026 07 21 06 40 54-7.889120606706e-04-2.166089529965e-11 0.000000000000e+00
     1.000000000000e+00-1.812500000000e+00 4.195531903601e-09 2.386004172937e-01
    -1.294538378716e-07 1.699194544926e-04 3.919005393982e-06 5.282639928818e+03
     1.944000000000e+05-6.472691893578e-08 7.445530488230e-02 4.931772127748e-05
     9.504542363597e-01 2.778593750000e+02-6.700743752873e-01 8.059121409041e-07
    -2.664396697103e-10                    1.072000000000e+03                   
     0.000000000000e+00 0.000000000000e+00 1.350417733192e-08 1.350417733192e-08
     1.968540000000e+05 1.000000000000e+00                                      
C29 2026 07 21 06 40 54 6.337803788483e-04 5.257128066205e-12 0.000000000000e+00
     1.000000000000e+00 2.828125000000e+00 4.306965116671e-09-2.865666466671e+00
     1.587904989719e-07 2.185921184719e-04 3.681052476168e-06 5.282657318115e+03
     1.944000000000e+05-6.845220923424e-08 3.430995376443e-02 2.717040479183e-05
     9.455652650801e-01 2.803593750000e+02 2.115253074815e+00-2.448074829286e-06
    -2.314382117591e-10                    1.072000000000e+03                   
     0.000000000000e+00 0.000000000000e+00 9.313225746155e-10 9.313225746155e-10
     1.968540000000e+05 1.000000000000e+00                                      
C37 2026 07 21 06 40 54-9.072474204004e-04 6.890488180034e-12 0.000000000000e+00
     1.000000000000e+00 7.687500000000e+00 4.125886145433e-09-3.012536217940e+00
     4.679895937443e-07 7.124536205083e-04 9.534414857626e-06 5.282673477173e+03
     1.944000000000e+05-1.862645149231e-08-2.018663518033e+00 4.604039713740e-05
     9.451548565793e-01 1.612343750000e+02-3.738735759866e-01 5.397260531851e-08
    -3.250135381184e-11                    1.072000000000e+03                   
     0.000000000000e+00 0.000000000000e+00-7.823109626770e-08-7.823109626770e-08
     1.968540000000e+05 1.000000000000e+00                                      
E23 2026 07 21 06 41 05-4.270131466910e-05-1.293187779083e-12 0.000000000000e+00
     7.100000000000e+01 9.150000000000e+01 3.186918462232e-09-1.973245510259e+00
     4.315748810768e-06 1.742112217471e-04 8.603557944298e-06 5.440618791580e+03
     1.950000000000e+05-1.490116119385e-08-1.332274857338e+00 4.284083843231e-08
     9.625505924729e-01 1.557812500000e+02-2.751027767486e+00-5.553445609015e-09
     8.857511808063e-11 1.000000000000e+00 1.404000000000e+03                   
     1.070000000000e+02 0.000000000000e+00 4.656612873077e-10 1.862645149231e-09
     1.968650000000e+05                                                         
E31 2026 07 21 06 41 05-1.580872922204e-04-2.941646926047e-12 0.000000000000e+00
     6.800000000000e+01 1.033750000000e+02 3.208705084018e-09 1.970774208599e+00
     4.686415195465e-06 3.427705960348e-04 8.840113878250e-06 5.440614240646e+03
     1.932000000000e+05 1.490116119385e-08-1.329151806656e+00-7.450580596924e-09
     9.605969633936e-01 1.527187500000e+02-1.401123990964e+00-5.553088451281e-09
     5.678807973718e-11 1.000000000000e+00 1.404000000000e+03                   
     1.070000000000e+02 0.000000000000e+00 3.492459654808e-09 4.190951585770e-09
     1.968650000000e+05                                                         
E09 2026 07 21 06 41 05-3.009144566022e-04 1.787725523172e-11 3.469446951954e-18
     7.100000000000e+01-4.087500000000e+01 3.085485665720e-09 1.710436765551e+00
    -1.883134245872e-06 4.996038042009e-04 5.736947059631e-06 5.440615543365e+03
     1.950000000000e+05 3.725290298462e-08 2.855556087682e+00-1.490116119385e-08
     9.750920531151e-01 2.220312500000e+02 3.877097410727e-01-5.612733792891e-09
     1.753644474903e-10 1.000000000000e+00 1.404000000000e+03                   
     1.070000000000e+02 0.000000000000e+00 6.984919309616e-10 9.313225746155e-10
     1.968650000000e+05                                                         
E26 2026 07 21 06 41 05 3.675618208945e-04 1.091393642128e-11 0.000000000000e+00
     7.100000000000e+01-4.368750000000e+01 2.673325640458e-09 2.832396220489e+00
    -2.060085535049e-06 9.068509098142e-05 5.930662155151e-06 5.440605382919e+03
     1.950000000000e+05-1.303851604462e-08 7.665640615787e-01-6.146728992462e-08
     9.909307497061e-01 2.230000000000e+02-2.595413566764e+00-5.522730043874e-09
    -2.710827202548e-10 1.000000000000e+00 1.404000000000e+03                   
     1.070000000000e+02 0.000000000000e+00-5.122274160385e-09-5.587935447693e-09
     1.968650000000e+05                                                         
E33 2026 07 21 06 41 05-2.517917891964e-05-1.932676241267e-12 0.000000000000e+00
     7.300000000000e+01-4.621875000000e+01 2.533319808653e-09 2.568486842049e+00
    -2.367421984673e-06 1.661677379161e-04 6.176531314850e-06 5.440607854843e+03
     1.956000000000e+05-5.401670932770e-08 7.699968588313e-01 3.725290298462e-09
     9.976680667767e-01 2.228750000000e+02-3.027691781527e+00-5.408082411197e-09
    -3.032269163325e-10 1.000000000000e+00 1.404000000000e+03                   
     1.070000000000e+02 0.000000000000e+00-4.423782229424e-09-4.889443516731e-09
     1.968650000000e+05                                                         
E28 2026 07 21 06 41 05-6.033218232915e-05-2.842170943040e-12 0.000000000000e+00
     7.300000000000e+01-4.287500000000e+01 3.449072239132e-09 1.356086649104e+00
    -1.922249794006e-06 2.855296479538e-04 5.265697836876e-06 5.440610961914e+03
     1.956000000000e+05 7.450580596924e-09 2.870086397156e+00 5.774199962616e-08
     9.490549435135e-01 2.225312500000e+02 1.961788725838e+00-5.795955710534e-09
     1.735786588193e-10 1.000000000000e+00 1.404000000000e+03                   
     1.070000000000e+02 0.000000000000e+00 9.313225746155e-10 1.862645149231e-09
     1.968650000000e+05                                                         
E06 2026 07 21 06 41 05-3.006624756381e-04-5.016431714466e-12 0.000000000000e+00
     7.300000000000e+01-4.093750000000e+01 3.264778848286e-09 1.172833459576e+00
    -1.855194568634e-06 5.052476190031e-04 5.602836608887e-06 5.440611757278e+03
     1.956000000000e+05 6.146728992462e-08 2.852043406324e+00 3.725290298462e-09
     9.626612402818e-01 2.200000000000e+02 1.386506536923e+00-5.723809848226e-09
     1.903650723265e-10 1.000000000000e+00 1.404000000000e+03                   
     1.070000000000e+02 0.000000000000e+00 2.328306436539e-09 3.725290298462e-09
     1.968650000000e+05                                                         
END OF FILE                                                 COMMENT
