     3.05           N: NAVIGATION       M: MIXED            RINEX VERSION / TYPE
PYRINEXCONV 0.1.2 ALDELTUNES            20260721 095136 UTC PGM / RUN BY / DATE
GAL    1.0175e+02  3.3203e-01  2.2858e-02             J 10  IONOSPHERIC CORR
GPSA   1.1176e-08  2.2352e-08 -5.9605e-08 -1.1921e-07 J 03  IONOSPHERIC CORR
GPSB   1.0650e+05  1.4746e+05 -6.5536e+04 -3.2768e+05 J 03  IONOSPHERIC CORR
GAUT  6.5192580223e-09-2.664535259e-15 204600 1404   E10  0 TIME SYSTEM CORR
GPUT  8.8817841970e-16 9.313225746e-09 208800  380   G03  0 TIME SYSTEM CORR
                                                            END OF HEADER
G24 2026 07 21 09 44 00 1.223256404046e-04 1.861266696324e-11 0.000000000000e+00
     5.737304687500e-03-3.158593750000e+01 5.240754012726e-09 1.057586258153e+00
    -1.759268343449e-06 1.843219791772e-02 7.580965757370e-06 5.153594282187e+03
     1.980000000000e+05-2.672895789146e-07-2.697175393301e+00 1.583248376846e-08
     9.355018413724e-01 2.222226562500e+02 1.162151067182e+00-7.711157578430e-09
    -2.384027875759e-10 5.240754012726e-09-2.000000000000e+00 2.000000000000e+00
     2.700000000000e+01 4.000000000000e+00 2.328306436539e-09 7.000000000000e+00
     2.910383045673e-11-1.426087692380e-09 1.484295353293e-09 2.764863893390e-09
     2.078400000000e+05 2.428000000000e+03 0.000000000000e+00                   
G11 2026 07 21 09 48 00-2.678986347746e-04 1.224265133715e-11 0.000000000000e+00
     1.009941101074e-03-2.707031250000e+01 4.508402078757e-09 2.166119576878e+00
    -1.373700797558e-06 2.487270801794e-03 6.095506250858e-06 5.153573621315e+03
     1.872000000000e+05-7.916241884232e-08 5.993640390152e-01-3.259629011154e-08
     9.627647863549e-01 2.627109375000e+02-2.355922015117e+00-8.224750400204e-09
    -2.292952653539e-10 4.508402078757e-09-2.000000000000e+00 3.000000000000e+00
     2.800000000000e+01 4.000000000000e+00-8.847564458847e-09 7.000000000000e+00
    -2.037268131971e-10 5.675246939063e-09 3.783497959375e-10 2.328306436539e-10
     2.080800000000e+05 2.428000000000e+03 0.000000000000e+00                   
E31 2026 07 21 09 50 54-1.581280957907e-04-2.955857780762e-12 0.000000000000e+00
     9.100000000000e+01 8.181250000000e+01 3.061556097529e-09-2.597119109807e+00
     3.965571522713e-06 3.416310064495e-04 8.555129170418e-06 5.440616954803e+03
     2.070000000000e+05-9.313225746155e-09-1.329228813201e+00-1.862645149231e-09
     9.605980152317e-01 1.558437500000e+02-1.405551105840e+00-5.521301412937e-09
     1.035757429169e-10 5.160000000000e+02 1.404000000000e+03                   
     1.070000000000e+02 0.000000000000e+00 3.492459654808e-09 4.190951585770e-09
     2.082540000000e+05                                                         
E23 2026 07 21 09 50 54-4.271813668311e-05-1.378452907375e-12 0.000000000000e+00
     9.100000000000e+01 7.559375000000e+01 3.108700918443e-09-4.815671257180e-01
     3.632158041000e-06 1.726449700072e-04 9.423121809959e-06 5.440616891861e+03
     2.070000000000e+05 1.490116119385e-08-1.332341564940e+00 1.490116119385e-08
     9.625521534065e-01 1.417187500000e+02-2.755004381128e+00-5.474156592023e-09
     1.032185851827e-10 5.160000000000e+02 1.404000000000e+03                   
     1.070000000000e+02 0.000000000000e+00 4.656612873077e-10 1.862645149231e-09
     2.082540000000e+05                                                         
E12 2026 07 21 09 50 54-5.900359246880e-05-2.600586412882e-12 0.000000000000e+00
     9.100000000000e+01-4.156250000000e+01 2.652967649609e-09-7.209168320969e-01
    -1.968815922737e-06 3.200168721378e-04 5.761161446571e-06 5.440609113693e+03
     2.070000000000e+05-5.215406417847e-08 7.694766773465e-01-8.754432201385e-08
     9.945592064002e-01 2.298125000000e+02 8.620773392901e-01-5.490228690062e-09
    -2.335811581642e-10 5.160000000000e+02 1.404000000000e+03                   
     1.070000000000e+02 0.000000000000e+00-1.187436282635e-08-1.164153218269e-08
     2.082540000000e+05                                                         
G14 2026 07 21 09 51 12 7.499796629418e-04 2.557953848736e-13 0.000000000000e+00
    -2.422332763672e-04 4.229296875000e+01 4.912883212734e-09-6.744416370642e-01
     2.199783921242e-06 7.365882338490e-03 8.623115718365e-06 5.153562711095e+03
     2.016000000000e+05 1.080334186554e-07-1.524266816540e+00 7.264316082001e-08
     9.416386459321e-01 2.037539062500e+02-2.680705784030e+00-8.091173407614e-09
     6.785996949726e-11 4.912883212734e-09-3.000000000000e+00 2.000000000000e+00
     2.700000000000e+01 4.000000000000e+00-7.916241884232e-09 7.000000000000e+00
    -2.619344741106e-10 5.005858838558e-09-1.455191522837e-09-1.076841726899e-09
     2.082720000000e+05 2.428000000000e+03 0.000000000000e+00                   
G06 2026 07 21 09 51 12-5.693228158634e-04 7.972289495228e-12 0.000000000000e+00
     5.177974700928e-03-2.061328125000e+01 4.004452515806e-09 9.323627841724e-01
    -1.042149960995e-06 3.692717407830e-03 6.204470992088e-06 5.153498310652e+03
     1.845000000000e+05 1.676380634308e-08 5.836785092156e-01-2.700835466385e-08
     9.858739305207e-01 2.723945312500e+02-5.459911281849e-01-8.441009408259e-09
    -2.816188734136e-10 4.004452515806e-09-2.000000000000e+00 3.000000000000e+00
     2.800000000000e+01 4.000000000000e+00 3.725290298462e-09 7.000000000000e+00
     3.201421350241e-10-3.929017111659e-09 1.775333657861e-09 2.211891114712e-09
     2.082720000000e+05 2.428000000000e+03 0.000000000000e+00                   
G17 2026 07 21 09 51 12-1.762518950272e-04-6.032507826603e-12 0.000000000000e+00
     1.567840576172e-03 5.030078125000e+01 4.780913429949e-09 2.877903456025e+00
     2.684071660042e-06 1.261496293591e-02 4.846602678299e-06 5.153543879276e+03
     1.728000000000e+05 2.235174179077e-07-4.350272550770e-01 1.806765794754e-07
     9.574384859560e-01 2.814101562500e+02-1.098660480327e+00-8.214749983646e-09
    -3.142988060926e-11 4.780913429949e-09-2.000000000000e+00 3.000000000000e+00
     2.900000000000e+01 4.000000000000e+00-1.071020960808e-08 7.000000000000e+00
    -8.440110832453e-10 6.722984835505e-09 0.000000000000e+00 0.000000000000e+00
     2.082720000000e+05 2.428000000000e+03 0.000000000000e+00                   
G19 2026 07 21 09 51 24 7.038190960884e-04 4.547473508865e-13 0.000000000000e+00
     5.000000000000e+01 4.206250000000e+01 4.855916554130e-09-1.509985941181e+00
     2.097338438034e-06 1.176493673120e-02 4.887580871582e-06 5.153760034561e+03
     2.088000000000e+05 5.774199962616e-08-3.912794762350e-01-1.620501279831e-07
     9.566052816954e-01 2.842500000000e+02 3.029474768527e+00-8.343918986289e-09
     1.535778257043e-10 1.000000000000e+00 3.800000000000e+02 0.000000000000e+00
     2.000000000000e+00 0.000000000000e+00-1.536682248116e-08 5.000000000000e+01
     8.331360000000e+05 4.000000000000e+00                                      
G06 2026 07 21 09 51 24-5.693081766367e-04 7.958078640513e-12 0.000000000000e+00
     1.400000000000e+01-2.406250000000e+01 4.019095982909e-09 1.195134823534e+00
    -1.270323991776e-06 3.694361192174e-03 5.714595317841e-06 5.153724903107e+03
     2.088000000000e+05 1.303851604462e-08 5.836642618564e-01-3.911554813385e-08
     9.858733950927e-01 2.786875000000e+02-5.462298515458e-01-7.903543500025e-09
    -2.785830326729e-10 1.000000000000e+00 3.800000000000e+02 0.000000000000e+00
     2.000000000000e+00 0.000000000000e+00 3.725290298462e-09 1.400000000000e+01
     8.331360000000e+05 4.000000000000e+00                                      
G22 2026 07 21 09 51 24 4.060100764036e-05 8.071765478235e-12 0.000000000000e+00
     9.200000000000e+01 5.381250000000e+01 4.444113686602e-09-2.529953664691e+00
     2.978369593620e-06 1.184459077194e-02 8.782371878624e-06 5.153724548340e+03
     2.088000000000e+05 1.490116119385e-08-1.447237888387e+00 1.899898052216e-07
     9.568470245193e-01 2.051562500000e+02-9.877956796893e-01-7.783895659069e-09
     9.107522222000e-11 1.000000000000e+00 3.800000000000e+02 0.000000000000e+00
     2.000000000000e+00 0.000000000000e+00-1.117587089539e-08 9.200000000000e+01
     8.331360000000e+05 4.000000000000e+00                                      
G14 2026 07 21 09 51 24 7.499800994992e-04 2.273736754432e-13 0.000000000000e+00
     2.300000000000e+02 4.346875000000e+01 4.919847788551e-09-3.710923551318e-01
     2.404674887657e-06 7.365606026724e-03 8.778646588326e-06 5.153659263611e+03
     2.096800000000e+05 8.940696716309e-08-1.524283975837e+00 8.568167686462e-08
     9.416387081061e-01 2.008437500000e+02-2.680666114081e+00-8.262487022892e-09
     6.500270762369e-11 1.000000000000e+00 3.800000000000e+02 0.000000000000e+00
     2.000000000000e+00 0.000000000000e+00-7.916241884232e-09 9.980000000000e+02
     8.331360000000e+05 4.000000000000e+00                                      
G17 2026 07 21 09 51 24-1.762625761330e-04-6.025402399246e-12 0.000000000000e+00
     6.600000000000e+01 5.268750000000e+01 4.767698593784e-09 3.140405416571e+00
     2.849847078323e-06 1.261520700064e-02 4.867091774940e-06 5.153678655624e+03
     2.088000000000e+05 1.322478055954e-07-4.350422214605e-01 2.756714820862e-07
     9.574385934805e-01 2.811875000000e+02-1.098618294159e+00-8.097122991959e-09
     4.500187450871e-11 1.000000000000e+00 3.800000000000e+02 0.000000000000e+00
     2.000000000000e+00 0.000000000000e+00-1.071020960808e-08 6.600000000000e+01
     8.331360000000e+05 4.000000000000e+00                                      
G11 2026 07 21 09 51 24-2.678767777979e-04 1.227817847393e-11 0.000000000000e+00
     6.700000000000e+01-2.934375000000e+01 4.494830084858e-09 2.428444735728e+00
    -1.607462763786e-06 2.487311139703e-03 5.941838026047e-06 5.153649887085e+03
     2.088000000000e+05-5.401670932770e-08 5.993494486017e-01-4.470348358154e-08
     9.627644696332e-01 2.655000000000e+02-2.355698869639e+00-8.090694152744e-09
    -2.264380034803e-10 1.000000000000e+00 3.800000000000e+02 0.000000000000e+00
     2.000000000000e+00 0.000000000000e+00-8.847564458847e-09 8.350000000000e+02
     8.331360000000e+05 4.000000000000e+00                                      
G24 2026 07 21 09 51 24 1.223646104336e-04 1.864464138635e-11 0.000000000000e+00
     2.600000000000e+01-3.465625000000e+01 5.181287249983e-09 1.361581783415e+00
    -1.974403858185e-06 1.843425631523e-02 8.089467883110e-06 5.153629722595e+03
     2.087840000000e+05-3.930181264877e-07-2.697193767552e+00-1.229345798492e-07
     9.355017521344e-01 2.145000000000e+02 1.162130573895e+00-8.524640799792e-09
    -1.575065607805e-10 1.000000000000e+00 3.800000000000e+02 0.000000000000e+00
     2.000000000000e+00 0.000000000000e+00 2.328306436539e-09 2.600000000000e+01
     8.331360000000e+05 4.000000000000e+00                                      
G03 2026 07 21 09 51 24 3.636339679360e-04-1.898570189951e-11 0.000000000000e+00
     8.200000000000e+01-3.375000000000e+01 3.739084319299e-09-1.083895783581e-01
    -1.739710569382e-06 6.974412710406e-03 8.106231689453e-06 5.153764785767e+03
     2.088000000000e+05-4.842877388000e-08 1.621571901916e+00 8.381903171539e-08
     9.947640617446e-01 2.412812500000e+02 1.276641118530e+00-7.759608933144e-09
     4.785913638228e-11 1.000000000000e+00 3.800000000000e+02 0.000000000000e+00
     2.000000000000e+00 0.000000000000e+00 1.396983861923e-09 8.200000000000e+01
     8.331360000000e+05 4.000000000000e+00                                      
E23 2026 07 21 09 51 24-4.271895159036e-05-1.378452907375e-12 0.000000000000e+00
     9.200000000000e+01 7.503125000000e+01 3.104772183367e-09-4.070643579216e-01
     3.591179847717e-06 1.725773327053e-04 9.434297680855e-06 5.440616752625e+03
     2.076000000000e+05 1.490116119385e-08-1.332344850654e+00 2.048909664154e-08
     9.625522426445e-01 1.415937500000e+02-2.755121980724e+00-5.470227856947e-09
     1.010756387775e-10 5.160000000000e+02 1.404000000000e+03                   
     1.070000000000e+02 0.000000000000e+00 4.656612873077e-10 1.862645149231e-09
     2.082840000000e+05                                                         
E16 2026 07 21 09 51 35-4.647969035432e-05-2.486899575160e-12 0.000000000000e+00
     8.900000000000e+01 9.781250000000e+01 3.090485873999e-09-2.506894661311e+00
     4.362314939499e-06 4.925836110488e-04 8.363276720047e-06 5.440616605759e+03
     2.058000000000e+05 5.587935447693e-09-1.332459325456e+00 3.725290298462e-09
     9.625727512931e-01 1.593437500000e+02-2.472509234140e+00-5.512729627317e-09
     8.107480566251e-11 1.000000000000e+00 1.404000000000e+03                   
     1.070000000000e+02 0.000000000000e+00-3.725290298462e-09-2.328306436539e-09
     2.082950000000e+05                                                         
E10 2026 07 21 09 51 35-8.074251818471e-04-2.600586412882e-12 0.000000000000e+00
     8.700000000000e+01-4.515625000000e+01 2.576893052225e-09-2.856180244606e+00
    -2.223998308182e-06 2.871559699997e-04 6.128102540970e-06 5.440603137970e+03
     2.046000000000e+05-6.146728992462e-08 7.680206642406e-01 7.450580596924e-09
     9.974651600391e-01 2.255937500000e+02 2.331766037495e+00-5.393796101829e-09
    -2.400099973798e-10 1.000000000000e+00 1.404000000000e+03                   
     1.070000000000e+02 0.000000000000e+00-1.164153218269e-09-2.328306436539e-10
     2.082950000000e+05                                                         
E33 2026 07 21 09 51 35-2.519506961107e-05-1.946887095983e-12 0.000000000000e+00
     8.600000000000e+01-5.178125000000e+01 2.673325640458e-09-2.678856425900e+00
    -2.324581146240e-06 1.662023132667e-04 5.647540092468e-06 5.440606731415e+03
     2.040000000000e+05 5.587935447693e-08 7.699541489380e-01-8.754432201385e-08
     9.976651175338e-01 2.334062500000e+02-3.021928220766e+00-5.507015103569e-09
    -2.207234797332e-10 1.000000000000e+00 1.404000000000e+03                   
     1.070000000000e+02 0.000000000000e+00-4.423782229424e-09-4.889443516731e-09
     2.082950000000e+05                                                         
E12 2026 07 21 09 51 35-5.900522228330e-05-2.600586412882e-12 0.000000000000e+00
     9.200000000000e+01-4.268750000000e+01 2.664039539369e-09-6.465472629915e-01
    -2.004206180573e-06 3.198821796104e-04 5.761161446571e-06 5.440608850479e+03
     2.076000000000e+05-3.725290298462e-08 7.694733682258e-01-9.685754776001e-08
     9.945589986658e-01 2.299062500000e+02 8.620929105901e-01-5.498086160215e-09
    -2.260808457461e-10 1.000000000000e+00 1.404000000000e+03                   
     1.070000000000e+02 0.000000000000e+00-1.187436282635e-08-1.164153218269e-08
     2.082950000000e+05                                                         
E31 2026 07 21 09 51 35-1.581299002282e-04-2.955857780762e-12 0.000000000000e+00
     9.200000000000e+01 8.221875000000e+01 3.059413151124e-09-2.523117550911e+00
     3.989785909653e-06 3.416769905016e-04 8.620321750641e-06 5.440616680145e+03
     2.076000000000e+05-5.587935447693e-09-1.329232145729e+00-3.725290298462e-09
     9.605980913034e-01 1.548125000000e+02-1.405167565292e+00-5.518086993329e-09
     1.042900583853e-10 1.000000000000e+00 1.404000000000e+03                   
     1.070000000000e+02 0.000000000000e+00 3.492459654808e-09 4.190951585770e-09
     2.082950000000e+05                                                         
END OF FILE                                                 COMMENT
