     3.05           N: NAVIGATION       G: GPS              RINEX VERSION / TYPE
PYRINEXCONV 0.1.2 ALDELTUNES            20260721 192427 UTC PGM / RUN BY / DATE
GPSA   9.3132e-09  2.2352e-08  1.5199e-05  1.5140e-05 T 13  IONOSPHERIC CORR
GPSB   1.0035e+05  1.3107e+05  1.6712e+07  1.6318e+07 T 13  IONOSPHERIC CORR
GPUT  5.8207660913e-10-1.483257961e-12 486000 2428   G13  0 TIME SYSTEM CORR
                                                            END OF HEADER
G32 2026 07 21 19 23 12 1.759861188475e-04 2.017586098191e-11 0.000000000000e+00
    -3.537178039551e-03-2.734375000000e+01 4.475007830610e-09 2.490273781190e+00
    -1.343898475170e-06 9.462871181313e-03 7.006339728832e-06 5.153650468585e+03
     1.836000000000e+05 4.656612873077e-09 2.641939473852e+00-2.197921276093e-07
     9.696895602853e-01 2.500312500000e+02-1.972956681222e+00-8.530298841808e-09
     2.326882638287e-10 4.475007830610e-09-2.000000000000e+00 3.000000000000e+00
     3.000000000000e+01 4.000000000000e+00 9.313225746155e-10 7.000000000000e+00
    -2.910383045673e-10-1.891748979688e-09 8.614733815193e-09 9.051291272044e-09
     2.425920000000e+05 2.428000000000e+03 0.000000000000e+00                   
G24 2026 07 21 19 23 12 1.230011112057e-04 1.860200882220e-11 0.000000000000e+00
     2.012729644775e-03-2.229687500000e+01 5.511479575247e-09 6.901511119069e-02
    -1.085922122002e-06 1.843649381772e-02 7.287599146366e-06 5.153598454599e+03
     1.980000000000e+05-1.536682248116e-07-2.697475302479e+00 1.825392246246e-07
     9.354957300321e-01 2.269843750000e+02 1.162361221216e+00-7.584723740524e-09
    -2.426886803862e-10 5.511479575247e-09-2.000000000000e+00 3.000000000000e+00
     2.900000000000e+01 4.000000000000e+00 2.328306436539e-09 7.000000000000e+00
     2.910383045673e-11-1.426087692380e-09 1.484295353293e-09 2.764863893390e-09
     2.425920000000e+05 2.428000000000e+03 0.000000000000e+00                   
G27 2026 07 21 19 23 12 5.404872354120e-07-7.105427357601e-15 0.000000000000e+00
    -5.807399749756e-03 6.066015625000e+01 4.685730893786e-09 1.984407900703e+00
     3.067776560783e-06 1.433300302597e-02 5.996786057949e-06 5.153547549193e+03
     2.205000000000e+05-2.244487404823e-07-5.088974066254e-01-2.020969986916e-07
     9.508968605111e-01 2.573515625000e+02 9.005836582042e-01-8.118495974280e-09
     3.303709041314e-11 4.685730893786e-09-2.000000000000e+00 1.000000000000e+00
     2.800000000000e+01 4.000000000000e+00 2.328306436539e-09 7.000000000000e+00
    -9.022187441587e-10-1.688022166491e-09 6.664777174592e-09 5.326000973582e-09
     2.425920000000e+05 2.428000000000e+03 0.000000000000e+00                   
G10 2026 07 21 19 23 12-5.631452950183e-04 5.208278253122e-12 0.000000000000e+00
     5.426406860352e-03-5.675390625000e+01 3.686046395771e-09-2.353262558054e+00
    -2.875924110413e-06 1.113797473954e-02 7.921829819679e-06 5.153571662912e+03
     2.133000000000e+05 1.573935151100e-07 1.618802443654e+00-6.053596735001e-08
     9.942747054067e-01 2.430781250000e+02-2.265320724044e+00-8.848883540711e-09
     3.098343344151e-10 3.686046395771e-09-2.000000000000e+00 3.000000000000e+00
     2.900000000000e+01 4.000000000000e+00 2.328306436539e-09 7.000000000000e+00
    -8.149072527885e-10-4.656612873077e-10 1.059379428625e-08 1.103035174310e-08
     2.425920000000e+05 2.428000000000e+03 0.000000000000e+00                   
G15 2026 07 21 19 23 12 4.302011511754e-04 3.101519041593e-12 0.000000000000e+00
     3.138542175293e-03-2.390234375000e+01 5.272183893335e-09 8.143004953413e-01
    -1.240521669388e-06 1.702986424789e-02 7.118098437786e-06 5.153469143110e+03
     2.286000000000e+05-2.114102244377e-07 2.477063309092e+00-5.494803190231e-08
     9.447346457958e-01 2.352539062500e+02 1.538019685996e+00-7.720086521784e-09
     2.667968274445e-10 5.272183893335e-09-2.000000000000e+00 2.000000000000e+00
     2.800000000000e+01 4.000000000000e+00-1.071020960808e-08 7.000000000000e+00
    -2.037268131971e-10 6.199115887284e-09 0.000000000000e+00 0.000000000000e+00
     2.425920000000e+05 2.428000000000e+03 0.000000000000e+00                   
G23 2026 07 21 19 24 00 6.713630864397e-04 3.879563337250e-12 0.000000000000e+00
     6.215572357178e-03-5.633203125000e+01 3.785871982478e-09-1.341023304946e+00
    -2.883374691010e-06 6.451410357840e-03 7.847324013710e-06 5.153491129163e+03
     2.259000000000e+05 7.450580596924e-08 1.586021441896e+00-4.749745130539e-08
     9.892027574540e-01 2.426718750000e+02-2.742444557207e+00-8.672983356620e-09
     2.644753021722e-10 3.785871982478e-09-2.000000000000e+00 3.000000000000e+00
     2.800000000000e+01 4.000000000000e+00-8.381903171539e-09 7.000000000000e+00
    -2.037268131971e-10 5.617039278150e-09-5.238689482212e-10-4.947651177645e-10
     2.426400000000e+05 2.428000000000e+03 0.000000000000e+00                   
G28 2026 07 21 19 24 00-4.652071802411e-04 1.087130385713e-11 0.000000000000e+00
    -2.195358276367e-03-2.783593750000e+01 4.659658379189e-09-2.387456631152e-01
    -1.428648829460e-06 5.146471667103e-04 7.589347660542e-06 5.153604504487e+03
     1.980000000000e+05-9.313225746155e-10-2.610614229190e+00-1.117587089539e-08
     9.622330266050e-01 2.342148437500e+02-3.064158295978e-01-8.322790198240e-09
    -2.389385241772e-10 4.659658379189e-09-2.000000000000e+00 3.000000000000e+00
     2.900000000000e+01 4.000000000000e+00-9.313225746155e-09 7.000000000000e+00
    -3.492459654808e-10 5.966285243630e-09-7.566995918751e-10-6.693881005049e-10
     2.426400000000e+05 2.428000000000e+03 0.000000000000e+00                   
G18 2026 07 21 19 24 00-2.988328051288e-04 9.027445457832e-12 0.000000000000e+00
     7.410049438477e-04-2.499609375000e+01 4.320537110570e-09-1.215943063081e-01
    -1.316890120506e-06 6.297619664110e-03 4.460103809834e-06 5.153602302410e+03
     1.683000000000e+05 8.009374141693e-08 5.763612409477e-01 6.984919309616e-08
     9.708433659688e-01 2.980039062500e+02-2.859276022106e+00-8.081351569924e-09
    -5.071639825584e-11 4.320537110570e-09-2.000000000000e+00 3.000000000000e+00
     3.100000000000e+01 4.000000000000e+00-8.381903171539e-09 7.000000000000e+00
    -8.731149137020e-11 5.209585651755e-09-8.440110832453e-10-9.313225746155e-10
     2.426400000000e+05 2.428000000000e+03 0.000000000000e+00                   
G13 2026 07 21 19 24 00 4.185910802335e-04 5.279332526698e-12 8.673617379884e-19
     7.705211639404e-03 5.717187500000e+01 4.473400620806e-09-1.815689698330e+00
     2.887099981308e-06 2.271915087476e-03 1.001544296741e-05 5.153632444315e+03
     1.647000000000e+05 2.793967723846e-09-1.576159713630e+00 4.842877388000e-08
     9.588229323780e-01 1.845117187500e+02 1.819937466763e+00-8.421544311746e-09
    -2.789401904071e-10 4.473400620806e-09-3.000000000000e+00 1.000000000000e+00
     3.100000000000e+01 7.000000000000e+00-8.381903171539e-09 7.000000000000e+00
    -1.164153218269e-10 5.267793312669e-09 1.658918336034e-09 1.949956640601e-09
     2.426400000000e+05 2.428000000000e+03 0.000000000000e+00                   
END OF FILE                                                 COMMENT
