     3.05           N: NAVIGATION       G: GPS              RINEX VERSION / TYPE
PYRINEXCONV 0.1.2 ALDELTUNES            20260721 194438 UTC PGM / RUN BY / DATE
GPSA   9.3132e-09  2.2352e-08  1.5199e-05  1.5140e-05 T 13  IONOSPHERIC CORR
GPSB   1.0035e+05  1.3107e+05  1.6712e+07  1.6318e+07 T 13  IONOSPHERIC CORR
GPUT  5.8207660913e-10-1.483257961e-12 486000 2428   G13  0 TIME SYSTEM CORR
                                                            END OF HEADER
G23 2026 07 21 19 38 54 6.713699549437e-04 3.865352482535e-12 0.000000000000e+00
     2.350000000000e+02-5.500000000000e+01 3.784443351542e-09-1.078388634324e+00
    -2.799555659294e-06 6.449282285757e-03 8.182600140572e-06 5.153731872559e+03
     2.448000000000e+05 1.247972249985e-07 1.586007768001e+00-2.421438694000e-08
     9.892031268408e-01 2.343125000000e+02-2.742548403178e+00-7.688177386305e-09
     2.385813664430e-10 1.000000000000e+00 3.800000000000e+02 0.000000000000e+00
     2.000000000000e+00 0.000000000000e+00-8.381903171539e-09 4.910000000000e+02
     9.741360000000e+05 4.000000000000e+00                                      
G10 2026 07 21 19 38 54-5.631353706121e-04 5.229594535194e-12 0.000000000000e+00
     2.100000000000e+01-5.021875000000e+01 3.647651939345e-09-2.090810642473e+00
    -2.723187208176e-06 1.113622880075e-02 8.065253496170e-06 5.153651956558e+03
     2.448000000000e+05 1.527369022369e-07 1.618788909467e+00-4.097819328308e-08
     9.942752905739e-01 2.377187500000e+02-2.265229385291e+00-7.486026108750e-09
     3.228705917133e-10 1.000000000000e+00 3.800000000000e+02 0.000000000000e+00
     2.000000000000e+00 0.000000000000e+00 2.328306436539e-09 2.100000000000e+01
     9.741360000000e+05 4.000000000000e+00                                      
G32 2026 07 21 19 38 54 1.760222949088e-04 2.012257027673e-11 0.000000000000e+00
     5.800000000000e+01-2.593750000000e+01 4.465543150654e-09 2.752954512520e+00
    -1.326203346252e-06 9.462222107686e-03 7.076188921928e-06 5.153571947098e+03
     2.448000000000e+05 1.303851604462e-08 2.641925636842e+00-1.620501279831e-07
     9.696900993706e-01 2.452187500000e+02-1.973074315196e+00-7.767109245562e-09
     2.160804291886e-10 1.000000000000e+00 3.800000000000e+02 0.000000000000e+00
     2.000000000000e+00 0.000000000000e+00 9.313225746155e-10 5.800000000000e+01
     9.741360000000e+05 4.000000000000e+00                                      
G24 2026 07 21 19 38 54 1.230346970260e-04 1.864464138635e-11 0.000000000000e+00
     4.600000000000e+01-1.887500000000e+01 5.510586680911e-09 3.316050362694e-01
    -7.804483175278e-07 1.843684958294e-02 7.307156920433e-06 5.153624834061e+03
     2.448000000000e+05-2.086162567139e-07-2.697490823309e+00 1.378357410431e-07
     9.354952553152e-01 2.266875000000e+02 1.162324498315e+00-8.735006705234e-09
    -2.853690296227e-10 1.000000000000e+00 3.800000000000e+02 0.000000000000e+00
     2.000000000000e+00 0.000000000000e+00 2.328306436539e-09 4.600000000000e+01
     9.741360000000e+05 4.000000000000e+00                                      
G18 2026 07 21 19 38 54-2.988167107105e-04 8.981260180008e-12 0.000000000000e+00
     4.200000000000e+01-2.621875000000e+01 4.306607958936e-09 1.409982812815e-01
    -1.301988959312e-06 6.297491141595e-03 4.528090357780e-06 5.153620229721e+03
     2.448000000000e+05 1.043081283569e-07 5.763464457257e-01 8.940696716309e-08
     9.708433615800e-01 2.975937500000e+02-2.859316171893e+00-8.232842930954e-09
    -5.500229106620e-11 1.000000000000e+00 3.800000000000e+02 0.000000000000e+00
     2.000000000000e+00 0.000000000000e+00-8.381903171539e-09 2.980000000000e+02
     9.741360000000e+05 4.000000000000e+00                                      
G28 2026 07 21 19 38 54-4.651877097785e-04 1.091393642128e-11 0.000000000000e+00
     1.050000000000e+02-2.515625000000e+01 4.678052002500e-09 2.224699021930e-02
    -1.383945345879e-06 5.146424518898e-04 7.538124918938e-06 5.153617847443e+03
     2.448000000000e+05 0.000000000000e+00-2.610628656488e+00-1.303851604462e-08
     9.622326023588e-01 2.360312500000e+02-3.048529371599e-01-8.012119451221e-09
    -2.382242087088e-10 1.000000000000e+00 3.800000000000e+02 0.000000000000e+00
     2.000000000000e+00 0.000000000000e+00-9.313225746155e-09 3.610000000000e+02
     9.741360000000e+05 4.000000000000e+00                                      
G13 2026 07 21 19 38 54 4.186006262898e-04 5.229594535194e-12 0.000000000000e+00
     4.600000000000e+01 4.715625000000e+01 4.475900724945e-09-1.553092607147e+00
     2.287328243256e-06 2.269064541906e-03 9.654089808464e-06 5.153591703415e+03
     2.448000000000e+05-3.725290298462e-08-1.576174015117e+00 3.911554813385e-08
     9.588223003974e-01 1.908125000000e+02 1.819893168141e+00-7.944616639458e-09
    -2.771544017362e-10 1.000000000000e+00 3.800000000000e+02 0.000000000000e+00
     4.000000000000e+00 6.300000000000e+01-8.381903171539e-09 4.600000000000e+01
     9.741360000000e+05 4.000000000000e+00                                      
G27 2026 07 21 19 38 54 5.392357707024e-07 0.000000000000e+00 0.000000000000e+00
     3.300000000000e+01 6.843750000000e+01 4.638764651739e-09 2.247030230880e+00
     3.349035978317e-06 1.433117908891e-02 5.872920155525e-06 5.153674720764e+03
     2.448000000000e+05-9.872019290924e-08-5.089121733205e-01-2.812594175339e-07
     9.508974200772e-01 2.597187500000e+02 9.005105847147e-01-8.109266354922e-09
     5.071639825584e-11 1.000000000000e+00 3.800000000000e+02 0.000000000000e+00
     2.000000000000e+00 0.000000000000e+00 2.328306436539e-09 3.300000000000e+01
     9.741360000000e+05 4.000000000000e+00                                      
G02 2026 07 21 19 38 54 1.422958448529e-04 7.275957614183e-12 0.000000000000e+00
     3.300000000000e+01-1.056250000000e+01 4.419826960677e-09 2.358289421066e+00
    -6.798654794693e-07 1.689894904848e-02 4.235655069351e-06 5.153732038498e+03
     2.447840000000e+05 2.216547727585e-07 4.670190578812e-01 1.713633537292e-07
     9.620889321000e-01 2.961562500000e+02-7.356850910484e-01-8.009262189347e-09
    -1.992940156814e-10 1.000000000000e+00 3.800000000000e+02 0.000000000000e+00
     2.000000000000e+00 0.000000000000e+00-1.722946763039e-08 3.300000000000e+01
     9.741360000000e+05 4.000000000000e+00                                      
G27 2026 07 21 19 39 12 5.404872354120e-07-7.105427357601e-15 0.000000000000e+00
    -5.807399749756e-03 6.066015625000e+01 4.685730893786e-09 1.984407900703e+00
     3.067776560783e-06 1.433300302597e-02 5.996786057949e-06 5.153547549193e+03
     2.205000000000e+05-2.244487404823e-07-5.088974066254e-01-2.020969986916e-07
     9.508968605111e-01 2.573515625000e+02 9.005836582042e-01-8.118495974280e-09
     3.303709041314e-11 4.685730893786e-09-2.000000000000e+00 1.000000000000e+00
     2.800000000000e+01 4.000000000000e+00 2.328306436539e-09 7.000000000000e+00
    -9.022187441587e-10-1.688022166491e-09 6.664777174592e-09 5.326000973582e-09
     2.435520000000e+05 2.428000000000e+03 0.000000000000e+00                   
G24 2026 07 21 19 42 24 1.230011112057e-04 1.860200882220e-11 0.000000000000e+00
     2.012729644775e-03-2.229687500000e+01 5.511479575247e-09 6.901511119069e-02
    -1.085922122002e-06 1.843649381772e-02 7.287599146366e-06 5.153598454599e+03
     1.980000000000e+05-1.536682248116e-07-2.697475302479e+00 1.825392246246e-07
     9.354957300321e-01 2.269843750000e+02 1.162361221216e+00-7.584723740524e-09
    -2.426886803862e-10 5.511479575247e-09-2.000000000000e+00 3.000000000000e+00
     2.900000000000e+01 4.000000000000e+00 2.328306436539e-09 7.000000000000e+00
     2.910383045673e-11-1.426087692380e-09 1.484295353293e-09 2.764863893390e-09
     2.437440000000e+05 2.428000000000e+03 0.000000000000e+00                   
G12 2026 07 21 19 42 24-6.054465193301e-04 5.577760475717e-13 0.000000000000e+00
     8.225917816162e-03 7.096875000000e+01 4.465364571787e-09-1.680149320826e+00
     3.569759428501e-06 8.708002802450e-03 9.724870324135e-06 5.153517565209e+03
     2.025000000000e+05 5.681067705154e-08-1.467642432033e+00 1.946464180946e-07
     9.583081293116e-01 1.906875000000e+02 1.587381576083e+00-8.431544728303e-09
    -2.375098932404e-10 4.465364571787e-09-2.000000000000e+00 3.000000000000e+00
     2.900000000000e+01 4.000000000000e+00-1.257285475731e-08 7.000000000000e+00
    -6.984919309616e-10 7.072230800986e-09 0.000000000000e+00 0.000000000000e+00
     2.437440000000e+05 2.428000000000e+03 0.000000000000e+00                   
G23 2026 07 21 19 44 00 6.713630864397e-04 3.879563337250e-12 0.000000000000e+00
     6.215572357178e-03-5.633203125000e+01 3.785871982478e-09-1.341023304946e+00
    -2.883374691010e-06 6.451410357840e-03 7.847324013710e-06 5.153491129163e+03
     2.259000000000e+05 7.450580596924e-08 1.586021441896e+00-4.749745130539e-08
     9.892027574540e-01 2.426718750000e+02-2.742444557207e+00-8.672983356620e-09
     2.644753021722e-10 3.785871982478e-09-2.000000000000e+00 3.000000000000e+00
     2.800000000000e+01 4.000000000000e+00-8.381903171539e-09 7.000000000000e+00
    -2.037268131971e-10 5.617039278150e-09-5.238689482212e-10-4.947651177645e-10
     2.438400000000e+05 2.428000000000e+03 0.000000000000e+00                   
G28 2026 07 21 19 44 00-4.652071802411e-04 1.087130385713e-11 0.000000000000e+00
    -2.195358276367e-03-2.783593750000e+01 4.659658379189e-09-2.387456631152e-01
    -1.428648829460e-06 5.146471667103e-04 7.589347660542e-06 5.153604504487e+03
     1.980000000000e+05-9.313225746155e-10-2.610614229190e+00-1.117587089539e-08
     9.622330266050e-01 2.342148437500e+02-3.064158295978e-01-8.322790198240e-09
    -2.389385241772e-10 4.659658379189e-09-2.000000000000e+00 3.000000000000e+00
     2.900000000000e+01 4.000000000000e+00-9.313225746155e-09 7.000000000000e+00
    -3.492459654808e-10 5.966285243630e-09-7.566995918751e-10-6.693881005049e-10
     2.438400000000e+05 2.428000000000e+03 0.000000000000e+00                   
G18 2026 07 21 19 44 00-2.988328051288e-04 9.027445457832e-12 0.000000000000e+00
     7.410049438477e-04-2.499609375000e+01 4.320537110570e-09-1.215943063081e-01
    -1.316890120506e-06 6.297619664110e-03 4.460103809834e-06 5.153602302410e+03
     1.683000000000e+05 8.009374141693e-08 5.763612409477e-01 6.984919309616e-08
     9.708433659688e-01 2.980039062500e+02-2.859276022106e+00-8.081351569924e-09
    -5.071639825584e-11 4.320537110570e-09-2.000000000000e+00 3.000000000000e+00
     3.100000000000e+01 4.000000000000e+00-8.381903171539e-09 7.000000000000e+00
    -8.731149137020e-11 5.209585651755e-09-8.440110832453e-10-9.313225746155e-10
     2.438400000000e+05 2.428000000000e+03 0.000000000000e+00                   
G32 2026 07 21 19 44 00 1.759861188475e-04 2.017586098191e-11 0.000000000000e+00
    -3.537178039551e-03-2.734375000000e+01 4.475007830610e-09 2.490273781190e+00
    -1.343898475170e-06 9.462871181313e-03 7.006339728832e-06 5.153650468585e+03
     1.836000000000e+05 4.656612873077e-09 2.641939473852e+00-2.197921276093e-07
     9.696895602853e-01 2.500312500000e+02-1.972956681222e+00-8.530298841808e-09
     2.326882638287e-10 4.475007830610e-09-2.000000000000e+00 3.000000000000e+00
     3.000000000000e+01 4.000000000000e+00 9.313225746155e-10 7.000000000000e+00
    -2.910383045673e-10-1.891748979688e-09 8.614733815193e-09 9.051291272044e-09
     2.438400000000e+05 2.428000000000e+03 0.000000000000e+00                   
G10 2026 07 21 19 44 00-5.631452950183e-04 5.208278253122e-12 0.000000000000e+00
     5.426406860352e-03-5.675390625000e+01 3.686046395771e-09-2.353262558054e+00
    -2.875924110413e-06 1.113797473954e-02 7.921829819679e-06 5.153571662912e+03
     2.133000000000e+05 1.573935151100e-07 1.618802443654e+00-6.053596735001e-08
     9.942747054067e-01 2.430781250000e+02-2.265320724044e+00-8.848883540711e-09
     3.098343344151e-10 3.686046395771e-09-2.000000000000e+00 3.000000000000e+00
     2.900000000000e+01 4.000000000000e+00 2.328306436539e-09 7.000000000000e+00
    -8.149072527885e-10-4.656612873077e-10 1.059379428625e-08 1.103035174310e-08
     2.438400000000e+05 2.428000000000e+03 0.000000000000e+00                   
G13 2026 07 21 19 44 48 4.185910802335e-04 5.279332526698e-12 8.673617379884e-19
     7.705211639404e-03 5.717187500000e+01 4.473400620806e-09-1.815689698330e+00
     2.887099981308e-06 2.271915087476e-03 1.001544296741e-05 5.153632444315e+03
     1.647000000000e+05 2.793967723846e-09-1.576159713630e+00 4.842877388000e-08
     9.588229323780e-01 1.845117187500e+02 1.819937466763e+00-8.421544311746e-09
    -2.789401904071e-10 4.473400620806e-09-3.000000000000e+00 1.000000000000e+00
     3.100000000000e+01 7.000000000000e+00-8.381903171539e-09 7.000000000000e+00
    -1.164153218269e-10 5.267793312669e-09 1.658918336034e-09 1.949956640601e-09
     2.438880000000e+05 2.428000000000e+03 0.000000000000e+00                   
END OF FILE                                                 COMMENT
