     3.05           O: OBSERVATION      M: MIXED            RINEX VERSION / TYPE
PYRINEXCONV 0.1.2 ALDELTUNES            20260721 152541 UTC PGM / RUN BY / DATE
UNKN                                                        MARKER NAME
NONE                                                        MARKER TYPE
                                                            OBSERVER / AGENCY
                                                            REC # / TYPE / VERS
                                                            ANT # / TYPE
   112732.5999 -5325854.1106  3496021.9082                  APPROX POSITION XYZ
        0.0000        0.0000        0.0000                  ANTENNA: DELTA H/E/N
G    8 C1C L1C D1C S1C C2L L2L D2L S2L                      SYS / # / OBS TYPES
E    8 C1C L1C D1C S1C C7Q L7Q D7Q S7Q                      SYS / # / OBS TYPES
C    4 C2I L2I D2I S2I                                      SYS / # / OBS TYPES
R    8 C1C L1C D1C S1C C2C L2C D2C S2C                      SYS / # / OBS TYPES
S    4 C1C L1C D1C S1C                                      SYS / # / OBS TYPES
DBHZ                                                        SIGNAL STRENGTH UNIT
3993636359.002                                                  INTERVAL
  2026     7    21    15    25   59.0020000     GPS         TIME OF FIRST OBS
  2026     7    21    15    25   59.0020000     GPS         TIME OF LAST OBS
  6 R01  1 R02 -4 R08  6 R17  4 R23  3 R24  2               GLONASS SLOT / FRQ
 C1C    0.000 C1P    0.000 C2C    0.000 C2P    0.000        GLONASS COD/PHS/BIS
          18  2428     2GPS                                 LEAPSECONDS
    33                                                      # OF SATELLITES
                                                            END OF HEADER
> 2026  7 21 15 25 59.0020000  0 33                           
G20  21450510.343   112723182.1830       -212.038          26.000    21450505.020    87836231.8100       -164.844          35.000  
G05  21690364.925   113983513.9570      -2321.949          37.000                                                                  
E04  25506018.393   134034964.6150       -618.219          29.000    25506021.629   102702174.4100       -473.731          37.000  
E06  25142868.336   132126706.7100        740.662          41.000    25142867.430   101239934.0910        567.749          36.000  
G29  21061611.719   110679557.9860       -230.325          29.000    21061615.837    86243795.5671       -186.795          22.000  
G18  23496333.720   123474144.9650       1864.754          31.000    23496325.617    96213516.3240       1452.089          27.000  
C35  24308183.286   126579116.2520      -2760.645          30.000  
C22  22247483.335   115848474.7770      -1370.953          35.000  
C31  21973022.872   114419315.1450       -326.778          27.000  
C21  23608507.676   122935727.0820       1637.305          35.000  
C14  25354039.020   132025134.0541       2426.333          25.000  
C19  26148605.180   136162645.5790      -3568.531          30.000  
R01  20010493.759   106967632.4010      -1825.637          35.000                                                                  
R24  20312778.467   108621554.0791         85.747          24.000    20312784.276    84483441.5090         66.950          30.000  
R08  23573099.813   126232878.6691      -4563.081          19.000                                                                  
R23  23346222.394   124886547.1181      -3257.558          18.000                                                                  
E10  26271550.216   138057916.5700      -1737.143          45.000    26271552.913   105784649.2760      -1331.184          36.000  
G11  24790803.341   130276560.5990      -2928.149          26.000    24790795.500   101514163.1451      -2281.128          23.000  
S31  38359748.007   201581832.1080       -551.613          30.000  
S35  38799566.769   203893099.3600       -546.812          29.000  
E09  25689363.673   134998646.6970       1851.871          38.000    25689365.291   103440437.3250       1418.860          29.000  
C34  24236694.975   126206863.1600       1996.141          34.000  
R02  20836678.231   111188426.2180       2212.388          27.000    20836674.928    86479935.7301       1721.971          20.000  
E11  23051885.845   121138536.8550       -930.295          26.000    23051884.601    92820394.4410       -711.512          26.000  
E18  18095181.575    95090943.6420      -4154.873          37.000    18095179.372    72861803.5490      -3183.160          26.000  
G15  21364618.851   112271723.0920       1865.814          36.000    21364615.979    87484535.0260       1454.002          27.000  
E25  27050236.488   142149963.2830      -3055.587          28.000    27050234.892   108920086.0311      -2341.322          26.000  
E28  26815965.046   140918823.0320      -1755.356          29.000    26815977.366   107976817.3420      -1345.556          26.000  
G23  24318915.360   127796714.8730       1905.640          30.000                                                                  
G21  24004427.183   126144087.0480      -3464.409          34.000    24004427.115    98294095.1620      -2699.494          30.000  
E36  25599827.094   134527999.1961        655.354          25.000    25599832.516   103079905.7930        500.688          32.000  
E02  26937298.069   141556463.5440      -1246.213          33.000    26937302.965   108465343.9340       -954.774          31.000  
R17                                                                  22570961.103    93941377.3271       2061.789          18.000  
